{
"type": "FeatureCollection",
"name": "aichi",
"crs": { "type": "name", "properties": { "name": "urn:ogc:def:crs:OGC:1.3:CRS84" } },
"features": [
{ "type": "Feature", "properties": { "hokenjo": "衣浦東部" }, "geometry": { "type": "MultiPolygon", "coordinates": [ [ [ [ 136.945562699999982, 34.820022 ], [ 136.9571363, 34.8276014 ], [ 136.954891799999984, 34.8304894 ], [ 136.9460166, 34.8248451 ], [ 136.945562699999982, 34.820022 ] ] ], [ [ [ 137.036557499999986, 34.8901622 ], [ 137.0404342, 34.8961289 ], [ 137.0462803, 34.8945936 ], [ 137.0483956, 34.9006028 ], [ 137.060105599999986, 34.9078339 ], [ 137.063048899999984, 34.9138408 ], [ 137.067513099999985, 34.9127006 ], [ 137.066775299999989, 34.9060778 ], [ 137.062898599999983, 34.9001475 ], [ 137.0647258, 34.8888994 ], [ 137.089492799999988, 34.8903456 ], [ 137.0978072, 34.8940933 ], [ 137.1059128, 34.9004289 ], [ 137.1079881, 34.9041047 ], [ 137.10548559999998, 34.9117153 ], [ 137.1108903, 34.919778099999988 ], [ 137.1192283, 34.9270942 ], [ 137.115105799999981, 34.9297767 ], [ 137.111620599999981, 34.936689199999989 ], [ 137.108596100000028, 34.9354319 ], [ 137.105763199999984, 34.9438537 ], [ 137.116462499999983, 34.9563533 ], [ 137.1166772, 34.9613503 ], [ 137.1199528, 34.9645131 ], [ 137.1153797, 34.9697575 ], [ 137.125016099999982, 34.9773169 ], [ 137.1191025, 34.9817322 ], [ 137.1163675, 34.9913469 ], [ 137.112106899999986, 35.0020631 ], [ 137.1007222, 35.0087803 ], [ 137.0943753, 35.0074319 ], [ 137.0850561, 35.0098306 ], [ 137.077693899999986, 35.0080939 ], [ 137.0728092, 35.017835 ], [ 137.067933899999986, 35.0124844 ], [ 137.0619456, 35.0095908 ], [ 137.0584728, 35.0125631 ], [ 137.047925599999985, 35.0142975 ], [ 137.044742499999984, 35.0199831 ], [ 137.039713299999988, 35.0218147 ], [ 137.049023299999988, 35.0284161 ], [ 137.045974699999988, 35.0331597 ], [ 137.0495833, 35.0356017 ], [ 137.057008599999989, 35.0487475 ], [ 137.0633919, 35.0507667 ], [ 137.064511899999985, 35.0574025 ], [ 137.068389699999983, 35.057291899999989 ], [ 137.083497199999982, 35.0584986 ], [ 137.0896592, 35.0615792 ], [ 137.0958453, 35.0594739 ], [ 137.102211899999986, 35.0642167 ], [ 137.102090299999986, 35.0724728 ], [ 137.1049811, 35.0836775 ], [ 137.113095, 35.0944936 ], [ 137.1115814, 35.0971692 ], [ 137.11618439999998, 35.1042922 ], [ 137.1208703, 35.1149383 ], [ 137.1300803, 35.1196183 ], [ 137.128085, 35.1230428 ], [ 137.1205544, 35.1250714 ], [ 137.1148311, 35.1314558 ], [ 137.1048333, 35.1317061 ], [ 137.1036222, 35.136086899999988 ], [ 137.0974942, 35.1446506 ], [ 137.0881369, 35.1392225 ], [ 137.0906617, 35.1323222 ], [ 137.08445420000001, 35.1253411 ], [ 137.0892758, 35.1231236 ], [ 137.0853358, 35.1047656 ], [ 137.08792889999998, 35.1012261 ], [ 137.0819994, 35.0974308 ], [ 137.078256399999987, 35.0986306 ], [ 137.0712278, 35.0955947 ], [ 137.065969199999984, 35.0966078 ], [ 137.0556736, 35.0910419 ], [ 137.0499375, 35.0758167 ], [ 137.0450447, 35.0692047 ], [ 137.0429144, 35.0678733 ], [ 137.0426742, 35.062535 ], [ 137.0338653, 35.0531792 ], [ 137.0253375, 35.0494808 ], [ 137.0172081, 35.0397442 ], [ 137.005347799999981, 35.0335286 ], [ 137.0016503, 35.0270414 ], [ 136.9978444, 35.0236233 ], [ 136.9906322, 35.0223331 ], [ 136.9875897, 35.0155719 ], [ 136.988191699999987, 35.00901 ], [ 136.98104189999998, 35.0014947 ], [ 136.9815481, 34.9927317 ], [ 136.9788883, 34.9841811 ], [ 136.9824619, 34.97218 ], [ 136.9832633, 34.9559936 ], [ 136.9832456, 34.9558078 ], [ 136.986386, 34.9519808 ], [ 136.981563300000033, 34.9442017 ], [ 136.9794306, 34.9333486 ], [ 136.982149099999987, 34.9293897 ], [ 136.977803, 34.9150343 ], [ 136.977616, 34.9073362 ], [ 136.9773516, 34.8946085 ], [ 136.9706067, 34.8774783 ], [ 136.9748583, 34.8728319 ], [ 136.9686046, 34.8717256 ], [ 136.955289599999986, 34.8548406 ], [ 136.9646579, 34.8529862 ], [ 136.964213299999983, 34.8502633 ], [ 136.954217699999987, 34.8483321 ], [ 136.956743499999988, 34.83329 ], [ 136.964418099999989, 34.8227574 ], [ 136.9707429, 34.8206803 ], [ 136.9995839, 34.8658386 ], [ 137.0071106, 34.8721183 ], [ 137.0207917, 34.8779128 ], [ 137.032693599999988, 34.8858069 ], [ 137.036557499999986, 34.8901622 ] ] ] ] } },
{ "type": "Feature", "properties": { "hokenjo": "一宮市" }, "geometry": { "type": "MultiPolygon", "coordinates": [ [ [ [ 136.834039, 35.3559446 ], [ 136.8171307, 35.3593213 ], [ 136.804232, 35.3601416 ], [ 136.7928868, 35.3634577 ], [ 136.794455699999986, 35.3683346 ], [ 136.775673499999982, 35.3696016 ], [ 136.7681154, 35.3669018 ], [ 136.7591118, 35.3571949 ], [ 136.750100299999986, 35.3365391 ], [ 136.7365208, 35.3159524 ], [ 136.7282975, 35.2996857 ], [ 136.719383599999986, 35.2887516 ], [ 136.7103833, 35.2826994 ], [ 136.7045761, 35.2755766 ], [ 136.716779, 35.2715586 ], [ 136.721499, 35.2716915 ], [ 136.7363291, 35.268175 ], [ 136.740259399999985, 35.2581302 ], [ 136.7501675, 35.2639531 ], [ 136.7511553, 35.2663508 ], [ 136.7600294, 35.2678419 ], [ 136.7611272, 35.2637033 ], [ 136.775848599999989, 35.2603208 ], [ 136.7788119, 35.2632592 ], [ 136.7862314, 35.2633719 ], [ 136.7911144, 35.2684261 ], [ 136.8035864, 35.2709658 ], [ 136.807431899999983, 35.2763533 ], [ 136.8228689, 35.2758147 ], [ 136.828848599999986, 35.26931 ], [ 136.829281899999984, 35.2618369 ], [ 136.8331336, 35.2597008 ], [ 136.8367719, 35.2506406 ], [ 136.8431842, 35.2517694 ], [ 136.84316, 35.2597656 ], [ 136.8506844, 35.2646881 ], [ 136.8438253, 35.2711806 ], [ 136.8489975, 35.27978 ], [ 136.856392799999981, 35.2798383 ], [ 136.8643789, 35.2905886 ], [ 136.8650611, 35.2966436 ], [ 136.8727164, 35.2976906 ], [ 136.877253599999989, 35.30227 ], [ 136.8716689, 35.3046325 ], [ 136.8723067, 35.3080169 ], [ 136.8668525, 35.3119056 ], [ 136.8548453, 35.3168897 ], [ 136.8568731, 35.3220044 ], [ 136.8455869, 35.329593599999988 ], [ 136.844188299999985, 35.3366087 ], [ 136.8415075, 35.3374897 ], [ 136.841804, 35.3455327 ], [ 136.834039, 35.3559446 ] ] ] ] } },
{ "type": "Feature", "properties": { "hokenjo": "岡崎市" }, "geometry": { "type": "MultiPolygon", "coordinates": [ [ [ [ 137.385147200000034, 34.9907472 ], [ 137.375114699999983, 34.9979014 ], [ 137.3765683, 35.0014403 ], [ 137.3707594, 35.0154625 ], [ 137.3548717, 35.0143125 ], [ 137.3475828, 35.0153111 ], [ 137.345754699999986, 35.0093031 ], [ 137.3285522, 35.0174203 ], [ 137.319557799999984, 35.0155192 ], [ 137.315346399999981, 35.0204072 ], [ 137.3088069, 35.0161983 ], [ 137.300025799999986, 35.0167278 ], [ 137.2960364, 35.0188133 ], [ 137.2891108, 35.0179553 ], [ 137.2823761, 35.0208794 ], [ 137.2733194, 35.0284294 ], [ 137.2703061, 35.0280781 ], [ 137.266490600000026, 35.0195039 ], [ 137.2615194, 35.0168 ], [ 137.2556069, 35.0281719 ], [ 137.242592799999983, 35.0289358 ], [ 137.2370272, 35.0392742 ], [ 137.2254428, 35.0401247 ], [ 137.2176283, 35.037675 ], [ 137.2124653, 35.0414856 ], [ 137.2077692, 35.0330297 ], [ 137.1991131, 35.034290299999988 ], [ 137.1927647, 35.0382581 ], [ 137.1857583, 35.0313214 ], [ 137.1772753, 35.0349014 ], [ 137.170504199999982, 35.0348589 ], [ 137.1597525, 35.0262231 ], [ 137.160395, 35.0167425 ], [ 137.1661014, 35.0029511 ], [ 137.160205599999983, 34.9965381 ], [ 137.1478822, 34.9924978 ], [ 137.142740799999984, 34.9924842 ], [ 137.1408619, 34.9978936 ], [ 137.129781399999985, 34.9989889 ], [ 137.122960799999987, 34.99061 ], [ 137.1163675, 34.9913469 ], [ 137.1191025, 34.9817322 ], [ 137.125016099999982, 34.9773169 ], [ 137.1153797, 34.9697575 ], [ 137.1199528, 34.9645131 ], [ 137.1166772, 34.9613503 ], [ 137.116462499999983, 34.9563533 ], [ 137.105763199999984, 34.9438537 ], [ 137.108596100000028, 34.9354319 ], [ 137.111620599999981, 34.936689199999989 ], [ 137.115105799999981, 34.9297767 ], [ 137.1192283, 34.9270942 ], [ 137.1108903, 34.919778099999988 ], [ 137.10548559999998, 34.9117153 ], [ 137.1079881, 34.9041047 ], [ 137.114786899999984, 34.8999686 ], [ 137.112896399999983, 34.8958461 ], [ 137.115212499999984, 34.8907625 ], [ 137.112846099999985, 34.8878425 ], [ 137.106335, 34.8871856 ], [ 137.103091399999983, 34.8788522 ], [ 137.117291099999989, 34.8798883 ], [ 137.1285619, 34.8895022 ], [ 137.1378183, 34.8905156 ], [ 137.1535867, 34.8868211 ], [ 137.1581603, 34.8891639 ], [ 137.1617986, 34.9003669 ], [ 137.1671208, 34.9056569 ], [ 137.1769947, 34.9097136 ], [ 137.1929231, 34.9054036 ], [ 137.1957964, 34.9008544 ], [ 137.2031322, 34.8990347 ], [ 137.2082619, 34.8923917 ], [ 137.2023561, 34.8906706 ], [ 137.2006692, 34.8846417 ], [ 137.2037075, 34.8806978 ], [ 137.2108125, 34.8778664 ], [ 137.209711699999986, 34.8720875 ], [ 137.2121419, 34.8676369 ], [ 137.2256256, 34.8701058 ], [ 137.2323356, 34.864605 ], [ 137.238775, 34.8667589 ], [ 137.256349699999987, 34.8609789 ], [ 137.2561567, 34.8693194 ], [ 137.2627453, 34.8755556 ], [ 137.2630614, 34.8817714 ], [ 137.2682742, 34.8852514 ], [ 137.274351699999983, 34.8850289 ], [ 137.27852, 34.8813411 ], [ 137.2914533, 34.8823589 ], [ 137.2968425, 34.8862875 ], [ 137.3034736, 34.8777397 ], [ 137.3128294, 34.8838214 ], [ 137.3355722, 34.8911022 ], [ 137.350025599999981, 34.8982817 ], [ 137.3520897, 34.8915956 ], [ 137.3585061, 34.89117 ], [ 137.3609456, 34.8857675 ], [ 137.3668106, 34.8895781 ], [ 137.3772289, 34.8934469 ], [ 137.3822864, 34.8878933 ], [ 137.3885114, 34.8869528 ], [ 137.3940122, 34.8833383 ], [ 137.4045044, 34.8940444 ], [ 137.4036614, 34.9021008 ], [ 137.4116464, 34.9073119 ], [ 137.4205461, 34.9097458 ], [ 137.421057499999989, 34.9157092 ], [ 137.417123299999986, 34.9234967 ], [ 137.411165, 34.9276572 ], [ 137.4124156, 34.9305275 ], [ 137.4096231, 34.9376514 ], [ 137.412630299999989, 34.9422033 ], [ 137.4034292, 34.9485844 ], [ 137.4020875, 34.9514847 ], [ 137.4080433, 34.9582131 ], [ 137.4024581, 34.9592281 ], [ 137.3917825, 34.965945 ], [ 137.400246899999985, 34.9757792 ], [ 137.405559399999987, 34.9787875 ], [ 137.4003511, 34.9820225 ], [ 137.390605599999986, 34.9828889 ], [ 137.385147200000034, 34.9907472 ] ] ] ] } },
{ "type": "Feature", "properties": { "hokenjo": "江南" }, "geometry": { "type": "MultiPolygon", "coordinates": [ [ [ [ 136.8438253, 35.2711806 ], [ 136.8506844, 35.2646881 ], [ 136.8600683, 35.2648625 ], [ 136.8743833, 35.2583828 ], [ 136.880684699999989, 35.2665806 ], [ 136.884967499999988, 35.2751508 ], [ 136.8858203, 35.2832608 ], [ 136.8831022, 35.2894939 ], [ 136.8840069, 35.2993742 ], [ 136.887523099999981, 35.3045725 ], [ 136.8958831, 35.3066386 ], [ 136.9071936, 35.3202022 ], [ 136.921753099999989, 35.3192858 ], [ 136.9269808, 35.3213658 ], [ 136.938040299999983, 35.3215481 ], [ 136.939755599999984, 35.3233108 ], [ 136.950331399999982, 35.3229044 ], [ 136.9473214, 35.3133753 ], [ 136.964775, 35.3166444 ], [ 136.969368299999985, 35.3222764 ], [ 136.978888899999987, 35.3247197 ], [ 136.9852689, 35.3212842 ], [ 136.989156399999985, 35.3306125 ], [ 136.994835, 35.3300514 ], [ 137.000751399999984, 35.3321681 ], [ 137.012158100000022, 35.3316928 ], [ 137.012879699999985, 35.3348347 ], [ 137.032448599999981, 35.3337744 ], [ 137.0415194, 35.3361655 ], [ 137.0462291, 35.339442399999989 ], [ 137.046311299999985, 35.3395413 ], [ 137.0466425, 35.3485144 ], [ 137.0498498, 35.3596005 ], [ 137.045090099999982, 35.3674132 ], [ 137.0339817, 35.368046 ], [ 137.0282815, 35.3753243 ], [ 137.022995399999985, 35.3750343 ], [ 137.016119600000025, 35.3776662 ], [ 137.0141724, 35.3817709 ], [ 137.0021237, 35.3814806 ], [ 136.9992452, 35.3900484 ], [ 136.9914919, 35.393068 ], [ 136.987312799999984, 35.4019839 ], [ 136.9815736, 35.4015772 ], [ 136.9785767, 35.4064202 ], [ 136.9845947, 35.4118894 ], [ 136.9857245, 35.4245194 ], [ 136.9744162, 35.4216174 ], [ 136.9643726, 35.420939 ], [ 136.9611215, 35.4148926 ], [ 136.9630922, 35.4065527 ], [ 136.961713, 35.3997713 ], [ 136.935120100000034, 35.3882461 ], [ 136.9261464, 35.3810442 ], [ 136.92145, 35.3790295 ], [ 136.908526900000027, 35.3775659 ], [ 136.892717799999986, 35.378089 ], [ 136.886178299999983, 35.3775265 ], [ 136.8780505, 35.3744707 ], [ 136.8649318, 35.3726054 ], [ 136.861262399999987, 35.3683771 ], [ 136.834039, 35.3559446 ], [ 136.841804, 35.3455327 ], [ 136.8415075, 35.3374897 ], [ 136.844188299999985, 35.3366087 ], [ 136.8455869, 35.329593599999988 ], [ 136.8568731, 35.3220044 ], [ 136.8548453, 35.3168897 ], [ 136.8668525, 35.3119056 ], [ 136.8723067, 35.3080169 ], [ 136.8716689, 35.3046325 ], [ 136.877253599999989, 35.30227 ], [ 136.8727164, 35.2976906 ], [ 136.8650611, 35.2966436 ], [ 136.8643789, 35.2905886 ], [ 136.856392799999981, 35.2798383 ], [ 136.8489975, 35.27978 ], [ 136.8438253, 35.2711806 ] ] ] ] } },
{ "type": "Feature", "properties": { "hokenjo": "春日井" }, "geometry": { "type": "MultiPolygon", "coordinates": [ [ [ [ 137.0462291, 35.339442399999989 ], [ 137.0415194, 35.3361655 ], [ 137.032448599999981, 35.3337744 ], [ 137.012879699999985, 35.3348347 ], [ 137.012158100000022, 35.3316928 ], [ 137.000751399999984, 35.3321681 ], [ 136.994835, 35.3300514 ], [ 136.989156399999985, 35.3306125 ], [ 136.9852689, 35.3212842 ], [ 136.978888899999987, 35.3247197 ], [ 136.969368299999985, 35.3222764 ], [ 136.964775, 35.3166444 ], [ 136.9473214, 35.3133753 ], [ 136.950331399999982, 35.3229044 ], [ 136.939755599999984, 35.3233108 ], [ 136.938040299999983, 35.3215481 ], [ 136.9269808, 35.3213658 ], [ 136.921753099999989, 35.3192858 ], [ 136.9071936, 35.3202022 ], [ 136.8958831, 35.3066386 ], [ 136.887523099999981, 35.3045725 ], [ 136.8840069, 35.2993742 ], [ 136.8831022, 35.2894939 ], [ 136.8858203, 35.2832608 ], [ 136.884967499999988, 35.2751508 ], [ 136.880684699999989, 35.2665806 ], [ 136.8820964, 35.2642439 ], [ 136.8962036, 35.2628553 ], [ 136.8973514, 35.2555531 ], [ 136.9023292, 35.2554947 ], [ 136.9086122, 35.2616339 ], [ 136.917183599999987, 35.2652461 ], [ 136.9236894, 35.2633575 ], [ 136.930807499999986, 35.2573181 ], [ 136.9315114, 35.2465803 ], [ 136.9268011, 35.2425692 ], [ 136.9290792, 35.2330842 ], [ 136.9255197, 35.2310836 ], [ 136.9316861, 35.22301 ], [ 136.9398325, 35.2242494 ], [ 136.936592499999989, 35.2161467 ], [ 136.9562267, 35.2174403 ], [ 136.964126099999987, 35.2167919 ], [ 136.97364, 35.2184306 ], [ 136.981445799999989, 35.2252314 ], [ 136.9890183, 35.2267167 ], [ 136.989743299999986, 35.2379047 ], [ 136.9931681, 35.2408594 ], [ 137.0053217, 35.2404114 ], [ 137.01077189999998, 35.2447272 ], [ 137.013644199999987, 35.2516211 ], [ 137.0201406, 35.2523675 ], [ 137.029151899999988, 35.2590028 ], [ 137.0369658, 35.2584053 ], [ 137.0503411, 35.2602289 ], [ 137.0557106, 35.2653225 ], [ 137.0684019, 35.2630356 ], [ 137.0806653, 35.2744753 ], [ 137.081790399999988, 35.2789356 ], [ 137.0962793, 35.2907011 ], [ 137.0920873, 35.2927686 ], [ 137.081310699999989, 35.2921908 ], [ 137.0797837, 35.3067789 ], [ 137.072164, 35.3066528 ], [ 137.0671704, 35.3115011 ], [ 137.064078199999983, 35.3206633 ], [ 137.072978799999987, 35.3264569 ], [ 137.0682177, 35.3356819 ], [ 137.0617574, 35.3390313 ], [ 137.0498986, 35.3343694 ], [ 137.046311299999985, 35.3395413 ], [ 137.0462291, 35.339442399999989 ] ] ] ] } },
{ "type": "Feature", "properties": { "hokenjo": "新城" }, "geometry": { "type": "MultiPolygon", "coordinates": [ [ [ [ 137.7010464, 35.0035389 ], [ 137.7049194, 35.0147561 ], [ 137.71652, 35.0274689 ], [ 137.717348099999981, 35.0351486 ], [ 137.728752499999985, 35.0403369 ], [ 137.740276099999988, 35.0565125 ], [ 137.7547442, 35.0654258 ], [ 137.7684669, 35.0723358 ], [ 137.7756747, 35.077981699999988 ], [ 137.7740583, 35.0841278 ], [ 137.7745586, 35.0926997 ], [ 137.7782683, 35.0996231 ], [ 137.781755, 35.0966381 ], [ 137.792967799999985, 35.0955517 ], [ 137.7951903, 35.1030786 ], [ 137.8013239, 35.1065925 ], [ 137.7983147, 35.1183139 ], [ 137.7973108, 35.1271019 ], [ 137.792003099999988, 35.1290525 ], [ 137.7931369, 35.1352175 ], [ 137.7987344, 35.1354594 ], [ 137.8009875, 35.1308603 ], [ 137.80586169999998, 35.1311244 ], [ 137.8098583, 35.1370256 ], [ 137.8148578, 35.1404728 ], [ 137.812396399999983, 35.1437536 ], [ 137.813569699999988, 35.1510122 ], [ 137.8218608, 35.1480075 ], [ 137.8289633, 35.1519125 ], [ 137.827295, 35.1554819 ], [ 137.821290799999986, 35.1584403 ], [ 137.8254719, 35.1682003 ], [ 137.8181442, 35.1746797 ], [ 137.8104419, 35.1748139 ], [ 137.8031997, 35.1831181 ], [ 137.807400199999989, 35.1878253 ], [ 137.8138143, 35.1862805 ], [ 137.820344799999987, 35.1973049 ], [ 137.8216584, 35.2031891 ], [ 137.82891429999998, 35.204331 ], [ 137.8267482, 35.2159485 ], [ 137.8215194, 35.2156485 ], [ 137.8067763, 35.2098063 ], [ 137.800424599999985, 35.205651 ], [ 137.7834924, 35.205976 ], [ 137.7790952, 35.2027516 ], [ 137.76772, 35.2068949 ], [ 137.7660933, 35.2099971 ], [ 137.768021399999981, 35.2184618 ], [ 137.760379799999981, 35.2207654 ], [ 137.747003899999982, 35.2204849 ], [ 137.7433131, 35.2188718 ], [ 137.735519499999981, 35.2226974 ], [ 137.729420799999986, 35.2209835 ], [ 137.72242, 35.2221002 ], [ 137.7221547, 35.2305229 ], [ 137.7117739, 35.2288743 ], [ 137.705761099999989, 35.2338491 ], [ 137.6998199, 35.2316141 ], [ 137.6940624, 35.2337091 ], [ 137.687223499999988, 35.230726 ], [ 137.6812608, 35.2350885 ], [ 137.678584299999983, 35.2308916 ], [ 137.673634599999986, 35.2311693 ], [ 137.6678785, 35.2272971 ], [ 137.6569709, 35.2282591 ], [ 137.6539151, 35.2267127 ], [ 137.6535098, 35.2175491 ], [ 137.6453862, 35.2140224 ], [ 137.6446167, 35.2090066 ], [ 137.63298469999998, 35.2121985 ], [ 137.626803599999988, 35.2118846 ], [ 137.6030844, 35.2060735 ], [ 137.5914838, 35.199339099999989 ], [ 137.578655199999986, 35.1984691 ], [ 137.581089300000031, 35.1902096 ], [ 137.5751976, 35.1855497 ], [ 137.566636499999987, 35.1880741 ], [ 137.550773199999981, 35.1890507 ], [ 137.5462742, 35.1873403 ], [ 137.5377139, 35.1903272 ], [ 137.5189064, 35.1780697 ], [ 137.5125117, 35.1852564 ], [ 137.4999689, 35.1847319 ], [ 137.4993953, 35.1894333 ], [ 137.5025492, 35.1955397 ], [ 137.49543079999998, 35.1972878 ], [ 137.4869564, 35.1937125 ], [ 137.4823606, 35.1855772 ], [ 137.483180299999987, 35.1795325 ], [ 137.4744708, 35.1699128 ], [ 137.4621864, 35.1601517 ], [ 137.4747764, 35.1500978 ], [ 137.4681814, 35.1410317 ], [ 137.4631703, 35.1389067 ], [ 137.45733, 35.1334492 ], [ 137.4516231, 35.1329631 ], [ 137.4437269, 35.1360847 ], [ 137.44457749999998, 35.1304564 ], [ 137.4484081, 35.1257025 ], [ 137.447736099999986, 35.1196544 ], [ 137.442496399999982, 35.1100981 ], [ 137.4334706, 35.1081919 ], [ 137.4293983, 35.1043583 ], [ 137.4300322, 35.0958378 ], [ 137.434606699999989, 35.0914208 ], [ 137.4336336, 35.0870106 ], [ 137.4427689, 35.0811664 ], [ 137.4463467, 35.0719353 ], [ 137.445309700000024, 35.06357 ], [ 137.439856099999986, 35.0622222 ], [ 137.4316983, 35.0520667 ], [ 137.4302256, 35.0374947 ], [ 137.43547719999998, 35.0302783 ], [ 137.42582969999998, 35.0236092 ], [ 137.4253919, 35.0114361 ], [ 137.4163953, 35.0095297 ], [ 137.4074742, 35.0124133 ], [ 137.3972456, 35.0056067 ], [ 137.3929269, 34.9983819 ], [ 137.3935075, 34.9948611 ], [ 137.385147200000034, 34.9907472 ], [ 137.390605599999986, 34.9828889 ], [ 137.4003511, 34.9820225 ], [ 137.405559399999987, 34.9787875 ], [ 137.400246899999985, 34.9757792 ], [ 137.3917825, 34.965945 ], [ 137.4024581, 34.9592281 ], [ 137.4080433, 34.9582131 ], [ 137.4020875, 34.9514847 ], [ 137.4034292, 34.9485844 ], [ 137.412630299999989, 34.9422033 ], [ 137.4096231, 34.9376514 ], [ 137.4124156, 34.9305275 ], [ 137.411165, 34.9276572 ], [ 137.417123299999986, 34.9234967 ], [ 137.421057499999989, 34.9157092 ], [ 137.4205461, 34.9097458 ], [ 137.4230383, 34.9035408 ], [ 137.428692499999983, 34.8997506 ], [ 137.442935299999988, 34.8963111 ], [ 137.4432981, 34.8921483 ], [ 137.45112, 34.8830461 ], [ 137.4558844, 34.8794017 ], [ 137.459929200000033, 34.8710178 ], [ 137.4549744, 34.8691944 ], [ 137.4526519, 34.8639689 ], [ 137.461324400000024, 34.8587322 ], [ 137.4719992, 34.8613117 ], [ 137.478094199999987, 34.859565 ], [ 137.4816094, 34.8557014 ], [ 137.479186699999985, 34.8485942 ], [ 137.487234199999989, 34.8431217 ], [ 137.4888425, 34.8326603 ], [ 137.4949983, 34.8275847 ], [ 137.498877800000031, 34.8268 ], [ 137.4999683, 34.8312881 ], [ 137.5079494, 34.8349875 ], [ 137.5177969, 34.8358467 ], [ 137.523880599999984, 34.84098 ], [ 137.5343794, 34.8441817 ], [ 137.5388385, 34.8417918 ], [ 137.550998599999986, 34.8494275 ], [ 137.551589399999983, 34.8518644 ], [ 137.5651953, 34.8521375 ], [ 137.574135, 34.8504569 ], [ 137.5870172, 34.85004 ], [ 137.595213299999983, 34.859075 ], [ 137.5975319, 34.8725008 ], [ 137.6091786, 34.8751489 ], [ 137.616252799999984, 34.8753408 ], [ 137.620786399999986, 34.8791083 ], [ 137.6335928, 34.8854864 ], [ 137.6412517, 34.8930833 ], [ 137.6404406, 34.90464 ], [ 137.6478636, 34.912132199999988 ], [ 137.6469631, 34.9187908 ], [ 137.6528414, 34.9254856 ], [ 137.6509983, 34.9333564 ], [ 137.6566617, 34.9382092 ], [ 137.659506099999987, 34.9445764 ], [ 137.6706208, 34.9482739 ], [ 137.675498299999987, 34.9453508 ], [ 137.682895799999983, 34.95495 ], [ 137.6895308, 34.9568061 ], [ 137.6899714, 34.9636422 ], [ 137.6961306, 34.9714294 ], [ 137.704219699999982, 34.9699506 ], [ 137.7072511, 34.9722842 ], [ 137.6999092, 34.9848383 ], [ 137.7081317, 34.9944569 ], [ 137.7020047, 34.9984739 ], [ 137.7010464, 35.0035389 ] ] ] ] } },
{ "type": "Feature", "properties": { "hokenjo": "瀬戸" }, "geometry": { "type": "MultiPolygon", "coordinates": [ [ [ [ 137.0426742, 35.062535 ], [ 137.0429144, 35.0678733 ], [ 137.0450447, 35.0692047 ], [ 137.0499375, 35.0758167 ], [ 137.0556736, 35.0910419 ], [ 137.065969199999984, 35.0966078 ], [ 137.0712278, 35.0955947 ], [ 137.078256399999987, 35.0986306 ], [ 137.0819994, 35.0974308 ], [ 137.08792889999998, 35.1012261 ], [ 137.0853358, 35.1047656 ], [ 137.0892758, 35.1231236 ], [ 137.08445420000001, 35.1253411 ], [ 137.0906617, 35.1323222 ], [ 137.0881369, 35.1392225 ], [ 137.0974942, 35.1446506 ], [ 137.0976819, 35.1555281 ], [ 137.0961222, 35.157175 ], [ 137.0947194, 35.1602606 ], [ 137.0973794, 35.1735953 ], [ 137.0956703, 35.1793875 ], [ 137.0993278, 35.1814533 ], [ 137.106124699999981, 35.1793456 ], [ 137.109185, 35.1857183 ], [ 137.1211969, 35.1852942 ], [ 137.1260561, 35.182415 ], [ 137.1293839, 35.1884747 ], [ 137.1348853, 35.1920322 ], [ 137.1431225, 35.1936139 ], [ 137.1429961, 35.1968958 ], [ 137.1607903, 35.2066472 ], [ 137.1683678, 35.2054197 ], [ 137.172666099999986, 35.2110944 ], [ 137.1733936, 35.2178786 ], [ 137.1809611, 35.2285272 ], [ 137.17754560000003, 35.236287 ], [ 137.180374299999983, 35.2444625 ], [ 137.184152, 35.2499903 ], [ 137.1894881, 35.2525692 ], [ 137.176369, 35.2603964 ], [ 137.1766412, 35.2701164 ], [ 137.165455399999985, 35.2822573 ], [ 137.1589318, 35.2821947 ], [ 137.1525498, 35.2793136 ], [ 137.1458298, 35.2797995 ], [ 137.131594299999989, 35.2936278 ], [ 137.118945699999983, 35.2979014 ], [ 137.101027099999982, 35.3016161 ], [ 137.097766799999988, 35.2971556 ], [ 137.0962793, 35.2907011 ], [ 137.081790399999988, 35.2789356 ], [ 137.0806653, 35.2744753 ], [ 137.0684019, 35.2630356 ], [ 137.0557106, 35.2653225 ], [ 137.0503411, 35.2602289 ], [ 137.0534758, 35.2578261 ], [ 137.054965, 35.2504197 ], [ 137.0598769, 35.2462811 ], [ 137.0520467, 35.2431056 ], [ 137.0493414, 35.2378333 ], [ 137.043779199999989, 35.2415083 ], [ 137.039131699999984, 35.238115 ], [ 137.0194531, 35.2312697 ], [ 137.0108531, 35.2211803 ], [ 137.0067403, 35.2192367 ], [ 137.0015436, 35.2092986 ], [ 137.00800719999998, 35.2064925 ], [ 137.013283299999983, 35.2010411 ], [ 137.0119097, 35.1949861 ], [ 137.019034399999981, 35.1936811 ], [ 137.019802199999987, 35.1984778 ], [ 137.0322578, 35.1918117 ], [ 137.0200075, 35.1907083 ], [ 137.025804199999982, 35.1851197 ], [ 137.026843899999989, 35.1794025 ], [ 137.02402, 35.1738161 ], [ 137.0274647, 35.16873 ], [ 137.022882800000019, 35.1631972 ], [ 137.02702, 35.1561744 ], [ 137.0220578, 35.1532464 ], [ 137.0184253, 35.1470472 ], [ 137.0232844, 35.1398164 ], [ 137.0169608, 35.1364289 ], [ 137.0099936, 35.1368411 ], [ 137.0081583, 35.1312047 ], [ 137.003295799999989, 35.1284011 ], [ 137.014503599999983, 35.1169947 ], [ 137.0199697, 35.1095708 ], [ 137.0211131, 35.1098011 ], [ 137.023444399999988, 35.1027331 ], [ 137.02001, 35.0961006 ], [ 137.0214806, 35.0912236 ], [ 137.0174844, 35.0920994 ], [ 137.009557799999982, 35.0753158 ], [ 137.004739199999989, 35.0720078 ], [ 136.9981242, 35.0741522 ], [ 136.9947156, 35.0718225 ], [ 136.987660299999988, 35.0725547 ], [ 136.9842653, 35.0612758 ], [ 136.976038599999981, 35.0623381 ], [ 136.9724033, 35.0564331 ], [ 136.9738769, 35.0490064 ], [ 136.984496399999983, 35.0427739 ], [ 136.987383599999987, 35.0379994 ], [ 136.99704, 35.0389497 ], [ 137.0016503, 35.0270414 ], [ 137.005347799999981, 35.0335286 ], [ 137.0172081, 35.0397442 ], [ 137.0253375, 35.0494808 ], [ 137.0338653, 35.0531792 ], [ 137.0426742, 35.062535 ] ] ] ] } },
{ "type": "Feature", "properties": { "hokenjo": "清須" }, "geometry": { "type": "MultiPolygon", "coordinates": [ [ [ [ 136.857866699999988, 35.2305608 ], [ 136.8709656, 35.2309536 ], [ 136.874792499999984, 35.2250653 ], [ 136.8992303, 35.2347864 ], [ 136.903044199999982, 35.2403983 ], [ 136.9087269, 35.2403725 ], [ 136.910816899999986, 35.236429199999989 ], [ 136.9204067, 35.2383261 ], [ 136.9268011, 35.2425692 ], [ 136.9315114, 35.2465803 ], [ 136.930807499999986, 35.2573181 ], [ 136.9236894, 35.2633575 ], [ 136.917183599999987, 35.2652461 ], [ 136.9086122, 35.2616339 ], [ 136.9023292, 35.2554947 ], [ 136.8973514, 35.2555531 ], [ 136.8962036, 35.2628553 ], [ 136.8820964, 35.2642439 ], [ 136.880684699999989, 35.2665806 ], [ 136.8743833, 35.2583828 ], [ 136.8600683, 35.2648625 ], [ 136.8506844, 35.2646881 ], [ 136.84316, 35.2597656 ], [ 136.8431842, 35.2517694 ], [ 136.8367719, 35.2506406 ], [ 136.8331336, 35.2597008 ], [ 136.829281899999984, 35.2618369 ], [ 136.828848599999986, 35.26931 ], [ 136.8228689, 35.2758147 ], [ 136.807431899999983, 35.2763533 ], [ 136.8035864, 35.2709658 ], [ 136.7911144, 35.2684261 ], [ 136.7862314, 35.2633719 ], [ 136.7788119, 35.2632592 ], [ 136.775848599999989, 35.2603208 ], [ 136.7611272, 35.2637033 ], [ 136.7600294, 35.2678419 ], [ 136.7511553, 35.2663508 ], [ 136.7501675, 35.2639531 ], [ 136.740259399999985, 35.2581302 ], [ 136.7363291, 35.268175 ], [ 136.721499, 35.2716915 ], [ 136.716779, 35.2715586 ], [ 136.7045761, 35.2755766 ], [ 136.6981036, 35.2619216 ], [ 136.690644099999986, 35.2532149 ], [ 136.6796013, 35.2450299 ], [ 136.677926899999989, 35.2415065 ], [ 136.6798752, 35.2282054 ], [ 136.6865641, 35.2294338 ], [ 136.687120199999981, 35.2341732 ], [ 136.694589899999983, 35.2358716 ], [ 136.709962099999984, 35.230285699999989 ], [ 136.721150199999983, 35.2302316 ], [ 136.717607499999986, 35.223078 ], [ 136.7283578, 35.2198269 ], [ 136.730473599999982, 35.2081097 ], [ 136.72513189999998, 35.2036269 ], [ 136.723711399999985, 35.1994814 ], [ 136.7368434, 35.1937646 ], [ 136.7426556, 35.1947728 ], [ 136.752827199999984, 35.2042575 ], [ 136.7623264, 35.2052806 ], [ 136.7801269, 35.2077736 ], [ 136.794311099999987, 35.2131303 ], [ 136.8064992, 35.2132767 ], [ 136.80851389999998, 35.2175081 ], [ 136.8227403, 35.2153436 ], [ 136.8229792, 35.2041244 ], [ 136.836638599999986, 35.2046514 ], [ 136.837735, 35.1974625 ], [ 136.8438, 35.1938933 ], [ 136.84597, 35.188955 ], [ 136.844396099999983, 35.1825717 ], [ 136.8479806, 35.1805581 ], [ 136.8563006, 35.1881717 ], [ 136.865929699999981, 35.1916611 ], [ 136.8698408, 35.1940017 ], [ 136.878971399999983, 35.2072128 ], [ 136.8785417, 35.2093364 ], [ 136.8683733, 35.2119122 ], [ 136.8656856, 35.2068944 ], [ 136.8601897, 35.2079722 ], [ 136.8646422, 35.2133286 ], [ 136.860357199999982, 35.2152269 ], [ 136.856365300000022, 35.2210956 ], [ 136.857866699999988, 35.2305608 ] ] ] ] } },
{ "type": "Feature", "properties": { "hokenjo": "西尾" }, "geometry": { "type": "MultiPolygon", "coordinates": [ [ [ [ 137.0409511, 34.7324218 ], [ 137.0362881, 34.7315001 ], [ 137.0325081, 34.7230012 ], [ 137.044085500000023, 34.7264961 ], [ 137.0468292, 34.7206178 ], [ 137.050207799999981, 34.7190619 ], [ 137.054668199999981, 34.7267516 ], [ 137.0409511, 34.7324218 ] ] ], [ [ [ 137.170330799999988, 34.8128081 ], [ 137.163694199999981, 34.8149583 ], [ 137.1704267, 34.8215147 ], [ 137.179000799999983, 34.82609 ], [ 137.1800314, 34.8229292 ], [ 137.1869269, 34.8229258 ], [ 137.1995997, 34.825170799999988 ], [ 137.191746099999989, 34.832735 ], [ 137.1915889, 34.8353267 ], [ 137.197995599999985, 34.8414989 ], [ 137.1929544, 34.8481811 ], [ 137.1970906, 34.8531086 ], [ 137.205505599999981, 34.8564167 ], [ 137.2043981, 34.8610931 ], [ 137.2121419, 34.8676369 ], [ 137.209711699999986, 34.8720875 ], [ 137.2108125, 34.8778664 ], [ 137.2037075, 34.8806978 ], [ 137.2006692, 34.8846417 ], [ 137.2023561, 34.8906706 ], [ 137.2082619, 34.8923917 ], [ 137.2031322, 34.8990347 ], [ 137.1957964, 34.9008544 ], [ 137.1929231, 34.9054036 ], [ 137.1769947, 34.9097136 ], [ 137.1671208, 34.9056569 ], [ 137.1617986, 34.9003669 ], [ 137.1581603, 34.8891639 ], [ 137.1535867, 34.8868211 ], [ 137.1378183, 34.8905156 ], [ 137.1285619, 34.8895022 ], [ 137.117291099999989, 34.8798883 ], [ 137.103091399999983, 34.8788522 ], [ 137.106335, 34.8871856 ], [ 137.112846099999985, 34.8878425 ], [ 137.115212499999984, 34.8907625 ], [ 137.112896399999983, 34.8958461 ], [ 137.114786899999984, 34.8999686 ], [ 137.1079881, 34.9041047 ], [ 137.1059128, 34.9004289 ], [ 137.0978072, 34.8940933 ], [ 137.089492799999988, 34.8903456 ], [ 137.0647258, 34.8888994 ], [ 137.062898599999983, 34.9001475 ], [ 137.066775299999989, 34.9060778 ], [ 137.067513099999985, 34.9127006 ], [ 137.063048899999984, 34.9138408 ], [ 137.060105599999986, 34.9078339 ], [ 137.0483956, 34.9006028 ], [ 137.0462803, 34.8945936 ], [ 137.0404342, 34.8961289 ], [ 137.036557499999986, 34.8901622 ], [ 137.032693599999988, 34.8858069 ], [ 137.0207917, 34.8779128 ], [ 137.0071106, 34.8721183 ], [ 136.9995839, 34.8658386 ], [ 136.9707429, 34.8206803 ], [ 136.9905345, 34.8159061 ], [ 136.996974699999981, 34.816472 ], [ 137.0002194, 34.8046753 ], [ 137.005993499999988, 34.7990002 ], [ 137.0121508, 34.7960248 ], [ 137.0115401, 34.792939 ], [ 137.0176787, 34.7902897 ], [ 137.0168372, 34.7859394 ], [ 137.025110700000027, 34.7779411 ], [ 137.0407696, 34.7755989 ], [ 137.0487496, 34.7792637 ], [ 137.062705699999981, 34.7826743 ], [ 137.0696508, 34.7865219 ], [ 137.0762624, 34.787057499999989 ], [ 137.082341300000024, 34.7836135 ], [ 137.088168599999989, 34.7762205 ], [ 137.092643, 34.7779613 ], [ 137.0986498, 34.7835911 ], [ 137.1074236, 34.7876469 ], [ 137.1176653, 34.7900284 ], [ 137.1251124, 34.7828871 ], [ 137.132421599999986, 34.7820425 ], [ 137.1343473, 34.7886265 ], [ 137.145933499999984, 34.7881279 ], [ 137.152587, 34.7813228 ], [ 137.1628079, 34.7868719 ], [ 137.168394399999983, 34.7876233 ], [ 137.169928299999981, 34.7929267 ], [ 137.170330799999988, 34.8128081 ] ] ] ] } },
{ "type": "Feature", "properties": { "hokenjo": "知多" }, "geometry": { "type": "MultiPolygon", "coordinates": [ [ [ [ 136.81537609999998, 34.8720613 ], [ 136.805831499999982, 34.8776422 ], [ 136.7984521, 34.8755766 ], [ 136.8005643, 34.8704074 ], [ 136.806478299999981, 34.8458581 ], [ 136.8069655, 34.8401897 ], [ 136.81420319999998, 34.8402064 ], [ 136.8126413, 34.8467315 ], [ 136.824469599999986, 34.8487437 ], [ 136.823385699999989, 34.8591876 ], [ 136.8206509, 34.8659349 ], [ 136.81537609999998, 34.8720613 ] ] ], [ [ [ 136.865750599999984, 34.9001756 ], [ 136.8694767, 34.9098306 ], [ 136.879788099999985, 34.9181128 ], [ 136.8836053, 34.920465 ], [ 136.8920272, 34.9373175 ], [ 136.89168920000003, 34.9400006 ], [ 136.8806672, 34.9424081 ], [ 136.878756899999985, 34.950825 ], [ 136.885134199999982, 34.9565397 ], [ 136.889305, 34.9551683 ], [ 136.8943458, 34.958795 ], [ 136.9065072, 34.9523597 ], [ 136.910406699999982, 34.9532689 ], [ 136.912450299999989, 34.9593625 ], [ 136.9179667, 34.9627458 ], [ 136.91436, 34.9695828 ], [ 136.916079199999984, 34.9732228 ], [ 136.923272199999985, 34.9758583 ], [ 136.9290292, 34.9833247 ], [ 136.9323494, 34.9837597 ], [ 136.936455, 34.9896494 ], [ 136.946191699999986, 34.9918756 ], [ 136.9485392, 34.9976911 ], [ 136.9528325, 34.9961508 ], [ 136.961808099999985, 35.0034875 ], [ 136.972573899999986, 34.9994692 ], [ 136.98104189999998, 35.0014947 ], [ 136.988191699999987, 35.00901 ], [ 136.9875897, 35.0155719 ], [ 136.9906322, 35.0223331 ], [ 136.9978444, 35.0236233 ], [ 137.0016503, 35.0270414 ], [ 136.99704, 35.0389497 ], [ 136.987383599999987, 35.0379994 ], [ 136.984496399999983, 35.0427739 ], [ 136.9738769, 35.0490064 ], [ 136.9722528, 35.0430644 ], [ 136.9648542, 35.0429311 ], [ 136.961893299999986, 35.0395633 ], [ 136.955772199999984, 35.0478789 ], [ 136.9532031, 35.0447728 ], [ 136.946335, 35.0441931 ], [ 136.9411175, 35.0521564 ], [ 136.9366244, 35.0531981 ], [ 136.9312742, 35.0507428 ], [ 136.925756899999982, 35.0586042 ], [ 136.9244239, 35.0644175 ], [ 136.917774399999985, 35.0629167 ], [ 136.9130472, 35.0684772 ], [ 136.905790599999989, 35.0684072 ], [ 136.9016025, 35.0689242 ], [ 136.883963100000017, 35.0672678 ], [ 136.8863771, 35.0658145 ], [ 136.879219399999982, 35.0473949 ], [ 136.8893009, 35.0454726 ], [ 136.889263299999982, 35.0422535 ], [ 136.870268700000025, 35.0422316 ], [ 136.867675599999984, 35.0400743 ], [ 136.854234700000035, 35.0205012 ], [ 136.85267349999998, 35.0152093 ], [ 136.8705828, 35.0126202 ], [ 136.869788799999981, 35.0083609 ], [ 136.849657399999984, 35.0106197 ], [ 136.843839299999985, 35.0047367 ], [ 136.8543369, 35.0032307 ], [ 136.851507, 34.9982541 ], [ 136.8463102, 34.9989967 ], [ 136.8339374, 34.982269 ], [ 136.8206036, 34.9663946 ], [ 136.828892, 34.9613709 ], [ 136.8262771, 34.9529031 ], [ 136.8267074, 34.945796 ], [ 136.825, 34.9393593 ], [ 136.822804599999984, 34.9356212 ], [ 136.8242818, 34.9305586 ], [ 136.8221892, 34.9150948 ], [ 136.822226699999987, 34.9020273 ], [ 136.8260163, 34.8926079 ], [ 136.821696, 34.8842332 ], [ 136.8274931, 34.8753037 ], [ 136.8327702, 34.8744475 ], [ 136.8368841, 34.8841038 ], [ 136.841079, 34.8778339 ], [ 136.8372186, 34.8758698 ], [ 136.8496289, 34.8699929 ], [ 136.8572155, 34.8620801 ], [ 136.856909799999983, 34.8561138 ], [ 136.8613585, 34.8505822 ], [ 136.8666088, 34.8380113 ], [ 136.8618444, 34.814053 ], [ 136.867075299999982, 34.8126139 ], [ 136.87236, 34.8143314 ], [ 136.8786519, 34.8127706 ], [ 136.8869133, 34.815005299999989 ], [ 136.8825114, 34.8235886 ], [ 136.8846322, 34.8276067 ], [ 136.8845011, 34.84033 ], [ 136.881895, 34.8507372 ], [ 136.888035799999983, 34.8519783 ], [ 136.8914258, 34.8555794 ], [ 136.8881206, 34.8651619 ], [ 136.8814275, 34.8681972 ], [ 136.875688100000019, 34.8783408 ], [ 136.8748961, 34.8829453 ], [ 136.8771922, 34.8881367 ], [ 136.8769011, 34.8963347 ], [ 136.870530799999983, 34.8971233 ], [ 136.865750599999984, 34.9001756 ] ] ], [ [ [ 136.820272099999983, 34.9497688 ], [ 136.8230565, 34.9531841 ], [ 136.8220546, 34.9609392 ], [ 136.818691199999989, 34.9643494 ], [ 136.811019200000032, 34.9547771 ], [ 136.820272099999983, 34.9497688 ] ] ] ] } },
{ "type": "Feature", "properties": { "hokenjo": "津島" }, "geometry": { "type": "MultiPolygon", "coordinates": [ [ [ [ 136.817920099999981, 35.026003 ], [ 136.8389713, 35.0301967 ], [ 136.8309026, 35.049372 ], [ 136.8100369, 35.0493074 ], [ 136.8108535, 35.0266526 ], [ 136.817920099999981, 35.026003 ] ] ], [ [ [ 136.80091, 35.1480403 ], [ 136.80896, 35.1476053 ], [ 136.8094128, 35.1535714 ], [ 136.802625, 35.15418 ], [ 136.80176419999998, 35.1613019 ], [ 136.807800899999989, 35.1681862 ], [ 136.8183636, 35.1646408 ], [ 136.8171831, 35.1589831 ], [ 136.8301902, 35.1572816 ], [ 136.833307499999989, 35.164883599999989 ], [ 136.8355214, 35.1694303 ], [ 136.8411217, 35.1740553 ], [ 136.8479806, 35.1805581 ], [ 136.844396099999983, 35.1825717 ], [ 136.84597, 35.188955 ], [ 136.8438, 35.1938933 ], [ 136.837735, 35.1974625 ], [ 136.836638599999986, 35.2046514 ], [ 136.8229792, 35.2041244 ], [ 136.8227403, 35.2153436 ], [ 136.80851389999998, 35.2175081 ], [ 136.8064992, 35.2132767 ], [ 136.794311099999987, 35.2131303 ], [ 136.7801269, 35.2077736 ], [ 136.7623264, 35.2052806 ], [ 136.752827199999984, 35.2042575 ], [ 136.7426556, 35.1947728 ], [ 136.7368434, 35.1937646 ], [ 136.723711399999985, 35.1994814 ], [ 136.72513189999998, 35.2036269 ], [ 136.730473599999982, 35.2081097 ], [ 136.7283578, 35.2198269 ], [ 136.717607499999986, 35.223078 ], [ 136.721150199999983, 35.2302316 ], [ 136.709962099999984, 35.230285699999989 ], [ 136.694589899999983, 35.2358716 ], [ 136.687120199999981, 35.2341732 ], [ 136.6865641, 35.2294338 ], [ 136.6798752, 35.2282054 ], [ 136.6809594, 35.2237832 ], [ 136.683132699999987, 35.1998302 ], [ 136.6723174, 35.1887774 ], [ 136.671124099999986, 35.1734091 ], [ 136.6739016, 35.1601796 ], [ 136.6743399, 35.152501 ], [ 136.6712263, 35.1398383 ], [ 136.6763933, 35.1288672 ], [ 136.6951947, 35.1246055 ], [ 136.701418099999984, 35.1186129 ], [ 136.7140717, 35.1051669 ], [ 136.7199789, 35.1033689 ], [ 136.7312753, 35.0972811 ], [ 136.741863599999988, 35.085955 ], [ 136.7495739, 35.0807283 ], [ 136.7520472, 35.0717011 ], [ 136.751696899999985, 35.0618233 ], [ 136.7534011, 35.0530156 ], [ 136.760857499999986, 35.0377142 ], [ 136.7727075, 35.02439 ], [ 136.7813717, 35.0181558 ], [ 136.785816899999986, 35.0195506 ], [ 136.793880699999988, 35.0144625 ], [ 136.7966079, 35.0222644 ], [ 136.7807743, 35.0335419 ], [ 136.786139, 35.0356695 ], [ 136.8002468, 35.0288028 ], [ 136.800655, 35.0447097 ], [ 136.7969402, 35.044693099999989 ], [ 136.7969333, 35.0514908 ], [ 136.80667, 35.0515365 ], [ 136.817163599999986, 35.0502136 ], [ 136.8300826, 35.050249799999989 ], [ 136.8336268, 35.0595947 ], [ 136.833607, 35.0639285 ], [ 136.823600199999987, 35.0682516 ], [ 136.8248645, 35.0801035 ], [ 136.8100594, 35.0933789 ], [ 136.797944199999989, 35.0969361 ], [ 136.7980878, 35.1018533 ], [ 136.791969199999983, 35.11226 ], [ 136.794196699999986, 35.1219828 ], [ 136.797572799999983, 35.1219175 ], [ 136.797416400000031, 35.1281653 ], [ 136.8001303, 35.1324756 ], [ 136.80091, 35.1480403 ] ] ] ] } },
{ "type": "Feature", "properties": { "hokenjo": "半田" }, "geometry": { "type": "MultiPolygon", "coordinates": [ [ [ [ 137.0066079, 34.6761076 ], [ 137.0101473, 34.677323 ], [ 137.008373299999988, 34.6856025 ], [ 137.0044906, 34.6779344 ], [ 137.00010709999998, 34.6783904 ], [ 137.00322, 34.6664878 ], [ 137.0066079, 34.6761076 ] ] ], [ [ [ 136.9989041, 34.7004685 ], [ 137.0114036, 34.7045112 ], [ 137.007616399999989, 34.7091397 ], [ 136.997992499999981, 34.7049773 ], [ 136.9989041, 34.7004685 ] ] ], [ [ [ 136.9567687, 34.7377708 ], [ 136.9520013, 34.7380666 ], [ 136.942140099999989, 34.7474352 ], [ 136.9347836, 34.7537937 ], [ 136.927430099999981, 34.757102 ], [ 136.927015499999982, 34.764076599999989 ], [ 136.9195789, 34.7657404 ], [ 136.914798, 34.7700523 ], [ 136.9160197, 34.7829547 ], [ 136.9211058, 34.7931723 ], [ 136.9192074, 34.7980109 ], [ 136.922035099999988, 34.803679099999989 ], [ 136.9213198, 34.8132478 ], [ 136.9253655, 34.8139891 ], [ 136.9268859, 34.8275954 ], [ 136.935395799999981, 34.8300431 ], [ 136.9360093, 34.8358314 ], [ 136.9293695, 34.8390713 ], [ 136.9304382, 34.8485083 ], [ 136.9345625, 34.8484812 ], [ 136.93544559999998, 34.8571217 ], [ 136.9280708, 34.8586109 ], [ 136.9282198, 34.8655318 ], [ 136.940734599999985, 34.8627746 ], [ 136.9457844, 34.869357 ], [ 136.946013099999988, 34.8741627 ], [ 136.939902499999988, 34.8772805 ], [ 136.9441608, 34.8808886 ], [ 136.9627348, 34.8741214 ], [ 136.964193099999989, 34.8765211 ], [ 136.9571781, 34.8811101 ], [ 136.9693087, 34.9012119 ], [ 136.972556900000029, 34.911816 ], [ 136.9752382, 34.9321792 ], [ 136.9800419, 34.9509676 ], [ 136.9832456, 34.9558078 ], [ 136.9832633, 34.9559936 ], [ 136.9824619, 34.97218 ], [ 136.9788883, 34.9841811 ], [ 136.9815481, 34.9927317 ], [ 136.98104189999998, 35.0014947 ], [ 136.972573899999986, 34.9994692 ], [ 136.961808099999985, 35.0034875 ], [ 136.9528325, 34.9961508 ], [ 136.9485392, 34.9976911 ], [ 136.946191699999986, 34.9918756 ], [ 136.936455, 34.9896494 ], [ 136.9323494, 34.9837597 ], [ 136.9290292, 34.9833247 ], [ 136.923272199999985, 34.9758583 ], [ 136.916079199999984, 34.9732228 ], [ 136.91436, 34.9695828 ], [ 136.9179667, 34.9627458 ], [ 136.912450299999989, 34.9593625 ], [ 136.910406699999982, 34.9532689 ], [ 136.9065072, 34.9523597 ], [ 136.8943458, 34.958795 ], [ 136.889305, 34.9551683 ], [ 136.885134199999982, 34.9565397 ], [ 136.878756899999985, 34.950825 ], [ 136.8806672, 34.9424081 ], [ 136.89168920000003, 34.9400006 ], [ 136.8920272, 34.9373175 ], [ 136.8836053, 34.920465 ], [ 136.879788099999985, 34.9181128 ], [ 136.8694767, 34.9098306 ], [ 136.865750599999984, 34.9001756 ], [ 136.870530799999983, 34.8971233 ], [ 136.8769011, 34.8963347 ], [ 136.8771922, 34.8881367 ], [ 136.8748961, 34.8829453 ], [ 136.875688100000019, 34.8783408 ], [ 136.8814275, 34.8681972 ], [ 136.8881206, 34.8651619 ], [ 136.8914258, 34.8555794 ], [ 136.888035799999983, 34.8519783 ], [ 136.881895, 34.8507372 ], [ 136.8845011, 34.84033 ], [ 136.8846322, 34.8276067 ], [ 136.8825114, 34.8235886 ], [ 136.8869133, 34.815005299999989 ], [ 136.8786519, 34.8127706 ], [ 136.87236, 34.8143314 ], [ 136.867075299999982, 34.8126139 ], [ 136.8618444, 34.814053 ], [ 136.8574609, 34.8039709 ], [ 136.8561192, 34.7936178 ], [ 136.84689849999998, 34.7741494 ], [ 136.8420494, 34.7623564 ], [ 136.8452963, 34.7561148 ], [ 136.851841399999984, 34.7485649 ], [ 136.856526299999985, 34.7454943 ], [ 136.8587573, 34.7407629 ], [ 136.8655188, 34.7376808 ], [ 136.8717211, 34.7302867 ], [ 136.8806224, 34.7273826 ], [ 136.8884486, 34.7209733 ], [ 136.897544399999987, 34.7192975 ], [ 136.91017, 34.7144275 ], [ 136.930417, 34.7047803 ], [ 136.9355913, 34.7082043 ], [ 136.9425517, 34.7008567 ], [ 136.9553592, 34.6996621 ], [ 136.9605094, 34.7014494 ], [ 136.9737697, 34.6994138 ], [ 136.97377419999998, 34.705077 ], [ 136.9698603, 34.7102777 ], [ 136.9730059, 34.7169724 ], [ 136.9631786, 34.7187815 ], [ 136.963857500000017, 34.7229366 ], [ 136.969576599999982, 34.7243193 ], [ 136.9643949, 34.7342576 ], [ 136.9567687, 34.7377708 ] ] ] ] } },
{ "type": "Feature", "properties": { "hokenjo": "豊橋市" }, "geometry": { "type": "MultiPolygon", "coordinates": [ [ [ [ 137.3188094, 34.7484917 ], [ 137.3142995, 34.7485695 ], [ 137.3080588, 34.7350512 ], [ 137.318687899999986, 34.7331192 ], [ 137.3188094, 34.7484917 ] ] ], [ [ [ 137.498877800000031, 34.8268 ], [ 137.4949983, 34.8275847 ], [ 137.4888425, 34.8326603 ], [ 137.487234199999989, 34.8431217 ], [ 137.479186699999985, 34.8485942 ], [ 137.4816094, 34.8557014 ], [ 137.478094199999987, 34.859565 ], [ 137.4719992, 34.8613117 ], [ 137.461324400000024, 34.8587322 ], [ 137.460589199999987, 34.8530558 ], [ 137.4558161, 34.8476058 ], [ 137.4460611, 34.8442561 ], [ 137.4383358, 34.8474397 ], [ 137.43549059999998, 34.8438258 ], [ 137.42588, 34.8429178 ], [ 137.42310329999998, 34.8384753 ], [ 137.4306053, 34.8248633 ], [ 137.4372764, 34.8276681 ], [ 137.4427681, 34.8243953 ], [ 137.4384206, 34.8210475 ], [ 137.438917799999984, 34.8160561 ], [ 137.4330736, 34.8156194 ], [ 137.431472499999984, 34.8097686 ], [ 137.4207386, 34.8107786 ], [ 137.412546099999986, 34.8064256 ], [ 137.4049019, 34.8044019 ], [ 137.4023794, 34.7975436 ], [ 137.3980908, 34.7963936 ], [ 137.3892056, 34.7984028 ], [ 137.38658, 34.8007542 ], [ 137.3765833, 34.7921822 ], [ 137.365257499999984, 34.7895206 ], [ 137.3632686, 34.7908622 ], [ 137.348949399999981, 34.7841872 ], [ 137.3493497, 34.7927422 ], [ 137.339154399999984, 34.7863953 ], [ 137.3306217, 34.7896328 ], [ 137.329219699999982, 34.7966036 ], [ 137.3201317, 34.7885422 ], [ 137.3064541, 34.7844826 ], [ 137.3085436, 34.7788056 ], [ 137.319276299999984, 34.7805156 ], [ 137.3256011, 34.7855257 ], [ 137.3310396, 34.7805119 ], [ 137.3256872, 34.7709535 ], [ 137.3211365, 34.771256 ], [ 137.320314199999984, 34.7328344 ], [ 137.338832, 34.7285468 ], [ 137.347310099999987, 34.7320756 ], [ 137.348995699999989, 34.7290999 ], [ 137.338351099999983, 34.7248801 ], [ 137.3382444, 34.7211373 ], [ 137.329723699999988, 34.7211729 ], [ 137.3297337, 34.7246802 ], [ 137.3085654, 34.7246202 ], [ 137.308483699999982, 34.7021097 ], [ 137.3117863, 34.6995986 ], [ 137.319866099999984, 34.700086 ], [ 137.3218288, 34.6951397 ], [ 137.3114555, 34.6962658 ], [ 137.308238500000016, 34.6920582 ], [ 137.3158288, 34.6885128 ], [ 137.3070935, 34.6799559 ], [ 137.3106869, 34.6740378 ], [ 137.3065564, 34.6646078 ], [ 137.3238853, 34.6605625 ], [ 137.339082499999989, 34.6609322 ], [ 137.3413591, 34.6475268 ], [ 137.3857261, 34.6569693 ], [ 137.4155308, 34.6624283 ], [ 137.435373, 34.6666807 ], [ 137.4849639, 34.6741051 ], [ 137.484638599999982, 34.6838086 ], [ 137.48806639999998, 34.6873267 ], [ 137.49179, 34.7024597 ], [ 137.4873139, 34.7171019 ], [ 137.4826247, 34.7199264 ], [ 137.4814364, 34.7309522 ], [ 137.478606899999988, 34.7341008 ], [ 137.4805603, 34.7405653 ], [ 137.474106899999981, 34.7499406 ], [ 137.477442199999984, 34.7566653 ], [ 137.4767175, 34.7747856 ], [ 137.4820292, 34.7822842 ], [ 137.492942199999987, 34.7868661 ], [ 137.4916517, 34.7958469 ], [ 137.4943606, 34.8017658 ], [ 137.4870139, 34.8117494 ], [ 137.4935739, 34.815295 ], [ 137.494999399999983, 34.8193861 ], [ 137.5016578, 34.8233506 ], [ 137.498877800000031, 34.8268 ] ] ] ] } },
{ "type": "Feature", "properties": { "hokenjo": "豊川" }, "geometry": { "type": "MultiPolygon", "coordinates": [ [ [ [ 137.3106869, 34.6740378 ], [ 137.3070935, 34.6799559 ], [ 137.2865347, 34.6849731 ], [ 137.2911369, 34.6911822 ], [ 137.300884, 34.693777 ], [ 137.300929699999983, 34.7280718 ], [ 137.284827, 34.7309468 ], [ 137.2617306, 34.7159076 ], [ 137.2669055, 34.7086154 ], [ 137.2617142, 34.6988309 ], [ 137.2579882, 34.6967993 ], [ 137.252173199999987, 34.7052114 ], [ 137.245475699999986, 34.7062085 ], [ 137.2326692, 34.6991444 ], [ 137.2395496, 34.6906348 ], [ 137.2330189, 34.6887038 ], [ 137.229477300000013, 34.6791139 ], [ 137.2235852, 34.675633 ], [ 137.211860299999984, 34.6791547 ], [ 137.2063441, 34.6779094 ], [ 137.1978413, 34.6688823 ], [ 137.1861044, 34.6690607 ], [ 137.175038299999983, 34.6591693 ], [ 137.1698405, 34.6565194 ], [ 137.1578605, 34.6546764 ], [ 137.1433386, 34.6540173 ], [ 137.131525399999987, 34.6563514 ], [ 137.1298536, 34.6516107 ], [ 137.1370183, 34.6507716 ], [ 137.140244699999982, 34.6466401 ], [ 137.136558, 34.641212 ], [ 137.119412, 34.634639 ], [ 137.102005, 34.638195 ], [ 137.106478, 34.6415633 ], [ 137.1019222, 34.6456373 ], [ 137.096816599999983, 34.6458352 ], [ 137.089417, 34.649729 ], [ 137.0902198, 34.6560635 ], [ 137.081570199999987, 34.6618104 ], [ 137.0751716, 34.6630038 ], [ 137.0683209, 34.6612301 ], [ 137.059620599999988, 34.6532277 ], [ 137.0420452, 34.6203052 ], [ 137.0302489, 34.6010617 ], [ 137.0272563, 34.5904981 ], [ 137.0227721, 34.5844143 ], [ 137.0177645, 34.5845563 ], [ 137.0180629, 34.5784154 ], [ 137.0311945, 34.5808918 ], [ 137.0388184, 34.5788504 ], [ 137.0683919, 34.5858958 ], [ 137.094691399999988, 34.5907736 ], [ 137.1172641, 34.5871423 ], [ 137.1321082, 34.5881979 ], [ 137.1429296, 34.5901539 ], [ 137.1640443, 34.5966816 ], [ 137.179588099999989, 34.6028285 ], [ 137.1927335, 34.6052477 ], [ 137.2068032, 34.6105493 ], [ 137.2187324, 34.6137416 ], [ 137.2219739, 34.6132454 ], [ 137.240583099999981, 34.6201327 ], [ 137.274353599999984, 34.6302369 ], [ 137.3088707, 34.6397273 ], [ 137.3413591, 34.6475268 ], [ 137.339082499999989, 34.6609322 ], [ 137.3238853, 34.6605625 ], [ 137.3065564, 34.6646078 ], [ 137.3106869, 34.6740378 ] ] ], [ [ [ 137.308039799999989, 34.8050747 ], [ 137.298628399999984, 34.8099037 ], [ 137.301381599999985, 34.7982139 ], [ 137.3113735, 34.7990637 ], [ 137.308039799999989, 34.8050747 ] ] ], [ [ [ 137.29450079999998, 34.8105731 ], [ 137.29801759999998, 34.8106753 ], [ 137.3106641, 34.8046863 ], [ 137.315552, 34.7964343 ], [ 137.303327699999983, 34.7929386 ], [ 137.3064541, 34.7844826 ], [ 137.3201317, 34.7885422 ], [ 137.329219699999982, 34.7966036 ], [ 137.3306217, 34.7896328 ], [ 137.339154399999984, 34.7863953 ], [ 137.3493497, 34.7927422 ], [ 137.348949399999981, 34.7841872 ], [ 137.3632686, 34.7908622 ], [ 137.365257499999984, 34.7895206 ], [ 137.3765833, 34.7921822 ], [ 137.38658, 34.8007542 ], [ 137.3892056, 34.7984028 ], [ 137.3980908, 34.7963936 ], [ 137.4023794, 34.7975436 ], [ 137.4049019, 34.8044019 ], [ 137.412546099999986, 34.8064256 ], [ 137.4207386, 34.8107786 ], [ 137.431472499999984, 34.8097686 ], [ 137.4330736, 34.8156194 ], [ 137.438917799999984, 34.8160561 ], [ 137.4384206, 34.8210475 ], [ 137.4427681, 34.8243953 ], [ 137.4372764, 34.8276681 ], [ 137.4306053, 34.8248633 ], [ 137.42310329999998, 34.8384753 ], [ 137.42588, 34.8429178 ], [ 137.43549059999998, 34.8438258 ], [ 137.4383358, 34.8474397 ], [ 137.4460611, 34.8442561 ], [ 137.4558161, 34.8476058 ], [ 137.460589199999987, 34.8530558 ], [ 137.461324400000024, 34.8587322 ], [ 137.4526519, 34.8639689 ], [ 137.4549744, 34.8691944 ], [ 137.459929200000033, 34.8710178 ], [ 137.4558844, 34.8794017 ], [ 137.45112, 34.8830461 ], [ 137.4432981, 34.8921483 ], [ 137.442935299999988, 34.8963111 ], [ 137.428692499999983, 34.8997506 ], [ 137.4230383, 34.9035408 ], [ 137.4205461, 34.9097458 ], [ 137.4116464, 34.9073119 ], [ 137.4036614, 34.9021008 ], [ 137.4045044, 34.8940444 ], [ 137.3940122, 34.8833383 ], [ 137.3885114, 34.8869528 ], [ 137.3822864, 34.8878933 ], [ 137.3772289, 34.8934469 ], [ 137.3668106, 34.8895781 ], [ 137.3609456, 34.8857675 ], [ 137.3585061, 34.89117 ], [ 137.3520897, 34.8915956 ], [ 137.350025599999981, 34.8982817 ], [ 137.3355722, 34.8911022 ], [ 137.3128294, 34.8838214 ], [ 137.3034736, 34.8777397 ], [ 137.2968425, 34.8862875 ], [ 137.2914533, 34.8823589 ], [ 137.27852, 34.8813411 ], [ 137.274351699999983, 34.8850289 ], [ 137.2682742, 34.8852514 ], [ 137.2630614, 34.8817714 ], [ 137.2627453, 34.8755556 ], [ 137.2561567, 34.8693194 ], [ 137.256349699999987, 34.8609789 ], [ 137.238775, 34.8667589 ], [ 137.2323356, 34.864605 ], [ 137.2256256, 34.8701058 ], [ 137.2121419, 34.8676369 ], [ 137.2043981, 34.8610931 ], [ 137.205505599999981, 34.8564167 ], [ 137.1970906, 34.8531086 ], [ 137.1929544, 34.8481811 ], [ 137.197995599999985, 34.8414989 ], [ 137.1915889, 34.8353267 ], [ 137.191746099999989, 34.832735 ], [ 137.1995997, 34.825170799999988 ], [ 137.1869269, 34.8229258 ], [ 137.1800314, 34.8229292 ], [ 137.179000799999983, 34.82609 ], [ 137.1704267, 34.8215147 ], [ 137.163694199999981, 34.8149583 ], [ 137.170330799999988, 34.8128081 ], [ 137.169928299999981, 34.7929267 ], [ 137.168394399999983, 34.7876233 ], [ 137.1744912, 34.7847977 ], [ 137.177838399999985, 34.7792542 ], [ 137.174115400000034, 34.7757902 ], [ 137.173458499999981, 34.7703273 ], [ 137.1695272, 34.7652514 ], [ 137.1779426, 34.7656657 ], [ 137.1893622, 34.7757107 ], [ 137.1868738, 34.7805874 ], [ 137.1906151, 34.792842899999989 ], [ 137.1930963, 34.8048659 ], [ 137.1985675, 34.8110731 ], [ 137.2096698, 34.8027482 ], [ 137.2228714, 34.8168096 ], [ 137.24976479999998, 34.8108492 ], [ 137.2531913, 34.8058965 ], [ 137.2578614, 34.8043858 ], [ 137.2639127, 34.8059476 ], [ 137.2695641, 34.8047716 ], [ 137.279436799999985, 34.8075786 ], [ 137.292842899999982, 34.8045009 ], [ 137.29450079999998, 34.8105731 ] ] ] ] } },
{ "type": "Feature", "properties": { "hokenjo": "豊田市" }, "geometry": { "type": "MultiPolygon", "coordinates": [ [ [ [ 137.385147200000034, 34.9907472 ], [ 137.3935075, 34.9948611 ], [ 137.3929269, 34.9983819 ], [ 137.3972456, 35.0056067 ], [ 137.4074742, 35.0124133 ], [ 137.4163953, 35.0095297 ], [ 137.4253919, 35.0114361 ], [ 137.42582969999998, 35.0236092 ], [ 137.43547719999998, 35.0302783 ], [ 137.4302256, 35.0374947 ], [ 137.4316983, 35.0520667 ], [ 137.439856099999986, 35.0622222 ], [ 137.445309700000024, 35.06357 ], [ 137.4463467, 35.0719353 ], [ 137.4427689, 35.0811664 ], [ 137.4336336, 35.0870106 ], [ 137.434606699999989, 35.0914208 ], [ 137.4300322, 35.0958378 ], [ 137.4293983, 35.1043583 ], [ 137.4334706, 35.1081919 ], [ 137.442496399999982, 35.1100981 ], [ 137.447736099999986, 35.1196544 ], [ 137.4484081, 35.1257025 ], [ 137.44457749999998, 35.1304564 ], [ 137.4437269, 35.1360847 ], [ 137.4516231, 35.1329631 ], [ 137.45733, 35.1334492 ], [ 137.4631703, 35.1389067 ], [ 137.4681814, 35.1410317 ], [ 137.4747764, 35.1500978 ], [ 137.4621864, 35.1601517 ], [ 137.4744708, 35.1699128 ], [ 137.483180299999987, 35.1795325 ], [ 137.4823606, 35.1855772 ], [ 137.4869564, 35.1937125 ], [ 137.49543079999998, 35.1972878 ], [ 137.5025492, 35.1955397 ], [ 137.4993953, 35.1894333 ], [ 137.4999689, 35.1847319 ], [ 137.5125117, 35.1852564 ], [ 137.5189064, 35.1780697 ], [ 137.5377139, 35.1903272 ], [ 137.5462742, 35.1873403 ], [ 137.550773199999981, 35.1890507 ], [ 137.566636499999987, 35.1880741 ], [ 137.5751976, 35.1855497 ], [ 137.581089300000031, 35.1902096 ], [ 137.578655199999986, 35.1984691 ], [ 137.5767677, 35.2025018 ], [ 137.5769966, 35.2119346 ], [ 137.5787258, 35.2194351 ], [ 137.575591100000025, 35.220424 ], [ 137.572398099999987, 35.2266079 ], [ 137.5685211, 35.2278351 ], [ 137.5626311, 35.235365099999989 ], [ 137.5571464, 35.2372626 ], [ 137.5504172, 35.2429051 ], [ 137.545996699999989, 35.2517857 ], [ 137.548422, 35.2597351 ], [ 137.5521095, 35.2599079 ], [ 137.557482, 35.2645537 ], [ 137.5558998, 35.2724232 ], [ 137.5707462, 35.2830971 ], [ 137.5668212, 35.2900087 ], [ 137.5623306, 35.2899787 ], [ 137.558013099999982, 35.2840137 ], [ 137.551992, 35.2842273 ], [ 137.5434292, 35.2805534 ], [ 137.5317562, 35.2821018 ], [ 137.5293139, 35.2841782 ], [ 137.5213659, 35.2842587 ], [ 137.5187362, 35.2816498 ], [ 137.5141267, 35.2699595 ], [ 137.5048022, 35.2629448 ], [ 137.497235, 35.2641943 ], [ 137.4965544, 35.259019 ], [ 137.48429969999998, 35.2574287 ], [ 137.4765794, 35.2534056 ], [ 137.46947160000002, 35.2454751 ], [ 137.4661008, 35.2466443 ], [ 137.462144699999982, 35.2411234 ], [ 137.4533655, 35.2405076 ], [ 137.4504502, 35.2350923 ], [ 137.4420505, 35.2337031 ], [ 137.434713599999981, 35.2241384 ], [ 137.430313, 35.2229604 ], [ 137.424915199999987, 35.2268809 ], [ 137.416806899999983, 35.2404017 ], [ 137.4089277, 35.2349067 ], [ 137.401004400000033, 35.2415881 ], [ 137.3881936, 35.2401198 ], [ 137.3831858, 35.2467215 ], [ 137.3867841, 35.251812 ], [ 137.385120199999989, 35.2587039 ], [ 137.361969099999982, 35.2609737 ], [ 137.350502399999982, 35.2571762 ], [ 137.3440991, 35.2578579 ], [ 137.3399502, 35.2645451 ], [ 137.3464066, 35.2712329 ], [ 137.3446299, 35.2737176 ], [ 137.3256547, 35.2804537 ], [ 137.321292400000033, 35.2842615 ], [ 137.303794399999987, 35.2905866 ], [ 137.2984338, 35.2887485 ], [ 137.282915200000019, 35.2877047 ], [ 137.2742571, 35.2888264 ], [ 137.262663799999984, 35.2852019 ], [ 137.2594521, 35.2787122 ], [ 137.2608774, 35.2754075 ], [ 137.2537616, 35.2727583 ], [ 137.2499432, 35.2685469 ], [ 137.2435907, 35.2685373 ], [ 137.224574599999983, 35.2564925 ], [ 137.2213612, 35.2599386 ], [ 137.2112759, 35.2596909 ], [ 137.1999576, 35.2514636 ], [ 137.197068699999988, 35.2533375 ], [ 137.1894881, 35.2525692 ], [ 137.184152, 35.2499903 ], [ 137.180374299999983, 35.2444625 ], [ 137.17754560000003, 35.236287 ], [ 137.1809611, 35.2285272 ], [ 137.1733936, 35.2178786 ], [ 137.172666099999986, 35.2110944 ], [ 137.1683678, 35.2054197 ], [ 137.1607903, 35.2066472 ], [ 137.1429961, 35.1968958 ], [ 137.1431225, 35.1936139 ], [ 137.1348853, 35.1920322 ], [ 137.1293839, 35.1884747 ], [ 137.1260561, 35.182415 ], [ 137.1211969, 35.1852942 ], [ 137.109185, 35.1857183 ], [ 137.106124699999981, 35.1793456 ], [ 137.0993278, 35.1814533 ], [ 137.0956703, 35.1793875 ], [ 137.0973794, 35.1735953 ], [ 137.0947194, 35.1602606 ], [ 137.0961222, 35.157175 ], [ 137.0976819, 35.1555281 ], [ 137.0974942, 35.1446506 ], [ 137.1036222, 35.136086899999988 ], [ 137.1048333, 35.1317061 ], [ 137.1148311, 35.1314558 ], [ 137.1205544, 35.1250714 ], [ 137.128085, 35.1230428 ], [ 137.1300803, 35.1196183 ], [ 137.1208703, 35.1149383 ], [ 137.11618439999998, 35.1042922 ], [ 137.1115814, 35.0971692 ], [ 137.113095, 35.0944936 ], [ 137.1049811, 35.0836775 ], [ 137.102090299999986, 35.0724728 ], [ 137.102211899999986, 35.0642167 ], [ 137.0958453, 35.0594739 ], [ 137.0896592, 35.0615792 ], [ 137.083497199999982, 35.0584986 ], [ 137.068389699999983, 35.057291899999989 ], [ 137.064511899999985, 35.0574025 ], [ 137.0633919, 35.0507667 ], [ 137.057008599999989, 35.0487475 ], [ 137.0495833, 35.0356017 ], [ 137.045974699999988, 35.0331597 ], [ 137.049023299999988, 35.0284161 ], [ 137.039713299999988, 35.0218147 ], [ 137.044742499999984, 35.0199831 ], [ 137.047925599999985, 35.0142975 ], [ 137.0584728, 35.0125631 ], [ 137.0619456, 35.0095908 ], [ 137.067933899999986, 35.0124844 ], [ 137.0728092, 35.017835 ], [ 137.077693899999986, 35.0080939 ], [ 137.0850561, 35.0098306 ], [ 137.0943753, 35.0074319 ], [ 137.1007222, 35.0087803 ], [ 137.112106899999986, 35.0020631 ], [ 137.1163675, 34.9913469 ], [ 137.122960799999987, 34.99061 ], [ 137.129781399999985, 34.9989889 ], [ 137.1408619, 34.9978936 ], [ 137.142740799999984, 34.9924842 ], [ 137.1478822, 34.9924978 ], [ 137.160205599999983, 34.9965381 ], [ 137.1661014, 35.0029511 ], [ 137.160395, 35.0167425 ], [ 137.1597525, 35.0262231 ], [ 137.170504199999982, 35.0348589 ], [ 137.1772753, 35.0349014 ], [ 137.1857583, 35.0313214 ], [ 137.1927647, 35.0382581 ], [ 137.1991131, 35.034290299999988 ], [ 137.2077692, 35.0330297 ], [ 137.2124653, 35.0414856 ], [ 137.2176283, 35.037675 ], [ 137.2254428, 35.0401247 ], [ 137.2370272, 35.0392742 ], [ 137.242592799999983, 35.0289358 ], [ 137.2556069, 35.0281719 ], [ 137.2615194, 35.0168 ], [ 137.266490600000026, 35.0195039 ], [ 137.2703061, 35.0280781 ], [ 137.2733194, 35.0284294 ], [ 137.2823761, 35.0208794 ], [ 137.2891108, 35.0179553 ], [ 137.2960364, 35.0188133 ], [ 137.300025799999986, 35.0167278 ], [ 137.3088069, 35.0161983 ], [ 137.315346399999981, 35.0204072 ], [ 137.319557799999984, 35.0155192 ], [ 137.3285522, 35.0174203 ], [ 137.345754699999986, 35.0093031 ], [ 137.3475828, 35.0153111 ], [ 137.3548717, 35.0143125 ], [ 137.3707594, 35.0154625 ], [ 137.3765683, 35.0014403 ], [ 137.375114699999983, 34.9979014 ], [ 137.385147200000034, 34.9907472 ] ] ] ] } },
{ "type": "Feature", "properties": { "hokenjo": "名古屋市" }, "geometry": { "type": "MultiPolygon", "coordinates": [ [ [ [ 136.8477273, 35.046804099999989 ], [ 136.852028499999989, 35.0438513 ], [ 136.85495640000002, 35.0553085 ], [ 136.848669799999982, 35.0560453 ], [ 136.840585, 35.0560359 ], [ 136.837977099999989, 35.0518369 ], [ 136.8455223, 35.0339118 ], [ 136.8481501, 35.036701 ], [ 136.8440827, 35.0416216 ], [ 136.8477273, 35.046804099999989 ] ] ], [ [ [ 136.87237829999998, 35.0497299 ], [ 136.8750569, 35.0519931 ], [ 136.881954899999982, 35.0693479 ], [ 136.8781573, 35.0719249 ], [ 136.873753599999986, 35.0719193 ], [ 136.8694576, 35.0680621 ], [ 136.870303299999989, 35.0630138 ], [ 136.8652538, 35.0500065 ], [ 136.87237829999998, 35.0497299 ] ] ], [ [ [ 136.9016025, 35.0689242 ], [ 136.905790599999989, 35.0684072 ], [ 136.9130472, 35.0684772 ], [ 136.917774399999985, 35.0629167 ], [ 136.9244239, 35.0644175 ], [ 136.925756899999982, 35.0586042 ], [ 136.9312742, 35.0507428 ], [ 136.9366244, 35.0531981 ], [ 136.9411175, 35.0521564 ], [ 136.946335, 35.0441931 ], [ 136.9532031, 35.0447728 ], [ 136.955772199999984, 35.0478789 ], [ 136.961893299999986, 35.0395633 ], [ 136.9648542, 35.0429311 ], [ 136.9722528, 35.0430644 ], [ 136.9738769, 35.0490064 ], [ 136.9724033, 35.0564331 ], [ 136.976038599999981, 35.0623381 ], [ 136.9842653, 35.0612758 ], [ 136.987660299999988, 35.0725547 ], [ 136.9947156, 35.0718225 ], [ 136.9981242, 35.0741522 ], [ 137.004739199999989, 35.0720078 ], [ 137.009557799999982, 35.0753158 ], [ 137.0174844, 35.0920994 ], [ 137.0214806, 35.0912236 ], [ 137.02001, 35.0961006 ], [ 137.023444399999988, 35.1027331 ], [ 137.0211131, 35.1098011 ], [ 137.0199697, 35.1095708 ], [ 137.014503599999983, 35.1169947 ], [ 137.003295799999989, 35.1284011 ], [ 137.0081583, 35.1312047 ], [ 137.0099936, 35.1368411 ], [ 137.0169608, 35.1364289 ], [ 137.0232844, 35.1398164 ], [ 137.0184253, 35.1470472 ], [ 137.0220578, 35.1532464 ], [ 137.02702, 35.1561744 ], [ 137.022882800000019, 35.1631972 ], [ 137.0274647, 35.16873 ], [ 137.02402, 35.1738161 ], [ 137.026843899999989, 35.1794025 ], [ 137.025804199999982, 35.1851197 ], [ 137.0200075, 35.1907083 ], [ 137.0322578, 35.1918117 ], [ 137.019802199999987, 35.1984778 ], [ 137.019034399999981, 35.1936811 ], [ 137.0119097, 35.1949861 ], [ 137.013283299999983, 35.2010411 ], [ 137.00800719999998, 35.2064925 ], [ 137.0015436, 35.2092986 ], [ 137.0067403, 35.2192367 ], [ 137.0108531, 35.2211803 ], [ 137.0194531, 35.2312697 ], [ 137.039131699999984, 35.238115 ], [ 137.043779199999989, 35.2415083 ], [ 137.0493414, 35.2378333 ], [ 137.0520467, 35.2431056 ], [ 137.0598769, 35.2462811 ], [ 137.054965, 35.2504197 ], [ 137.0534758, 35.2578261 ], [ 137.0503411, 35.2602289 ], [ 137.0369658, 35.2584053 ], [ 137.029151899999988, 35.2590028 ], [ 137.0201406, 35.2523675 ], [ 137.013644199999987, 35.2516211 ], [ 137.01077189999998, 35.2447272 ], [ 137.0053217, 35.2404114 ], [ 136.9931681, 35.2408594 ], [ 136.989743299999986, 35.2379047 ], [ 136.9890183, 35.2267167 ], [ 136.981445799999989, 35.2252314 ], [ 136.97364, 35.2184306 ], [ 136.964126099999987, 35.2167919 ], [ 136.9562267, 35.2174403 ], [ 136.936592499999989, 35.2161467 ], [ 136.9398325, 35.2242494 ], [ 136.9316861, 35.22301 ], [ 136.9255197, 35.2310836 ], [ 136.9290792, 35.2330842 ], [ 136.9268011, 35.2425692 ], [ 136.9204067, 35.2383261 ], [ 136.910816899999986, 35.236429199999989 ], [ 136.9087269, 35.2403725 ], [ 136.903044199999982, 35.2403983 ], [ 136.8992303, 35.2347864 ], [ 136.874792499999984, 35.2250653 ], [ 136.8709656, 35.2309536 ], [ 136.857866699999988, 35.2305608 ], [ 136.856365300000022, 35.2210956 ], [ 136.860357199999982, 35.2152269 ], [ 136.8646422, 35.2133286 ], [ 136.8601897, 35.2079722 ], [ 136.8656856, 35.2068944 ], [ 136.8683733, 35.2119122 ], [ 136.8785417, 35.2093364 ], [ 136.878971399999983, 35.2072128 ], [ 136.8698408, 35.1940017 ], [ 136.865929699999981, 35.1916611 ], [ 136.8563006, 35.1881717 ], [ 136.8479806, 35.1805581 ], [ 136.8411217, 35.1740553 ], [ 136.8355214, 35.1694303 ], [ 136.833307499999989, 35.164883599999989 ], [ 136.8301902, 35.1572816 ], [ 136.8171831, 35.1589831 ], [ 136.8183636, 35.1646408 ], [ 136.807800899999989, 35.1681862 ], [ 136.80176419999998, 35.1613019 ], [ 136.802625, 35.15418 ], [ 136.8094128, 35.1535714 ], [ 136.80896, 35.1476053 ], [ 136.80091, 35.1480403 ], [ 136.8001303, 35.1324756 ], [ 136.797416400000031, 35.1281653 ], [ 136.797572799999983, 35.1219175 ], [ 136.794196699999986, 35.1219828 ], [ 136.791969199999983, 35.11226 ], [ 136.7980878, 35.1018533 ], [ 136.797944199999989, 35.0969361 ], [ 136.8100594, 35.0933789 ], [ 136.8248645, 35.0801035 ], [ 136.847251299999982, 35.0830476 ], [ 136.849660299999982, 35.0780267 ], [ 136.8457114, 35.0642783 ], [ 136.8425968, 35.0592782 ], [ 136.847439300000019, 35.0566603 ], [ 136.8554796, 35.0565876 ], [ 136.8692934, 35.0821014 ], [ 136.868536700000021, 35.0882067 ], [ 136.8753304, 35.0903994 ], [ 136.8848171, 35.0887583 ], [ 136.8903407, 35.089924 ], [ 136.889586899999983, 35.0703407 ], [ 136.883963100000017, 35.0672678 ], [ 136.9016025, 35.0689242 ] ] ] ] } }
]
}
