{
"type": "FeatureCollection",
"name": "akita",
"crs": { "type": "name", "properties": { "name": "urn:ogc:def:crs:OGC:1.3:CRS84" } },
"features": [
{ "type": "Feature", "properties": { "hokenjo": "横手" }, "geometry": { "type": "Polygon", "coordinates": [ [ [ 140.4893778, 39.3834451 ], [ 140.481075799999985, 39.3754629 ], [ 140.4739988, 39.3734479 ], [ 140.468257699999981, 39.3651362 ], [ 140.460979899999984, 39.3657096 ], [ 140.4624512, 39.3772038 ], [ 140.4626101, 39.3923244 ], [ 140.4668131, 39.4019361 ], [ 140.4610439, 39.4041864 ], [ 140.4612172, 39.4091686 ], [ 140.4495732, 39.4059584 ], [ 140.4477796, 39.4089376 ], [ 140.440013099999987, 39.4090051 ], [ 140.4297906, 39.4063071 ], [ 140.423773399999988, 39.4000215 ], [ 140.4139719, 39.3998704 ], [ 140.4114011, 39.3975655 ], [ 140.4013029, 39.3962941 ], [ 140.3900898, 39.3986425 ], [ 140.3828256, 39.3946047 ], [ 140.3895702, 39.3863486 ], [ 140.387479, 39.3842867 ], [ 140.3786423, 39.38624 ], [ 140.3695981, 39.3854823 ], [ 140.3647953, 39.3909856 ], [ 140.363775799999985, 39.396154 ], [ 140.356613300000021, 39.3955915 ], [ 140.345725499999986, 39.3899576 ], [ 140.343453, 39.3812832 ], [ 140.340039099999984, 39.3777779 ], [ 140.33202380000003, 39.3755674 ], [ 140.324744899999985, 39.3776997 ], [ 140.3201923, 39.3825897 ], [ 140.3119384, 39.3787264 ], [ 140.30746259999998, 39.3801181 ], [ 140.2907836, 39.3766253 ], [ 140.276453799999985, 39.3749429 ], [ 140.2701538, 39.3766809 ], [ 140.2641693, 39.3736357 ], [ 140.2674982, 39.3703059 ], [ 140.2700514, 39.3611407 ], [ 140.268860599999982, 39.3559632 ], [ 140.2808492, 39.3576731 ], [ 140.2841898, 39.354832 ], [ 140.2984918, 39.3546386 ], [ 140.300325499999985, 39.3486323 ], [ 140.3106377, 39.3475747 ], [ 140.3159061, 39.3497136 ], [ 140.3208741, 39.3444991 ], [ 140.3281197, 39.3413905 ], [ 140.3300686, 39.3357794 ], [ 140.326623899999987, 39.3323336 ], [ 140.3338114, 39.3250102 ], [ 140.340503399999989, 39.3274521 ], [ 140.3420406, 39.3174507 ], [ 140.340564, 39.3124482 ], [ 140.3520632, 39.3055949 ], [ 140.354093, 39.2955965 ], [ 140.3423066, 39.2951674 ], [ 140.3394793, 39.2914216 ], [ 140.339685299999985, 39.2810407 ], [ 140.3331059, 39.2737402 ], [ 140.329865399999989, 39.2614805 ], [ 140.340201, 39.259188699999989 ], [ 140.3415813, 39.2542387 ], [ 140.346758599999987, 39.2504893 ], [ 140.3618756, 39.2603851 ], [ 140.374051799999989, 39.2620856 ], [ 140.379499, 39.2594553 ], [ 140.401704699999982, 39.2601409 ], [ 140.4017892, 39.2561765 ], [ 140.4100613, 39.2515062 ], [ 140.4120347, 39.2478312 ], [ 140.4252879, 39.2425561 ], [ 140.4214365, 39.2396217 ], [ 140.4220269, 39.2303467 ], [ 140.426233900000028, 39.2302353 ], [ 140.4301571, 39.2251961 ], [ 140.4418024, 39.2257516 ], [ 140.442226399999981, 39.2195432 ], [ 140.445602, 39.216321 ], [ 140.457261099999982, 39.2183954 ], [ 140.467606499999988, 39.217640599999989 ], [ 140.4920813, 39.2100679 ], [ 140.508722399999982, 39.2105926 ], [ 140.525742899999983, 39.2019622 ], [ 140.5287897, 39.1974127 ], [ 140.5222455, 39.1948522 ], [ 140.5213775, 39.1885297 ], [ 140.5257149, 39.1783883 ], [ 140.535508099999987, 39.1729565 ], [ 140.5448979, 39.1803384 ], [ 140.54294, 39.189442 ], [ 140.5599507, 39.1896038 ], [ 140.56804409999998, 39.1935304 ], [ 140.574683099999987, 39.1924715 ], [ 140.588366899999983, 39.1873841 ], [ 140.5941282, 39.1835216 ], [ 140.6003269, 39.1839921 ], [ 140.6071938, 39.1718245 ], [ 140.6088206, 39.1630489 ], [ 140.6143796, 39.160237 ], [ 140.6158997, 39.1528006 ], [ 140.6101305, 39.1497723 ], [ 140.6123474, 39.1404687 ], [ 140.6170502, 39.1381275 ], [ 140.6132125, 39.1329145 ], [ 140.611633899999987, 39.126302 ], [ 140.616269599999981, 39.1215148 ], [ 140.621711399999981, 39.1212425 ], [ 140.625256, 39.1121808 ], [ 140.630658399999987, 39.1052455 ], [ 140.635807299999982, 39.1073377 ], [ 140.6449888, 39.1066515 ], [ 140.6512315, 39.0992856 ], [ 140.6630639, 39.0982786 ], [ 140.676324699999981, 39.0933688 ], [ 140.6821323, 39.0924601 ], [ 140.687110599999983, 39.0997715 ], [ 140.6903139, 39.1078745 ], [ 140.681672599999985, 39.1291112 ], [ 140.68559879999998, 39.1322245 ], [ 140.687844, 39.1388122 ], [ 140.678903500000018, 39.1486931 ], [ 140.669446099999988, 39.1488896 ], [ 140.664679299999989, 39.1538493 ], [ 140.655827, 39.1472319 ], [ 140.6496261, 39.144645 ], [ 140.6398743, 39.1516651 ], [ 140.6434601, 39.1561923 ], [ 140.6363853, 39.1735106 ], [ 140.6214166, 39.1855499 ], [ 140.626536200000032, 39.1958777 ], [ 140.637375800000029, 39.1944709 ], [ 140.6398854, 39.2014337 ], [ 140.6385359, 39.2046553 ], [ 140.6470357, 39.2067477 ], [ 140.6607195, 39.2060954 ], [ 140.664994399999983, 39.2092748 ], [ 140.675621399999983, 39.2020445 ], [ 140.677781399999986, 39.1987434 ], [ 140.6916037, 39.1881644 ], [ 140.6987508, 39.186763 ], [ 140.7092917, 39.1877118 ], [ 140.71775839999998, 39.1906412 ], [ 140.722209099999986, 39.1968976 ], [ 140.7282191, 39.1994831 ], [ 140.7366376, 39.1958095 ], [ 140.753195399999981, 39.1983324 ], [ 140.7597667, 39.2019863 ], [ 140.7607942, 39.2058871 ], [ 140.7666183, 39.2085254 ], [ 140.7630504, 39.2132269 ], [ 140.7704675, 39.2234587 ], [ 140.7744587, 39.2231499 ], [ 140.7876243, 39.2267851 ], [ 140.786457399999989, 39.2345589 ], [ 140.7886624, 39.2384287 ], [ 140.777169499999985, 39.2415729 ], [ 140.7689203, 39.2524627 ], [ 140.756921299999988, 39.2550449 ], [ 140.751349399999981, 39.2628072 ], [ 140.745888899999983, 39.2614984 ], [ 140.7330565, 39.2664104 ], [ 140.723032099999983, 39.2721741 ], [ 140.717828699999984, 39.2726088 ], [ 140.717327499999982, 39.2965081 ], [ 140.7084863, 39.2969387 ], [ 140.702350599999988, 39.3001296 ], [ 140.693585899999988, 39.299593 ], [ 140.6928869, 39.3030461 ], [ 140.6972254, 39.3102858 ], [ 140.692867299999989, 39.3134431 ], [ 140.6940442, 39.3197642 ], [ 140.6975239, 39.3217622 ], [ 140.6985866, 39.3284297 ], [ 140.709175499999986, 39.329885 ], [ 140.7032361, 39.3435856 ], [ 140.688452899999987, 39.3475247 ], [ 140.687984199999988, 39.3511841 ], [ 140.6929494, 39.3581205 ], [ 140.6884091, 39.3593297 ], [ 140.6756397, 39.3683415 ], [ 140.6780952, 39.373077599999988 ], [ 140.6789728, 39.3831819 ], [ 140.6754319, 39.3857955 ], [ 140.665497499999987, 39.3842978 ], [ 140.656171, 39.3891459 ], [ 140.65345240000002, 39.3858806 ], [ 140.643331, 39.3816334 ], [ 140.6320935, 39.3786179 ], [ 140.627261399999981, 39.3710576 ], [ 140.6175107, 39.3744216 ], [ 140.6156684, 39.3800425 ], [ 140.6113446, 39.3812041 ], [ 140.5996797, 39.3757159 ], [ 140.5952777, 39.3782062 ], [ 140.5722888, 39.3803116 ], [ 140.5704685, 39.376713 ], [ 140.554986499999984, 39.3760442 ], [ 140.5513866, 39.3714964 ], [ 140.550236399999989, 39.3606225 ], [ 140.548261599999989, 39.3569753 ], [ 140.5397185, 39.3637298 ], [ 140.5306612, 39.3628926 ], [ 140.533329399999985, 39.3564787 ], [ 140.5261296, 39.3575651 ], [ 140.512576699999983, 39.362504099999988 ], [ 140.507839400000023, 39.3695222 ], [ 140.501386, 39.3729481 ], [ 140.497899499999988, 39.3782976 ], [ 140.4919626, 39.3788404 ], [ 140.4893778, 39.3834451 ] ] ] } },
{ "type": "Feature", "properties": { "hokenjo": "秋田市" }, "geometry": { "type": "Polygon", "coordinates": [ [ [ 140.215912, 39.8631419 ], [ 140.208050899999989, 39.8650278 ], [ 140.2004461, 39.8639401 ], [ 140.19778119999998, 39.8597912 ], [ 140.1990429, 39.8555826 ], [ 140.186294299999986, 39.8482956 ], [ 140.175189499999988, 39.8447532 ], [ 140.1666464, 39.8446851 ], [ 140.1552541, 39.849581 ], [ 140.147159599999981, 39.8446863 ], [ 140.1405471, 39.8465319 ], [ 140.1328976, 39.8449019 ], [ 140.117525299999983, 39.8507015 ], [ 140.1079714, 39.8422534 ], [ 140.0987283, 39.8411304 ], [ 140.093521399999986, 39.8352926 ], [ 140.086118, 39.845471 ], [ 140.080879899999985, 39.8445988 ], [ 140.0760535, 39.8504858 ], [ 140.0776462, 39.8538577 ], [ 140.0724917, 39.857515 ], [ 140.0663384, 39.8557433 ], [ 140.0661709, 39.8504117 ], [ 140.0594604, 39.8473039 ], [ 140.0562828, 39.8515753 ], [ 140.0492073, 39.8491412 ], [ 140.048732299999983, 39.8445903 ], [ 140.0549321, 39.8287556 ], [ 140.055689799999982, 39.8070449 ], [ 140.0340429, 39.8044876 ], [ 140.038454299999984, 39.7885979 ], [ 140.042335399999985, 39.7828499 ], [ 140.033387, 39.7810268 ], [ 140.036627399999986, 39.7714182 ], [ 140.049320099999989, 39.7741033 ], [ 140.0481801, 39.7679744 ], [ 140.0507412, 39.7612353 ], [ 140.0474419, 39.7571093 ], [ 140.0462809, 39.7495047 ], [ 140.048528, 39.7406665 ], [ 140.0540408, 39.7388697 ], [ 140.057764900000024, 39.7296029 ], [ 140.0592526, 39.7206633 ], [ 140.059802099999985, 39.6983381 ], [ 140.0619289, 39.6756861 ], [ 140.0629817, 39.6544205 ], [ 140.0626992, 39.6354096 ], [ 140.0596569, 39.5977876 ], [ 140.0680975, 39.5982964 ], [ 140.075652, 39.5947884 ], [ 140.0776549, 39.588022 ], [ 140.0866675, 39.5799505 ], [ 140.0992134, 39.5859933 ], [ 140.107936199999983, 39.5820066 ], [ 140.1127521, 39.5772669 ], [ 140.122035499999981, 39.5760674 ], [ 140.1226308, 39.5703265 ], [ 140.138092299999983, 39.5685798 ], [ 140.148568499999982, 39.5703715 ], [ 140.159494199999983, 39.5585903 ], [ 140.160964799999988, 39.5517814 ], [ 140.1673874, 39.5479919 ], [ 140.1649452, 39.5425553 ], [ 140.1561338, 39.5377961 ], [ 140.1682578, 39.5326491 ], [ 140.1712125, 39.534829699999989 ], [ 140.1858559, 39.5384172 ], [ 140.1886059, 39.5340633 ], [ 140.1852441, 39.528408 ], [ 140.1840322, 39.5213899 ], [ 140.1781119, 39.5124402 ], [ 140.1809951, 39.5036509 ], [ 140.1870121, 39.5032415 ], [ 140.19823420000003, 39.4974351 ], [ 140.211422, 39.4957092 ], [ 140.215711199999987, 39.4979833 ], [ 140.2197869, 39.4938199 ], [ 140.228868299999988, 39.4905568 ], [ 140.222306399999979, 39.4873324 ], [ 140.2207939, 39.4815985 ], [ 140.2229983, 39.4675404 ], [ 140.232422499999984, 39.4700107 ], [ 140.239195300000034, 39.4669454 ], [ 140.234419799999984, 39.4600315 ], [ 140.240549099999981, 39.4546659 ], [ 140.249832199999986, 39.4542144 ], [ 140.258806199999981, 39.4488783 ], [ 140.2619087, 39.4517808 ], [ 140.2689732, 39.449571 ], [ 140.2789013, 39.4509971 ], [ 140.281806099999983, 39.4554635 ], [ 140.28141789999998, 39.4676463 ], [ 140.2764028, 39.4748769 ], [ 140.2711343, 39.4786911 ], [ 140.266087, 39.4855494 ], [ 140.275386199999986, 39.4918606 ], [ 140.2684721, 39.4990903 ], [ 140.2704646, 39.5037061 ], [ 140.263118099999986, 39.5120831 ], [ 140.2522424, 39.5132574 ], [ 140.248863699999987, 39.519426599999989 ], [ 140.24673439999998, 39.5384458 ], [ 140.241487, 39.5438866 ], [ 140.2282, 39.5434917 ], [ 140.227314399999983, 39.5479303 ], [ 140.2327419, 39.5509036 ], [ 140.2329732, 39.5599947 ], [ 140.2394421, 39.56259 ], [ 140.243487, 39.5731519 ], [ 140.2543757, 39.5754336 ], [ 140.256176, 39.5780072 ], [ 140.25435109999998, 39.5869931 ], [ 140.258041099999986, 39.5934186 ], [ 140.261970599999984, 39.5941311 ], [ 140.26815, 39.6015486 ], [ 140.267556600000034, 39.6098525 ], [ 140.2769255, 39.615723 ], [ 140.2774924, 39.621948 ], [ 140.2841819, 39.6251497 ], [ 140.2857043, 39.6371439 ], [ 140.28437169999998, 39.6405442 ], [ 140.2715303, 39.6397609 ], [ 140.267255200000022, 39.6444334 ], [ 140.2708288, 39.653512 ], [ 140.286058, 39.654007 ], [ 140.292201899999981, 39.6554389 ], [ 140.2952851, 39.6488053 ], [ 140.309047099999987, 39.6476005 ], [ 140.3103257, 39.6556261 ], [ 140.3066072, 39.6674066 ], [ 140.3111858, 39.6728655 ], [ 140.3223031, 39.6763386 ], [ 140.3255306, 39.680598 ], [ 140.3382573, 39.6764541 ], [ 140.343469, 39.6767354 ], [ 140.342151799999982, 39.6836504 ], [ 140.3477073, 39.6912902 ], [ 140.3527345, 39.6907946 ], [ 140.364010399999984, 39.6951515 ], [ 140.372346599999986, 39.6929115 ], [ 140.3924169, 39.6999161 ], [ 140.3953338, 39.7044117 ], [ 140.406987499999985, 39.7068575 ], [ 140.4141682, 39.7145075 ], [ 140.419277199999982, 39.7150625 ], [ 140.4308967, 39.7104686 ], [ 140.4322867, 39.7074833 ], [ 140.4471198, 39.7051368 ], [ 140.4747801, 39.7168976 ], [ 140.48326179999998, 39.7175431 ], [ 140.4922795, 39.7235845 ], [ 140.496490099999988, 39.7237264 ], [ 140.503200599999985, 39.726217 ], [ 140.508791699999989, 39.7324956 ], [ 140.5087014, 39.7404301 ], [ 140.5156135, 39.7477926 ], [ 140.510182, 39.7546651 ], [ 140.5062833, 39.767909 ], [ 140.490073099999989, 39.7807353 ], [ 140.483506, 39.7944106 ], [ 140.480374, 39.7965273 ], [ 140.4753524, 39.7956479 ], [ 140.467241600000023, 39.810301 ], [ 140.460792600000019, 39.8151774 ], [ 140.459873099999982, 39.8224641 ], [ 140.452359199999989, 39.8244689 ], [ 140.4445973, 39.8221372 ], [ 140.4312325, 39.8202673 ], [ 140.4307911, 39.8240856 ], [ 140.416627399999982, 39.828702299999989 ], [ 140.4039923, 39.8291185 ], [ 140.4007819, 39.8348521 ], [ 140.3786266, 39.8339663 ], [ 140.3722146, 39.8358199 ], [ 140.3635782, 39.827888 ], [ 140.3556793, 39.8262199 ], [ 140.346782099999984, 39.8158933 ], [ 140.349136, 39.8114774 ], [ 140.340404399999983, 39.804581 ], [ 140.3253943, 39.7998827 ], [ 140.32056369999998, 39.796478 ], [ 140.310928099999984, 39.7971814 ], [ 140.3143878, 39.8075208 ], [ 140.3135752, 39.8131714 ], [ 140.3086418, 39.8167389 ], [ 140.3106765, 39.8203133 ], [ 140.3067284, 39.8299353 ], [ 140.296461599999986, 39.8329464 ], [ 140.2881744, 39.8307673 ], [ 140.281776799999989, 39.8349659 ], [ 140.273771, 39.8273779 ], [ 140.258889499999981, 39.8300098 ], [ 140.2507209, 39.8275676 ], [ 140.2429491, 39.8319252 ], [ 140.239305400000035, 39.8389791 ], [ 140.2337876, 39.841561 ], [ 140.2265858, 39.8535494 ], [ 140.2226594, 39.8550069 ], [ 140.222724299999982, 39.8609739 ], [ 140.215912, 39.8631419 ] ] ] } },
{ "type": "Feature", "properties": { "hokenjo": "秋田中央" }, "geometry": { "type": "Polygon", "coordinates": [ [ [ 140.1990429, 39.8555826 ], [ 140.19778119999998, 39.8597912 ], [ 140.2004461, 39.8639401 ], [ 140.208050899999989, 39.8650278 ], [ 140.215912, 39.8631419 ], [ 140.222724299999982, 39.8609739 ], [ 140.2226594, 39.8550069 ], [ 140.2265858, 39.8535494 ], [ 140.2337876, 39.841561 ], [ 140.239305400000035, 39.8389791 ], [ 140.2429491, 39.8319252 ], [ 140.2507209, 39.8275676 ], [ 140.258889499999981, 39.8300098 ], [ 140.273771, 39.8273779 ], [ 140.281776799999989, 39.8349659 ], [ 140.2881744, 39.8307673 ], [ 140.296461599999986, 39.8329464 ], [ 140.3017816, 39.8378709 ], [ 140.306476, 39.8474031 ], [ 140.3046584, 39.8519717 ], [ 140.3049964, 39.860676399999988 ], [ 140.2982738, 39.8658884 ], [ 140.3022349, 39.8780256 ], [ 140.2967753, 39.8882843 ], [ 140.297860499999985, 39.8989954 ], [ 140.2927992, 39.9119184 ], [ 140.295642, 39.9198793 ], [ 140.292433, 39.9274773 ], [ 140.2827457, 39.9294085 ], [ 140.2753485, 39.927971 ], [ 140.274222, 39.9319768 ], [ 140.2658181, 39.9377983 ], [ 140.2669464, 39.9417597 ], [ 140.26126739999998, 39.949723 ], [ 140.2515334, 39.9547439 ], [ 140.247552499999983, 39.9601487 ], [ 140.252676399999984, 39.970127 ], [ 140.250432599999982, 39.9836059 ], [ 140.243185399999987, 39.9854357 ], [ 140.2343492, 39.9918166 ], [ 140.2366739, 40.0007613 ], [ 140.2353788, 40.0076721 ], [ 140.230846899999989, 40.0044571 ], [ 140.2197324, 40.0059883 ], [ 140.2116854, 40.0115847 ], [ 140.1979203, 40.0129134 ], [ 140.1874722, 40.0106215 ], [ 140.176508, 40.004244 ], [ 140.1707982, 40.0105537 ], [ 140.158235599999983, 40.0106666 ], [ 140.152511799999985, 40.0044669 ], [ 140.1390759, 39.9969706 ], [ 140.1318556, 39.9977467 ], [ 140.126936200000017, 39.9893059 ], [ 140.116284, 39.9862923 ], [ 140.121035399999982, 39.9783373 ], [ 140.117053199999987, 39.9793314 ], [ 140.089279299999987, 39.9747247 ], [ 140.078457, 39.9826553 ], [ 140.078585299999986, 39.9859217 ], [ 140.0686129, 39.9868257 ], [ 140.0704771, 40.009809 ], [ 140.0713041, 40.0400987 ], [ 140.0664012, 40.0508496 ], [ 140.0589889, 40.0615424 ], [ 140.051729599999987, 40.0660621 ], [ 140.020232, 40.0783933 ], [ 140.016618599999987, 40.0821619 ], [ 140.0018422, 40.0875275 ], [ 139.999503799999985, 40.093373 ], [ 139.9854082, 40.0933778 ], [ 139.9809558, 40.0783664 ], [ 139.976365, 40.0763226 ], [ 139.980917299999987, 40.0711884 ], [ 139.9790103, 40.0669828 ], [ 139.9671961, 40.062259 ], [ 139.9620409, 40.0575231 ], [ 139.9531764, 40.0616007 ], [ 139.958025300000031, 40.0663048 ], [ 139.9573244, 40.070019 ], [ 139.9453743, 40.0730317 ], [ 139.9237676, 40.041105 ], [ 139.9018255, 40.0158438 ], [ 139.885199500000027, 39.9994899 ], [ 139.8727386, 39.9887707 ], [ 139.8451454, 39.9709444 ], [ 139.8314469, 39.964711099999988 ], [ 139.809453599999983, 39.9578302 ], [ 139.797743800000035, 39.9568001 ], [ 139.786009399999983, 39.9608546 ], [ 139.7830004, 39.9671284 ], [ 139.771071299999988, 39.9701901 ], [ 139.765719, 39.9748653 ], [ 139.740678299999985, 39.9790382 ], [ 139.7342878, 39.9838691 ], [ 139.7234661, 39.9816346 ], [ 139.716287099999988, 39.9872795 ], [ 139.7126035, 39.9951457 ], [ 139.701768, 40.0067997 ], [ 139.6932429, 39.9956317 ], [ 139.6973365, 39.9867594 ], [ 139.6944713, 39.9805598 ], [ 139.7009488, 39.9766969 ], [ 139.7007707, 39.9684969 ], [ 139.708874, 39.9564719 ], [ 139.714424899999983, 39.9604416 ], [ 139.7211668, 39.9542696 ], [ 139.719072899999986, 39.9461515 ], [ 139.7049735, 39.9445746 ], [ 139.7047555, 39.9340577 ], [ 139.710616, 39.9272456 ], [ 139.713457399999982, 39.9186132 ], [ 139.7253359, 39.907620099999988 ], [ 139.728373399999981, 39.9100156 ], [ 139.7349241, 39.9053518 ], [ 139.7340917, 39.8965695 ], [ 139.7361218, 39.8938753 ], [ 139.736977699999983, 39.8806035 ], [ 139.7409872, 39.8768668 ], [ 139.7406091, 39.871362 ], [ 139.746896599999985, 39.8655293 ], [ 139.761471299999982, 39.8621943 ], [ 139.7726136, 39.8646239 ], [ 139.7791923, 39.8645553 ], [ 139.794851599999987, 39.8675151 ], [ 139.800554, 39.8652349 ], [ 139.80862, 39.8585997 ], [ 139.8211672, 39.8587364 ], [ 139.8216136, 39.8636548 ], [ 139.8307728, 39.8689299 ], [ 139.837875699999984, 39.8666386 ], [ 139.8379539, 39.8629576 ], [ 139.8496508, 39.8634153 ], [ 139.861248599999982, 39.8663317 ], [ 139.8587488, 39.872308499999988 ], [ 139.851575699999984, 39.8706202 ], [ 139.8472079, 39.8774779 ], [ 139.8594885, 39.8853474 ], [ 139.8531442, 39.8870525 ], [ 139.8597129, 39.8945095 ], [ 139.863726, 39.8904794 ], [ 139.8587071, 39.8956459 ], [ 139.866073299999982, 39.8976149 ], [ 139.883159799999987, 39.8995004 ], [ 139.891522, 39.8989529 ], [ 139.8975194, 39.9022985 ], [ 139.9132306, 39.9017439 ], [ 139.9249173, 39.8995035 ], [ 139.950398399999983, 39.8898084 ], [ 139.9681798, 39.8802231 ], [ 139.9931823, 39.8602056 ], [ 140.00415959999998, 39.8493267 ], [ 140.0193228, 39.8306067 ], [ 140.0288583, 39.8155034 ], [ 140.0340429, 39.8044876 ], [ 140.055689799999982, 39.8070449 ], [ 140.0549321, 39.8287556 ], [ 140.048732299999983, 39.8445903 ], [ 140.0492073, 39.8491412 ], [ 140.0562828, 39.8515753 ], [ 140.0594604, 39.8473039 ], [ 140.0661709, 39.8504117 ], [ 140.0663384, 39.8557433 ], [ 140.0724917, 39.857515 ], [ 140.0776462, 39.8538577 ], [ 140.0760535, 39.8504858 ], [ 140.080879899999985, 39.8445988 ], [ 140.086118, 39.845471 ], [ 140.093521399999986, 39.8352926 ], [ 140.0987283, 39.8411304 ], [ 140.1079714, 39.8422534 ], [ 140.117525299999983, 39.8507015 ], [ 140.1328976, 39.8449019 ], [ 140.1405471, 39.8465319 ], [ 140.147159599999981, 39.8446863 ], [ 140.1552541, 39.849581 ], [ 140.1666464, 39.8446851 ], [ 140.175189499999988, 39.8447532 ], [ 140.186294299999986, 39.8482956 ], [ 140.1990429, 39.8555826 ] ] ] } },
{ "type": "Feature", "properties": { "hokenjo": "大館" }, "geometry": { "type": "Polygon", "coordinates": [ [ [ 140.926774199999983, 40.421106 ], [ 140.919225, 40.4273157 ], [ 140.910945, 40.423298 ], [ 140.90671949999998, 40.4252669 ], [ 140.8967778, 40.4251961 ], [ 140.8923259, 40.4233516 ], [ 140.8613226, 40.4406293 ], [ 140.8781074, 40.4984171 ], [ 140.880061499999982, 40.5102462 ], [ 140.8522956, 40.5052555 ], [ 140.84502089999998, 40.5073597 ], [ 140.8365421, 40.5041244 ], [ 140.8263905, 40.4959203 ], [ 140.82002559999998, 40.4953303 ], [ 140.8146806, 40.4884394 ], [ 140.810629, 40.4871297 ], [ 140.8114876, 40.4785565 ], [ 140.808564099999984, 40.4697856 ], [ 140.807715299999984, 40.4578086 ], [ 140.803402799999986, 40.4485896 ], [ 140.793542299999984, 40.4493452 ], [ 140.786846699999984, 40.4572314 ], [ 140.7724126, 40.4512278 ], [ 140.7693831, 40.4539147 ], [ 140.7627137, 40.4512473 ], [ 140.752702699999986, 40.4391736 ], [ 140.741288199999985, 40.4379412 ], [ 140.734093799999982, 40.4396826 ], [ 140.7316164, 40.4304978 ], [ 140.7358583, 40.4278597 ], [ 140.7335698, 40.4158028 ], [ 140.7230164, 40.4166109 ], [ 140.717467, 40.421109 ], [ 140.7160747, 40.4275648 ], [ 140.7026536, 40.427126 ], [ 140.6992281, 40.429416 ], [ 140.687522500000028, 40.4270229 ], [ 140.6872573, 40.4184199 ], [ 140.675874, 40.412876 ], [ 140.666453499999989, 40.4115927 ], [ 140.6642879, 40.4068724 ], [ 140.653692399999983, 40.4036044 ], [ 140.6452329, 40.4030905 ], [ 140.636291199999988, 40.4094847 ], [ 140.632934799999987, 40.4177128 ], [ 140.6236136, 40.4245195 ], [ 140.6120431, 40.4236848 ], [ 140.6058931, 40.426004 ], [ 140.6035944, 40.4299226 ], [ 140.5897305, 40.4361129 ], [ 140.58870779999998, 40.4301957 ], [ 140.5756064, 40.4289227 ], [ 140.574095299999982, 40.4261418 ], [ 140.557636299999984, 40.4256919 ], [ 140.553212699999989, 40.4199849 ], [ 140.5593625, 40.4113404 ], [ 140.5659698, 40.4064746 ], [ 140.5670695, 40.3986407 ], [ 140.5591451, 40.3970593 ], [ 140.547349199999985, 40.4039144 ], [ 140.5407831, 40.4026752 ], [ 140.5321816, 40.4112802 ], [ 140.5238094, 40.4102127 ], [ 140.524394299999983, 40.4189516 ], [ 140.529810199999986, 40.4202641 ], [ 140.5308082, 40.4267136 ], [ 140.5278834, 40.4313289 ], [ 140.508454799999981, 40.4285258 ], [ 140.4980122, 40.43645 ], [ 140.4851596, 40.4408653 ], [ 140.484321599999987, 40.4462223 ], [ 140.477647099999984, 40.4530748 ], [ 140.465886500000011, 40.4539831 ], [ 140.4594114, 40.4564473 ], [ 140.4438237, 40.4506337 ], [ 140.437551899999988, 40.4552693 ], [ 140.4370194, 40.4654704 ], [ 140.433460199999985, 40.4677018 ], [ 140.4372688, 40.4784546 ], [ 140.42707679999998, 40.4825916 ], [ 140.4174966, 40.4799535 ], [ 140.406115699999987, 40.4746385 ], [ 140.3967246, 40.4782274 ], [ 140.395674, 40.4820427 ], [ 140.3869631, 40.4870566 ], [ 140.377947899999981, 40.4765402 ], [ 140.361301199999986, 40.4783916 ], [ 140.347808499999985, 40.4675477 ], [ 140.34337069999998, 40.4616616 ], [ 140.3437849, 40.4522001 ], [ 140.339148599999987, 40.4411362 ], [ 140.3352161, 40.4393834 ], [ 140.333404799999983, 40.4273221 ], [ 140.336407799999989, 40.4242023 ], [ 140.332680400000015, 40.4196848 ], [ 140.3365379, 40.4117287 ], [ 140.3365066, 40.4057217 ], [ 140.333158199999986, 40.4032029 ], [ 140.3344247, 40.3857589 ], [ 140.3382765, 40.3784589 ], [ 140.350279, 40.3733959 ], [ 140.3564338, 40.3665584 ], [ 140.353479099999987, 40.3612386 ], [ 140.353154100000012, 40.3548914 ], [ 140.3676056, 40.3485158 ], [ 140.375352599999985, 40.3439275 ], [ 140.3749043, 40.3357394 ], [ 140.376792199999983, 40.3206736 ], [ 140.3840837, 40.3139661 ], [ 140.383252299999981, 40.3089347 ], [ 140.393299399999989, 40.2995605 ], [ 140.3937699, 40.2951402 ], [ 140.401737, 40.2877929 ], [ 140.404684299999985, 40.280541 ], [ 140.4088071, 40.278914 ], [ 140.416149099999984, 40.2715612 ], [ 140.410990199999986, 40.2672368 ], [ 140.414472, 40.2575204 ], [ 140.42044150000001, 40.2543326 ], [ 140.4438404, 40.2574467 ], [ 140.446655199999981, 40.2564839 ], [ 140.4482141, 40.2477566 ], [ 140.4591581, 40.2420249 ], [ 140.4715182, 40.2410849 ], [ 140.472251299999982, 40.2330293 ], [ 140.468399799999986, 40.2225371 ], [ 140.4740371, 40.2182631 ], [ 140.4849074, 40.2138883 ], [ 140.487125099999986, 40.2019116 ], [ 140.4802554, 40.1961063 ], [ 140.4794968, 40.1915794 ], [ 140.484586299999989, 40.1876435 ], [ 140.488139, 40.1784882 ], [ 140.4951266, 40.1740231 ], [ 140.4896819, 40.1678514 ], [ 140.5020161, 40.1644991 ], [ 140.50160649999998, 40.1603402 ], [ 140.496229299999982, 40.1538927 ], [ 140.5076585, 40.1548404 ], [ 140.5168483, 40.1508715 ], [ 140.51924889999998, 40.1474445 ], [ 140.530718899999982, 40.1518514 ], [ 140.538531399999982, 40.1593897 ], [ 140.544966499999987, 40.1535999 ], [ 140.543482399999988, 40.1429629 ], [ 140.549352199999987, 40.1420209 ], [ 140.5529603, 40.1349543 ], [ 140.5609312, 40.1348725 ], [ 140.590219099999985, 40.1295865 ], [ 140.597463299999987, 40.1229051 ], [ 140.6010708, 40.1220384 ], [ 140.6014908, 40.1115173 ], [ 140.5988123, 40.1000275 ], [ 140.6015012, 40.0963786 ], [ 140.600057599999985, 40.0873595 ], [ 140.6061679, 40.087105 ], [ 140.6165071, 40.0803583 ], [ 140.6278706, 40.0878833 ], [ 140.637320099999982, 40.0912105 ], [ 140.6396145, 40.0849938 ], [ 140.64955, 40.0875763 ], [ 140.6617498, 40.0828663 ], [ 140.66623869999998, 40.0745891 ], [ 140.679659800000024, 40.0749329 ], [ 140.689869, 40.0702499 ], [ 140.689619099999987, 40.0593193 ], [ 140.69712389999998, 40.0483801 ], [ 140.700127100000032, 40.0326573 ], [ 140.7067686, 40.0252977 ], [ 140.7133806, 40.0223191 ], [ 140.715475, 40.0182199 ], [ 140.721062, 40.0169474 ], [ 140.724240399999985, 40.0120204 ], [ 140.732580399999989, 40.0093851 ], [ 140.732162200000033, 39.9998054 ], [ 140.738513899999987, 39.9971859 ], [ 140.745497299999982, 39.9881556 ], [ 140.749495599999989, 39.9881075 ], [ 140.7550757, 39.9813283 ], [ 140.750650799999988, 39.9777477 ], [ 140.7512044, 39.971706 ], [ 140.7568231, 39.9695802 ], [ 140.7567182, 39.9640307 ], [ 140.763518399999981, 39.9622998 ], [ 140.7703281, 39.9649628 ], [ 140.7813323, 39.9640658 ], [ 140.7925366, 39.970668 ], [ 140.80137209999998, 39.9696093 ], [ 140.8033565, 39.9733426 ], [ 140.8117748, 39.9757806 ], [ 140.82652779999998, 39.9700464 ], [ 140.8320028, 39.9660317 ], [ 140.838054199999988, 39.9654097 ], [ 140.847935299999989, 39.959333 ], [ 140.846883, 39.9761727 ], [ 140.848149299999989, 39.9878124 ], [ 140.850807299999985, 39.9937535 ], [ 140.848998599999987, 40.0080683 ], [ 140.8554672, 40.0139219 ], [ 140.8531647, 40.0184055 ], [ 140.855601, 40.0221924 ], [ 140.851686299999983, 40.0257324 ], [ 140.850409, 40.0317099 ], [ 140.854617599999983, 40.0362194 ], [ 140.855365799999987, 40.0466989 ], [ 140.851141899999988, 40.0534239 ], [ 140.8509651, 40.0614997 ], [ 140.8472348, 40.0651964 ], [ 140.8444778, 40.0745909 ], [ 140.8513247, 40.0778548 ], [ 140.8516438, 40.081279 ], [ 140.8575266, 40.0861996 ], [ 140.863313799999986, 40.0849451 ], [ 140.8720923, 40.0911735 ], [ 140.8773311, 40.0980863 ], [ 140.8793799, 40.105721 ], [ 140.878670699999986, 40.1150324 ], [ 140.87150459999998, 40.1158147 ], [ 140.8740368, 40.1223858 ], [ 140.867202599999985, 40.1306273 ], [ 140.8745444, 40.1431001 ], [ 140.88315129999998, 40.153582 ], [ 140.8824032, 40.1590034 ], [ 140.8754784, 40.1607768 ], [ 140.869111799999985, 40.159481 ], [ 140.861495, 40.1659108 ], [ 140.85926, 40.1715845 ], [ 140.8684977, 40.1778264 ], [ 140.8725071, 40.1782781 ], [ 140.892362500000019, 40.1922795 ], [ 140.88952519999998, 40.2005356 ], [ 140.898299899999984, 40.2089943 ], [ 140.8957873, 40.2136463 ], [ 140.9042556, 40.2181482 ], [ 140.9054808, 40.2221377 ], [ 140.9177608, 40.2234301 ], [ 140.9242255, 40.2258737 ], [ 140.93410609999998, 40.2260734 ], [ 140.9422066, 40.2286864 ], [ 140.940092, 40.240240899999989 ], [ 140.9467711, 40.2469462 ], [ 140.9550739, 40.2476281 ], [ 140.9457105, 40.2580749 ], [ 140.947266, 40.2644541 ], [ 140.95277729999998, 40.2712484 ], [ 140.954285, 40.2797429 ], [ 140.9575822, 40.2820376 ], [ 140.9523927, 40.2874188 ], [ 140.944598, 40.2881377 ], [ 140.943973699999987, 40.2962594 ], [ 140.953420099999988, 40.301048 ], [ 140.957580799999988, 40.3065133 ], [ 140.958909899999981, 40.3216234 ], [ 140.968558, 40.3374921 ], [ 140.9629454, 40.34669 ], [ 140.965386199999983, 40.3502936 ], [ 140.9739271, 40.3441416 ], [ 140.9812202, 40.3433719 ], [ 140.9952447, 40.3552436 ], [ 140.9911727, 40.3673397 ], [ 140.9950127, 40.3701698 ], [ 140.984409199999988, 40.3884266 ], [ 140.9872919, 40.3983727 ], [ 140.981403699999987, 40.4056464 ], [ 140.9827378, 40.4135109 ], [ 140.979701700000021, 40.4177092 ], [ 140.9855508, 40.4217137 ], [ 140.9851536, 40.4272179 ], [ 140.9722074, 40.4308501 ], [ 140.96187519999998, 40.4269329 ], [ 140.9512638, 40.4263076 ], [ 140.941954899999985, 40.4302013 ], [ 140.9329617, 40.4212737 ], [ 140.926774199999983, 40.421106 ] ] ] } },
{ "type": "Feature", "properties": { "hokenjo": "大仙" }, "geometry": { "type": "Polygon", "coordinates": [ [ [ 140.6981544, 39.4677847 ], [ 140.7164646, 39.4785444 ], [ 140.724404599999986, 39.480534399999989 ], [ 140.718899, 39.4849916 ], [ 140.7132714, 39.4940566 ], [ 140.7136839, 39.4992014 ], [ 140.7228, 39.5040708 ], [ 140.724653, 39.5184627 ], [ 140.7321749, 39.5223871 ], [ 140.736563, 39.5214418 ], [ 140.7391916, 39.5334904 ], [ 140.7413594, 39.5361857 ], [ 140.7395171, 39.5468468 ], [ 140.729151699999989, 39.5529813 ], [ 140.727270799999985, 39.5589749 ], [ 140.7303594, 39.5658427 ], [ 140.7402564, 39.5653374 ], [ 140.7542967, 39.5707195 ], [ 140.764268800000025, 39.5878542 ], [ 140.7753332, 39.5910008 ], [ 140.782479200000012, 39.6040871 ], [ 140.796298399999984, 39.6031534 ], [ 140.8050136, 39.6128134 ], [ 140.802571799999981, 39.6188484 ], [ 140.8083881, 39.6242631 ], [ 140.8070075, 39.6313381 ], [ 140.811720399999984, 39.6366995 ], [ 140.815347, 39.646117 ], [ 140.8202152, 39.6527631 ], [ 140.822980600000022, 39.6654518 ], [ 140.821906399999989, 39.673101 ], [ 140.8184092, 39.6800994 ], [ 140.822589099999988, 39.6878803 ], [ 140.8157147, 39.6909693 ], [ 140.809891400000026, 39.6984438 ], [ 140.809903599999984, 39.7080225 ], [ 140.8053031, 39.7107951 ], [ 140.794460599999979, 39.709596 ], [ 140.7919239, 39.7155283 ], [ 140.783472, 39.7254521 ], [ 140.781947, 39.7313024 ], [ 140.7748225, 39.7345527 ], [ 140.780816099999981, 39.7379861 ], [ 140.788281399999988, 39.7382402 ], [ 140.7975226, 39.7411766 ], [ 140.8060673, 39.7476066 ], [ 140.8053304, 39.7566453 ], [ 140.8157654, 39.7625307 ], [ 140.8195285, 39.7718537 ], [ 140.825576499999983, 39.7743273 ], [ 140.834631799999983, 39.7808846 ], [ 140.840038, 39.7885073 ], [ 140.8482706, 39.7932514 ], [ 140.8472018, 39.7982614 ], [ 140.8416473, 39.8049209 ], [ 140.8246068, 39.81007 ], [ 140.8225195, 39.8147758 ], [ 140.813087, 39.8178456 ], [ 140.803394299999979, 39.8152701 ], [ 140.7943742, 39.8212563 ], [ 140.7867664, 39.8233522 ], [ 140.7830185, 39.8312394 ], [ 140.7861737, 39.8351588 ], [ 140.7885911, 39.8523371 ], [ 140.7839352, 39.8564661 ], [ 140.782236399999988, 39.8678486 ], [ 140.788094299999983, 39.8741986 ], [ 140.791324799999984, 39.8742752 ], [ 140.799514, 39.8816788 ], [ 140.813977599999987, 39.8790962 ], [ 140.8285137, 39.8848039 ], [ 140.843089099999986, 39.8714759 ], [ 140.8529244, 39.8657874 ], [ 140.857337600000022, 39.8696052 ], [ 140.870149699999985, 39.8710081 ], [ 140.877989899999989, 39.8743553 ], [ 140.879632, 39.8833237 ], [ 140.8748325, 39.8941127 ], [ 140.867652199999981, 39.8996375 ], [ 140.868054299999983, 39.9116609 ], [ 140.86469839999998, 39.9168046 ], [ 140.8546949, 39.9232891 ], [ 140.8570712, 39.9310683 ], [ 140.852267, 39.9364026 ], [ 140.856918, 39.9442012 ], [ 140.857209, 39.9530321 ], [ 140.847935299999989, 39.959333 ], [ 140.838054199999988, 39.9654097 ], [ 140.8320028, 39.9660317 ], [ 140.82652779999998, 39.9700464 ], [ 140.8117748, 39.9757806 ], [ 140.8033565, 39.9733426 ], [ 140.80137209999998, 39.9696093 ], [ 140.7925366, 39.970668 ], [ 140.7813323, 39.9640658 ], [ 140.7703281, 39.9649628 ], [ 140.763518399999981, 39.9622998 ], [ 140.7567182, 39.9640307 ], [ 140.7568231, 39.9695802 ], [ 140.7512044, 39.971706 ], [ 140.750650799999988, 39.9777477 ], [ 140.7550757, 39.9813283 ], [ 140.749495599999989, 39.9881075 ], [ 140.745497299999982, 39.9881556 ], [ 140.738513899999987, 39.9971859 ], [ 140.732162200000033, 39.9998054 ], [ 140.72256969999998, 39.9964185 ], [ 140.7146158, 39.9973066 ], [ 140.7139776, 39.9893296 ], [ 140.699886, 39.9844516 ], [ 140.6972369, 39.9816197 ], [ 140.695445, 39.9712886 ], [ 140.6915248, 39.9673658 ], [ 140.673021, 39.9634699 ], [ 140.677302699999984, 39.9593327 ], [ 140.6729272, 39.9553496 ], [ 140.6646681, 39.9523885 ], [ 140.659538699999985, 39.9446216 ], [ 140.6593891, 39.9408046 ], [ 140.6470139, 39.9331602 ], [ 140.634405499999986, 39.9322474 ], [ 140.629784199999989, 39.927523 ], [ 140.6348339, 39.9138799 ], [ 140.635974, 39.9055007 ], [ 140.632957399999981, 39.8987785 ], [ 140.6253547, 39.8899146 ], [ 140.6193467, 39.8888804 ], [ 140.6133709, 39.8842591 ], [ 140.5992494, 39.8861439 ], [ 140.5941938, 39.8846256 ], [ 140.5826286, 39.8946262 ], [ 140.5699641, 39.8940557 ], [ 140.56113019999998, 39.8888852 ], [ 140.557105, 39.8840144 ], [ 140.546400299999988, 39.8811394 ], [ 140.5378111, 39.881130899999988 ], [ 140.535827399999988, 39.8715628 ], [ 140.5369345, 39.8611072 ], [ 140.5288209, 39.8563025 ], [ 140.527824899999985, 39.8504167 ], [ 140.5235955, 39.8478011 ], [ 140.5141399, 39.8465659 ], [ 140.5095997, 39.8399831 ], [ 140.513764899999984, 39.8302064 ], [ 140.51711419999998, 39.8165619 ], [ 140.512677599999989, 39.8100933 ], [ 140.5082406, 39.809773299999989 ], [ 140.4915273, 39.8043978 ], [ 140.4883745, 39.8052873 ], [ 140.480374, 39.7965273 ], [ 140.483506, 39.7944106 ], [ 140.490073099999989, 39.7807353 ], [ 140.5062833, 39.767909 ], [ 140.510182, 39.7546651 ], [ 140.5156135, 39.7477926 ], [ 140.5087014, 39.7404301 ], [ 140.508791699999989, 39.7324956 ], [ 140.503200599999985, 39.726217 ], [ 140.496490099999988, 39.7237264 ], [ 140.4922795, 39.7235845 ], [ 140.48326179999998, 39.7175431 ], [ 140.4747801, 39.7168976 ], [ 140.4471198, 39.7051368 ], [ 140.4322867, 39.7074833 ], [ 140.4308967, 39.7104686 ], [ 140.419277199999982, 39.7150625 ], [ 140.4141682, 39.7145075 ], [ 140.406987499999985, 39.7068575 ], [ 140.3953338, 39.7044117 ], [ 140.3924169, 39.6999161 ], [ 140.372346599999986, 39.6929115 ], [ 140.364010399999984, 39.6951515 ], [ 140.3527345, 39.6907946 ], [ 140.3477073, 39.6912902 ], [ 140.342151799999982, 39.6836504 ], [ 140.343469, 39.6767354 ], [ 140.3382573, 39.6764541 ], [ 140.3255306, 39.680598 ], [ 140.3223031, 39.6763386 ], [ 140.3111858, 39.6728655 ], [ 140.3066072, 39.6674066 ], [ 140.3103257, 39.6556261 ], [ 140.309047099999987, 39.6476005 ], [ 140.2952851, 39.6488053 ], [ 140.292201899999981, 39.6554389 ], [ 140.286058, 39.654007 ], [ 140.2708288, 39.653512 ], [ 140.267255200000022, 39.6444334 ], [ 140.2715303, 39.6397609 ], [ 140.28437169999998, 39.6405442 ], [ 140.2857043, 39.6371439 ], [ 140.2841819, 39.6251497 ], [ 140.2774924, 39.621948 ], [ 140.2769255, 39.615723 ], [ 140.267556600000034, 39.6098525 ], [ 140.26815, 39.6015486 ], [ 140.261970599999984, 39.5941311 ], [ 140.258041099999986, 39.5934186 ], [ 140.25435109999998, 39.5869931 ], [ 140.256176, 39.5780072 ], [ 140.2543757, 39.5754336 ], [ 140.243487, 39.5731519 ], [ 140.2394421, 39.56259 ], [ 140.2329732, 39.5599947 ], [ 140.2327419, 39.5509036 ], [ 140.227314399999983, 39.5479303 ], [ 140.2282, 39.5434917 ], [ 140.241487, 39.5438866 ], [ 140.24673439999998, 39.5384458 ], [ 140.248863699999987, 39.519426599999989 ], [ 140.2522424, 39.5132574 ], [ 140.263118099999986, 39.5120831 ], [ 140.2704646, 39.5037061 ], [ 140.2684721, 39.4990903 ], [ 140.275386199999986, 39.4918606 ], [ 140.266087, 39.4855494 ], [ 140.2711343, 39.4786911 ], [ 140.2764028, 39.4748769 ], [ 140.28141789999998, 39.4676463 ], [ 140.281806099999983, 39.4554635 ], [ 140.2789013, 39.4509971 ], [ 140.2689732, 39.449571 ], [ 140.2717628, 39.4379699 ], [ 140.2696411, 39.4344635 ], [ 140.2785046, 39.4242332 ], [ 140.2941242, 39.4198112 ], [ 140.298856199999989, 39.4208242 ], [ 140.3064201, 39.4166375 ], [ 140.304746599999987, 39.4069292 ], [ 140.2968371, 39.4003853 ], [ 140.288241, 39.3997853 ], [ 140.289018199999987, 39.3940295 ], [ 140.2978463, 39.3935689 ], [ 140.315843699999988, 39.3904141 ], [ 140.3201923, 39.3825897 ], [ 140.324744899999985, 39.3776997 ], [ 140.33202380000003, 39.3755674 ], [ 140.340039099999984, 39.3777779 ], [ 140.343453, 39.3812832 ], [ 140.345725499999986, 39.3899576 ], [ 140.356613300000021, 39.3955915 ], [ 140.363775799999985, 39.396154 ], [ 140.3647953, 39.3909856 ], [ 140.3695981, 39.3854823 ], [ 140.3786423, 39.38624 ], [ 140.387479, 39.3842867 ], [ 140.3895702, 39.3863486 ], [ 140.3828256, 39.3946047 ], [ 140.3900898, 39.3986425 ], [ 140.4013029, 39.3962941 ], [ 140.4114011, 39.3975655 ], [ 140.4139719, 39.3998704 ], [ 140.423773399999988, 39.4000215 ], [ 140.4297906, 39.4063071 ], [ 140.440013099999987, 39.4090051 ], [ 140.4477796, 39.4089376 ], [ 140.4495732, 39.4059584 ], [ 140.4612172, 39.4091686 ], [ 140.4610439, 39.4041864 ], [ 140.4668131, 39.4019361 ], [ 140.4626101, 39.3923244 ], [ 140.4624512, 39.3772038 ], [ 140.460979899999984, 39.3657096 ], [ 140.468257699999981, 39.3651362 ], [ 140.4739988, 39.3734479 ], [ 140.481075799999985, 39.3754629 ], [ 140.4893778, 39.3834451 ], [ 140.4919626, 39.3788404 ], [ 140.497899499999988, 39.3782976 ], [ 140.501386, 39.3729481 ], [ 140.507839400000023, 39.3695222 ], [ 140.512576699999983, 39.362504099999988 ], [ 140.5261296, 39.3575651 ], [ 140.533329399999985, 39.3564787 ], [ 140.5306612, 39.3628926 ], [ 140.5397185, 39.3637298 ], [ 140.548261599999989, 39.3569753 ], [ 140.550236399999989, 39.3606225 ], [ 140.5513866, 39.3714964 ], [ 140.554986499999984, 39.3760442 ], [ 140.5704685, 39.376713 ], [ 140.5722888, 39.3803116 ], [ 140.5952777, 39.3782062 ], [ 140.5996797, 39.3757159 ], [ 140.6113446, 39.3812041 ], [ 140.6156684, 39.3800425 ], [ 140.6175107, 39.3744216 ], [ 140.627261399999981, 39.3710576 ], [ 140.6320935, 39.3786179 ], [ 140.643331, 39.3816334 ], [ 140.65345240000002, 39.3858806 ], [ 140.656171, 39.3891459 ], [ 140.6532254, 39.3907979 ], [ 140.658899099999985, 39.4005846 ], [ 140.6636897, 39.4037501 ], [ 140.658822099999981, 39.4092538 ], [ 140.6582395, 39.4141488 ], [ 140.6708864, 39.4176557 ], [ 140.6810964, 39.4183859 ], [ 140.685125, 39.4246654 ], [ 140.6855951, 39.437263 ], [ 140.6777533, 39.445213 ], [ 140.6769874, 39.4484039 ], [ 140.6895269, 39.4648094 ], [ 140.6981544, 39.4677847 ] ] ] } },
{ "type": "Feature", "properties": { "hokenjo": "湯沢" }, "geometry": { "type": "Polygon", "coordinates": [ [ [ 140.755625399999985, 38.9582079 ], [ 140.763168399999984, 38.9570771 ], [ 140.7720965, 38.9583939 ], [ 140.7747494, 38.968992 ], [ 140.7701543, 38.9761981 ], [ 140.7691064, 38.9814528 ], [ 140.763898899999987, 38.9893954 ], [ 140.76790219999998, 38.9947106 ], [ 140.7644065, 39.0003659 ], [ 140.7788482, 39.0083944 ], [ 140.779977, 39.0144069 ], [ 140.7857153, 39.0215105 ], [ 140.790762299999983, 39.0240899 ], [ 140.7960871, 39.0360166 ], [ 140.7935334, 39.0417169 ], [ 140.7994234, 39.0445326 ], [ 140.805178, 39.052024 ], [ 140.805287099999987, 39.0578523 ], [ 140.799447200000031, 39.0628366 ], [ 140.8044349, 39.0705713 ], [ 140.7999769, 39.0765444 ], [ 140.7854748, 39.0791039 ], [ 140.7788511, 39.0820673 ], [ 140.771967099999983, 39.0786798 ], [ 140.763220599999983, 39.0805915 ], [ 140.758526300000028, 39.0853821 ], [ 140.7529063, 39.0860163 ], [ 140.7559325, 39.0967724 ], [ 140.7632468, 39.1088582 ], [ 140.75593139999998, 39.1121874 ], [ 140.755873799999989, 39.1180536 ], [ 140.7666055, 39.1202179 ], [ 140.769980799999985, 39.1241649 ], [ 140.7578672, 39.1329021 ], [ 140.7510752, 39.1332619 ], [ 140.7497262, 39.1404108 ], [ 140.7561422, 39.1436763 ], [ 140.7655494, 39.1523083 ], [ 140.77073919999998, 39.1593804 ], [ 140.7738774, 39.1675924 ], [ 140.7862275, 39.1667813 ], [ 140.7883344, 39.1725109 ], [ 140.7962143, 39.1765717 ], [ 140.7988991, 39.175169 ], [ 140.8078577, 39.1783831 ], [ 140.8059551, 39.1833198 ], [ 140.797392699999989, 39.1899562 ], [ 140.7885188, 39.1886015 ], [ 140.7787217, 39.1947632 ], [ 140.7708575, 39.1935291 ], [ 140.7648491, 39.1977605 ], [ 140.76755510000001, 39.2045018 ], [ 140.7666183, 39.2085254 ], [ 140.7607942, 39.2058871 ], [ 140.7597667, 39.2019863 ], [ 140.753195399999981, 39.1983324 ], [ 140.7366376, 39.1958095 ], [ 140.7282191, 39.1994831 ], [ 140.722209099999986, 39.1968976 ], [ 140.71775839999998, 39.1906412 ], [ 140.7092917, 39.1877118 ], [ 140.6987508, 39.186763 ], [ 140.6916037, 39.1881644 ], [ 140.677781399999986, 39.1987434 ], [ 140.675621399999983, 39.2020445 ], [ 140.664994399999983, 39.2092748 ], [ 140.6607195, 39.2060954 ], [ 140.6470357, 39.2067477 ], [ 140.6385359, 39.2046553 ], [ 140.6398854, 39.2014337 ], [ 140.637375800000029, 39.1944709 ], [ 140.626536200000032, 39.1958777 ], [ 140.6214166, 39.1855499 ], [ 140.6363853, 39.1735106 ], [ 140.6434601, 39.1561923 ], [ 140.6398743, 39.1516651 ], [ 140.6496261, 39.144645 ], [ 140.655827, 39.1472319 ], [ 140.664679299999989, 39.1538493 ], [ 140.669446099999988, 39.1488896 ], [ 140.678903500000018, 39.1486931 ], [ 140.687844, 39.1388122 ], [ 140.68559879999998, 39.1322245 ], [ 140.681672599999985, 39.1291112 ], [ 140.6903139, 39.1078745 ], [ 140.687110599999983, 39.0997715 ], [ 140.6821323, 39.0924601 ], [ 140.676324699999981, 39.0933688 ], [ 140.6630639, 39.0982786 ], [ 140.6512315, 39.0992856 ], [ 140.6449888, 39.1066515 ], [ 140.635807299999982, 39.1073377 ], [ 140.630658399999987, 39.1052455 ], [ 140.625256, 39.1121808 ], [ 140.621711399999981, 39.1212425 ], [ 140.616269599999981, 39.1215148 ], [ 140.611633899999987, 39.126302 ], [ 140.6132125, 39.1329145 ], [ 140.6170502, 39.1381275 ], [ 140.6123474, 39.1404687 ], [ 140.6101305, 39.1497723 ], [ 140.6158997, 39.1528006 ], [ 140.6143796, 39.160237 ], [ 140.6088206, 39.1630489 ], [ 140.6071938, 39.1718245 ], [ 140.6003269, 39.1839921 ], [ 140.5941282, 39.1835216 ], [ 140.588366899999983, 39.1873841 ], [ 140.574683099999987, 39.1924715 ], [ 140.56804409999998, 39.1935304 ], [ 140.5599507, 39.1896038 ], [ 140.54294, 39.189442 ], [ 140.5448979, 39.1803384 ], [ 140.535508099999987, 39.1729565 ], [ 140.5257149, 39.1783883 ], [ 140.5213775, 39.1885297 ], [ 140.5222455, 39.1948522 ], [ 140.5287897, 39.1974127 ], [ 140.525742899999983, 39.2019622 ], [ 140.508722399999982, 39.2105926 ], [ 140.4920813, 39.2100679 ], [ 140.467606499999988, 39.217640599999989 ], [ 140.457261099999982, 39.2183954 ], [ 140.445602, 39.216321 ], [ 140.442226399999981, 39.2195432 ], [ 140.4418024, 39.2257516 ], [ 140.4301571, 39.2251961 ], [ 140.426233900000028, 39.2302353 ], [ 140.4220269, 39.2303467 ], [ 140.4214365, 39.2396217 ], [ 140.4252879, 39.2425561 ], [ 140.4120347, 39.2478312 ], [ 140.4100613, 39.2515062 ], [ 140.4017892, 39.2561765 ], [ 140.401704699999982, 39.2601409 ], [ 140.379499, 39.2594553 ], [ 140.374051799999989, 39.2620856 ], [ 140.3618756, 39.2603851 ], [ 140.346758599999987, 39.2504893 ], [ 140.3411839, 39.2444913 ], [ 140.3369683, 39.2488754 ], [ 140.33146, 39.2461191 ], [ 140.325582699999984, 39.2480135 ], [ 140.312609899999984, 39.2468033 ], [ 140.3096712, 39.2480741 ], [ 140.301565899999986, 39.2445756 ], [ 140.28412609999998, 39.2433376 ], [ 140.2819103, 39.2403004 ], [ 140.2704421, 39.2401934 ], [ 140.2703991, 39.2375015 ], [ 140.2606204, 39.234791 ], [ 140.2483981, 39.2245574 ], [ 140.229683699999981, 39.2290805 ], [ 140.222711799999985, 39.2268825 ], [ 140.2217913, 39.2181336 ], [ 140.229735600000026, 39.21103 ], [ 140.2300477, 39.20368 ], [ 140.23912009999998, 39.1936336 ], [ 140.248921199999984, 39.1968274 ], [ 140.2578244, 39.1881135 ], [ 140.256779199999983, 39.1830779 ], [ 140.2662597, 39.1732482 ], [ 140.2737478, 39.1714887 ], [ 140.2796821, 39.163397 ], [ 140.2816353, 39.1510028 ], [ 140.2920382, 39.1455264 ], [ 140.2962761, 39.138575 ], [ 140.3030499, 39.1335575 ], [ 140.3045003, 39.1234966 ], [ 140.312678500000032, 39.116308 ], [ 140.3158702, 39.1097099 ], [ 140.3169762, 39.1014822 ], [ 140.330338499999982, 39.1005182 ], [ 140.340966399999985, 39.0893257 ], [ 140.341942099999983, 39.0836029 ], [ 140.3432741, 39.0738699 ], [ 140.3337344, 39.0644971 ], [ 140.3351848, 39.0552268 ], [ 140.341352699999987, 39.0507352 ], [ 140.3427242, 39.0456165 ], [ 140.332043, 39.0402602 ], [ 140.3291025, 39.0348022 ], [ 140.332061399999986, 39.0305891 ], [ 140.344252399999988, 39.0258249 ], [ 140.354165599999988, 39.0238484 ], [ 140.3614301, 39.0243826 ], [ 140.3640337, 39.0094953 ], [ 140.3705194, 39.0043234 ], [ 140.374578899999989, 38.9957119 ], [ 140.3869597, 38.9944116 ], [ 140.3940895, 38.991278 ], [ 140.4053193, 38.9917354 ], [ 140.410843299999982, 38.9938482 ], [ 140.4138728, 38.9900446 ], [ 140.4205781, 38.9923429 ], [ 140.4318586, 38.991902 ], [ 140.437736, 38.9820948 ], [ 140.4455322, 38.980412 ], [ 140.4464415, 38.9731081 ], [ 140.451228, 38.9717678 ], [ 140.4498347, 38.9633247 ], [ 140.4536927, 38.9585947 ], [ 140.453551399999981, 38.9518114 ], [ 140.4495825, 38.945595 ], [ 140.4517237, 38.9375028 ], [ 140.4583083, 38.9338845 ], [ 140.4619746, 38.9253781 ], [ 140.461712399999982, 38.9203562 ], [ 140.4666418, 38.9163646 ], [ 140.479852199999982, 38.9146767 ], [ 140.4922642, 38.9064851 ], [ 140.4944538, 38.8988307 ], [ 140.4997811, 38.895064 ], [ 140.505212900000032, 38.8949373 ], [ 140.5158219, 38.9003556 ], [ 140.525996, 38.897452 ], [ 140.5355, 38.9007186 ], [ 140.54747279999998, 38.8910717 ], [ 140.5530555, 38.8828147 ], [ 140.5542643, 38.8762109 ], [ 140.562168, 38.8731556 ], [ 140.5697903, 38.8747844 ], [ 140.572873099999981, 38.8784371 ], [ 140.5931521, 38.8870049 ], [ 140.598675, 38.8851656 ], [ 140.6071445, 38.8866027 ], [ 140.609552799999989, 38.8924294 ], [ 140.615641499999981, 38.8936957 ], [ 140.6203602, 38.8903862 ], [ 140.6300043, 38.8892794 ], [ 140.6403403, 38.8839007 ], [ 140.6450145, 38.8886345 ], [ 140.6711147, 38.8971308 ], [ 140.6730163, 38.9036072 ], [ 140.679081100000019, 38.9082004 ], [ 140.680175199999979, 38.9133337 ], [ 140.685648, 38.9176047 ], [ 140.6941601, 38.9195469 ], [ 140.700392599999986, 38.9238174 ], [ 140.7070594, 38.9202667 ], [ 140.723342799999983, 38.9343718 ], [ 140.723221099999989, 38.9375229 ], [ 140.732092099999988, 38.9492665 ], [ 140.7433067, 38.9536783 ], [ 140.7452511, 38.9563719 ], [ 140.755625399999985, 38.9582079 ] ] ] } },
{ "type": "Feature", "properties": { "hokenjo": "能代" }, "geometry": { "type": "Polygon", "coordinates": [ [ [ 140.241776099999981, 40.0381891 ], [ 140.2366721, 40.0475008 ], [ 140.2424124, 40.0517414 ], [ 140.2393884, 40.055328 ], [ 140.240380099999982, 40.0604556 ], [ 140.250195, 40.0634514 ], [ 140.250052499999981, 40.0688022 ], [ 140.2542269, 40.071348 ], [ 140.25116079999998, 40.0725958 ], [ 140.254403699999983, 40.0804956 ], [ 140.2545601, 40.0861659 ], [ 140.2468481, 40.0886881 ], [ 140.2501169, 40.0992056 ], [ 140.242932, 40.111868199999989 ], [ 140.247689399999985, 40.1174087 ], [ 140.2470363, 40.1263104 ], [ 140.2502687, 40.1315582 ], [ 140.247955099999984, 40.1347241 ], [ 140.256536, 40.1521171 ], [ 140.253023399999989, 40.1688094 ], [ 140.2549027, 40.1828859 ], [ 140.265816799999982, 40.1834889 ], [ 140.2709468, 40.1887814 ], [ 140.2735006, 40.1963323 ], [ 140.2830284, 40.1952189 ], [ 140.294873699999982, 40.198005 ], [ 140.299370899999985, 40.2052431 ], [ 140.2919547, 40.2062939 ], [ 140.278602399999983, 40.2147848 ], [ 140.282857299999989, 40.2245757 ], [ 140.2735347, 40.2359946 ], [ 140.2760083, 40.2417099 ], [ 140.2875616, 40.2535799 ], [ 140.2904888, 40.2521386 ], [ 140.3098857, 40.255173 ], [ 140.311059299999982, 40.2644799 ], [ 140.323837, 40.2747563 ], [ 140.3223356, 40.2776383 ], [ 140.327417699999984, 40.2894791 ], [ 140.3227573, 40.3019053 ], [ 140.3253694, 40.311662 ], [ 140.3333711, 40.3161647 ], [ 140.3328888, 40.3227631 ], [ 140.3362002, 40.3248836 ], [ 140.3354976, 40.3317195 ], [ 140.35093, 40.349647 ], [ 140.353154100000012, 40.3548914 ], [ 140.353479099999987, 40.3612386 ], [ 140.3564338, 40.3665584 ], [ 140.350279, 40.3733959 ], [ 140.3382765, 40.3784589 ], [ 140.3344247, 40.3857589 ], [ 140.333158199999986, 40.4032029 ], [ 140.3365066, 40.4057217 ], [ 140.3365379, 40.4117287 ], [ 140.332680400000015, 40.4196848 ], [ 140.336407799999989, 40.4242023 ], [ 140.333404799999983, 40.4273221 ], [ 140.3352161, 40.4393834 ], [ 140.3209669, 40.438604 ], [ 140.3095389, 40.4365723 ], [ 140.3076261, 40.4418935 ], [ 140.2988708, 40.4462524 ], [ 140.288144599999981, 40.444894 ], [ 140.2793443, 40.4460521 ], [ 140.266867099999985, 40.4407426 ], [ 140.2514971, 40.4419087 ], [ 140.242501, 40.437279 ], [ 140.220168799999982, 40.4311455 ], [ 140.2100963, 40.4384286 ], [ 140.196960499999989, 40.4346223 ], [ 140.1874771, 40.4395742 ], [ 140.1803763, 40.441149 ], [ 140.162424099999981, 40.439359 ], [ 140.1514124, 40.4350235 ], [ 140.1472441, 40.438126 ], [ 140.1367299, 40.4396166 ], [ 140.133254099999988, 40.4379586 ], [ 140.107616, 40.4358961 ], [ 140.105089099999987, 40.440802 ], [ 140.099174299999987, 40.4439692 ], [ 140.0995012, 40.4529564 ], [ 140.09358229999998, 40.4589248 ], [ 140.078454199999982, 40.4668957 ], [ 140.0741286, 40.4646179 ], [ 140.068569699999983, 40.4688426 ], [ 140.059235299999983, 40.4672302 ], [ 140.0473542, 40.4607163 ], [ 140.0383631, 40.460781 ], [ 140.0248528, 40.4530858 ], [ 140.0202084, 40.4465505 ], [ 140.0253434, 40.4395847 ], [ 140.021629, 40.4294653 ], [ 140.011256, 40.4259644 ], [ 140.0064209, 40.4273511 ], [ 140.001031800000021, 40.4328931 ], [ 139.993727299999989, 40.4325362 ], [ 139.9852037, 40.4279126 ], [ 139.973524, 40.4265996 ], [ 139.9641139, 40.4302785 ], [ 139.9597675, 40.4348255 ], [ 139.9508734, 40.4309152 ], [ 139.942120099999983, 40.4299991 ], [ 139.9391712, 40.426808 ], [ 139.9442123, 40.422633 ], [ 139.948034299999989, 40.4133491 ], [ 139.9675039, 40.4037768 ], [ 139.9694183, 40.4000825 ], [ 139.978425, 40.3982906 ], [ 139.9801642, 40.3878239 ], [ 139.9873623, 40.3831667 ], [ 139.9990831, 40.3798094 ], [ 140.003491699999984, 40.3756504 ], [ 140.009385899999984, 40.3752318 ], [ 140.0134424, 40.3717037 ], [ 140.0147225, 40.3635851 ], [ 140.0230066, 40.3575941 ], [ 140.0257514, 40.3498524 ], [ 140.0260901, 40.338675699999989 ], [ 140.024115, 40.3143881 ], [ 140.0214412, 40.2956292 ], [ 140.0156638, 40.2644618 ], [ 140.0108622, 40.2445716 ], [ 140.006902699999983, 40.2362784 ], [ 140.004904399999987, 40.2244811 ], [ 140.000774299999989, 40.2201895 ], [ 140.005224699999985, 40.2113665 ], [ 139.997796599999987, 40.2098477 ], [ 139.9949886, 40.199251 ], [ 139.988420099999985, 40.2002086 ], [ 139.983973599999985, 40.18353 ], [ 139.9921079, 40.1822466 ], [ 139.992153, 40.1757864 ], [ 139.980942, 40.1446319 ], [ 139.972578, 40.1251434 ], [ 139.965215299999983, 40.1092153 ], [ 139.948961, 40.0786954 ], [ 139.9453743, 40.0730317 ], [ 139.9573244, 40.070019 ], [ 139.958025300000031, 40.0663048 ], [ 139.9531764, 40.0616007 ], [ 139.9620409, 40.0575231 ], [ 139.9671961, 40.062259 ], [ 139.9790103, 40.0669828 ], [ 139.980917299999987, 40.0711884 ], [ 139.976365, 40.0763226 ], [ 139.9809558, 40.0783664 ], [ 139.9854082, 40.0933778 ], [ 139.999503799999985, 40.093373 ], [ 140.0018422, 40.0875275 ], [ 140.016618599999987, 40.0821619 ], [ 140.020232, 40.0783933 ], [ 140.051729599999987, 40.0660621 ], [ 140.0589889, 40.0615424 ], [ 140.0664012, 40.0508496 ], [ 140.0713041, 40.0400987 ], [ 140.0704771, 40.009809 ], [ 140.0686129, 39.9868257 ], [ 140.078585299999986, 39.9859217 ], [ 140.078457, 39.9826553 ], [ 140.089279299999987, 39.9747247 ], [ 140.117053199999987, 39.9793314 ], [ 140.121035399999982, 39.9783373 ], [ 140.116284, 39.9862923 ], [ 140.126936200000017, 39.9893059 ], [ 140.1318556, 39.9977467 ], [ 140.1390759, 39.9969706 ], [ 140.152511799999985, 40.0044669 ], [ 140.158235599999983, 40.0106666 ], [ 140.1707982, 40.0105537 ], [ 140.176508, 40.004244 ], [ 140.1874722, 40.0106215 ], [ 140.1979203, 40.0129134 ], [ 140.2116854, 40.0115847 ], [ 140.2197324, 40.0059883 ], [ 140.230846899999989, 40.0044571 ], [ 140.2353788, 40.0076721 ], [ 140.2386385, 40.013623 ], [ 140.2438918, 40.0171129 ], [ 140.2414559, 40.0214435 ], [ 140.2450203, 40.029366 ], [ 140.2401228, 40.0316505 ], [ 140.241776099999981, 40.0381891 ] ] ] } },
{ "type": "Feature", "properties": { "hokenjo": "北秋田" }, "geometry": { "type": "Polygon", "coordinates": [ [ [ 140.4007819, 39.8348521 ], [ 140.4039923, 39.8291185 ], [ 140.416627399999982, 39.828702299999989 ], [ 140.4307911, 39.8240856 ], [ 140.4312325, 39.8202673 ], [ 140.4445973, 39.8221372 ], [ 140.452359199999989, 39.8244689 ], [ 140.459873099999982, 39.8224641 ], [ 140.460792600000019, 39.8151774 ], [ 140.467241600000023, 39.810301 ], [ 140.4753524, 39.7956479 ], [ 140.480374, 39.7965273 ], [ 140.4883745, 39.8052873 ], [ 140.4915273, 39.8043978 ], [ 140.5082406, 39.809773299999989 ], [ 140.512677599999989, 39.8100933 ], [ 140.51711419999998, 39.8165619 ], [ 140.513764899999984, 39.8302064 ], [ 140.5095997, 39.8399831 ], [ 140.5141399, 39.8465659 ], [ 140.5235955, 39.8478011 ], [ 140.527824899999985, 39.8504167 ], [ 140.5288209, 39.8563025 ], [ 140.5369345, 39.8611072 ], [ 140.535827399999988, 39.8715628 ], [ 140.5378111, 39.881130899999988 ], [ 140.546400299999988, 39.8811394 ], [ 140.557105, 39.8840144 ], [ 140.56113019999998, 39.8888852 ], [ 140.5699641, 39.8940557 ], [ 140.5826286, 39.8946262 ], [ 140.5941938, 39.8846256 ], [ 140.5992494, 39.8861439 ], [ 140.6133709, 39.8842591 ], [ 140.6193467, 39.8888804 ], [ 140.6253547, 39.8899146 ], [ 140.632957399999981, 39.8987785 ], [ 140.635974, 39.9055007 ], [ 140.6348339, 39.9138799 ], [ 140.629784199999989, 39.927523 ], [ 140.634405499999986, 39.9322474 ], [ 140.6470139, 39.9331602 ], [ 140.6593891, 39.9408046 ], [ 140.659538699999985, 39.9446216 ], [ 140.6646681, 39.9523885 ], [ 140.6729272, 39.9553496 ], [ 140.677302699999984, 39.9593327 ], [ 140.673021, 39.9634699 ], [ 140.6915248, 39.9673658 ], [ 140.695445, 39.9712886 ], [ 140.6972369, 39.9816197 ], [ 140.699886, 39.9844516 ], [ 140.7139776, 39.9893296 ], [ 140.7146158, 39.9973066 ], [ 140.72256969999998, 39.9964185 ], [ 140.732162200000033, 39.9998054 ], [ 140.732580399999989, 40.0093851 ], [ 140.724240399999985, 40.0120204 ], [ 140.721062, 40.0169474 ], [ 140.715475, 40.0182199 ], [ 140.7133806, 40.0223191 ], [ 140.7067686, 40.0252977 ], [ 140.700127100000032, 40.0326573 ], [ 140.69712389999998, 40.0483801 ], [ 140.689619099999987, 40.0593193 ], [ 140.689869, 40.0702499 ], [ 140.679659800000024, 40.0749329 ], [ 140.66623869999998, 40.0745891 ], [ 140.6617498, 40.0828663 ], [ 140.64955, 40.0875763 ], [ 140.6396145, 40.0849938 ], [ 140.637320099999982, 40.0912105 ], [ 140.6278706, 40.0878833 ], [ 140.6165071, 40.0803583 ], [ 140.6061679, 40.087105 ], [ 140.600057599999985, 40.0873595 ], [ 140.6015012, 40.0963786 ], [ 140.5988123, 40.1000275 ], [ 140.6014908, 40.1115173 ], [ 140.6010708, 40.1220384 ], [ 140.597463299999987, 40.1229051 ], [ 140.590219099999985, 40.1295865 ], [ 140.5609312, 40.1348725 ], [ 140.5529603, 40.1349543 ], [ 140.549352199999987, 40.1420209 ], [ 140.543482399999988, 40.1429629 ], [ 140.544966499999987, 40.1535999 ], [ 140.538531399999982, 40.1593897 ], [ 140.530718899999982, 40.1518514 ], [ 140.51924889999998, 40.1474445 ], [ 140.5168483, 40.1508715 ], [ 140.5076585, 40.1548404 ], [ 140.496229299999982, 40.1538927 ], [ 140.50160649999998, 40.1603402 ], [ 140.5020161, 40.1644991 ], [ 140.4896819, 40.1678514 ], [ 140.4951266, 40.1740231 ], [ 140.488139, 40.1784882 ], [ 140.484586299999989, 40.1876435 ], [ 140.4794968, 40.1915794 ], [ 140.4802554, 40.1961063 ], [ 140.487125099999986, 40.2019116 ], [ 140.4849074, 40.2138883 ], [ 140.4740371, 40.2182631 ], [ 140.468399799999986, 40.2225371 ], [ 140.472251299999982, 40.2330293 ], [ 140.4715182, 40.2410849 ], [ 140.4591581, 40.2420249 ], [ 140.4482141, 40.2477566 ], [ 140.446655199999981, 40.2564839 ], [ 140.4438404, 40.2574467 ], [ 140.42044150000001, 40.2543326 ], [ 140.414472, 40.2575204 ], [ 140.410990199999986, 40.2672368 ], [ 140.416149099999984, 40.2715612 ], [ 140.4088071, 40.278914 ], [ 140.404684299999985, 40.280541 ], [ 140.401737, 40.2877929 ], [ 140.3937699, 40.2951402 ], [ 140.393299399999989, 40.2995605 ], [ 140.383252299999981, 40.3089347 ], [ 140.3840837, 40.3139661 ], [ 140.376792199999983, 40.3206736 ], [ 140.3749043, 40.3357394 ], [ 140.375352599999985, 40.3439275 ], [ 140.3676056, 40.3485158 ], [ 140.353154100000012, 40.3548914 ], [ 140.35093, 40.349647 ], [ 140.3354976, 40.3317195 ], [ 140.3362002, 40.3248836 ], [ 140.3328888, 40.3227631 ], [ 140.3333711, 40.3161647 ], [ 140.3253694, 40.311662 ], [ 140.3227573, 40.3019053 ], [ 140.327417699999984, 40.2894791 ], [ 140.3223356, 40.2776383 ], [ 140.323837, 40.2747563 ], [ 140.311059299999982, 40.2644799 ], [ 140.3098857, 40.255173 ], [ 140.2904888, 40.2521386 ], [ 140.2875616, 40.2535799 ], [ 140.2760083, 40.2417099 ], [ 140.2735347, 40.2359946 ], [ 140.282857299999989, 40.2245757 ], [ 140.278602399999983, 40.2147848 ], [ 140.2919547, 40.2062939 ], [ 140.299370899999985, 40.2052431 ], [ 140.294873699999982, 40.198005 ], [ 140.2830284, 40.1952189 ], [ 140.2735006, 40.1963323 ], [ 140.2709468, 40.1887814 ], [ 140.265816799999982, 40.1834889 ], [ 140.2549027, 40.1828859 ], [ 140.253023399999989, 40.1688094 ], [ 140.256536, 40.1521171 ], [ 140.247955099999984, 40.1347241 ], [ 140.2502687, 40.1315582 ], [ 140.2470363, 40.1263104 ], [ 140.247689399999985, 40.1174087 ], [ 140.242932, 40.111868199999989 ], [ 140.2501169, 40.0992056 ], [ 140.2468481, 40.0886881 ], [ 140.2545601, 40.0861659 ], [ 140.254403699999983, 40.0804956 ], [ 140.25116079999998, 40.0725958 ], [ 140.2542269, 40.071348 ], [ 140.250052499999981, 40.0688022 ], [ 140.250195, 40.0634514 ], [ 140.240380099999982, 40.0604556 ], [ 140.2393884, 40.055328 ], [ 140.2424124, 40.0517414 ], [ 140.2366721, 40.0475008 ], [ 140.241776099999981, 40.0381891 ], [ 140.2401228, 40.0316505 ], [ 140.2450203, 40.029366 ], [ 140.2414559, 40.0214435 ], [ 140.2438918, 40.0171129 ], [ 140.2386385, 40.013623 ], [ 140.2353788, 40.0076721 ], [ 140.2366739, 40.0007613 ], [ 140.2343492, 39.9918166 ], [ 140.243185399999987, 39.9854357 ], [ 140.250432599999982, 39.9836059 ], [ 140.252676399999984, 39.970127 ], [ 140.247552499999983, 39.9601487 ], [ 140.2515334, 39.9547439 ], [ 140.26126739999998, 39.949723 ], [ 140.2669464, 39.9417597 ], [ 140.2658181, 39.9377983 ], [ 140.274222, 39.9319768 ], [ 140.2753485, 39.927971 ], [ 140.2827457, 39.9294085 ], [ 140.292433, 39.9274773 ], [ 140.295642, 39.9198793 ], [ 140.2927992, 39.9119184 ], [ 140.297860499999985, 39.8989954 ], [ 140.2967753, 39.8882843 ], [ 140.3022349, 39.8780256 ], [ 140.2982738, 39.8658884 ], [ 140.3049964, 39.860676399999988 ], [ 140.3046584, 39.8519717 ], [ 140.306476, 39.8474031 ], [ 140.3017816, 39.8378709 ], [ 140.296461599999986, 39.8329464 ], [ 140.3067284, 39.8299353 ], [ 140.3106765, 39.8203133 ], [ 140.3086418, 39.8167389 ], [ 140.3135752, 39.8131714 ], [ 140.3143878, 39.8075208 ], [ 140.310928099999984, 39.7971814 ], [ 140.32056369999998, 39.796478 ], [ 140.3253943, 39.7998827 ], [ 140.340404399999983, 39.804581 ], [ 140.349136, 39.8114774 ], [ 140.346782099999984, 39.8158933 ], [ 140.3556793, 39.8262199 ], [ 140.3635782, 39.827888 ], [ 140.3722146, 39.8358199 ], [ 140.3786266, 39.8339663 ], [ 140.4007819, 39.8348521 ] ] ] } },
{ "type": "Feature", "properties": { "hokenjo": "由利本荘" }, "geometry": { "type": "Polygon", "coordinates": [ [ [ 140.0624392, 39.1334986 ], [ 140.0614554, 39.1133884 ], [ 140.0628735, 39.1069425 ], [ 140.067144899999988, 39.0997914 ], [ 140.0624569, 39.092885 ], [ 140.0735143, 39.0868725 ], [ 140.102723699999984, 39.083101 ], [ 140.11490329999998, 39.0777843 ], [ 140.1168628, 39.068231 ], [ 140.1298391, 39.0629985 ], [ 140.137434399999989, 39.0654887 ], [ 140.143889799999982, 39.061344299999988 ], [ 140.150803, 39.0491793 ], [ 140.1575011, 39.0491045 ], [ 140.1625005, 39.054260899999989 ], [ 140.171156699999983, 39.0510317 ], [ 140.1749203, 39.05731 ], [ 140.187921499999987, 39.0585686 ], [ 140.188773699999985, 39.0614941 ], [ 140.201148599999982, 39.0596771 ], [ 140.2047658, 39.0534963 ], [ 140.200601799999987, 39.0357044 ], [ 140.221926700000012, 39.0310546 ], [ 140.2275018, 39.0270596 ], [ 140.236858, 39.0275701 ], [ 140.2458586, 39.0307689 ], [ 140.252876499999985, 39.028225 ], [ 140.257174599999985, 39.0331903 ], [ 140.262108499999982, 39.0347336 ], [ 140.284515699999986, 39.0280868 ], [ 140.292060900000024, 39.023897399999989 ], [ 140.2943918, 39.018112099999989 ], [ 140.3021635, 39.0171029 ], [ 140.3107225, 39.0135892 ], [ 140.3186828, 39.0250306 ], [ 140.318795699999981, 39.0312617 ], [ 140.3291025, 39.0348022 ], [ 140.332043, 39.0402602 ], [ 140.3427242, 39.0456165 ], [ 140.341352699999987, 39.0507352 ], [ 140.3351848, 39.0552268 ], [ 140.3337344, 39.0644971 ], [ 140.3432741, 39.0738699 ], [ 140.341942099999983, 39.0836029 ], [ 140.340966399999985, 39.0893257 ], [ 140.330338499999982, 39.1005182 ], [ 140.3169762, 39.1014822 ], [ 140.3158702, 39.1097099 ], [ 140.312678500000032, 39.116308 ], [ 140.3045003, 39.1234966 ], [ 140.3030499, 39.1335575 ], [ 140.2962761, 39.138575 ], [ 140.2920382, 39.1455264 ], [ 140.2816353, 39.1510028 ], [ 140.2796821, 39.163397 ], [ 140.2737478, 39.1714887 ], [ 140.2662597, 39.1732482 ], [ 140.256779199999983, 39.1830779 ], [ 140.2578244, 39.1881135 ], [ 140.248921199999984, 39.1968274 ], [ 140.23912009999998, 39.1936336 ], [ 140.2300477, 39.20368 ], [ 140.229735600000026, 39.21103 ], [ 140.2217913, 39.2181336 ], [ 140.222711799999985, 39.2268825 ], [ 140.229683699999981, 39.2290805 ], [ 140.2483981, 39.2245574 ], [ 140.2606204, 39.234791 ], [ 140.2703991, 39.2375015 ], [ 140.2704421, 39.2401934 ], [ 140.2819103, 39.2403004 ], [ 140.28412609999998, 39.2433376 ], [ 140.301565899999986, 39.2445756 ], [ 140.3096712, 39.2480741 ], [ 140.312609899999984, 39.2468033 ], [ 140.325582699999984, 39.2480135 ], [ 140.33146, 39.2461191 ], [ 140.3369683, 39.2488754 ], [ 140.3411839, 39.2444913 ], [ 140.346758599999987, 39.2504893 ], [ 140.3415813, 39.2542387 ], [ 140.340201, 39.259188699999989 ], [ 140.329865399999989, 39.2614805 ], [ 140.3331059, 39.2737402 ], [ 140.339685299999985, 39.2810407 ], [ 140.3394793, 39.2914216 ], [ 140.3423066, 39.2951674 ], [ 140.354093, 39.2955965 ], [ 140.3520632, 39.3055949 ], [ 140.340564, 39.3124482 ], [ 140.3420406, 39.3174507 ], [ 140.340503399999989, 39.3274521 ], [ 140.3338114, 39.3250102 ], [ 140.326623899999987, 39.3323336 ], [ 140.3300686, 39.3357794 ], [ 140.3281197, 39.3413905 ], [ 140.3208741, 39.3444991 ], [ 140.3159061, 39.3497136 ], [ 140.3106377, 39.3475747 ], [ 140.300325499999985, 39.3486323 ], [ 140.2984918, 39.3546386 ], [ 140.2841898, 39.354832 ], [ 140.2808492, 39.3576731 ], [ 140.268860599999982, 39.3559632 ], [ 140.2700514, 39.3611407 ], [ 140.2674982, 39.3703059 ], [ 140.2641693, 39.3736357 ], [ 140.2701538, 39.3766809 ], [ 140.276453799999985, 39.3749429 ], [ 140.2907836, 39.3766253 ], [ 140.30746259999998, 39.3801181 ], [ 140.3119384, 39.3787264 ], [ 140.3201923, 39.3825897 ], [ 140.315843699999988, 39.3904141 ], [ 140.2978463, 39.3935689 ], [ 140.289018199999987, 39.3940295 ], [ 140.288241, 39.3997853 ], [ 140.2968371, 39.4003853 ], [ 140.304746599999987, 39.4069292 ], [ 140.3064201, 39.4166375 ], [ 140.298856199999989, 39.4208242 ], [ 140.2941242, 39.4198112 ], [ 140.2785046, 39.4242332 ], [ 140.2696411, 39.4344635 ], [ 140.2717628, 39.4379699 ], [ 140.2689732, 39.449571 ], [ 140.2619087, 39.4517808 ], [ 140.258806199999981, 39.4488783 ], [ 140.249832199999986, 39.4542144 ], [ 140.240549099999981, 39.4546659 ], [ 140.234419799999984, 39.4600315 ], [ 140.239195300000034, 39.4669454 ], [ 140.232422499999984, 39.4700107 ], [ 140.2229983, 39.4675404 ], [ 140.2207939, 39.4815985 ], [ 140.222306399999979, 39.4873324 ], [ 140.228868299999988, 39.4905568 ], [ 140.2197869, 39.4938199 ], [ 140.215711199999987, 39.4979833 ], [ 140.211422, 39.4957092 ], [ 140.19823420000003, 39.4974351 ], [ 140.1870121, 39.5032415 ], [ 140.1809951, 39.5036509 ], [ 140.1781119, 39.5124402 ], [ 140.1840322, 39.5213899 ], [ 140.1852441, 39.528408 ], [ 140.1886059, 39.5340633 ], [ 140.1858559, 39.5384172 ], [ 140.1712125, 39.534829699999989 ], [ 140.1682578, 39.5326491 ], [ 140.1561338, 39.5377961 ], [ 140.1649452, 39.5425553 ], [ 140.1673874, 39.5479919 ], [ 140.160964799999988, 39.5517814 ], [ 140.159494199999983, 39.5585903 ], [ 140.148568499999982, 39.5703715 ], [ 140.138092299999983, 39.5685798 ], [ 140.1226308, 39.5703265 ], [ 140.122035499999981, 39.5760674 ], [ 140.1127521, 39.5772669 ], [ 140.107936199999983, 39.5820066 ], [ 140.0992134, 39.5859933 ], [ 140.0866675, 39.5799505 ], [ 140.0776549, 39.588022 ], [ 140.075652, 39.5947884 ], [ 140.0680975, 39.5982964 ], [ 140.0596569, 39.5977876 ], [ 140.0561327, 39.5662162 ], [ 140.053528199999988, 39.5593236 ], [ 140.053864299999987, 39.5537431 ], [ 140.049790699999988, 39.5419458 ], [ 140.050774, 39.5323692 ], [ 140.045032099999986, 39.498699 ], [ 140.0336012, 39.4513341 ], [ 140.0215188, 39.4056334 ], [ 140.018354499999987, 39.401348 ], [ 140.0131268, 39.381145 ], [ 140.004969599999981, 39.3599532 ], [ 139.996810399999987, 39.3422103 ], [ 139.992900599999984, 39.3369751 ], [ 139.9857563, 39.3220117 ], [ 139.9801152, 39.3130914 ], [ 139.971507699999989, 39.3007631 ], [ 139.9660403, 39.2951117 ], [ 139.9499741, 39.2900336 ], [ 139.9306139, 39.2891935 ], [ 139.919092799999987, 39.2792151 ], [ 139.909820699999983, 39.2591111 ], [ 139.9147404, 39.2486437 ], [ 139.9061638, 39.2335447 ], [ 139.9028966, 39.2241619 ], [ 139.8962089, 39.2162149 ], [ 139.8925256, 39.2044398 ], [ 139.90361009999998, 39.1996621 ], [ 139.9061594, 39.1917535 ], [ 139.9049521, 39.1815165 ], [ 139.898158199999983, 39.1628214 ], [ 139.8941606, 39.1550466 ], [ 139.8856984, 39.1489628 ], [ 139.8826607, 39.1395267 ], [ 139.885082900000015, 39.1335123 ], [ 139.8695899, 39.1182582 ], [ 139.9060395, 39.1188283 ], [ 139.9456539, 39.1128309 ], [ 139.9480522, 39.1171667 ], [ 139.9944467, 39.1055156 ], [ 139.9976408, 39.1158392 ], [ 140.00776639999998, 39.1230403 ], [ 140.0624392, 39.1334986 ] ] ] } }
]
}
