{
"type": "FeatureCollection",
"name": "aomori",
"crs": { "type": "name", "properties": { "name": "urn:ogc:def:crs:OGC:1.3:CRS84" } },
"features": [
{ "type": "Feature", "properties": { "hokenjo": "下北" }, "geometry": { "type": "Polygon", "coordinates": [ [ [ 141.2746065, 41.3536783 ], [ 141.2465774, 41.3611552 ], [ 141.23135259999998, 41.3665688 ], [ 141.2101591, 41.3763558 ], [ 141.1931999, 41.3866891 ], [ 141.1797546, 41.3980609 ], [ 141.17666939999998, 41.4037597 ], [ 141.1646567, 41.4142477 ], [ 141.1599515, 41.415415 ], [ 141.1511644, 41.4227497 ], [ 141.146359499999988, 41.4306542 ], [ 141.1365275, 41.4342167 ], [ 141.12743279999998, 41.4421156 ], [ 141.1156881, 41.4556587 ], [ 141.1126557, 41.4629452 ], [ 141.094606199999987, 41.4673459 ], [ 141.0847651, 41.4729359 ], [ 141.07038350000002, 41.4788017 ], [ 141.0668738, 41.482257 ], [ 141.0583796, 41.4831417 ], [ 141.0285314, 41.4830231 ], [ 141.010599500000012, 41.4855114 ], [ 141.0027423, 41.4855281 ], [ 140.993923599999988, 41.49096 ], [ 140.97340029999998, 41.4988622 ], [ 140.963614, 41.5130269 ], [ 140.957382199999984, 41.5158104 ], [ 140.9525841, 41.5219795 ], [ 140.9460049, 41.5230395 ], [ 140.9370816, 41.5289578 ], [ 140.9241496, 41.5346053 ], [ 140.9169291, 41.5450626 ], [ 140.913579299999981, 41.5465023 ], [ 140.9081519, 41.5386445 ], [ 140.908082399999984, 41.5298339 ], [ 140.8974471, 41.5259579 ], [ 140.9036137, 41.5183916 ], [ 140.909539699999982, 41.5037114 ], [ 140.8984187, 41.4766285 ], [ 140.888998599999979, 41.470223 ], [ 140.882164499999988, 41.4681952 ], [ 140.8849509, 41.4671194 ], [ 140.8775109, 41.4565421 ], [ 140.8778496, 41.4522893 ], [ 140.866099, 41.4464265 ], [ 140.866523799999982, 41.436362 ], [ 140.8537857, 41.431524 ], [ 140.8488749, 41.4218773 ], [ 140.835221100000012, 41.4157284 ], [ 140.8387469, 41.412857 ], [ 140.83358640000003, 41.4054334 ], [ 140.8333614, 41.4004881 ], [ 140.8278344, 41.3901236 ], [ 140.8276184, 41.3708874 ], [ 140.8247201, 41.3640524 ], [ 140.8203509, 41.3461391 ], [ 140.816459, 41.3383413 ], [ 140.805993199999989, 41.332868 ], [ 140.8071324, 41.3271691 ], [ 140.798848199999981, 41.3208019 ], [ 140.8062541, 41.3141549 ], [ 140.7988647, 41.3013513 ], [ 140.7979359, 41.2866749 ], [ 140.7957417, 41.2788699 ], [ 140.789533899999981, 41.274418 ], [ 140.7914839, 41.2715324 ], [ 140.78578170000003, 41.2616044 ], [ 140.785382, 41.2563749 ], [ 140.7798951, 41.2533627 ], [ 140.781829, 41.2423799 ], [ 140.7847204, 41.2394811 ], [ 140.7850157, 41.2301071 ], [ 140.77965260000002, 41.2172607 ], [ 140.7782846, 41.2101357 ], [ 140.7789382, 41.2075169 ], [ 140.768890699999986, 41.2013116 ], [ 140.764204, 41.1952329 ], [ 140.767027900000016, 41.1837218 ], [ 140.7687812, 41.1648279 ], [ 140.7682854, 41.1586059 ], [ 140.764256499999988, 41.1478414 ], [ 140.769555699999984, 41.1406051 ], [ 140.7831629, 41.1312823 ], [ 140.793945399999984, 41.1326814 ], [ 140.798662899999982, 41.1288961 ], [ 140.805649599999981, 41.1298095 ], [ 140.811493200000029, 41.1276534 ], [ 140.82698259999998, 41.1447314 ], [ 140.8327501, 41.1497243 ], [ 140.845864799999987, 41.1549457 ], [ 140.848607499999986, 41.1586251 ], [ 140.876713199999983, 41.1669427 ], [ 140.8899451, 41.1633968 ], [ 140.9031751, 41.1679135 ], [ 140.9093092, 41.1740713 ], [ 140.916588599999983, 41.176093 ], [ 140.9297738, 41.173310199999989 ], [ 140.934934699999985, 41.1756235 ], [ 140.945191, 41.1738579 ], [ 140.9561448, 41.1824249 ], [ 140.9639694, 41.1912814 ], [ 140.977623, 41.1985013 ], [ 140.9825611, 41.1992379 ], [ 140.996927600000021, 41.1951467 ], [ 141.0087135, 41.1977046 ], [ 141.0143248, 41.1960797 ], [ 141.034699499999988, 41.1849954 ], [ 141.048500099999984, 41.1832848 ], [ 141.058159599999982, 41.1834398 ], [ 141.0606115, 41.1876787 ], [ 141.0744791, 41.2005979 ], [ 141.101502, 41.2135232 ], [ 141.1133498, 41.2133526 ], [ 141.124046099999987, 41.2199713 ], [ 141.1364527, 41.2304978 ], [ 141.1441044, 41.2342261 ], [ 141.1551801, 41.2449733 ], [ 141.1465177, 41.2448624 ], [ 141.1445736, 41.2410952 ], [ 141.134497, 41.2400057 ], [ 141.138458600000035, 41.2469322 ], [ 141.15570169999998, 41.2694398 ], [ 141.1600367, 41.2781883 ], [ 141.1711118, 41.2796173 ], [ 141.1810276, 41.2764287 ], [ 141.187893, 41.2769943 ], [ 141.198272, 41.2720399 ], [ 141.219399899999985, 41.2553469 ], [ 141.2338369, 41.2413677 ], [ 141.2476629, 41.2241816 ], [ 141.259689, 41.2056591 ], [ 141.2738497, 41.1749271 ], [ 141.2790599, 41.1583433 ], [ 141.2763268, 41.1506996 ], [ 141.2856421, 41.1568511 ], [ 141.310570499999983, 41.1516908 ], [ 141.3229543, 41.1541075 ], [ 141.325489399999981, 41.147923 ], [ 141.327466300000026, 41.1355491 ], [ 141.3306622, 41.1329319 ], [ 141.33391469999998, 41.1234335 ], [ 141.328257799999989, 41.1224044 ], [ 141.325239399999987, 41.1167479 ], [ 141.3350342, 41.1087304 ], [ 141.3475769, 41.1064393 ], [ 141.354221599999988, 41.1090185 ], [ 141.361555, 41.1080605 ], [ 141.3684522, 41.1120627 ], [ 141.377543799999984, 41.1248206 ], [ 141.38565939999998, 41.129646199999989 ], [ 141.3958245, 41.1323641 ], [ 141.391706, 41.1333809 ], [ 141.388448, 41.153925 ], [ 141.390907299999981, 41.1784579 ], [ 141.394943499999982, 41.1950085 ], [ 141.399484400000034, 41.2057678 ], [ 141.3991988, 41.2094137 ], [ 141.4035405, 41.222739 ], [ 141.4049369, 41.238535 ], [ 141.412701199999987, 41.2609008 ], [ 141.4150493, 41.2708394 ], [ 141.4226478, 41.2920559 ], [ 141.4339382, 41.3308743 ], [ 141.4423873, 41.3573423 ], [ 141.4500492, 41.3732338 ], [ 141.4592217, 41.3791827 ], [ 141.4606417, 41.3893789 ], [ 141.453215699999987, 41.3944178 ], [ 141.4551888, 41.4013706 ], [ 141.4633433, 41.4033026 ], [ 141.46004689999998, 41.411729 ], [ 141.4615267, 41.4161993 ], [ 141.4685395, 41.4192001 ], [ 141.463852, 41.4237729 ], [ 141.456542499999983, 41.424984 ], [ 141.4389022, 41.412984 ], [ 141.4342909, 41.4068654 ], [ 141.411059, 41.3906737 ], [ 141.404105099999981, 41.3841545 ], [ 141.3878461, 41.3757435 ], [ 141.357469899999984, 41.3638823 ], [ 141.334291799999988, 41.3562407 ], [ 141.310636099999982, 41.3512582 ], [ 141.2968629, 41.3504517 ], [ 141.2746065, 41.3536783 ] ] ] } },
{ "type": "Feature", "properties": { "hokenjo": "三戸・八戸市" }, "geometry": { "type": "Polygon", "coordinates": [ [ [ 141.6491778, 40.4702094 ], [ 141.659938899999986, 40.466115 ], [ 141.666031, 40.4586756 ], [ 141.6755915, 40.4538151 ], [ 141.6760318, 40.4485352 ], [ 141.6699466, 40.4372443 ], [ 141.661023799999981, 40.433652099999989 ], [ 141.652356699999984, 40.427653899999989 ], [ 141.6470967, 40.4282851 ], [ 141.63935010000003, 40.4228728 ], [ 141.631335899999982, 40.4202539 ], [ 141.6193518, 40.420795 ], [ 141.6125513, 40.4154408 ], [ 141.5951244, 40.4121333 ], [ 141.581239899999986, 40.3984263 ], [ 141.5827358, 40.3851411 ], [ 141.5867594, 40.3807081 ], [ 141.5813887, 40.3738727 ], [ 141.572711200000015, 40.3696052 ], [ 141.5718841, 40.3658552 ], [ 141.56394659999998, 40.3615693 ], [ 141.5536989, 40.3586577 ], [ 141.5451232, 40.3510393 ], [ 141.539031, 40.3479726 ], [ 141.5316785, 40.3514482 ], [ 141.52634519999998, 40.3499643 ], [ 141.515154599999988, 40.3535016 ], [ 141.507209499999988, 40.3629287 ], [ 141.4993556, 40.3619651 ], [ 141.4964345, 40.3674104 ], [ 141.480466899999982, 40.37613 ], [ 141.466082799999981, 40.3773751 ], [ 141.4543089, 40.3730006 ], [ 141.44160309999998, 40.3760398 ], [ 141.434089799999981, 40.372367 ], [ 141.4274163, 40.3650044 ], [ 141.4192416, 40.3635246 ], [ 141.406981400000035, 40.3571639 ], [ 141.401211599999982, 40.3666671 ], [ 141.3974886, 40.3673198 ], [ 141.393098100000032, 40.3606856 ], [ 141.3891193, 40.3592236 ], [ 141.389792699999987, 40.3530405 ], [ 141.3821719, 40.3452026 ], [ 141.3731095, 40.3430928 ], [ 141.36979119999998, 40.3383884 ], [ 141.353128, 40.3310102 ], [ 141.3483666, 40.3387122 ], [ 141.334004599999986, 40.345601099999989 ], [ 141.3372698, 40.3549258 ], [ 141.3363381, 40.3601967 ], [ 141.33044529999998, 40.3616933 ], [ 141.3243856, 40.3698561 ], [ 141.3170978, 40.3726564 ], [ 141.3103734, 40.3668333 ], [ 141.298934299999985, 40.3658389 ], [ 141.2919499, 40.357881299999988 ], [ 141.2923183, 40.3516683 ], [ 141.275088899999986, 40.3446713 ], [ 141.2674486, 40.349093 ], [ 141.2624294, 40.3494755 ], [ 141.26013039999998, 40.3418724 ], [ 141.24837789999998, 40.3410041 ], [ 141.237922699999984, 40.3340502 ], [ 141.2318005, 40.3281174 ], [ 141.2263166, 40.327954299999988 ], [ 141.2186045, 40.3180487 ], [ 141.1976718, 40.3076984 ], [ 141.1856149, 40.3076604 ], [ 141.171950399999986, 40.309764 ], [ 141.168510199999986, 40.3066471 ], [ 141.159193599999981, 40.3047876 ], [ 141.154185, 40.3014257 ], [ 141.1452095, 40.2996768 ], [ 141.1383734, 40.3004966 ], [ 141.1343913, 40.2947449 ], [ 141.1199392, 40.2899883 ], [ 141.115589199999988, 40.2863568 ], [ 141.0998049, 40.280178 ], [ 141.1100545, 40.2610517 ], [ 141.10406039999998, 40.2557342 ], [ 141.094506699999982, 40.254877 ], [ 141.0901912, 40.2521658 ], [ 141.0764059, 40.2526384 ], [ 141.0691789, 40.2488008 ], [ 141.0599498, 40.2383088 ], [ 141.046549299999981, 40.2371469 ], [ 141.026839099999989, 40.2265696 ], [ 141.0223705, 40.2202673 ], [ 141.0060317, 40.2179182 ], [ 140.996489199999985, 40.2191524 ], [ 140.9914039, 40.2227482 ], [ 140.980057599999981, 40.2196335 ], [ 140.9759612, 40.225763 ], [ 140.969425699999988, 40.228246899999988 ], [ 140.9653681, 40.2397178 ], [ 140.954931099999982, 40.2451115 ], [ 140.954242199999982, 40.2505493 ], [ 140.9457105, 40.2580749 ], [ 140.947266, 40.2644541 ], [ 140.95277729999998, 40.2712484 ], [ 140.954285, 40.2797429 ], [ 140.9575822, 40.2820376 ], [ 140.9523927, 40.2874188 ], [ 140.944598, 40.2881377 ], [ 140.943973699999987, 40.2962594 ], [ 140.953420099999988, 40.301048 ], [ 140.957580799999988, 40.3065133 ], [ 140.958909899999981, 40.3216234 ], [ 140.968558, 40.3374921 ], [ 140.9629454, 40.34669 ], [ 140.965386199999983, 40.3502936 ], [ 140.9739271, 40.3441416 ], [ 140.9812202, 40.3433719 ], [ 140.9952447, 40.3552436 ], [ 140.9911727, 40.3673397 ], [ 140.9950127, 40.3701698 ], [ 140.984409199999988, 40.3884266 ], [ 140.987282199999981, 40.3950341 ], [ 140.9857585, 40.4031927 ], [ 140.981403699999987, 40.4056464 ], [ 140.982543099999987, 40.4120356 ], [ 140.979701700000021, 40.4177092 ], [ 140.9855508, 40.4217137 ], [ 140.985173299999985, 40.4270804 ], [ 140.994260699999984, 40.4335417 ], [ 141.000909200000024, 40.4448757 ], [ 141.0011647, 40.4547074 ], [ 141.005738, 40.4584174 ], [ 141.031086099999982, 40.4745099 ], [ 141.05536189999998, 40.4771233 ], [ 141.0583724, 40.479501 ], [ 141.0862548, 40.4907369 ], [ 141.087862799999982, 40.4935794 ], [ 141.1041267, 40.4926191 ], [ 141.111881899999986, 40.4986658 ], [ 141.119203299999981, 40.4957927 ], [ 141.1279228, 40.4964363 ], [ 141.1385297, 40.4947274 ], [ 141.1571619, 40.495476 ], [ 141.17282849999998, 40.4930404 ], [ 141.184964899999983, 40.4958457 ], [ 141.194808699999982, 40.4998365 ], [ 141.2017022, 40.5087368 ], [ 141.2079613, 40.5108963 ], [ 141.219148700000034, 40.5187677 ], [ 141.2196434, 40.5276119 ], [ 141.2255891, 40.5311397 ], [ 141.240931599999982, 40.5342283 ], [ 141.244525399999986, 40.5364661 ], [ 141.2632365, 40.5400614 ], [ 141.2753957, 40.5375931 ], [ 141.281239199999987, 40.5438626 ], [ 141.29114580000001, 40.5580421 ], [ 141.298678, 40.558366 ], [ 141.3036696, 40.5680624 ], [ 141.3225827, 40.5627224 ], [ 141.336941200000012, 40.5679969 ], [ 141.3337723, 40.5789028 ], [ 141.3405142, 40.5820156 ], [ 141.345998899999984, 40.5812434 ], [ 141.352471399999985, 40.5858148 ], [ 141.358730799999989, 40.5781717 ], [ 141.365267599999981, 40.5662108 ], [ 141.376444099999986, 40.5721725 ], [ 141.3805266, 40.579727 ], [ 141.380374, 40.585547 ], [ 141.3661635, 40.5892609 ], [ 141.3545272, 40.589412 ], [ 141.3630554, 40.5997835 ], [ 141.3530293, 40.6023199 ], [ 141.3472491, 40.6012468 ], [ 141.343823499999985, 40.6109627 ], [ 141.345721800000035, 40.6252928 ], [ 141.3542914, 40.6383765 ], [ 141.3630863, 40.6425149 ], [ 141.3603479, 40.6474457 ], [ 141.3593598, 40.6580358 ], [ 141.3558409, 40.6638214 ], [ 141.368206, 40.6669314 ], [ 141.3878498, 40.6653447 ], [ 141.418264099999988, 40.669245 ], [ 141.4289651, 40.6680061 ], [ 141.4387768, 40.670508 ], [ 141.4478857, 40.6388245 ], [ 141.4544625, 40.6233271 ], [ 141.462405099999984, 40.6077303 ], [ 141.4629946, 40.6034671 ], [ 141.4655994, 40.6014344 ], [ 141.470113699999985, 40.58936 ], [ 141.4757828, 40.585488 ], [ 141.477168899999981, 40.5786118 ], [ 141.4823566, 40.5688666 ], [ 141.488943899999981, 40.5712079 ], [ 141.4919875, 40.5647398 ], [ 141.485118799999981, 40.5609211 ], [ 141.4874912, 40.5567876 ], [ 141.5001251, 40.5567727 ], [ 141.5028528, 40.542938899999989 ], [ 141.5052761, 40.5401227 ], [ 141.5143455, 40.5430751 ], [ 141.5150832, 40.5388935 ], [ 141.5243207, 40.5295867 ], [ 141.5345628, 40.5271818 ], [ 141.5436608, 40.5276189 ], [ 141.5534356, 40.53063 ], [ 141.566092699999984, 40.5430004 ], [ 141.575987, 40.5429196 ], [ 141.5818243, 40.5378176 ], [ 141.580077099999983, 40.5348062 ], [ 141.5877649, 40.5221804 ], [ 141.5917435, 40.5189777 ], [ 141.6086142, 40.5139581 ], [ 141.6111415, 40.5062996 ], [ 141.6201591, 40.5035949 ], [ 141.621755799999988, 40.4986604 ], [ 141.631565, 40.4937535 ], [ 141.6335642, 40.4842286 ], [ 141.646523799999983, 40.4747018 ], [ 141.6491778, 40.4702094 ] ] ] } },
{ "type": "Feature", "properties": { "hokenjo": "上北" }, "geometry": { "type": "Polygon", "coordinates": [ [ [ 141.29114580000001, 40.5580421 ], [ 141.298678, 40.558366 ], [ 141.3036696, 40.5680624 ], [ 141.3225827, 40.5627224 ], [ 141.336941200000012, 40.5679969 ], [ 141.3337723, 40.5789028 ], [ 141.3405142, 40.5820156 ], [ 141.345998899999984, 40.5812434 ], [ 141.352471399999985, 40.5858148 ], [ 141.358730799999989, 40.5781717 ], [ 141.365267599999981, 40.5662108 ], [ 141.376444099999986, 40.5721725 ], [ 141.3805266, 40.579727 ], [ 141.380374, 40.585547 ], [ 141.3661635, 40.5892609 ], [ 141.3545272, 40.589412 ], [ 141.3630554, 40.5997835 ], [ 141.3530293, 40.6023199 ], [ 141.3472491, 40.6012468 ], [ 141.343823499999985, 40.6109627 ], [ 141.345721800000035, 40.6252928 ], [ 141.3542914, 40.6383765 ], [ 141.3630863, 40.6425149 ], [ 141.3603479, 40.6474457 ], [ 141.3593598, 40.6580358 ], [ 141.3558409, 40.6638214 ], [ 141.368206, 40.6669314 ], [ 141.3878498, 40.6653447 ], [ 141.418264099999988, 40.669245 ], [ 141.4289651, 40.6680061 ], [ 141.4387768, 40.670508 ], [ 141.42812379999998, 40.6952508 ], [ 141.4169911, 40.7425025 ], [ 141.406538, 40.7960895 ], [ 141.4008761, 40.829764 ], [ 141.399256399999985, 40.8445402 ], [ 141.39758329999998, 40.8478476 ], [ 141.3929282, 40.8866233 ], [ 141.3906316, 40.905015 ], [ 141.3907975, 40.919029 ], [ 141.3869384, 40.9242267 ], [ 141.3856571, 40.9351999 ], [ 141.387709799999982, 40.9400618 ], [ 141.3861263, 40.9506359 ], [ 141.3862925, 40.975496799999988 ], [ 141.3842424, 40.9806507 ], [ 141.3857473, 41.0159328 ], [ 141.390868399999988, 41.0695375 ], [ 141.3928099, 41.0811366 ], [ 141.396697599999982, 41.09117 ], [ 141.398413299999987, 41.1004343 ], [ 141.3947144, 41.1009529 ], [ 141.392812, 41.1141959 ], [ 141.3959782, 41.1259422 ], [ 141.3958245, 41.1323641 ], [ 141.38565939999998, 41.129646199999989 ], [ 141.377543799999984, 41.1248206 ], [ 141.3684522, 41.1120627 ], [ 141.361555, 41.1080605 ], [ 141.354221599999988, 41.1090185 ], [ 141.3475769, 41.1064393 ], [ 141.3350342, 41.1087304 ], [ 141.325239399999987, 41.1167479 ], [ 141.328257799999989, 41.1224044 ], [ 141.33391469999998, 41.1234335 ], [ 141.3306622, 41.1329319 ], [ 141.327466300000026, 41.1355491 ], [ 141.325489399999981, 41.147923 ], [ 141.3229543, 41.1541075 ], [ 141.310570499999983, 41.1516908 ], [ 141.2856421, 41.1568511 ], [ 141.2763268, 41.1506996 ], [ 141.272269599999987, 41.1347996 ], [ 141.263343099999986, 41.125916 ], [ 141.2548965, 41.1206616 ], [ 141.2543565, 41.1156057 ], [ 141.248420899999985, 41.110194 ], [ 141.2464722, 41.1046447 ], [ 141.2472373, 41.0893337 ], [ 141.242079099999984, 41.0832725 ], [ 141.242786, 41.061696399999988 ], [ 141.2408796, 41.0416981 ], [ 141.2374264, 41.0219165 ], [ 141.22899959999998, 40.9915274 ], [ 141.2209872, 40.9714062 ], [ 141.211348099999981, 40.9516539 ], [ 141.2028291, 40.9371777 ], [ 141.189568799999989, 40.9178717 ], [ 141.1768481, 40.9031706 ], [ 141.161006, 40.8881744 ], [ 141.148841799999985, 40.879267 ], [ 141.1320895, 40.8726052 ], [ 141.1256908, 40.8732271 ], [ 141.116411299999982, 40.8711141 ], [ 141.1033301, 40.8724586 ], [ 141.0910647, 40.8801748 ], [ 141.084125, 40.8861986 ], [ 141.076750799999985, 40.8859809 ], [ 141.0470215, 40.8770744 ], [ 141.043710399999981, 40.8742069 ], [ 141.041634800000026, 40.8648974 ], [ 141.046197399999983, 40.8519585 ], [ 141.0394532, 40.8467712 ], [ 141.039400699999987, 40.840387 ], [ 141.0224508, 40.836782 ], [ 141.01806879999998, 40.8371559 ], [ 141.02014269999998, 40.8259555 ], [ 141.0167333, 40.819851 ], [ 141.0067041, 40.8166063 ], [ 140.996113899999983, 40.8150021 ], [ 140.9806092, 40.8061843 ], [ 140.976751399999984, 40.8007856 ], [ 140.9756157, 40.7916525 ], [ 140.970227599999987, 40.7866492 ], [ 140.958111799999983, 40.78003 ], [ 140.9611108, 40.7727363 ], [ 140.953419699999984, 40.7655735 ], [ 140.9449244, 40.7633788 ], [ 140.93954309999998, 40.7594977 ], [ 140.9202584, 40.761696799999989 ], [ 140.916419200000036, 40.7567488 ], [ 140.910528199999987, 40.7570604 ], [ 140.9019141, 40.7434704 ], [ 140.9012338, 40.7383584 ], [ 140.9098447, 40.7291712 ], [ 140.915638299999983, 40.7296867 ], [ 140.9199472, 40.7262934 ], [ 140.9263152, 40.7266642 ], [ 140.9291747, 40.7216114 ], [ 140.939178, 40.7215312 ], [ 140.953169600000024, 40.7186964 ], [ 140.9700172, 40.7058314 ], [ 140.9789666, 40.6976164 ], [ 140.9710464, 40.6933241 ], [ 140.9675681, 40.6819963 ], [ 140.9682445, 40.6741657 ], [ 140.959744, 40.6652518 ], [ 140.9610918, 40.6594023 ], [ 140.9562144, 40.6559826 ], [ 140.954996099999988, 40.6469912 ], [ 140.9389439, 40.6429037 ], [ 140.921008699999987, 40.6454271 ], [ 140.9114231, 40.6527526 ], [ 140.9048326, 40.6542446 ], [ 140.88692709999998, 40.6531716 ], [ 140.8801193, 40.6570669 ], [ 140.8762869, 40.6465374 ], [ 140.8837925, 40.6406668 ], [ 140.8836925, 40.6355591 ], [ 140.8762246, 40.6238171 ], [ 140.8766861, 40.6138854 ], [ 140.862916399999989, 40.6096399 ], [ 140.858346499999982, 40.6038274 ], [ 140.863029, 40.5975413 ], [ 140.8589158, 40.5883688 ], [ 140.8663163, 40.5851738 ], [ 140.866683599999988, 40.5740387 ], [ 140.8620899, 40.5542209 ], [ 140.8514492, 40.5449524 ], [ 140.8607367, 40.5396951 ], [ 140.8681996, 40.529885 ], [ 140.8714837, 40.522328 ], [ 140.880061499999982, 40.5102462 ], [ 140.8781074, 40.4984171 ], [ 140.8613226, 40.4406293 ], [ 140.8923259, 40.4233516 ], [ 140.90671949999998, 40.4252669 ], [ 140.910945, 40.423298 ], [ 140.919225, 40.4273157 ], [ 140.926774199999983, 40.421106 ], [ 140.9329617, 40.4212737 ], [ 140.941954899999985, 40.4302013 ], [ 140.9512638, 40.4263076 ], [ 140.96187519999998, 40.4269329 ], [ 140.9722074, 40.4308501 ], [ 140.985173299999985, 40.4270804 ], [ 140.994260699999984, 40.4335417 ], [ 141.000909200000024, 40.4448757 ], [ 141.0011647, 40.4547074 ], [ 141.005738, 40.4584174 ], [ 141.031086099999982, 40.4745099 ], [ 141.05536189999998, 40.4771233 ], [ 141.0583724, 40.479501 ], [ 141.0862548, 40.4907369 ], [ 141.087862799999982, 40.4935794 ], [ 141.1041267, 40.4926191 ], [ 141.111881899999986, 40.4986658 ], [ 141.119203299999981, 40.4957927 ], [ 141.1279228, 40.4964363 ], [ 141.1385297, 40.4947274 ], [ 141.1571619, 40.495476 ], [ 141.17282849999998, 40.4930404 ], [ 141.184964899999983, 40.4958457 ], [ 141.194808699999982, 40.4998365 ], [ 141.2017022, 40.5087368 ], [ 141.2079613, 40.5108963 ], [ 141.219148700000034, 40.5187677 ], [ 141.2196434, 40.5276119 ], [ 141.2255891, 40.5311397 ], [ 141.240931599999982, 40.5342283 ], [ 141.244525399999986, 40.5364661 ], [ 141.2632365, 40.5400614 ], [ 141.2753957, 40.5375931 ], [ 141.281239199999987, 40.5438626 ], [ 141.29114580000001, 40.5580421 ] ] ] } },
{ "type": "Feature", "properties": { "hokenjo": "西北" }, "geometry": { "type": "Polygon", "coordinates": [ [ [ 140.0473542, 40.4607163 ], [ 140.059235299999983, 40.4672302 ], [ 140.0683458, 40.4688565 ], [ 140.0741286, 40.4646179 ], [ 140.078454199999982, 40.4668957 ], [ 140.09358229999998, 40.4589248 ], [ 140.0995012, 40.4529564 ], [ 140.099174299999987, 40.4439692 ], [ 140.105089099999987, 40.440802 ], [ 140.107616, 40.4358961 ], [ 140.133254099999988, 40.4379586 ], [ 140.1367299, 40.4396166 ], [ 140.1472441, 40.438126 ], [ 140.1514827, 40.4421341 ], [ 140.149982099999988, 40.4516591 ], [ 140.1530476, 40.4623935 ], [ 140.1495612, 40.4742736 ], [ 140.1436367, 40.4758222 ], [ 140.133785599999982, 40.4857086 ], [ 140.1257024, 40.5015909 ], [ 140.1208586, 40.5037742 ], [ 140.1195488, 40.5121812 ], [ 140.1291502, 40.5137342 ], [ 140.136479399999985, 40.5189187 ], [ 140.1351463, 40.5293431 ], [ 140.1376579, 40.5395715 ], [ 140.1461732, 40.5441021 ], [ 140.160197899999986, 40.5441137 ], [ 140.163623199999989, 40.5502757 ], [ 140.1632143, 40.5569507 ], [ 140.1620709, 40.5652485 ], [ 140.1550531, 40.5714366 ], [ 140.1571092, 40.5875205 ], [ 140.164889499999987, 40.5873755 ], [ 140.1754714, 40.5937155 ], [ 140.183584699999983, 40.5958186 ], [ 140.1908099, 40.593541 ], [ 140.193048799999985, 40.6013516 ], [ 140.189388, 40.6056669 ], [ 140.2048371, 40.609223 ], [ 140.208371199999988, 40.6195947 ], [ 140.2189492, 40.624493 ], [ 140.2165947, 40.6312356 ], [ 140.220095499999985, 40.6408653 ], [ 140.23289459999998, 40.6450375 ], [ 140.2400863, 40.6450447 ], [ 140.2463707, 40.648912 ], [ 140.256169, 40.6488722 ], [ 140.268834199999986, 40.6533425 ], [ 140.279551699999985, 40.654578099999988 ], [ 140.278175299999987, 40.6623556 ], [ 140.2903388, 40.6669325 ], [ 140.288739099999987, 40.6692811 ], [ 140.3031918, 40.6777383 ], [ 140.3147166, 40.6806561 ], [ 140.322139099999987, 40.6875336 ], [ 140.3321699, 40.6928983 ], [ 140.337131199999988, 40.6994361 ], [ 140.3150293, 40.7015903 ], [ 140.3089359, 40.7038573 ], [ 140.294758699999988, 40.6940998 ], [ 140.2883206, 40.7085962 ], [ 140.2868186, 40.7203801 ], [ 140.288198599999987, 40.726936 ], [ 140.2960711, 40.7325837 ], [ 140.3014475, 40.7332482 ], [ 140.307073299999985, 40.7423479 ], [ 140.3156041, 40.7466882 ], [ 140.322450799999984, 40.7536304 ], [ 140.329463799999985, 40.7571001 ], [ 140.33285189999998, 40.761369 ], [ 140.3396224, 40.7592217 ], [ 140.3555173, 40.7550573 ], [ 140.3568383, 40.7487359 ], [ 140.3817331, 40.7478228 ], [ 140.389001899999982, 40.7426189 ], [ 140.3993625, 40.7466839 ], [ 140.4016958, 40.7384989 ], [ 140.4204378, 40.7366543 ], [ 140.4197891, 40.7241279 ], [ 140.4265457, 40.7220091 ], [ 140.4338996, 40.7238838 ], [ 140.4373828, 40.7294362 ], [ 140.4468542, 40.7281629 ], [ 140.459855, 40.7310801 ], [ 140.466748599999988, 40.7276431 ], [ 140.4674373, 40.7389585 ], [ 140.4721021, 40.7443789 ], [ 140.4725879, 40.7521338 ], [ 140.488886899999983, 40.7488639 ], [ 140.49890929999998, 40.7440816 ], [ 140.501159199999989, 40.7486421 ], [ 140.498990599999985, 40.7569479 ], [ 140.5010369, 40.7600468 ], [ 140.513727499999987, 40.7571009 ], [ 140.51241730000001, 40.7370132 ], [ 140.5202387, 40.729689 ], [ 140.527282, 40.7309979 ], [ 140.5299081, 40.7366626 ], [ 140.5386756, 40.7392348 ], [ 140.543611699999985, 40.7460057 ], [ 140.555682499999989, 40.7483982 ], [ 140.5582236, 40.7574973 ], [ 140.5635953, 40.760624 ], [ 140.573444099999989, 40.7605612 ], [ 140.57801139999998, 40.7670857 ], [ 140.5720953, 40.7800398 ], [ 140.576608, 40.787217 ], [ 140.572866399999981, 40.793619 ], [ 140.574483, 40.8013865 ], [ 140.57356, 40.809859 ], [ 140.5775089, 40.8149812 ], [ 140.577198, 40.8289734 ], [ 140.5819861, 40.8328937 ], [ 140.5799078, 40.8409568 ], [ 140.585099099999979, 40.8435507 ], [ 140.5900316, 40.8531918 ], [ 140.592101899999989, 40.868605 ], [ 140.5877571, 40.8799964 ], [ 140.5839384, 40.8943695 ], [ 140.575261399999988, 40.8970528 ], [ 140.5750008, 40.9043043 ], [ 140.5794661, 40.9070846 ], [ 140.5787097, 40.9117668 ], [ 140.5860496, 40.9226052 ], [ 140.5827596, 40.9259691 ], [ 140.587725899999981, 40.9342061 ], [ 140.5799328, 40.9403172 ], [ 140.576118899999983, 40.9394642 ], [ 140.566720800000013, 40.9445461 ], [ 140.5621937, 40.9532381 ], [ 140.5556857, 40.9553753 ], [ 140.5527717, 40.9613623 ], [ 140.5535961, 40.969264 ], [ 140.5477694, 40.970556 ], [ 140.551040799999981, 40.9777782 ], [ 140.5457839, 40.983043 ], [ 140.5384975, 40.984121 ], [ 140.5216575, 40.9956897 ], [ 140.5220275, 41.0071303 ], [ 140.5161353, 41.0091406 ], [ 140.5157744, 41.0147142 ], [ 140.5188886, 41.0229295 ], [ 140.5193088, 41.0289751 ], [ 140.514323, 41.0299271 ], [ 140.510667399999988, 41.0374224 ], [ 140.5017053, 41.0432765 ], [ 140.4943491, 41.0530863 ], [ 140.4976747, 41.062018 ], [ 140.4953558, 41.0685402 ], [ 140.4897516, 41.0711049 ], [ 140.4852108, 41.0767691 ], [ 140.4734791, 41.0836697 ], [ 140.462637799999982, 41.0879639 ], [ 140.455191899999988, 41.0993558 ], [ 140.4567274, 41.1041453 ], [ 140.464523499999984, 41.1117653 ], [ 140.461462399999988, 41.1173158 ], [ 140.443347099999983, 41.1158958 ], [ 140.4267896, 41.1214016 ], [ 140.419252699999987, 41.1194346 ], [ 140.4068591, 41.1209682 ], [ 140.3992399, 41.1221501 ], [ 140.3912501, 41.1270548 ], [ 140.38581259999998, 41.1348699 ], [ 140.3784728, 41.1395182 ], [ 140.370306100000022, 41.1500424 ], [ 140.363194099999987, 41.1527994 ], [ 140.3680277, 41.1621319 ], [ 140.370581499999986, 41.1733672 ], [ 140.368512899999985, 41.1797344 ], [ 140.371494800000022, 41.193237 ], [ 140.375532, 41.1960426 ], [ 140.371365299999979, 41.2030462 ], [ 140.3724622, 41.2101479 ], [ 140.361911099999986, 41.2198579 ], [ 140.363258, 41.2299171 ], [ 140.362019299999986, 41.2350071 ], [ 140.3542177, 41.2411968 ], [ 140.349069, 41.2489021 ], [ 140.3421832, 41.2489928 ], [ 140.3400835, 41.2390502 ], [ 140.332106, 41.2360618 ], [ 140.32897269999998, 41.2191359 ], [ 140.332029399999982, 41.2152462 ], [ 140.334521699999982, 41.2049784 ], [ 140.3314478, 41.197116199999989 ], [ 140.3355673, 41.1931495 ], [ 140.332407599999982, 41.1839345 ], [ 140.3337632, 41.1799756 ], [ 140.3288671, 41.167795 ], [ 140.3280265, 41.1600256 ], [ 140.3215908, 41.1478311 ], [ 140.312103800000017, 41.1457306 ], [ 140.3124986, 41.1380122 ], [ 140.303365, 41.1313059 ], [ 140.29572, 41.1311259 ], [ 140.2888963, 41.1364573 ], [ 140.2775494, 41.139254799999989 ], [ 140.2646699, 41.1356006 ], [ 140.2570057, 41.1406673 ], [ 140.2504657, 41.1310679 ], [ 140.250056600000022, 41.1237151 ], [ 140.2568574, 41.1211201 ], [ 140.280196, 41.1212611 ], [ 140.2883914, 41.1194489 ], [ 140.2963954, 41.1147083 ], [ 140.3058681, 41.1066269 ], [ 140.3115994, 41.0973217 ], [ 140.31946019999998, 41.0927134 ], [ 140.3232231, 41.0795995 ], [ 140.324111599999981, 41.0557185 ], [ 140.3225358, 41.031599 ], [ 140.318949, 40.9998121 ], [ 140.313222, 40.9650102 ], [ 140.305107599999985, 40.92848 ], [ 140.298828, 40.905815 ], [ 140.284746399999989, 40.8638706 ], [ 140.2690815, 40.8295821 ], [ 140.2579135, 40.8108116 ], [ 140.2499331, 40.8004673 ], [ 140.239401099999981, 40.7893316 ], [ 140.227550899999983, 40.7815415 ], [ 140.2138017, 40.7790144 ], [ 140.203442, 40.7854953 ], [ 140.191535499999986, 40.7826458 ], [ 140.182867, 40.7747743 ], [ 140.168821899999983, 40.7695831 ], [ 140.157910499999986, 40.7601538 ], [ 140.1443844, 40.7519584 ], [ 140.1301953, 40.745265 ], [ 140.1159551, 40.7412539 ], [ 140.09561309999998, 40.7472085 ], [ 140.0848494, 40.758369 ], [ 140.0762114, 40.759604 ], [ 140.0653069, 40.766831 ], [ 140.0528908, 40.7692224 ], [ 140.0502789, 40.766071 ], [ 140.039273, 40.7638478 ], [ 140.0340267, 40.7604599 ], [ 140.0271051, 40.7509383 ], [ 140.0185304, 40.7497272 ], [ 140.006784, 40.7444663 ], [ 139.9974104, 40.7428877 ], [ 139.999528199999986, 40.7368213 ], [ 139.9941816, 40.732386299999988 ], [ 139.9864485, 40.7186443 ], [ 139.987683299999986, 40.7159363 ], [ 139.979118799999981, 40.7027751 ], [ 139.967817699999983, 40.6988776 ], [ 139.969229399999989, 40.6960751 ], [ 139.966150199999987, 40.6867776 ], [ 139.950843599999985, 40.6704529 ], [ 139.939028899999983, 40.6682248 ], [ 139.9362025, 40.654532 ], [ 139.9294975, 40.6527095 ], [ 139.9226142, 40.6443614 ], [ 139.9115376, 40.6422426 ], [ 139.9017609, 40.6454329 ], [ 139.8919884, 40.6344559 ], [ 139.885360599999984, 40.6292301 ], [ 139.860946, 40.6159777 ], [ 139.8607826, 40.6074159 ], [ 139.8640321, 40.5980484 ], [ 139.862038499999983, 40.5949579 ], [ 139.868566099999981, 40.5844384 ], [ 139.8766474, 40.5816778 ], [ 139.8847716, 40.5844856 ], [ 139.899272199999984, 40.5824544 ], [ 139.9073094, 40.58638 ], [ 139.918430500000028, 40.5857941 ], [ 139.9271861, 40.5767185 ], [ 139.933485599999983, 40.5652841 ], [ 139.9300581, 40.5590557 ], [ 139.9401762, 40.5526954 ], [ 139.945001, 40.5378832 ], [ 139.947509599999989, 40.5240501 ], [ 139.9470374, 40.5116234 ], [ 139.948579099999989, 40.5093356 ], [ 139.9498975, 40.4937713 ], [ 139.9470284, 40.4843471 ], [ 139.9450338, 40.4643499 ], [ 139.9420146, 40.4578308 ], [ 139.9420752, 40.4491388 ], [ 139.9389, 40.4460466 ], [ 139.942120099999983, 40.4299991 ], [ 139.9508734, 40.4309152 ], [ 139.9597675, 40.4348255 ], [ 139.9641139, 40.4302785 ], [ 139.973524, 40.4265996 ], [ 139.9852037, 40.4279126 ], [ 139.993727299999989, 40.4325362 ], [ 140.001031800000021, 40.4328931 ], [ 140.0064209, 40.4273511 ], [ 140.011256, 40.4259644 ], [ 140.021629, 40.4294653 ], [ 140.0253434, 40.4395847 ], [ 140.0202084, 40.4465505 ], [ 140.0248528, 40.4530858 ], [ 140.0383631, 40.460781 ], [ 140.0473542, 40.4607163 ] ] ] } },
{ "type": "Feature", "properties": { "hokenjo": "中南" }, "geometry": { "type": "Polygon", "coordinates": [ [ [ 140.5756064, 40.4289227 ], [ 140.58870779999998, 40.4301957 ], [ 140.5897305, 40.4361129 ], [ 140.6035944, 40.4299226 ], [ 140.6120431, 40.4236848 ], [ 140.6236136, 40.4245195 ], [ 140.632934799999987, 40.4177128 ], [ 140.636291199999988, 40.4094847 ], [ 140.6452329, 40.4030905 ], [ 140.653692399999983, 40.4036044 ], [ 140.6642879, 40.4068724 ], [ 140.6664534, 40.4115927 ], [ 140.673242, 40.4114877 ], [ 140.6786137, 40.4154893 ], [ 140.6872573, 40.4184199 ], [ 140.687522500000028, 40.4270229 ], [ 140.6992281, 40.429416 ], [ 140.7026536, 40.427126 ], [ 140.7160747, 40.4275648 ], [ 140.717467, 40.421109 ], [ 140.7230164, 40.4166109 ], [ 140.7335698, 40.4158028 ], [ 140.7358583, 40.4278597 ], [ 140.7316164, 40.4304978 ], [ 140.734093799999982, 40.4396826 ], [ 140.741288199999985, 40.4379412 ], [ 140.752702699999986, 40.4391736 ], [ 140.7627137, 40.4512473 ], [ 140.7724126, 40.4512278 ], [ 140.786846699999984, 40.4572314 ], [ 140.793542299999984, 40.4493452 ], [ 140.803402799999986, 40.4485896 ], [ 140.807715299999984, 40.4578086 ], [ 140.808564099999984, 40.4697856 ], [ 140.8114876, 40.4785565 ], [ 140.810629, 40.4871297 ], [ 140.8146806, 40.4884394 ], [ 140.82002559999998, 40.4953303 ], [ 140.8263905, 40.4959203 ], [ 140.8365421, 40.5041244 ], [ 140.84502089999998, 40.5073597 ], [ 140.8522956, 40.5052555 ], [ 140.880061499999982, 40.5102462 ], [ 140.8714837, 40.522328 ], [ 140.8681996, 40.529885 ], [ 140.8607367, 40.5396951 ], [ 140.8514492, 40.5449524 ], [ 140.8620899, 40.5542209 ], [ 140.866683599999988, 40.5740387 ], [ 140.8663163, 40.5851738 ], [ 140.8589158, 40.5883688 ], [ 140.863029, 40.5975413 ], [ 140.858346499999982, 40.6038274 ], [ 140.862916399999989, 40.6096399 ], [ 140.852800699999989, 40.6094108 ], [ 140.8442671, 40.6059217 ], [ 140.844311, 40.6105128 ], [ 140.838161499999984, 40.6136937 ], [ 140.826057599999984, 40.6242773 ], [ 140.811579199999983, 40.640999 ], [ 140.8058739, 40.6452457 ], [ 140.784342899999984, 40.6505149 ], [ 140.775513499999988, 40.6559344 ], [ 140.7664009, 40.6659389 ], [ 140.7609457, 40.6609259 ], [ 140.7517327, 40.663025399999988 ], [ 140.7405124, 40.661049 ], [ 140.7334002, 40.6623377 ], [ 140.7296852, 40.6662824 ], [ 140.7232453, 40.6658435 ], [ 140.7162442, 40.6621855 ], [ 140.7055426, 40.661763 ], [ 140.7013926, 40.656878 ], [ 140.695462, 40.6605192 ], [ 140.6682027, 40.6566748 ], [ 140.6586012, 40.6621673 ], [ 140.6522167, 40.6701414 ], [ 140.640836600000029, 40.6770709 ], [ 140.6360537, 40.6836681 ], [ 140.634402199999982, 40.6898495 ], [ 140.6153836, 40.6874317 ], [ 140.5985163, 40.6921037 ], [ 140.5782452, 40.6873173 ], [ 140.5718999, 40.6894264 ], [ 140.559181, 40.6880637 ], [ 140.5557647, 40.6848556 ], [ 140.556221099999988, 40.678607 ], [ 140.5488967, 40.674075 ], [ 140.5442711, 40.6771191 ], [ 140.5407314, 40.6876587 ], [ 140.548752399999984, 40.6954809 ], [ 140.5470642, 40.7002838 ], [ 140.53691569999998, 40.705992 ], [ 140.525136799999984, 40.7198962 ], [ 140.521125899999987, 40.721957 ], [ 140.5202387, 40.729689 ], [ 140.51241730000001, 40.7370132 ], [ 140.513727499999987, 40.7571009 ], [ 140.5010369, 40.7600468 ], [ 140.498990599999985, 40.7569479 ], [ 140.501159199999989, 40.7486421 ], [ 140.49890929999998, 40.7440816 ], [ 140.488886899999983, 40.7488639 ], [ 140.4725879, 40.7521338 ], [ 140.4721021, 40.7443789 ], [ 140.4674373, 40.7389585 ], [ 140.466748599999988, 40.7276431 ], [ 140.459855, 40.7310801 ], [ 140.4468542, 40.7281629 ], [ 140.4373828, 40.7294362 ], [ 140.4338996, 40.7238838 ], [ 140.4265457, 40.7220091 ], [ 140.4197891, 40.7241279 ], [ 140.4204378, 40.7366543 ], [ 140.4016958, 40.7384989 ], [ 140.3993625, 40.7466839 ], [ 140.389001899999982, 40.7426189 ], [ 140.3817331, 40.7478228 ], [ 140.3568383, 40.7487359 ], [ 140.3555173, 40.7550573 ], [ 140.3396224, 40.7592217 ], [ 140.33285189999998, 40.761369 ], [ 140.329463799999985, 40.7571001 ], [ 140.322450799999984, 40.7536304 ], [ 140.3156041, 40.7466882 ], [ 140.307073299999985, 40.7423479 ], [ 140.3014475, 40.7332482 ], [ 140.2960711, 40.7325837 ], [ 140.288198599999987, 40.726936 ], [ 140.2868186, 40.7203801 ], [ 140.2883206, 40.7085962 ], [ 140.294758699999988, 40.6940998 ], [ 140.3089359, 40.7038573 ], [ 140.3150293, 40.7015903 ], [ 140.337131199999988, 40.6994361 ], [ 140.3321699, 40.6928983 ], [ 140.322139099999987, 40.6875336 ], [ 140.3147166, 40.6806561 ], [ 140.3031918, 40.6777383 ], [ 140.288739099999987, 40.6692811 ], [ 140.2903388, 40.6669325 ], [ 140.278175299999987, 40.6623556 ], [ 140.279551699999985, 40.654578099999988 ], [ 140.268834199999986, 40.6533425 ], [ 140.256169, 40.6488722 ], [ 140.2463707, 40.648912 ], [ 140.2400863, 40.6450447 ], [ 140.23289459999998, 40.6450375 ], [ 140.220095499999985, 40.6408653 ], [ 140.2165947, 40.6312356 ], [ 140.2189492, 40.624493 ], [ 140.208371199999988, 40.6195947 ], [ 140.2048371, 40.609223 ], [ 140.189388, 40.6056669 ], [ 140.193048799999985, 40.6013516 ], [ 140.1908099, 40.593541 ], [ 140.183584699999983, 40.5958186 ], [ 140.1754714, 40.5937155 ], [ 140.164889499999987, 40.5873755 ], [ 140.1571092, 40.5875205 ], [ 140.1550531, 40.5714366 ], [ 140.1620709, 40.5652485 ], [ 140.1632143, 40.5569507 ], [ 140.163623199999989, 40.5502757 ], [ 140.160197899999986, 40.5441137 ], [ 140.1461732, 40.5441021 ], [ 140.1376579, 40.5395715 ], [ 140.1351463, 40.5293431 ], [ 140.136479399999985, 40.5189187 ], [ 140.1291502, 40.5137342 ], [ 140.1195488, 40.5121812 ], [ 140.1208586, 40.5037742 ], [ 140.1257024, 40.5015909 ], [ 140.133785599999982, 40.4857086 ], [ 140.1436367, 40.4758222 ], [ 140.1495612, 40.4742736 ], [ 140.1530476, 40.4623935 ], [ 140.149982099999988, 40.4516591 ], [ 140.1514827, 40.4421341 ], [ 140.1472441, 40.438126 ], [ 140.1514124, 40.4350235 ], [ 140.162424099999981, 40.439359 ], [ 140.1803763, 40.441149 ], [ 140.1874771, 40.4395742 ], [ 140.196960499999989, 40.4346223 ], [ 140.2100963, 40.4384286 ], [ 140.220168799999982, 40.4311455 ], [ 140.242501, 40.437279 ], [ 140.2514971, 40.4419087 ], [ 140.266867099999985, 40.4407426 ], [ 140.2793443, 40.4460521 ], [ 140.288144599999981, 40.444894 ], [ 140.2988708, 40.4462524 ], [ 140.3076261, 40.4418935 ], [ 140.3095389, 40.4365723 ], [ 140.3209669, 40.438604 ], [ 140.3352161, 40.4393834 ], [ 140.339148599999987, 40.4411362 ], [ 140.3437849, 40.4522001 ], [ 140.34337069999998, 40.4616616 ], [ 140.347808499999985, 40.4675477 ], [ 140.361301199999986, 40.4783916 ], [ 140.377947899999981, 40.4765402 ], [ 140.3869631, 40.4870566 ], [ 140.395674, 40.4820427 ], [ 140.3967246, 40.4782274 ], [ 140.406115699999987, 40.4746385 ], [ 140.4174966, 40.4799535 ], [ 140.42707679999998, 40.4825916 ], [ 140.437206, 40.478256 ], [ 140.433460199999985, 40.4677018 ], [ 140.4370194, 40.4654704 ], [ 140.437551899999988, 40.4552693 ], [ 140.4438237, 40.4506337 ], [ 140.4594114, 40.4564473 ], [ 140.465886500000011, 40.4539831 ], [ 140.477647099999984, 40.4530748 ], [ 140.484321599999987, 40.4462223 ], [ 140.4851596, 40.4408653 ], [ 140.4980122, 40.43645 ], [ 140.508454799999981, 40.4285258 ], [ 140.5278834, 40.4313289 ], [ 140.5308082, 40.4267136 ], [ 140.529810199999986, 40.4202641 ], [ 140.524394299999983, 40.4189516 ], [ 140.5238094, 40.4102127 ], [ 140.5321816, 40.4112802 ], [ 140.5407831, 40.4026752 ], [ 140.547349199999985, 40.4039144 ], [ 140.5591451, 40.3970593 ], [ 140.5670695, 40.3986407 ], [ 140.5659698, 40.4064746 ], [ 140.5593625, 40.4113404 ], [ 140.553212699999989, 40.4199849 ], [ 140.557636299999984, 40.4256919 ], [ 140.574095299999982, 40.4261418 ], [ 140.5756064, 40.4289227 ] ] ] } },
{ "type": "Feature", "properties": { "hokenjo": "東津軽・青森市" }, "geometry": { "type": "Polygon", "coordinates": [ [ [ 140.976751399999984, 40.8007856 ], [ 140.9756157, 40.7916525 ], [ 140.970227599999987, 40.7866492 ], [ 140.958111799999983, 40.78003 ], [ 140.9611108, 40.7727363 ], [ 140.953419699999984, 40.7655735 ], [ 140.9449244, 40.7633788 ], [ 140.93954309999998, 40.7594977 ], [ 140.9202584, 40.761696799999989 ], [ 140.916419200000036, 40.7567488 ], [ 140.910528199999987, 40.7570604 ], [ 140.9019141, 40.7434704 ], [ 140.9012338, 40.7383584 ], [ 140.9098447, 40.7291712 ], [ 140.915638299999983, 40.7296867 ], [ 140.9199472, 40.7262934 ], [ 140.9263152, 40.7266642 ], [ 140.9291747, 40.7216114 ], [ 140.939178, 40.7215312 ], [ 140.953169600000024, 40.7186964 ], [ 140.9700172, 40.7058314 ], [ 140.9789666, 40.6976164 ], [ 140.9710464, 40.6933241 ], [ 140.9675681, 40.6819963 ], [ 140.9682445, 40.6741657 ], [ 140.959744, 40.6652518 ], [ 140.9610918, 40.6594023 ], [ 140.9562144, 40.6559826 ], [ 140.954996099999988, 40.6469912 ], [ 140.9389439, 40.6429037 ], [ 140.921008699999987, 40.6454271 ], [ 140.9114231, 40.6527526 ], [ 140.9048326, 40.6542446 ], [ 140.88692709999998, 40.6531716 ], [ 140.8801193, 40.6570669 ], [ 140.8762869, 40.6465374 ], [ 140.8837925, 40.6406668 ], [ 140.8836925, 40.6355591 ], [ 140.8762246, 40.6238171 ], [ 140.8766861, 40.6138854 ], [ 140.862916399999989, 40.6096399 ], [ 140.852800699999989, 40.6094108 ], [ 140.8442671, 40.6059217 ], [ 140.844311, 40.6105128 ], [ 140.838161499999984, 40.6136937 ], [ 140.826057599999984, 40.6242773 ], [ 140.811579199999983, 40.640999 ], [ 140.8058739, 40.6452457 ], [ 140.784342899999984, 40.6505149 ], [ 140.775513499999988, 40.6559344 ], [ 140.7664009, 40.6659389 ], [ 140.7609457, 40.6609259 ], [ 140.7517327, 40.663025399999988 ], [ 140.7405124, 40.661049 ], [ 140.7334002, 40.6623377 ], [ 140.7296852, 40.6662824 ], [ 140.7232453, 40.6658435 ], [ 140.7162442, 40.6621855 ], [ 140.7055426, 40.661763 ], [ 140.7013926, 40.656878 ], [ 140.695462, 40.6605192 ], [ 140.6682027, 40.6566748 ], [ 140.6586012, 40.6621673 ], [ 140.6522167, 40.6701414 ], [ 140.640836600000029, 40.6770709 ], [ 140.6360537, 40.6836681 ], [ 140.634402199999982, 40.6898495 ], [ 140.6153836, 40.6874317 ], [ 140.5985163, 40.6921037 ], [ 140.5782452, 40.6873173 ], [ 140.5718999, 40.6894264 ], [ 140.559181, 40.6880637 ], [ 140.5557647, 40.6848556 ], [ 140.556221099999988, 40.678607 ], [ 140.5488967, 40.674075 ], [ 140.5442711, 40.6771191 ], [ 140.5407314, 40.6876587 ], [ 140.548752399999984, 40.6954809 ], [ 140.5470642, 40.7002838 ], [ 140.53691569999998, 40.705992 ], [ 140.525136799999984, 40.7198962 ], [ 140.521125899999987, 40.721957 ], [ 140.5202387, 40.729689 ], [ 140.527282, 40.7309979 ], [ 140.5299081, 40.7366626 ], [ 140.5386756, 40.7392348 ], [ 140.543611699999985, 40.7460057 ], [ 140.555682499999989, 40.7483982 ], [ 140.5582236, 40.7574973 ], [ 140.5635953, 40.760624 ], [ 140.573444099999989, 40.7605612 ], [ 140.57801139999998, 40.7670857 ], [ 140.5720953, 40.7800398 ], [ 140.576608, 40.787217 ], [ 140.572866399999981, 40.793619 ], [ 140.574483, 40.8013865 ], [ 140.57356, 40.809859 ], [ 140.5775089, 40.8149812 ], [ 140.577198, 40.8289734 ], [ 140.5819861, 40.8328937 ], [ 140.5799078, 40.8409568 ], [ 140.585099099999979, 40.8435507 ], [ 140.5900316, 40.8531918 ], [ 140.592101899999989, 40.868605 ], [ 140.5877571, 40.8799964 ], [ 140.5839384, 40.8943695 ], [ 140.575261399999988, 40.8970528 ], [ 140.5750008, 40.9043043 ], [ 140.5794661, 40.9070846 ], [ 140.5787097, 40.9117668 ], [ 140.5860496, 40.9226052 ], [ 140.5827596, 40.9259691 ], [ 140.587725899999981, 40.9342061 ], [ 140.5799328, 40.9403172 ], [ 140.576118899999983, 40.9394642 ], [ 140.566720800000013, 40.9445461 ], [ 140.5621937, 40.9532381 ], [ 140.5556857, 40.9553753 ], [ 140.5527717, 40.9613623 ], [ 140.5535961, 40.969264 ], [ 140.5477694, 40.970556 ], [ 140.551040799999981, 40.9777782 ], [ 140.5457839, 40.983043 ], [ 140.5384975, 40.984121 ], [ 140.5216575, 40.9956897 ], [ 140.5220275, 41.0071303 ], [ 140.5161353, 41.0091406 ], [ 140.5157744, 41.0147142 ], [ 140.5188886, 41.0229295 ], [ 140.5193088, 41.0289751 ], [ 140.514323, 41.0299271 ], [ 140.510667399999988, 41.0374224 ], [ 140.5017053, 41.0432765 ], [ 140.4943491, 41.0530863 ], [ 140.4976747, 41.062018 ], [ 140.4953558, 41.0685402 ], [ 140.4897516, 41.0711049 ], [ 140.4852108, 41.0767691 ], [ 140.4734791, 41.0836697 ], [ 140.462637799999982, 41.0879639 ], [ 140.455191899999988, 41.0993558 ], [ 140.4567274, 41.1041453 ], [ 140.464523499999984, 41.1117653 ], [ 140.461462399999988, 41.1173158 ], [ 140.443347099999983, 41.1158958 ], [ 140.4267896, 41.1214016 ], [ 140.419252699999987, 41.1194346 ], [ 140.4068591, 41.1209682 ], [ 140.3992399, 41.1221501 ], [ 140.3912501, 41.1270548 ], [ 140.38581259999998, 41.1348699 ], [ 140.3784728, 41.1395182 ], [ 140.370306100000022, 41.1500424 ], [ 140.363194099999987, 41.1527994 ], [ 140.3680277, 41.1621319 ], [ 140.370581499999986, 41.1733672 ], [ 140.368512899999985, 41.1797344 ], [ 140.371494800000022, 41.193237 ], [ 140.375532, 41.1960426 ], [ 140.371365299999979, 41.2030462 ], [ 140.3724622, 41.2101479 ], [ 140.361911099999986, 41.2198579 ], [ 140.363258, 41.2299171 ], [ 140.362019299999986, 41.2350071 ], [ 140.3542177, 41.2411968 ], [ 140.349069, 41.2489021 ], [ 140.3421832, 41.2489928 ], [ 140.3393608, 41.2548168 ], [ 140.3464277, 41.2588784 ], [ 140.3595815, 41.2532005 ], [ 140.361718199999984, 41.2500254 ], [ 140.3750799, 41.2474455 ], [ 140.386211799999984, 41.2391448 ], [ 140.39667369999998, 41.2345124 ], [ 140.40217, 41.2230145 ], [ 140.406623699999983, 41.218978 ], [ 140.426402, 41.2076546 ], [ 140.432508399999989, 41.1958842 ], [ 140.4488265, 41.1887167 ], [ 140.459268899999984, 41.1877444 ], [ 140.4620454, 41.1828983 ], [ 140.468041699999986, 41.1817822 ], [ 140.482176399999986, 41.183273 ], [ 140.490986099999986, 41.1860935 ], [ 140.5075553, 41.1957697 ], [ 140.519445800000028, 41.2053525 ], [ 140.521416, 41.2162 ], [ 140.5269221, 41.221191399999988 ], [ 140.534529599999985, 41.2215803 ], [ 140.5386313, 41.2178594 ], [ 140.549731, 41.2275919 ], [ 140.5550026, 41.2243641 ], [ 140.5790332, 41.2224035 ], [ 140.5878454, 41.2172796 ], [ 140.5940151, 41.2163891 ], [ 140.6066557, 41.2122642 ], [ 140.6125678, 41.2025285 ], [ 140.6178473, 41.1969692 ], [ 140.6322965, 41.1916012 ], [ 140.6417548, 41.1790503 ], [ 140.6437383, 41.1723977 ], [ 140.6384713, 41.1529542 ], [ 140.639490599999988, 41.1480343 ], [ 140.63387, 41.13323 ], [ 140.6342089, 41.1249384 ], [ 140.6320929, 41.1168017 ], [ 140.6316481, 41.1014284 ], [ 140.6345825, 41.0784204 ], [ 140.6373763, 41.0728179 ], [ 140.638753399999985, 41.0619404 ], [ 140.6455363, 41.0489084 ], [ 140.646751699999982, 41.029315 ], [ 140.651983200000018, 40.9997337 ], [ 140.6556256, 40.9869917 ], [ 140.6587707, 40.956437 ], [ 140.6607922, 40.9484521 ], [ 140.66246959999998, 40.9407397 ], [ 140.668095599999987, 40.9273838 ], [ 140.674462399999982, 40.905883 ], [ 140.6769289, 40.8894641 ], [ 140.684885899999983, 40.8712044 ], [ 140.6919146, 40.8604056 ], [ 140.702118, 40.8513008 ], [ 140.7080599, 40.8504036 ], [ 140.7204365, 40.8433487 ], [ 140.7275899, 40.836873 ], [ 140.7380872, 40.8299878 ], [ 140.753741800000029, 40.831684 ], [ 140.75956739999998, 40.8346743 ], [ 140.780393799999985, 40.8318779 ], [ 140.789070899999984, 40.8338107 ], [ 140.8017293, 40.8393469 ], [ 140.8205346, 40.8541605 ], [ 140.822330199999982, 40.8608857 ], [ 140.834884099999982, 40.8665345 ], [ 140.83488939999998, 40.8721181 ], [ 140.8448224, 40.8727551 ], [ 140.849664, 40.8779357 ], [ 140.849959600000034, 40.8832997 ], [ 140.860398799999984, 40.8890846 ], [ 140.858915699999983, 40.9039528 ], [ 140.865118, 40.9039068 ], [ 140.8698547, 40.9152973 ], [ 140.865150299999982, 40.9203998 ], [ 140.86878489999998, 40.9256111 ], [ 140.8662239, 40.9319582 ], [ 140.866919699999983, 40.9409043 ], [ 140.8717723, 40.9437106 ], [ 140.861758800000018, 40.9473621 ], [ 140.856861899999984, 40.9440374 ], [ 140.8394628, 40.95237 ], [ 140.8589786, 40.956033 ], [ 140.8599663, 40.9716536 ], [ 140.8693443, 40.977437 ], [ 140.8696893, 40.9838656 ], [ 140.876022899999981, 40.9923404 ], [ 140.8807535, 41.0044134 ], [ 140.880113599999987, 41.0081129 ], [ 140.889665799999989, 41.010799299999988 ], [ 140.9031575, 41.0079118 ], [ 140.9152463, 40.9978308 ], [ 140.9235464, 40.9928103 ], [ 140.933881899999989, 40.9930703 ], [ 140.939157599999987, 40.9951365 ], [ 140.948709399999984, 40.9923548 ], [ 140.9502161, 40.9857392 ], [ 140.9611847, 40.9734156 ], [ 140.98211, 40.9613794 ], [ 140.9823235, 40.9552614 ], [ 140.978368099999983, 40.9497444 ], [ 140.980233699999985, 40.9440993 ], [ 140.972535199999982, 40.9405244 ], [ 140.970747099999983, 40.9360479 ], [ 140.9785483, 40.9331222 ], [ 140.991284799999988, 40.9344727 ], [ 140.997534, 40.9369563 ], [ 141.006800299999981, 40.9321328 ], [ 141.02059749999998, 40.9298502 ], [ 141.0232651, 40.9246643 ], [ 141.034542499999986, 40.9175213 ], [ 141.0433397, 40.9148301 ], [ 141.054771599999981, 40.917061 ], [ 141.0642451, 40.9133361 ], [ 141.0704802, 40.9036509 ], [ 141.07887359999998, 40.8963756 ], [ 141.084125, 40.8861986 ], [ 141.076750799999985, 40.8859809 ], [ 141.0470215, 40.8770744 ], [ 141.043710399999981, 40.8742069 ], [ 141.041634800000026, 40.8648974 ], [ 141.046197399999983, 40.8519585 ], [ 141.0394532, 40.8467712 ], [ 141.039400699999987, 40.840387 ], [ 141.0224508, 40.836782 ], [ 141.01806879999998, 40.8371559 ], [ 141.02014269999998, 40.8259555 ], [ 141.0167333, 40.819851 ], [ 141.0067041, 40.8166063 ], [ 140.996113899999983, 40.8150021 ], [ 140.9806092, 40.8061843 ], [ 140.976751399999984, 40.8007856 ] ] ] } }
]
}
