{
"type": "FeatureCollection",
"name": "chiba",
"crs": { "type": "name", "properties": { "name": "urn:ogc:def:crs:OGC:1.3:CRS84" } },
"features": [
{ "type": "Feature", "properties": { "hokenjo": "安房" }, "geometry": { "type": "MultiPolygon", "coordinates": [ [ [ [ 139.822707399999985, 34.9146794 ], [ 139.8245174, 34.9112622 ], [ 139.824455799999981, 34.9112494 ], [ 139.824276699999984, 34.911212 ], [ 139.8396335, 34.9044733 ], [ 139.846141, 34.9029802 ], [ 139.864733799999982, 34.9068697 ], [ 139.8735165, 34.9028594 ], [ 139.8833496, 34.9025377 ], [ 139.893475099999989, 34.9058301 ], [ 139.902662, 34.9036943 ], [ 139.9084609, 34.9071248 ], [ 139.916618199999988, 34.9062942 ], [ 139.919684, 34.910436499999989 ], [ 139.9293334, 34.9122584 ], [ 139.941904699999981, 34.9174722 ], [ 139.9420763, 34.9221377 ], [ 139.952208899999988, 34.9286141 ], [ 139.9546403, 34.9337086 ], [ 139.961132599999985, 34.9380794 ], [ 139.965004599999986, 34.9457544 ], [ 139.9649828, 34.9523916 ], [ 139.960515200000032, 34.9647867 ], [ 139.9625194, 34.971775 ], [ 139.97142119999998, 34.9864662 ], [ 139.9721059, 34.99255 ], [ 139.9760143, 35.0033353 ], [ 139.9802482, 35.0100594 ], [ 139.992530499999987, 35.0225629 ], [ 140.002701, 35.0308648 ], [ 140.013108, 35.0364532 ], [ 140.017163899999986, 35.0356004 ], [ 140.0248469, 35.0435264 ], [ 140.037986099999983, 35.0515299 ], [ 140.055137799999983, 35.0590996 ], [ 140.07529169999998, 35.0575448 ], [ 140.075423299999983, 35.0623493 ], [ 140.0829608, 35.0638721 ], [ 140.0790141, 35.0684451 ], [ 140.0850791, 35.0701053 ], [ 140.099473, 35.0798085 ], [ 140.0982161, 35.0841085 ], [ 140.1044707, 35.0908379 ], [ 140.1051721, 35.1019411 ], [ 140.1088135, 35.1068533 ], [ 140.121867399999985, 35.1160322 ], [ 140.134424, 35.1216871 ], [ 140.1456277, 35.1176121 ], [ 140.151582599999983, 35.1170337 ], [ 140.1535197, 35.1213807 ], [ 140.1680968, 35.1236883 ], [ 140.1729257, 35.1200287 ], [ 140.178203599999989, 35.1214606 ], [ 140.1830625, 35.1181576 ], [ 140.185661899999985, 35.1245529 ], [ 140.190237599999989, 35.1271437 ], [ 140.1968607, 35.1208732 ], [ 140.1957593, 35.1162457 ], [ 140.2027043, 35.109739 ], [ 140.211805199999986, 35.1144665 ], [ 140.213602, 35.1212173 ], [ 140.2117475, 35.126075 ], [ 140.2160404, 35.1339947 ], [ 140.212160899999986, 35.1363155 ], [ 140.216357599999981, 35.1412611 ], [ 140.2132359, 35.1503563 ], [ 140.2076729, 35.1544788 ], [ 140.20774179999998, 35.1618441 ], [ 140.201962899999984, 35.1702924 ], [ 140.196649799999989, 35.1716746 ], [ 140.187915, 35.1701785 ], [ 140.1749763, 35.1666927 ], [ 140.1660441, 35.1705447 ], [ 140.1615271, 35.1743069 ], [ 140.1612685, 35.181243 ], [ 140.153412, 35.1817208 ], [ 140.142302199999989, 35.189987699999989 ], [ 140.1349325, 35.190813 ], [ 140.1295833, 35.1884683 ], [ 140.1211109, 35.1908891 ], [ 140.1148092, 35.1806128 ], [ 140.110149799999988, 35.1794811 ], [ 140.1008005, 35.1809932 ], [ 140.096832, 35.177929399999989 ], [ 140.095948099999987, 35.1705982 ], [ 140.0909316, 35.1683515 ], [ 140.0758241, 35.1751766 ], [ 140.0655978, 35.1698716 ], [ 140.0622055, 35.1658336 ], [ 140.0543447, 35.1653631 ], [ 140.048675299999985, 35.160309 ], [ 140.0430419, 35.1618763 ], [ 140.0347061, 35.1589855 ], [ 140.0294159, 35.1643427 ], [ 140.0153253, 35.1538642 ], [ 140.0082973, 35.1559034 ], [ 140.0047884, 35.1539981 ], [ 139.9929654, 35.1555426 ], [ 139.9718647, 35.1516424 ], [ 139.9630205, 35.1548277 ], [ 139.9461222, 35.1529272 ], [ 139.9380405, 35.1459561 ], [ 139.9317244, 35.1476247 ], [ 139.9315863, 35.1392981 ], [ 139.9122247, 35.1413453 ], [ 139.9021194, 35.1508992 ], [ 139.9003094, 35.1562381 ], [ 139.8947152, 35.1560792 ], [ 139.887174099999982, 35.1596556 ], [ 139.870799399999981, 35.1565695 ], [ 139.8675169, 35.1604303 ], [ 139.8595277, 35.1611217 ], [ 139.8541308, 35.1642956 ], [ 139.838094, 35.159235 ], [ 139.8286765, 35.158552 ], [ 139.818151799999981, 35.1548765 ], [ 139.8281576, 35.1513846 ], [ 139.8299774, 35.1453357 ], [ 139.836721, 35.1380475 ], [ 139.838951399999985, 35.129414 ], [ 139.8315467, 35.1232197 ], [ 139.8316929, 35.120007 ], [ 139.8246939, 35.1133887 ], [ 139.828341099999989, 35.0997062 ], [ 139.8360683, 35.099667 ], [ 139.8410273, 35.0924787 ], [ 139.842448099999984, 35.0864024 ], [ 139.838358, 35.0788455 ], [ 139.821594399999981, 35.072444 ], [ 139.8214202, 35.0676482 ], [ 139.8322796, 35.0500835 ], [ 139.8297188, 35.0410234 ], [ 139.823089899999985, 35.0375485 ], [ 139.8135768, 35.0425733 ], [ 139.8103676, 35.0375339 ], [ 139.824769, 35.0311919 ], [ 139.8330396, 35.0322669 ], [ 139.8414182, 35.0254461 ], [ 139.849149100000034, 35.0253454 ], [ 139.8544594, 35.0200866 ], [ 139.8580345, 35.0110214 ], [ 139.8584021, 35.0018007 ], [ 139.8554752, 34.9904314 ], [ 139.8496792, 34.9854068 ], [ 139.8417504, 34.986221199999989 ], [ 139.8413831, 34.99186 ], [ 139.828978299999989, 34.9909209 ], [ 139.8214288, 34.9791709 ], [ 139.8123186, 34.9790377 ], [ 139.7968999, 34.9738057 ], [ 139.786166300000019, 34.9728159 ], [ 139.781944400000015, 34.976621 ], [ 139.7552924, 34.9766198 ], [ 139.75345, 34.96535 ], [ 139.759115899999983, 34.9593667 ], [ 139.76691409999998, 34.9582301 ], [ 139.7713336, 34.9546709 ], [ 139.7796985, 34.9561135 ], [ 139.807107699999989, 34.9457785 ], [ 139.8158975, 34.9409649 ], [ 139.825091, 34.9325902 ], [ 139.827450199999987, 34.9272503 ], [ 139.824290599999983, 34.9223013 ], [ 139.822707399999985, 34.9146794 ] ] ] ] } },
{ "type": "Feature", "properties": { "hokenjo": "夷隅" }, "geometry": { "type": "MultiPolygon", "coordinates": [ [ [ [ 140.344591399999985, 35.1727249 ], [ 140.3467718, 35.1761438 ], [ 140.3492719, 35.1801417 ], [ 140.3593951, 35.1824031 ], [ 140.367823099999981, 35.1788506 ], [ 140.374468399999984, 35.1796451 ], [ 140.384437, 35.1876144 ], [ 140.38477690000002, 35.1923388 ], [ 140.393691499999989, 35.2026904 ], [ 140.3922335, 35.2106406 ], [ 140.404861499999981, 35.2372212 ], [ 140.4036515, 35.2462393 ], [ 140.4052682, 35.2518966 ], [ 140.4009408, 35.2545041 ], [ 140.40006, 35.2694364 ], [ 140.4046755, 35.286652499999988 ], [ 140.4115032, 35.3011693 ], [ 140.414487, 35.3043271 ], [ 140.4133065, 35.3142191 ], [ 140.405527399999983, 35.3263614 ], [ 140.397651199999984, 35.3305055 ], [ 140.3930332, 35.3306744 ], [ 140.3878282, 35.3347544 ], [ 140.3828924, 35.3302533 ], [ 140.372163699999987, 35.3292367 ], [ 140.3744477, 35.3427341 ], [ 140.366154099999989, 35.3424214 ], [ 140.3533, 35.3457295 ], [ 140.341925799999984, 35.345384 ], [ 140.32669439999998, 35.3436413 ], [ 140.3180717, 35.3457121 ], [ 140.306789899999984, 35.3374736 ], [ 140.3011477, 35.337797 ], [ 140.2942835, 35.3333593 ], [ 140.289087099999989, 35.3213635 ], [ 140.277740400000027, 35.3189558 ], [ 140.2712751, 35.3133864 ], [ 140.2626267, 35.3135826 ], [ 140.2592484, 35.3182545 ], [ 140.2530184, 35.3178826 ], [ 140.2512643, 35.3244242 ], [ 140.2462918, 35.3271523 ], [ 140.2401365, 35.3239979 ], [ 140.2335732, 35.3233331 ], [ 140.225252, 35.3167309 ], [ 140.2273773, 35.3108671 ], [ 140.225535, 35.306801 ], [ 140.212493599999988, 35.3018276 ], [ 140.2006634, 35.3064062 ], [ 140.198761599999983, 35.2989701 ], [ 140.2042313, 35.2938031 ], [ 140.202815099999981, 35.2877123 ], [ 140.196874799999989, 35.2844767 ], [ 140.1893306, 35.27695 ], [ 140.18511669999998, 35.2778783 ], [ 140.1779306, 35.2746133 ], [ 140.174894599999988, 35.2649266 ], [ 140.1758082, 35.2594838 ], [ 140.171247599999987, 35.2552591 ], [ 140.1627023, 35.2551582 ], [ 140.1524081, 35.2500409 ], [ 140.1487324, 35.2401279 ], [ 140.14290029999998, 35.2362435 ], [ 140.1412369, 35.2312051 ], [ 140.1393519, 35.2278735 ], [ 140.1436582, 35.2177268 ], [ 140.1524135, 35.2062033 ], [ 140.153226, 35.1997385 ], [ 140.159770399999985, 35.1898488 ], [ 140.1612685, 35.181243 ], [ 140.1615271, 35.1743069 ], [ 140.1660441, 35.1705447 ], [ 140.1749763, 35.1666927 ], [ 140.187915, 35.1701785 ], [ 140.196649799999989, 35.1716746 ], [ 140.201962899999984, 35.1702924 ], [ 140.20774179999998, 35.1618441 ], [ 140.2076729, 35.1544788 ], [ 140.2132359, 35.1503563 ], [ 140.216357599999981, 35.1412611 ], [ 140.212160899999986, 35.1363155 ], [ 140.2160404, 35.1339947 ], [ 140.2117475, 35.126075 ], [ 140.213602, 35.1212173 ], [ 140.211805199999986, 35.1144665 ], [ 140.220062900000016, 35.1166107 ], [ 140.232513, 35.1151348 ], [ 140.2376525, 35.1183234 ], [ 140.2343482, 35.121849 ], [ 140.2471289, 35.1279507 ], [ 140.2476383, 35.1330866 ], [ 140.253161, 35.1338943 ], [ 140.257869699999986, 35.1379459 ], [ 140.2666982, 35.1359887 ], [ 140.274155899999982, 35.1372673 ], [ 140.2767976, 35.1342995 ], [ 140.285852399999982, 35.1342129 ], [ 140.2972155, 35.1505259 ], [ 140.3043931, 35.1512122 ], [ 140.312477, 35.1471527 ], [ 140.3125131, 35.138583 ], [ 140.317835100000025, 35.1376551 ], [ 140.325194899999985, 35.1396597 ], [ 140.3273656, 35.1512295 ], [ 140.332766, 35.1576039 ], [ 140.3351418, 35.1667625 ], [ 140.344591399999985, 35.1727249 ] ] ] ] } },
{ "type": "Feature", "properties": { "hokenjo": "印旛" }, "geometry": { "type": "MultiPolygon", "coordinates": [ [ [ [ 140.281105699999983, 35.5793366 ], [ 140.2831851, 35.5737777 ], [ 140.28708709999998, 35.5729091 ], [ 140.292494, 35.5726746 ], [ 140.3190514, 35.5860647 ], [ 140.337111599999986, 35.585405 ], [ 140.324338399999988, 35.5925983 ], [ 140.3212121, 35.60298 ], [ 140.3254038, 35.6072194 ], [ 140.324097099999989, 35.6089561 ], [ 140.315256299999987, 35.6074444 ], [ 140.3088477, 35.6129133 ], [ 140.3148491, 35.6167633 ], [ 140.3127192, 35.6216435 ], [ 140.307788099999982, 35.6247416 ], [ 140.316484900000034, 35.6308824 ], [ 140.3255815, 35.6261618 ], [ 140.3291946, 35.6315146 ], [ 140.3212063, 35.6396906 ], [ 140.3258176, 35.6521808 ], [ 140.3365605, 35.6600485 ], [ 140.347467199999983, 35.6601146 ], [ 140.34028859999998, 35.6682499 ], [ 140.349318399999987, 35.6728701 ], [ 140.3469026, 35.6766579 ], [ 140.3543943, 35.6836151 ], [ 140.360347099999984, 35.686641 ], [ 140.3733346, 35.6807852 ], [ 140.377420699999988, 35.6827957 ], [ 140.3905867, 35.6761177 ], [ 140.3998076, 35.6804483 ], [ 140.3997723, 35.6899198 ], [ 140.3851699, 35.6896355 ], [ 140.3784805, 35.6943007 ], [ 140.3730214, 35.700848 ], [ 140.382386199999985, 35.7036199 ], [ 140.385411, 35.7125621 ], [ 140.378732899999989, 35.7144285 ], [ 140.375954899999982, 35.7207799 ], [ 140.3658566, 35.7259091 ], [ 140.367872, 35.7312486 ], [ 140.3680473, 35.7394092 ], [ 140.3766776, 35.7378986 ], [ 140.3794081, 35.7287402 ], [ 140.387024699999984, 35.7232694 ], [ 140.3932758, 35.7277266 ], [ 140.3867587, 35.7314644 ], [ 140.3850449, 35.7407216 ], [ 140.3996367, 35.7420671 ], [ 140.4019511, 35.7533255 ], [ 140.3958553, 35.7567139 ], [ 140.399804599999982, 35.7633872 ], [ 140.3934707, 35.7678947 ], [ 140.396400199999988, 35.7724366 ], [ 140.402944099999985, 35.7748505 ], [ 140.4022467, 35.7833289 ], [ 140.4074943, 35.7865339 ], [ 140.4140437, 35.7853203 ], [ 140.417813099999989, 35.7812908 ], [ 140.417047199999985, 35.7757674 ], [ 140.423847199999983, 35.7752827 ], [ 140.4362128, 35.7807946 ], [ 140.4330771, 35.786028 ], [ 140.443102899999985, 35.7885688 ], [ 140.4444684, 35.8033793 ], [ 140.4519154, 35.8071179 ], [ 140.452256299999988, 35.8113093 ], [ 140.4609496, 35.8148037 ], [ 140.4550161, 35.8180868 ], [ 140.4559567, 35.826249 ], [ 140.46852819999998, 35.8338954 ], [ 140.4641509, 35.8379524 ], [ 140.463918399999983, 35.8452845 ], [ 140.4722212, 35.8442317 ], [ 140.4724918, 35.8509011 ], [ 140.463066, 35.8549781 ], [ 140.460380499999985, 35.8627709 ], [ 140.4523934, 35.8703679 ], [ 140.446568600000035, 35.8651304 ], [ 140.4404739, 35.867856 ], [ 140.4373163, 35.8632602 ], [ 140.428122699999989, 35.8636372 ], [ 140.422445399999987, 35.8663136 ], [ 140.4169968, 35.8656172 ], [ 140.4030847, 35.8534609 ], [ 140.394356, 35.8527928 ], [ 140.394169399999981, 35.8575764 ], [ 140.3979645, 35.8606962 ], [ 140.4009302, 35.8722401 ], [ 140.391996299999988, 35.8831257 ], [ 140.3849672, 35.8852771 ], [ 140.383864099999982, 35.8893962 ], [ 140.3754922, 35.8952037 ], [ 140.3758853, 35.9023679 ], [ 140.3637158, 35.8993857 ], [ 140.353080399999982, 35.8919396 ], [ 140.348388299999982, 35.8832093 ], [ 140.334967899999981, 35.8723873 ], [ 140.3230528, 35.866059299999989 ], [ 140.308287399999983, 35.8644874 ], [ 140.299956, 35.8666904 ], [ 140.2893632, 35.8714259 ], [ 140.2811451, 35.8741115 ], [ 140.2656891, 35.8693057 ], [ 140.2436174, 35.8553998 ], [ 140.232587599999988, 35.8541101 ], [ 140.2154622, 35.8616179 ], [ 140.205431799999985, 35.8613203 ], [ 140.199119199999984, 35.8591128 ], [ 140.1866305, 35.8517578 ], [ 140.1677795, 35.845457 ], [ 140.1567466, 35.8427087 ], [ 140.146469699999983, 35.8457181 ], [ 140.1320724, 35.8407971 ], [ 140.1226791, 35.8457265 ], [ 140.1113583, 35.8478943 ], [ 140.1119439, 35.8433982 ], [ 140.109256, 35.8341235 ], [ 140.099146599999983, 35.8312883 ], [ 140.0929016, 35.826058 ], [ 140.0891552, 35.83018 ], [ 140.0752372, 35.8310778 ], [ 140.069655, 35.8337773 ], [ 140.057290599999988, 35.8353523 ], [ 140.0496767, 35.8321918 ], [ 140.0416783, 35.8242979 ], [ 140.032299599999988, 35.8118219 ], [ 140.029907799999989, 35.7989489 ], [ 140.0188901, 35.783492 ], [ 140.0219026, 35.7807545 ], [ 140.020045, 35.7741712 ], [ 140.015185699999989, 35.7679462 ], [ 140.021033499999987, 35.7654895 ], [ 140.0304844, 35.771407 ], [ 140.0398702, 35.7666953 ], [ 140.0617704, 35.7762871 ], [ 140.067203899999981, 35.785343399999988 ], [ 140.0694456, 35.7990656 ], [ 140.073217, 35.7986581 ], [ 140.0827128, 35.7916895 ], [ 140.0895574, 35.784002 ], [ 140.0969093, 35.7829045 ], [ 140.1030907, 35.7801254 ], [ 140.1115091, 35.7809517 ], [ 140.132752, 35.7733298 ], [ 140.138865399999986, 35.7665659 ], [ 140.1465091, 35.7653279 ], [ 140.151881799999984, 35.7597932 ], [ 140.1455578, 35.7548285 ], [ 140.1472894, 35.7487346 ], [ 140.140288199999986, 35.7447519 ], [ 140.1385032, 35.7365908 ], [ 140.142190299999982, 35.72526 ], [ 140.1340322, 35.7188936 ], [ 140.1313068, 35.7114434 ], [ 140.1396054, 35.7028709 ], [ 140.1367942, 35.6975459 ], [ 140.143527, 35.6919421 ], [ 140.147478899999982, 35.6920891 ], [ 140.149392299999988, 35.6915977 ], [ 140.152643899999987, 35.6892924 ], [ 140.1469667, 35.6918116 ], [ 140.143122, 35.6914068 ], [ 140.139491599999985, 35.6881563 ], [ 140.1367182, 35.6795216 ], [ 140.1383837, 35.6753924 ], [ 140.1364992, 35.6705119 ], [ 140.1413067, 35.6676161 ], [ 140.149916499999989, 35.6681261 ], [ 140.1559581, 35.6540861 ], [ 140.1578012, 35.6463467 ], [ 140.163554, 35.6453506 ], [ 140.1736727, 35.6540678 ], [ 140.176451899999989, 35.6534486 ], [ 140.1901561, 35.6430138 ], [ 140.1922366, 35.6401536 ], [ 140.1850776, 35.6291233 ], [ 140.1934024, 35.6267771 ], [ 140.2037881, 35.6402382 ], [ 140.207040899999981, 35.646319 ], [ 140.2046498, 35.6509657 ], [ 140.2133182, 35.6545748 ], [ 140.219641, 35.6519723 ], [ 140.2230357, 35.6416439 ], [ 140.2287365, 35.6331395 ], [ 140.2412754, 35.6312974 ], [ 140.2509618, 35.6255847 ], [ 140.2577554, 35.6254685 ], [ 140.2663182, 35.6264124 ], [ 140.264928, 35.6205646 ], [ 140.267643199999981, 35.6172635 ], [ 140.2674848, 35.6071635 ], [ 140.262600599999985, 35.6060133 ], [ 140.261370199999988, 35.5995969 ], [ 140.2755582, 35.5874671 ], [ 140.275138, 35.5817769 ], [ 140.281105699999983, 35.5793366 ] ] ] ] } },
{ "type": "Feature", "properties": { "hokenjo": "海匝" }, "geometry": { "type": "MultiPolygon", "coordinates": [ [ [ [ 140.6249819, 35.6726585 ], [ 140.644198599999982, 35.6833233 ], [ 140.6646031, 35.6916768 ], [ 140.6925219, 35.6994118 ], [ 140.7145596, 35.7004325 ], [ 140.719934, 35.6989323 ], [ 140.7240367, 35.6936361 ], [ 140.738922799999983, 35.692292 ], [ 140.750120399999986, 35.693223 ], [ 140.7610046, 35.6978206 ], [ 140.8066652, 35.7116065 ], [ 140.8192939, 35.7134147 ], [ 140.830949299999986, 35.7135768 ], [ 140.83810889999998, 35.7108423 ], [ 140.841022, 35.7026378 ], [ 140.8449494, 35.6981577 ], [ 140.8529078, 35.6975035 ], [ 140.8578225, 35.6946915 ], [ 140.8629871, 35.6982276 ], [ 140.8665571, 35.7146019 ], [ 140.871161799999982, 35.7184031 ], [ 140.8675106, 35.7274988 ], [ 140.870708900000011, 35.7333348 ], [ 140.8655359, 35.741251 ], [ 140.851974399999989, 35.7446671 ], [ 140.8460033, 35.7398947 ], [ 140.821959099999987, 35.7394453 ], [ 140.8153515, 35.7415145 ], [ 140.800977099999983, 35.7496601 ], [ 140.7882012, 35.7584226 ], [ 140.751508199999989, 35.7790303 ], [ 140.7416667, 35.7851487 ], [ 140.728951099999989, 35.796647 ], [ 140.725867, 35.8007476 ], [ 140.7207022, 35.8134726 ], [ 140.7027358, 35.8061263 ], [ 140.6927752, 35.8043588 ], [ 140.6902695, 35.7944483 ], [ 140.6997792, 35.7928344 ], [ 140.6996191, 35.7854658 ], [ 140.704883599999988, 35.7837669 ], [ 140.7042663, 35.7793777 ], [ 140.6995873, 35.7742449 ], [ 140.6917568, 35.7813097 ], [ 140.687341, 35.782858 ], [ 140.6833403, 35.7776647 ], [ 140.673255499999982, 35.7717528 ], [ 140.6706729, 35.7654101 ], [ 140.6619077, 35.774902 ], [ 140.6547957, 35.788239 ], [ 140.63840639999998, 35.7858904 ], [ 140.6296111, 35.7946552 ], [ 140.624566099999981, 35.7936652 ], [ 140.6258612, 35.7872701 ], [ 140.61684, 35.7810572 ], [ 140.60926, 35.7816866 ], [ 140.601840399999986, 35.7741806 ], [ 140.597526499999987, 35.7800708 ], [ 140.592385399999984, 35.7779334 ], [ 140.5898517, 35.7734098 ], [ 140.576389500000033, 35.7667879 ], [ 140.571973899999989, 35.7662251 ], [ 140.565641199999988, 35.7551557 ], [ 140.5562378, 35.7542733 ], [ 140.550464799999986, 35.7610074 ], [ 140.5475381, 35.7579416 ], [ 140.5374966, 35.7565936 ], [ 140.5303055, 35.7605586 ], [ 140.526797599999981, 35.7539767 ], [ 140.519322, 35.7551709 ], [ 140.5158893, 35.7607795 ], [ 140.5045265, 35.7594542 ], [ 140.5071003, 35.7510267 ], [ 140.502358, 35.7394114 ], [ 140.5024598, 35.7358923 ], [ 140.486336099999988, 35.724589 ], [ 140.4864699, 35.7212509 ], [ 140.487029299999989, 35.7188109 ], [ 140.5026617, 35.7060153 ], [ 140.4991305, 35.6982076 ], [ 140.504260599999981, 35.6859439 ], [ 140.5144115, 35.6837634 ], [ 140.5162042, 35.6737076 ], [ 140.523964899999982, 35.6788611 ], [ 140.5383393, 35.6696831 ], [ 140.541691499999985, 35.6652297 ], [ 140.529863799999987, 35.6571686 ], [ 140.533847399999985, 35.6508806 ], [ 140.5445779, 35.6394686 ], [ 140.547761, 35.639103899999988 ], [ 140.5594419, 35.627905 ], [ 140.6115604, 35.6645451 ], [ 140.6249819, 35.6726585 ] ] ] ] } },
{ "type": "Feature", "properties": { "hokenjo": "君津" }, "geometry": { "type": "MultiPolygon", "coordinates": [ [ [ [ 139.9718647, 35.1516424 ], [ 139.9929654, 35.1555426 ], [ 140.0047884, 35.1539981 ], [ 140.0082973, 35.1559034 ], [ 140.0153253, 35.1538642 ], [ 140.0294159, 35.1643427 ], [ 140.0347061, 35.1589855 ], [ 140.0430419, 35.1618763 ], [ 140.048675299999985, 35.160309 ], [ 140.0543447, 35.1653631 ], [ 140.0622055, 35.1658336 ], [ 140.0655978, 35.1698716 ], [ 140.0758241, 35.1751766 ], [ 140.0909316, 35.1683515 ], [ 140.095948099999987, 35.1705982 ], [ 140.096832, 35.177929399999989 ], [ 140.1008005, 35.1809932 ], [ 140.110149799999988, 35.1794811 ], [ 140.1148092, 35.1806128 ], [ 140.1211109, 35.1908891 ], [ 140.1295833, 35.1884683 ], [ 140.1349325, 35.190813 ], [ 140.142302199999989, 35.189987699999989 ], [ 140.153412, 35.1817208 ], [ 140.1612685, 35.181243 ], [ 140.159770399999985, 35.1898488 ], [ 140.153226, 35.1997385 ], [ 140.1524135, 35.2062033 ], [ 140.1436582, 35.2177268 ], [ 140.1393519, 35.2278735 ], [ 140.1412369, 35.2312051 ], [ 140.137133399999982, 35.236801799999988 ], [ 140.132185599999985, 35.2379718 ], [ 140.1301657, 35.2433824 ], [ 140.125173599999982, 35.2439448 ], [ 140.1184197, 35.2632051 ], [ 140.1184141, 35.2734547 ], [ 140.1201614, 35.282902799999988 ], [ 140.114389599999981, 35.2896208 ], [ 140.117434, 35.3051838 ], [ 140.1221502, 35.3073716 ], [ 140.122071399999982, 35.3137966 ], [ 140.118174200000027, 35.3161669 ], [ 140.1078958, 35.3125552 ], [ 140.1015725, 35.3173093 ], [ 140.1091467, 35.3191921 ], [ 140.108429199999989, 35.3244568 ], [ 140.113361, 35.3292283 ], [ 140.121099, 35.3331119 ], [ 140.1214099, 35.337163 ], [ 140.1286599, 35.343272 ], [ 140.1294811, 35.3472736 ], [ 140.1238294, 35.3516125 ], [ 140.1229817, 35.3582131 ], [ 140.1146924, 35.3706053 ], [ 140.1056413, 35.3793036 ], [ 140.099375399999985, 35.375135 ], [ 140.0899043, 35.3808619 ], [ 140.0921424, 35.3880991 ], [ 140.09252859999998, 35.3958213 ], [ 140.0900303, 35.3995427 ], [ 140.092772599999989, 35.4066983 ], [ 140.0894754, 35.4122074 ], [ 140.0899382, 35.4210141 ], [ 140.0807067, 35.4323188 ], [ 140.07693, 35.4301069 ], [ 140.059674299999983, 35.4257439 ], [ 140.0513207, 35.4258772 ], [ 140.0437626, 35.42362 ], [ 140.0326226, 35.42357 ], [ 140.04100649999998, 35.4295269 ], [ 140.0430269, 35.4376886 ], [ 140.039788, 35.4455455 ], [ 140.0227414, 35.4675511 ], [ 140.016014600000034, 35.4714177 ], [ 140.0125664, 35.476066 ], [ 140.006532, 35.4793222 ], [ 139.998034099999984, 35.4744746 ], [ 140.003321799999981, 35.4682822 ], [ 139.9992761, 35.4659637 ], [ 139.9946864, 35.4724453 ], [ 139.989096599999982, 35.4698561 ], [ 139.9947745, 35.4593658 ], [ 139.992306499999984, 35.4573362 ], [ 139.9820262, 35.4747919 ], [ 139.965724599999987, 35.4685408 ], [ 139.974460599999986, 35.4484722 ], [ 139.9676628, 35.4481271 ], [ 139.962151399999982, 35.4587319 ], [ 139.9510923, 35.4561382 ], [ 139.9486043, 35.4422081 ], [ 139.9398268, 35.4430435 ], [ 139.9217649, 35.4398523 ], [ 139.9032703, 35.4314599 ], [ 139.9027654, 35.4273514 ], [ 139.8969481, 35.4232069 ], [ 139.8981742, 35.4128098 ], [ 139.9015985, 35.4011761 ], [ 139.90679369999998, 35.3894764 ], [ 139.9132846, 35.3913722 ], [ 139.9178512, 35.3856726 ], [ 139.904478399999988, 35.3749838 ], [ 139.894659499999989, 35.3698908 ], [ 139.8878148, 35.3708881 ], [ 139.891323799999981, 35.3614895 ], [ 139.887519699999984, 35.3614896 ], [ 139.882714, 35.3612876 ], [ 139.8623053, 35.36763 ], [ 139.8458904, 35.3754397 ], [ 139.83910849999998, 35.3672902 ], [ 139.8414822, 35.3642151 ], [ 139.8517469, 35.3582886 ], [ 139.8591648, 35.3480538 ], [ 139.8521575, 35.3493131 ], [ 139.8470853, 35.3467984 ], [ 139.8377683, 35.3589534 ], [ 139.822967799999986, 35.3444588 ], [ 139.8288158, 35.33673 ], [ 139.8370917, 35.3378047 ], [ 139.83938329999998, 35.3337022 ], [ 139.8244082, 35.3263163 ], [ 139.8164899, 35.3240407 ], [ 139.8197332, 35.3164768 ], [ 139.806752499999988, 35.3145465 ], [ 139.79247669999998, 35.3110875 ], [ 139.812268099999983, 35.3062117 ], [ 139.8261939, 35.3015956 ], [ 139.8386509, 35.296091 ], [ 139.8471672, 35.2906204 ], [ 139.8528422, 35.2844042 ], [ 139.8517951, 35.2779907 ], [ 139.847046799999987, 35.2716632 ], [ 139.8579953, 35.2622764 ], [ 139.864366500000017, 35.2541736 ], [ 139.8687553, 35.2425436 ], [ 139.870691099999988, 35.2306656 ], [ 139.866710399999988, 35.2193843 ], [ 139.848661, 35.2129432 ], [ 139.8440698, 35.208486 ], [ 139.83123759999998, 35.2036302 ], [ 139.824043599999982, 35.1977724 ], [ 139.8170644, 35.1856967 ], [ 139.8167001, 35.1689002 ], [ 139.8218933, 35.1665492 ], [ 139.818774599999983, 35.161997 ], [ 139.818151799999981, 35.1548765 ], [ 139.8286765, 35.158552 ], [ 139.838094, 35.159235 ], [ 139.8541308, 35.1642956 ], [ 139.8595277, 35.1611217 ], [ 139.8675169, 35.1604303 ], [ 139.870799399999981, 35.1565695 ], [ 139.887174099999982, 35.1596556 ], [ 139.8947152, 35.1560792 ], [ 139.9003094, 35.1562381 ], [ 139.9021194, 35.1508992 ], [ 139.9122247, 35.1413453 ], [ 139.9315863, 35.1392981 ], [ 139.9317244, 35.1476247 ], [ 139.9380405, 35.1459561 ], [ 139.9461222, 35.1529272 ], [ 139.9630205, 35.1548277 ], [ 139.9718647, 35.1516424 ] ] ] ] } },
{ "type": "Feature", "properties": { "hokenjo": "香取" }, "geometry": { "type": "MultiPolygon", "coordinates": [ [ [ [ 140.4022467, 35.7833289 ], [ 140.402944099999985, 35.7748505 ], [ 140.40643129999998, 35.7702441 ], [ 140.4153005, 35.7737647 ], [ 140.42115, 35.7732758 ], [ 140.425076599999983, 35.769913 ], [ 140.4232581, 35.7607119 ], [ 140.4245314, 35.754653 ], [ 140.4283175, 35.7509563 ], [ 140.4353509, 35.7354046 ], [ 140.4359686, 35.7309363 ], [ 140.4294649, 35.7215555 ], [ 140.4377743, 35.7180104 ], [ 140.4432837, 35.7124529 ], [ 140.4481381, 35.712866 ], [ 140.44998529999998, 35.7061035 ], [ 140.4542347, 35.7058818 ], [ 140.4550494, 35.6989813 ], [ 140.459650399999987, 35.6972163 ], [ 140.4610468, 35.6912929 ], [ 140.46609429999998, 35.6920087 ], [ 140.468011, 35.6981382 ], [ 140.4755289, 35.7110829 ], [ 140.4793745, 35.7151582 ], [ 140.4809704, 35.7217784 ], [ 140.4864699, 35.7212509 ], [ 140.486336099999988, 35.724589 ], [ 140.5024598, 35.7358923 ], [ 140.502358, 35.7394114 ], [ 140.5071003, 35.7510267 ], [ 140.5045265, 35.7594542 ], [ 140.5158893, 35.7607795 ], [ 140.519322, 35.7551709 ], [ 140.526797599999981, 35.7539767 ], [ 140.5303055, 35.7605586 ], [ 140.5374966, 35.7565936 ], [ 140.5475381, 35.7579416 ], [ 140.550464799999986, 35.7610074 ], [ 140.5562378, 35.7542733 ], [ 140.565641199999988, 35.7551557 ], [ 140.571973899999989, 35.7662251 ], [ 140.576389500000033, 35.7667879 ], [ 140.5898517, 35.7734098 ], [ 140.592385399999984, 35.7779334 ], [ 140.597526499999987, 35.7800708 ], [ 140.601840399999986, 35.7741806 ], [ 140.60926, 35.7816866 ], [ 140.61684, 35.7810572 ], [ 140.6258612, 35.7872701 ], [ 140.624566099999981, 35.7936652 ], [ 140.6296111, 35.7946552 ], [ 140.63840639999998, 35.7858904 ], [ 140.6547957, 35.788239 ], [ 140.6619077, 35.774902 ], [ 140.6706729, 35.7654101 ], [ 140.673255499999982, 35.7717528 ], [ 140.6833403, 35.7776647 ], [ 140.687341, 35.782858 ], [ 140.6917568, 35.7813097 ], [ 140.6995873, 35.7742449 ], [ 140.7042663, 35.7793777 ], [ 140.704883599999988, 35.7837669 ], [ 140.6996191, 35.7854658 ], [ 140.6997792, 35.7928344 ], [ 140.6902695, 35.7944483 ], [ 140.6927752, 35.8043588 ], [ 140.7027358, 35.8061263 ], [ 140.7207022, 35.8134726 ], [ 140.7172267, 35.8227679 ], [ 140.7065757, 35.8362554 ], [ 140.6868364, 35.8477638 ], [ 140.6663922, 35.8531972 ], [ 140.6478335, 35.8557125 ], [ 140.630686199999985, 35.8591242 ], [ 140.628784, 35.86466 ], [ 140.6164856, 35.8813842 ], [ 140.6132954, 35.8888761 ], [ 140.6079929, 35.8958119 ], [ 140.598861299999982, 35.9031658 ], [ 140.588541, 35.9060269 ], [ 140.5812435, 35.9164505 ], [ 140.5706266, 35.9240644 ], [ 140.557261899999986, 35.9307867 ], [ 140.537351199999989, 35.9387203 ], [ 140.526926, 35.9478581 ], [ 140.5112446, 35.9587354 ], [ 140.503883699999989, 35.9510057 ], [ 140.4996955, 35.9443977 ], [ 140.4972529, 35.9338814 ], [ 140.487176399999981, 35.928592 ], [ 140.490642899999983, 35.9154012 ], [ 140.4981254, 35.9091878 ], [ 140.4975934, 35.9062628 ], [ 140.4845403, 35.9096532 ], [ 140.474232, 35.9161266 ], [ 140.4711309, 35.9197191 ], [ 140.458438199999989, 35.9265402 ], [ 140.44846579999998, 35.9150187 ], [ 140.4350207, 35.9113532 ], [ 140.422887, 35.9067127 ], [ 140.417955299999988, 35.9063777 ], [ 140.4076403, 35.9092217 ], [ 140.3964772, 35.9090084 ], [ 140.3758853, 35.9023679 ], [ 140.3754922, 35.8952037 ], [ 140.383864099999982, 35.8893962 ], [ 140.3849672, 35.8852771 ], [ 140.391996299999988, 35.8831257 ], [ 140.4009302, 35.8722401 ], [ 140.3979645, 35.8606962 ], [ 140.394169399999981, 35.8575764 ], [ 140.394356, 35.8527928 ], [ 140.4030847, 35.8534609 ], [ 140.4169968, 35.8656172 ], [ 140.422445399999987, 35.8663136 ], [ 140.428122699999989, 35.8636372 ], [ 140.4373163, 35.8632602 ], [ 140.4404739, 35.867856 ], [ 140.446568600000035, 35.8651304 ], [ 140.4523934, 35.8703679 ], [ 140.460380499999985, 35.8627709 ], [ 140.463066, 35.8549781 ], [ 140.4724918, 35.8509011 ], [ 140.4722212, 35.8442317 ], [ 140.463918399999983, 35.8452845 ], [ 140.4641509, 35.8379524 ], [ 140.46852819999998, 35.8338954 ], [ 140.4559567, 35.826249 ], [ 140.4550161, 35.8180868 ], [ 140.4609496, 35.8148037 ], [ 140.452256299999988, 35.8113093 ], [ 140.4519154, 35.8071179 ], [ 140.4444684, 35.8033793 ], [ 140.443102899999985, 35.7885688 ], [ 140.4330771, 35.786028 ], [ 140.4362128, 35.7807946 ], [ 140.423847199999983, 35.7752827 ], [ 140.417047199999985, 35.7757674 ], [ 140.417813099999989, 35.7812908 ], [ 140.4140437, 35.7853203 ], [ 140.4074943, 35.7865339 ], [ 140.4022467, 35.7833289 ] ] ] ] } },
{ "type": "Feature", "properties": { "hokenjo": "山武" }, "geometry": { "type": "MultiPolygon", "coordinates": [ [ [ [ 140.4159201, 35.4716227 ], [ 140.4304818, 35.4981387 ], [ 140.447551399999981, 35.5220854 ], [ 140.4585502, 35.5336378 ], [ 140.4637941, 35.5352774 ], [ 140.47009, 35.5472128 ], [ 140.478493500000013, 35.5581146 ], [ 140.495513099999982, 35.5762201 ], [ 140.507551299999989, 35.5871854 ], [ 140.5256249, 35.6021203 ], [ 140.5594419, 35.627905 ], [ 140.547761, 35.639103899999988 ], [ 140.5445779, 35.6394686 ], [ 140.533847399999985, 35.6508806 ], [ 140.529863799999987, 35.6571686 ], [ 140.541691499999985, 35.6652297 ], [ 140.5383393, 35.6696831 ], [ 140.523964899999982, 35.6788611 ], [ 140.5162042, 35.6737076 ], [ 140.5144115, 35.6837634 ], [ 140.504260599999981, 35.6859439 ], [ 140.4991305, 35.6982076 ], [ 140.5026617, 35.7060153 ], [ 140.487029299999989, 35.7188109 ], [ 140.4864699, 35.7212509 ], [ 140.4809704, 35.7217784 ], [ 140.4793745, 35.7151582 ], [ 140.4755289, 35.7110829 ], [ 140.468011, 35.6981382 ], [ 140.46609429999998, 35.6920087 ], [ 140.4610468, 35.6912929 ], [ 140.459650399999987, 35.6972163 ], [ 140.4550494, 35.6989813 ], [ 140.4542347, 35.7058818 ], [ 140.44998529999998, 35.7061035 ], [ 140.4481381, 35.712866 ], [ 140.4432837, 35.7124529 ], [ 140.4377743, 35.7180104 ], [ 140.4294649, 35.7215555 ], [ 140.4359686, 35.7309363 ], [ 140.4353509, 35.7354046 ], [ 140.4283175, 35.7509563 ], [ 140.4245314, 35.754653 ], [ 140.4232581, 35.7607119 ], [ 140.425076599999983, 35.769913 ], [ 140.42115, 35.7732758 ], [ 140.4153005, 35.7737647 ], [ 140.40643129999998, 35.7702441 ], [ 140.402944099999985, 35.7748505 ], [ 140.396400199999988, 35.7724366 ], [ 140.3934707, 35.7678947 ], [ 140.399804599999982, 35.7633872 ], [ 140.3958553, 35.7567139 ], [ 140.4019511, 35.7533255 ], [ 140.3996367, 35.7420671 ], [ 140.3850449, 35.7407216 ], [ 140.3867587, 35.7314644 ], [ 140.3932758, 35.7277266 ], [ 140.387024699999984, 35.7232694 ], [ 140.3794081, 35.7287402 ], [ 140.3766776, 35.7378986 ], [ 140.3680473, 35.7394092 ], [ 140.367872, 35.7312486 ], [ 140.3658566, 35.7259091 ], [ 140.375954899999982, 35.7207799 ], [ 140.378732899999989, 35.7144285 ], [ 140.385411, 35.7125621 ], [ 140.382386199999985, 35.7036199 ], [ 140.3730214, 35.700848 ], [ 140.3784805, 35.6943007 ], [ 140.3851699, 35.6896355 ], [ 140.3997723, 35.6899198 ], [ 140.3998076, 35.6804483 ], [ 140.3905867, 35.6761177 ], [ 140.377420699999988, 35.6827957 ], [ 140.3733346, 35.6807852 ], [ 140.360347099999984, 35.686641 ], [ 140.3543943, 35.6836151 ], [ 140.3469026, 35.6766579 ], [ 140.349318399999987, 35.6728701 ], [ 140.34028859999998, 35.6682499 ], [ 140.347467199999983, 35.6601146 ], [ 140.3365605, 35.6600485 ], [ 140.3258176, 35.6521808 ], [ 140.3212063, 35.6396906 ], [ 140.3291946, 35.6315146 ], [ 140.3255815, 35.6261618 ], [ 140.316484900000034, 35.6308824 ], [ 140.307788099999982, 35.6247416 ], [ 140.3127192, 35.6216435 ], [ 140.3148491, 35.6167633 ], [ 140.3088477, 35.6129133 ], [ 140.315256299999987, 35.6074444 ], [ 140.324097099999989, 35.6089561 ], [ 140.3254038, 35.6072194 ], [ 140.3212121, 35.60298 ], [ 140.324338399999988, 35.5925983 ], [ 140.337111599999986, 35.585405 ], [ 140.3190514, 35.5860647 ], [ 140.292494, 35.5726746 ], [ 140.28708709999998, 35.5729091 ], [ 140.2887284, 35.5700349 ], [ 140.2886581, 35.5663729 ], [ 140.294212, 35.5606254 ], [ 140.290971100000036, 35.5556483 ], [ 140.291867699999983, 35.5482246 ], [ 140.2813624, 35.5477899 ], [ 140.2809638, 35.5418405 ], [ 140.286011, 35.5389252 ], [ 140.292018399999989, 35.5311652 ], [ 140.2877589, 35.5234907 ], [ 140.2995786, 35.5188957 ], [ 140.292588, 35.5153166 ], [ 140.286016099999983, 35.5188222 ], [ 140.2822707, 35.512783 ], [ 140.2767615, 35.5114872 ], [ 140.274368899999985, 35.5072608 ], [ 140.2721148, 35.4936028 ], [ 140.280372699999987, 35.4985778 ], [ 140.2903555, 35.4964436 ], [ 140.313318899999985, 35.5018399 ], [ 140.3296282, 35.4981007 ], [ 140.325961799999988, 35.4921463 ], [ 140.3357331, 35.490334 ], [ 140.3475124, 35.4848626 ], [ 140.3521845, 35.4966295 ], [ 140.3723611, 35.4943292 ], [ 140.3788829, 35.4874992 ], [ 140.3813599, 35.4754895 ], [ 140.386140800000021, 35.4767581 ], [ 140.4013991, 35.474803099999988 ], [ 140.4159201, 35.4716227 ] ] ] ] } },
{ "type": "Feature", "properties": { "hokenjo": "市原" }, "geometry": { "type": "MultiPolygon", "coordinates": [ [ [ [ 140.1154891, 35.5506014 ], [ 140.1123427, 35.5498944 ], [ 140.098043099999984, 35.5550113 ], [ 140.092330799999985, 35.554484599999988 ], [ 140.090080500000028, 35.542851 ], [ 140.1010588, 35.5384621 ], [ 140.0960887, 35.5354016 ], [ 140.0870349, 35.5400698 ], [ 140.0739484, 35.549977399999989 ], [ 140.0644852, 35.5428066 ], [ 140.0613083, 35.5437268 ], [ 140.0539487, 35.5350941 ], [ 140.0606776, 35.5300646 ], [ 140.0577217, 35.5265773 ], [ 140.0500755, 35.5309368 ], [ 140.0377411, 35.5162749 ], [ 140.0458578, 35.511666 ], [ 140.042233899999985, 35.5073273 ], [ 140.0338591, 35.511843 ], [ 140.025229699999983, 35.501652 ], [ 140.036226, 35.495293 ], [ 140.0330415, 35.491674 ], [ 140.021911499999987, 35.4967837 ], [ 140.0121184, 35.4851883 ], [ 140.0178618, 35.4805108 ], [ 140.018352, 35.472576 ], [ 140.0227414, 35.4675511 ], [ 140.039788, 35.4455455 ], [ 140.0430269, 35.4376886 ], [ 140.04100649999998, 35.4295269 ], [ 140.0326226, 35.42357 ], [ 140.0437626, 35.42362 ], [ 140.0513207, 35.4258772 ], [ 140.059674299999983, 35.4257439 ], [ 140.07693, 35.4301069 ], [ 140.0807067, 35.4323188 ], [ 140.0899382, 35.4210141 ], [ 140.0894754, 35.4122074 ], [ 140.092772599999989, 35.4066983 ], [ 140.0900303, 35.3995427 ], [ 140.09252859999998, 35.3958213 ], [ 140.0921424, 35.3880991 ], [ 140.0899043, 35.3808619 ], [ 140.099375399999985, 35.375135 ], [ 140.1056413, 35.3793036 ], [ 140.1146924, 35.3706053 ], [ 140.1229817, 35.3582131 ], [ 140.1238294, 35.3516125 ], [ 140.1294811, 35.3472736 ], [ 140.1286599, 35.343272 ], [ 140.1214099, 35.337163 ], [ 140.121099, 35.3331119 ], [ 140.113361, 35.3292283 ], [ 140.108429199999989, 35.3244568 ], [ 140.1091467, 35.3191921 ], [ 140.1015725, 35.3173093 ], [ 140.1078958, 35.3125552 ], [ 140.118174200000027, 35.3161669 ], [ 140.122071399999982, 35.3137966 ], [ 140.1221502, 35.3073716 ], [ 140.117434, 35.3051838 ], [ 140.114389599999981, 35.2896208 ], [ 140.1201614, 35.282902799999988 ], [ 140.1184141, 35.2734547 ], [ 140.1184197, 35.2632051 ], [ 140.125173599999982, 35.2439448 ], [ 140.1301657, 35.2433824 ], [ 140.132185599999985, 35.2379718 ], [ 140.137133399999982, 35.236801799999988 ], [ 140.1412369, 35.2312051 ], [ 140.14290029999998, 35.2362435 ], [ 140.1487324, 35.2401279 ], [ 140.1524081, 35.2500409 ], [ 140.1627023, 35.2551582 ], [ 140.171247599999987, 35.2552591 ], [ 140.1758082, 35.2594838 ], [ 140.174894599999988, 35.2649266 ], [ 140.1779306, 35.2746133 ], [ 140.18511669999998, 35.2778783 ], [ 140.1893306, 35.27695 ], [ 140.196874799999989, 35.2844767 ], [ 140.202815099999981, 35.2877123 ], [ 140.2042313, 35.2938031 ], [ 140.198761599999983, 35.2989701 ], [ 140.2006634, 35.3064062 ], [ 140.212493599999988, 35.3018276 ], [ 140.225535, 35.306801 ], [ 140.2273773, 35.3108671 ], [ 140.225252, 35.3167309 ], [ 140.2200796, 35.3278247 ], [ 140.2125489, 35.3335553 ], [ 140.2138395, 35.3402147 ], [ 140.2091082, 35.3463674 ], [ 140.2058489, 35.3596993 ], [ 140.20935609999998, 35.3656182 ], [ 140.2015556, 35.3661015 ], [ 140.1979179, 35.3701087 ], [ 140.199791799999986, 35.3778131 ], [ 140.2068701, 35.3787212 ], [ 140.200138899999985, 35.3909375 ], [ 140.195270900000025, 35.3921208 ], [ 140.188581199999987, 35.4041802 ], [ 140.190233299999989, 35.407388 ], [ 140.180850599999985, 35.4154352 ], [ 140.182245099999989, 35.4205996 ], [ 140.1747488, 35.4301754 ], [ 140.17922489999998, 35.4351751 ], [ 140.18456519999998, 35.4372965 ], [ 140.186527, 35.4479331 ], [ 140.1705954, 35.4565414 ], [ 140.1745429, 35.4605361 ], [ 140.174063599999982, 35.4690053 ], [ 140.1839419, 35.4691281 ], [ 140.1860878, 35.4738475 ], [ 140.1943906, 35.4698411 ], [ 140.2016045, 35.4746325 ], [ 140.2063044, 35.4846925 ], [ 140.2115316, 35.4867427 ], [ 140.224038299999989, 35.4852785 ], [ 140.237030799999985, 35.4802421 ], [ 140.239991299999986, 35.4826046 ], [ 140.2484905, 35.4817537 ], [ 140.247515, 35.486076 ], [ 140.2511814, 35.4917418 ], [ 140.2563396, 35.494312 ], [ 140.2547391, 35.5005259 ], [ 140.2428697, 35.5054679 ], [ 140.2325519, 35.503774 ], [ 140.23036639999998, 35.5099237 ], [ 140.221679199999983, 35.5180035 ], [ 140.220638399999984, 35.5236802 ], [ 140.225266799999986, 35.5248279 ], [ 140.232130499999982, 35.533404 ], [ 140.2273797, 35.5409793 ], [ 140.2179212, 35.5440227 ], [ 140.2130402, 35.5419966 ], [ 140.209337799999986, 35.5454521 ], [ 140.201308499999982, 35.5395719 ], [ 140.1944044, 35.5432577 ], [ 140.1912385, 35.5365189 ], [ 140.1791081, 35.532733 ], [ 140.1715773, 35.5361564 ], [ 140.158969399999989, 35.5355061 ], [ 140.1423644, 35.5479736 ], [ 140.135330399999987, 35.5425263 ], [ 140.1300813, 35.5471583 ], [ 140.123765099999986, 35.547838 ], [ 140.1209629, 35.5513216 ], [ 140.1154891, 35.5506014 ] ] ] ] } },
{ "type": "Feature", "properties": { "hokenjo": "市川" }, "geometry": { "type": "MultiPolygon", "coordinates": [ [ [ [ 139.918282, 35.6554605 ], [ 139.920801899999987, 35.6605292 ], [ 139.9303524, 35.6664821 ], [ 139.947661400000015, 35.6695528 ], [ 139.9450927, 35.672958 ], [ 139.936648099999985, 35.6732987 ], [ 139.9467377, 35.6809112 ], [ 139.953084499999989, 35.6717795 ], [ 139.9592849, 35.6794467 ], [ 139.963249400000024, 35.6814497 ], [ 139.9610127, 35.7018777 ], [ 139.947045, 35.7076155 ], [ 139.9419666, 35.7014614 ], [ 139.938728, 35.7025191 ], [ 139.9424292, 35.7159508 ], [ 139.9492425, 35.7159108 ], [ 139.9570522, 35.7197739 ], [ 139.9630846, 35.7353461 ], [ 139.972935399999983, 35.7329402 ], [ 139.9745844, 35.7450888 ], [ 139.9728431, 35.748778 ], [ 139.9749415, 35.7517244 ], [ 139.9710207, 35.7575011 ], [ 139.9745882, 35.761049899999989 ], [ 139.9759451, 35.7738454 ], [ 139.9572784, 35.7751261 ], [ 139.949547199999984, 35.7697977 ], [ 139.951789599999984, 35.7618639 ], [ 139.9437265, 35.7583858 ], [ 139.943601100000024, 35.7513005 ], [ 139.9337831, 35.7489122 ], [ 139.9315554, 35.7598214 ], [ 139.9160521, 35.7627372 ], [ 139.909228800000022, 35.7667878 ], [ 139.9033829, 35.7640572 ], [ 139.901930099999987, 35.7557961 ], [ 139.894926199999986, 35.7509247 ], [ 139.89044389999998, 35.7502759 ], [ 139.8994506, 35.7443856 ], [ 139.9008858, 35.7374575 ], [ 139.8979386, 35.7318717 ], [ 139.8986543, 35.7234511 ], [ 139.908123499999988, 35.7138623 ], [ 139.916210899999982, 35.7080014 ], [ 139.918735, 35.6977094 ], [ 139.908645899999982, 35.6855056 ], [ 139.903788599999984, 35.6831158 ], [ 139.887945, 35.6799934 ], [ 139.8860708, 35.6711364 ], [ 139.8873892, 35.6561656 ], [ 139.883494399999989, 35.6451186 ], [ 139.8714606, 35.6386417 ], [ 139.8725814, 35.6255319 ], [ 139.888381399999986, 35.6218376 ], [ 139.893495299999984, 35.6248828 ], [ 139.897611399999988, 35.6166234 ], [ 139.9100451, 35.6244212 ], [ 139.9394915, 35.6404703 ], [ 139.936836699999986, 35.6432414 ], [ 139.918282, 35.6554605 ] ] ], [ [ [ 139.9585281, 35.6731113 ], [ 139.963695, 35.6722616 ], [ 139.962746, 35.6807341 ], [ 139.9585281, 35.6731113 ] ] ] ] } },
{ "type": "Feature", "properties": { "hokenjo": "習志野" }, "geometry": { "type": "MultiPolygon", "coordinates": [ [ [ [ 140.081557, 35.6945355 ], [ 140.0902748, 35.6937819 ], [ 140.1011155, 35.7028342 ], [ 140.1055297, 35.7093517 ], [ 140.1133839, 35.7140523 ], [ 140.1226131, 35.7067562 ], [ 140.123965299999981, 35.6988909 ], [ 140.1339803, 35.6996151 ], [ 140.1367942, 35.6975459 ], [ 140.1396054, 35.7028709 ], [ 140.1313068, 35.7114434 ], [ 140.1340322, 35.7188936 ], [ 140.142190299999982, 35.72526 ], [ 140.1385032, 35.7365908 ], [ 140.140288199999986, 35.7447519 ], [ 140.1472894, 35.7487346 ], [ 140.1455578, 35.7548285 ], [ 140.151881799999984, 35.7597932 ], [ 140.1465091, 35.7653279 ], [ 140.138865399999986, 35.7665659 ], [ 140.132752, 35.7733298 ], [ 140.1115091, 35.7809517 ], [ 140.1030907, 35.7801254 ], [ 140.0969093, 35.7829045 ], [ 140.0895574, 35.784002 ], [ 140.086275700000016, 35.7811298 ], [ 140.08601729999998, 35.7657715 ], [ 140.077618799999982, 35.7574891 ], [ 140.0743412, 35.749513 ], [ 140.0659906, 35.748453 ], [ 140.0639119, 35.7423841 ], [ 140.0676435, 35.7342202 ], [ 140.062924399999986, 35.7207258 ], [ 140.0717158, 35.7171216 ], [ 140.0642585, 35.7109866 ], [ 140.068333699999982, 35.7084433 ], [ 140.0618834, 35.704873 ], [ 140.063906900000035, 35.6964521 ], [ 140.0585811, 35.6944427 ], [ 140.0530341, 35.6965371 ], [ 140.0507366, 35.6919129 ], [ 140.0435501, 35.6928532 ], [ 140.035490399999986, 35.6962577 ], [ 140.0288696, 35.6908955 ], [ 140.0138451, 35.6920122 ], [ 140.0088065, 35.6954239 ], [ 139.997950799999984, 35.6784031 ], [ 140.004931, 35.6688072 ], [ 140.001943499999982, 35.6655961 ], [ 140.0029491, 35.6597784 ], [ 139.9947258, 35.6610401 ], [ 139.986498399999988, 35.6601087 ], [ 139.987461199999984, 35.654467499999988 ], [ 140.013679, 35.6575217 ], [ 140.019651899999985, 35.6524778 ], [ 140.0349477, 35.6696326 ], [ 140.04176, 35.6778482 ], [ 140.0551328, 35.676983199999988 ], [ 140.0575828, 35.6797376 ], [ 140.0659164, 35.676761 ], [ 140.077363, 35.6884527 ], [ 140.081557, 35.6945355 ] ] ], [ [ [ 139.9749415, 35.7517244 ], [ 139.9728431, 35.748778 ], [ 139.9830615, 35.751161 ], [ 139.988450299999982, 35.7438099 ], [ 139.9932603, 35.7417763 ], [ 139.9994551, 35.744079 ], [ 140.006728399999986, 35.7428279 ], [ 140.008393800000022, 35.7481796 ], [ 140.0180269, 35.7546448 ], [ 140.014383399999986, 35.7608207 ], [ 140.021033499999987, 35.7654895 ], [ 140.015185699999989, 35.7679462 ], [ 140.020045, 35.7741712 ], [ 140.0219026, 35.7807545 ], [ 140.0188901, 35.783492 ], [ 140.0225405, 35.7960825 ], [ 140.007699699999989, 35.8031598 ], [ 140.0019302, 35.8039289 ], [ 139.9980118, 35.800604 ], [ 140.001107, 35.7911498 ], [ 139.9957839, 35.7873498 ], [ 139.988965, 35.790756 ], [ 139.984602199999983, 35.7884674 ], [ 139.968410399999982, 35.7863085 ], [ 139.972936799999985, 35.7801574 ], [ 139.9843196, 35.7761654 ], [ 139.9759451, 35.7738454 ], [ 139.9745882, 35.761049899999989 ], [ 139.9710207, 35.7575011 ], [ 139.9749415, 35.7517244 ] ], [ [ 139.9888915, 35.7517443 ], [ 139.994039099999981, 35.7553621 ], [ 139.9995324, 35.7505857 ], [ 139.9955631, 35.7427457 ], [ 139.986833099999984, 35.7469293 ], [ 139.9888915, 35.7517443 ] ] ] ] } },
{ "type": "Feature", "properties": { "hokenjo": "松戸" }, "geometry": { "type": "MultiPolygon", "coordinates": [ [ [ [ 139.941485799999981, 35.8348715 ], [ 139.94531809999998, 35.8368832 ], [ 139.9532131, 35.8339398 ], [ 139.9575131, 35.8351395 ], [ 139.952193699999981, 35.8414867 ], [ 139.9525999, 35.851252 ], [ 139.9472077, 35.8545737 ], [ 139.941428699999989, 35.8517417 ], [ 139.942768799999982, 35.8643948 ], [ 139.930356599999982, 35.8647162 ], [ 139.9311866, 35.8685854 ], [ 139.941682499999985, 35.8690573 ], [ 139.9400609, 35.8756742 ], [ 139.9402418, 35.8851353 ], [ 139.9334648, 35.8854992 ], [ 139.9346682, 35.8925084 ], [ 139.9297991, 35.9007687 ], [ 139.922571, 35.9004914 ], [ 139.9212574, 35.8965781 ], [ 139.9300623, 35.886672 ], [ 139.9261651, 35.8834492 ], [ 139.921235599999989, 35.8902848 ], [ 139.914796199999984, 35.8941337 ], [ 139.920489600000025, 35.9060301 ], [ 139.9201683, 35.9168889 ], [ 139.912407699999989, 35.9150981 ], [ 139.901959399999981, 35.9180784 ], [ 139.900688799999983, 35.9147898 ], [ 139.8914446, 35.9154284 ], [ 139.87475569999998, 35.9129401 ], [ 139.889919700000036, 35.8925609 ], [ 139.8948504, 35.8765554 ], [ 139.9003387, 35.8641749 ], [ 139.8961406, 35.8529326 ], [ 139.8900363, 35.8440024 ], [ 139.888514499999985, 35.830198 ], [ 139.887992199999985, 35.8243327 ], [ 139.8915342, 35.8193386 ], [ 139.8888393, 35.8074849 ], [ 139.8908348, 35.8005666 ], [ 139.8885234, 35.7964508 ], [ 139.8944636, 35.7799178 ], [ 139.8828474, 35.7735347 ], [ 139.8794615, 35.7675245 ], [ 139.8832084, 35.7586234 ], [ 139.89044389999998, 35.7502759 ], [ 139.894926199999986, 35.7509247 ], [ 139.901930099999987, 35.7557961 ], [ 139.9033829, 35.7640572 ], [ 139.909228800000022, 35.7667878 ], [ 139.9160521, 35.7627372 ], [ 139.9315554, 35.7598214 ], [ 139.9337831, 35.7489122 ], [ 139.943601100000024, 35.7513005 ], [ 139.9437265, 35.7583858 ], [ 139.951789599999984, 35.7618639 ], [ 139.949547199999984, 35.7697977 ], [ 139.9572784, 35.7751261 ], [ 139.9759451, 35.7738454 ], [ 139.9843196, 35.7761654 ], [ 139.972936799999985, 35.7801574 ], [ 139.968410399999982, 35.7863085 ], [ 139.984602199999983, 35.7884674 ], [ 139.988965, 35.790756 ], [ 139.9957839, 35.7873498 ], [ 140.001107, 35.7911498 ], [ 139.9980118, 35.800604 ], [ 139.9890418, 35.8068079 ], [ 139.9787923, 35.7982957 ], [ 139.9673417, 35.8027079 ], [ 139.9673732, 35.8079949 ], [ 139.958486199999982, 35.8092721 ], [ 139.9524624, 35.8172468 ], [ 139.9505174, 35.8278437 ], [ 139.941485799999981, 35.8348715 ] ] ], [ [ [ 140.1009898, 35.8514982 ], [ 140.1113583, 35.8478943 ], [ 140.1226791, 35.8457265 ], [ 140.1320724, 35.8407971 ], [ 140.146469699999983, 35.8457181 ], [ 140.1342439, 35.8589192 ], [ 140.1275828, 35.8703837 ], [ 140.1217318, 35.8736631 ], [ 140.111730699999981, 35.8760423 ], [ 140.102755799999983, 35.8807374 ], [ 140.08813, 35.8840302 ], [ 140.0743259, 35.8766269 ], [ 140.066598699999986, 35.8808719 ], [ 140.0611168, 35.8880564 ], [ 140.0475394, 35.8919614 ], [ 140.031106600000015, 35.9006123 ], [ 140.0217863, 35.890224 ], [ 140.0162704, 35.8959937 ], [ 140.009901500000012, 35.8872132 ], [ 139.998617, 35.8837421 ], [ 139.992783300000013, 35.8774469 ], [ 139.9911004, 35.8711869 ], [ 139.9935329, 35.8675536 ], [ 140.0083127, 35.8618021 ], [ 140.0249019, 35.8609663 ], [ 140.0327504, 35.8564557 ], [ 140.042522099999985, 35.8594198 ], [ 140.051773200000014, 35.8533823 ], [ 140.0600776, 35.8508597 ], [ 140.065098799999987, 35.8553983 ], [ 140.1009898, 35.8514982 ] ] ] ] } },
{ "type": "Feature", "properties": { "hokenjo": "千葉市" }, "geometry": { "type": "MultiPolygon", "coordinates": [ [ [ [ 140.2887284, 35.5700349 ], [ 140.28708709999998, 35.5729091 ], [ 140.2831851, 35.5737777 ], [ 140.281105699999983, 35.5793366 ], [ 140.275138, 35.5817769 ], [ 140.2755582, 35.5874671 ], [ 140.261370199999988, 35.5995969 ], [ 140.262600599999985, 35.6060133 ], [ 140.2674848, 35.6071635 ], [ 140.267643199999981, 35.6172635 ], [ 140.264928, 35.6205646 ], [ 140.2663182, 35.6264124 ], [ 140.2577554, 35.6254685 ], [ 140.2509618, 35.6255847 ], [ 140.2412754, 35.6312974 ], [ 140.2287365, 35.6331395 ], [ 140.2230357, 35.6416439 ], [ 140.219641, 35.6519723 ], [ 140.2133182, 35.6545748 ], [ 140.2046498, 35.6509657 ], [ 140.207040899999981, 35.646319 ], [ 140.2037881, 35.6402382 ], [ 140.1934024, 35.6267771 ], [ 140.1850776, 35.6291233 ], [ 140.1922366, 35.6401536 ], [ 140.1901561, 35.6430138 ], [ 140.176451899999989, 35.6534486 ], [ 140.1736727, 35.6540678 ], [ 140.163554, 35.6453506 ], [ 140.1578012, 35.6463467 ], [ 140.1559581, 35.6540861 ], [ 140.149916499999989, 35.6681261 ], [ 140.1413067, 35.6676161 ], [ 140.1364992, 35.6705119 ], [ 140.1383837, 35.6753924 ], [ 140.1367182, 35.6795216 ], [ 140.139491599999985, 35.6881563 ], [ 140.143122, 35.6914068 ], [ 140.1469667, 35.6918116 ], [ 140.152643899999987, 35.6892924 ], [ 140.149392299999988, 35.6915977 ], [ 140.147478899999982, 35.6920891 ], [ 140.143527, 35.6919421 ], [ 140.1367942, 35.6975459 ], [ 140.1339803, 35.6996151 ], [ 140.123965299999981, 35.6988909 ], [ 140.1226131, 35.7067562 ], [ 140.1133839, 35.7140523 ], [ 140.1055297, 35.7093517 ], [ 140.1011155, 35.7028342 ], [ 140.0902748, 35.6937819 ], [ 140.081557, 35.6945355 ], [ 140.077363, 35.6884527 ], [ 140.0659164, 35.676761 ], [ 140.0575828, 35.6797376 ], [ 140.0551328, 35.676983199999988 ], [ 140.04176, 35.6778482 ], [ 140.0349477, 35.6696326 ], [ 140.019651899999985, 35.6524778 ], [ 140.028725399999985, 35.6441564 ], [ 140.0696637, 35.6107539 ], [ 140.0839071, 35.5967969 ], [ 140.0866282, 35.6018943 ], [ 140.0779225, 35.6104153 ], [ 140.0831437, 35.6132685 ], [ 140.0941254, 35.603686 ], [ 140.098568299999982, 35.6063651 ], [ 140.088973399999986, 35.5945304 ], [ 140.105517, 35.5934476 ], [ 140.11057409999998, 35.5895409 ], [ 140.11415839999998, 35.5725164 ], [ 140.1160616, 35.5691977 ], [ 140.0968234, 35.5663956 ], [ 140.0912074, 35.5611806 ], [ 140.1150691, 35.5528406 ], [ 140.1154891, 35.5506014 ], [ 140.1209629, 35.5513216 ], [ 140.123765099999986, 35.547838 ], [ 140.1300813, 35.5471583 ], [ 140.135330399999987, 35.5425263 ], [ 140.1423644, 35.5479736 ], [ 140.158969399999989, 35.5355061 ], [ 140.1715773, 35.5361564 ], [ 140.1791081, 35.532733 ], [ 140.1912385, 35.5365189 ], [ 140.1944044, 35.5432577 ], [ 140.201308499999982, 35.5395719 ], [ 140.209337799999986, 35.5454521 ], [ 140.2130402, 35.5419966 ], [ 140.2179212, 35.5440227 ], [ 140.2273797, 35.5409793 ], [ 140.232130499999982, 35.533404 ], [ 140.225266799999986, 35.5248279 ], [ 140.220638399999984, 35.5236802 ], [ 140.221679199999983, 35.5180035 ], [ 140.23036639999998, 35.5099237 ], [ 140.2325519, 35.503774 ], [ 140.2428697, 35.5054679 ], [ 140.2547391, 35.5005259 ], [ 140.2563396, 35.494312 ], [ 140.262397599999986, 35.4955698 ], [ 140.259703799999983, 35.5017028 ], [ 140.2669663, 35.5018 ], [ 140.271166, 35.4994911 ], [ 140.2721148, 35.4936028 ], [ 140.274368899999985, 35.5072608 ], [ 140.2767615, 35.5114872 ], [ 140.2822707, 35.512783 ], [ 140.286016099999983, 35.5188222 ], [ 140.292588, 35.5153166 ], [ 140.2995786, 35.5188957 ], [ 140.2877589, 35.5234907 ], [ 140.292018399999989, 35.5311652 ], [ 140.286011, 35.5389252 ], [ 140.2809638, 35.5418405 ], [ 140.2813624, 35.5477899 ], [ 140.291867699999983, 35.5482246 ], [ 140.290971100000036, 35.5556483 ], [ 140.294212, 35.5606254 ], [ 140.2886581, 35.5663729 ], [ 140.2887284, 35.5700349 ] ] ], [ [ [ 140.1051062, 35.5776236 ], [ 140.102962, 35.5873798 ], [ 140.0831791, 35.5882107 ], [ 140.0861017, 35.5694457 ], [ 140.1117308, 35.5704333 ], [ 140.1094712, 35.5766134 ], [ 140.1051062, 35.5776236 ] ] ] ] } },
{ "type": "Feature", "properties": { "hokenjo": "船橋市" }, "geometry": { "type": "MultiPolygon", "coordinates": [ [ [ [ 139.963695, 35.6722616 ], [ 139.971993800000035, 35.6708967 ], [ 139.979452, 35.669822 ], [ 139.9776641, 35.6795039 ], [ 139.962746, 35.6807341 ], [ 139.963695, 35.6722616 ] ] ], [ [ [ 139.9610127, 35.7018777 ], [ 139.963249400000024, 35.6814497 ], [ 139.975100199999986, 35.683407 ], [ 139.982761499999981, 35.6816129 ], [ 139.985869, 35.6638358 ], [ 140.001943499999982, 35.6655961 ], [ 140.004931, 35.6688072 ], [ 139.997950799999984, 35.6784031 ], [ 140.0088065, 35.6954239 ], [ 140.0138451, 35.6920122 ], [ 140.0288696, 35.6908955 ], [ 140.035490399999986, 35.6962577 ], [ 140.0435501, 35.6928532 ], [ 140.0507366, 35.6919129 ], [ 140.0530341, 35.6965371 ], [ 140.0585811, 35.6944427 ], [ 140.063906900000035, 35.6964521 ], [ 140.0618834, 35.704873 ], [ 140.068333699999982, 35.7084433 ], [ 140.0642585, 35.7109866 ], [ 140.0717158, 35.7171216 ], [ 140.062924399999986, 35.7207258 ], [ 140.0676435, 35.7342202 ], [ 140.0639119, 35.7423841 ], [ 140.0659906, 35.748453 ], [ 140.0743412, 35.749513 ], [ 140.077618799999982, 35.7574891 ], [ 140.08601729999998, 35.7657715 ], [ 140.086275700000016, 35.7811298 ], [ 140.0895574, 35.784002 ], [ 140.0827128, 35.7916895 ], [ 140.073217, 35.7986581 ], [ 140.0694456, 35.7990656 ], [ 140.067203899999981, 35.785343399999988 ], [ 140.0617704, 35.7762871 ], [ 140.0398702, 35.7666953 ], [ 140.0304844, 35.771407 ], [ 140.021033499999987, 35.7654895 ], [ 140.014383399999986, 35.7608207 ], [ 140.0180269, 35.7546448 ], [ 140.008393800000022, 35.7481796 ], [ 140.006728399999986, 35.7428279 ], [ 139.9994551, 35.744079 ], [ 139.9932603, 35.7417763 ], [ 139.988450299999982, 35.7438099 ], [ 139.9830615, 35.751161 ], [ 139.9728431, 35.748778 ], [ 139.9745844, 35.7450888 ], [ 139.972935399999983, 35.7329402 ], [ 139.9630846, 35.7353461 ], [ 139.9570522, 35.7197739 ], [ 139.9492425, 35.7159108 ], [ 139.9424292, 35.7159508 ], [ 139.938728, 35.7025191 ], [ 139.9419666, 35.7014614 ], [ 139.947045, 35.7076155 ], [ 139.9610127, 35.7018777 ] ] ], [ [ [ 139.9995324, 35.7505857 ], [ 139.994039099999981, 35.7553621 ], [ 139.9888915, 35.7517443 ], [ 139.986833099999984, 35.7469293 ], [ 139.9955631, 35.7427457 ], [ 139.9995324, 35.7505857 ] ] ] ] } },
{ "type": "Feature", "properties": { "hokenjo": "長生" }, "geometry": { "type": "MultiPolygon", "coordinates": [ [ [ [ 140.32669439999998, 35.3436413 ], [ 140.341925799999984, 35.345384 ], [ 140.3533, 35.3457295 ], [ 140.366154099999989, 35.3424214 ], [ 140.3744477, 35.3427341 ], [ 140.372163699999987, 35.3292367 ], [ 140.3828924, 35.3302533 ], [ 140.3878282, 35.3347544 ], [ 140.3930332, 35.3306744 ], [ 140.397651199999984, 35.3305055 ], [ 140.3950347, 35.3353666 ], [ 140.3919199, 35.3544066 ], [ 140.3912747, 35.3780651 ], [ 140.392338599999988, 35.3830628 ], [ 140.3922944, 35.3968193 ], [ 140.397032699999983, 35.4187683 ], [ 140.404117899999989, 35.4429978 ], [ 140.4159201, 35.4716227 ], [ 140.4013991, 35.474803099999988 ], [ 140.386140800000021, 35.4767581 ], [ 140.3813599, 35.4754895 ], [ 140.3788829, 35.4874992 ], [ 140.3723611, 35.4943292 ], [ 140.3521845, 35.4966295 ], [ 140.3475124, 35.4848626 ], [ 140.3357331, 35.490334 ], [ 140.325961799999988, 35.4921463 ], [ 140.3296282, 35.4981007 ], [ 140.313318899999985, 35.5018399 ], [ 140.2903555, 35.4964436 ], [ 140.280372699999987, 35.4985778 ], [ 140.2721148, 35.4936028 ], [ 140.271166, 35.4994911 ], [ 140.2669663, 35.5018 ], [ 140.259703799999983, 35.5017028 ], [ 140.262397599999986, 35.4955698 ], [ 140.2563396, 35.494312 ], [ 140.2511814, 35.4917418 ], [ 140.247515, 35.486076 ], [ 140.2484905, 35.4817537 ], [ 140.239991299999986, 35.4826046 ], [ 140.237030799999985, 35.4802421 ], [ 140.224038299999989, 35.4852785 ], [ 140.2115316, 35.4867427 ], [ 140.2063044, 35.4846925 ], [ 140.2016045, 35.4746325 ], [ 140.1943906, 35.4698411 ], [ 140.1860878, 35.4738475 ], [ 140.1839419, 35.4691281 ], [ 140.174063599999982, 35.4690053 ], [ 140.1745429, 35.4605361 ], [ 140.1705954, 35.4565414 ], [ 140.186527, 35.4479331 ], [ 140.18456519999998, 35.4372965 ], [ 140.17922489999998, 35.4351751 ], [ 140.1747488, 35.4301754 ], [ 140.182245099999989, 35.4205996 ], [ 140.180850599999985, 35.4154352 ], [ 140.190233299999989, 35.407388 ], [ 140.188581199999987, 35.4041802 ], [ 140.195270900000025, 35.3921208 ], [ 140.200138899999985, 35.3909375 ], [ 140.2068701, 35.3787212 ], [ 140.199791799999986, 35.3778131 ], [ 140.1979179, 35.3701087 ], [ 140.2015556, 35.3661015 ], [ 140.20935609999998, 35.3656182 ], [ 140.2058489, 35.3596993 ], [ 140.2091082, 35.3463674 ], [ 140.2138395, 35.3402147 ], [ 140.2125489, 35.3335553 ], [ 140.2200796, 35.3278247 ], [ 140.225252, 35.3167309 ], [ 140.2335732, 35.3233331 ], [ 140.2401365, 35.3239979 ], [ 140.2462918, 35.3271523 ], [ 140.2512643, 35.3244242 ], [ 140.2530184, 35.3178826 ], [ 140.2592484, 35.3182545 ], [ 140.2626267, 35.3135826 ], [ 140.2712751, 35.3133864 ], [ 140.277740400000027, 35.3189558 ], [ 140.289087099999989, 35.3213635 ], [ 140.2942835, 35.3333593 ], [ 140.3011477, 35.337797 ], [ 140.306789899999984, 35.3374736 ], [ 140.3180717, 35.3457121 ], [ 140.32669439999998, 35.3436413 ] ] ] ] } },
{ "type": "Feature", "properties": { "hokenjo": "柏市" }, "geometry": { "type": "MultiPolygon", "coordinates": [ [ [ [ 139.9980118, 35.800604 ], [ 140.0019302, 35.8039289 ], [ 140.007699699999989, 35.8031598 ], [ 140.0225405, 35.7960825 ], [ 140.0188901, 35.783492 ], [ 140.029907799999989, 35.7989489 ], [ 140.032299599999988, 35.8118219 ], [ 140.0416783, 35.8242979 ], [ 140.0496767, 35.8321918 ], [ 140.057290599999988, 35.8353523 ], [ 140.069655, 35.8337773 ], [ 140.0752372, 35.8310778 ], [ 140.0891552, 35.83018 ], [ 140.0929016, 35.826058 ], [ 140.099146599999983, 35.8312883 ], [ 140.109256, 35.8341235 ], [ 140.1119439, 35.8433982 ], [ 140.1113583, 35.8478943 ], [ 140.1009898, 35.8514982 ], [ 140.065098799999987, 35.8553983 ], [ 140.0600776, 35.8508597 ], [ 140.051773200000014, 35.8533823 ], [ 140.042522099999985, 35.8594198 ], [ 140.0327504, 35.8564557 ], [ 140.0249019, 35.8609663 ], [ 140.0083127, 35.8618021 ], [ 139.9935329, 35.8675536 ], [ 139.9911004, 35.8711869 ], [ 139.992783300000013, 35.8774469 ], [ 139.998617, 35.8837421 ], [ 140.009901500000012, 35.8872132 ], [ 140.0162704, 35.8959937 ], [ 140.0217863, 35.890224 ], [ 140.031106600000015, 35.9006123 ], [ 140.0188608, 35.9100476 ], [ 140.0132155, 35.9110974 ], [ 139.996744399999983, 35.9092249 ], [ 139.9857929, 35.9148071 ], [ 139.9774591, 35.9227083 ], [ 139.965462699999989, 35.9267266 ], [ 139.9518999, 35.9358469 ], [ 139.9489868, 35.9311775 ], [ 139.935069, 35.9253214 ], [ 139.928337, 35.91804 ], [ 139.9201683, 35.9168889 ], [ 139.920489600000025, 35.9060301 ], [ 139.914796199999984, 35.8941337 ], [ 139.921235599999989, 35.8902848 ], [ 139.9261651, 35.8834492 ], [ 139.9300623, 35.886672 ], [ 139.9212574, 35.8965781 ], [ 139.922571, 35.9004914 ], [ 139.9297991, 35.9007687 ], [ 139.9346682, 35.8925084 ], [ 139.9334648, 35.8854992 ], [ 139.9402418, 35.8851353 ], [ 139.9400609, 35.8756742 ], [ 139.941682499999985, 35.8690573 ], [ 139.9311866, 35.8685854 ], [ 139.930356599999982, 35.8647162 ], [ 139.942768799999982, 35.8643948 ], [ 139.941428699999989, 35.8517417 ], [ 139.9472077, 35.8545737 ], [ 139.9525999, 35.851252 ], [ 139.952193699999981, 35.8414867 ], [ 139.9575131, 35.8351395 ], [ 139.9532131, 35.8339398 ], [ 139.94531809999998, 35.8368832 ], [ 139.941485799999981, 35.8348715 ], [ 139.9505174, 35.8278437 ], [ 139.9524624, 35.8172468 ], [ 139.958486199999982, 35.8092721 ], [ 139.9673732, 35.8079949 ], [ 139.9673417, 35.8027079 ], [ 139.9787923, 35.7982957 ], [ 139.9890418, 35.8068079 ], [ 139.9980118, 35.800604 ] ] ] ] } },
{ "type": "Feature", "properties": { "hokenjo": "野田" }, "geometry": { "type": "MultiPolygon", "coordinates": [ [ [ [ 139.9518999, 35.9358469 ], [ 139.9386393, 35.9405706 ], [ 139.9316552, 35.950766699999988 ], [ 139.938043599999986, 35.9620147 ], [ 139.932455899999979, 35.969439199999989 ], [ 139.9167181, 35.9703306 ], [ 139.8993753, 35.97752 ], [ 139.8841636, 35.9888281 ], [ 139.882333099999983, 35.9914497 ], [ 139.8782445, 36.007605 ], [ 139.8570837, 36.0294266 ], [ 139.8473578, 36.0338605 ], [ 139.837235099999987, 36.041101 ], [ 139.8233553, 36.054443 ], [ 139.8136706, 36.0624255 ], [ 139.8083275, 36.0704102 ], [ 139.803785399999981, 36.0868551 ], [ 139.7974462, 36.0963593 ], [ 139.7867757, 36.1040999 ], [ 139.7779698, 36.0985574 ], [ 139.7760678, 36.0913107 ], [ 139.779867199999984, 36.0827572 ], [ 139.7833363, 36.0695019 ], [ 139.7913577, 36.0581358 ], [ 139.8016002, 36.0491997 ], [ 139.8045927, 36.0446414 ], [ 139.8136527, 36.0385331 ], [ 139.8172724, 36.0297292 ], [ 139.8134016, 36.0231323 ], [ 139.816912299999984, 36.0023895 ], [ 139.814259199999981, 35.9970612 ], [ 139.8267448, 35.9831459 ], [ 139.8252359, 35.9755307 ], [ 139.82723439999998, 35.9713609 ], [ 139.8329336, 35.9693459 ], [ 139.8377733, 35.9539059 ], [ 139.8464582, 35.9409893 ], [ 139.860919699999982, 35.9324937 ], [ 139.8674208, 35.9255459 ], [ 139.87475569999998, 35.9129401 ], [ 139.8914446, 35.9154284 ], [ 139.900688799999983, 35.9147898 ], [ 139.901959399999981, 35.9180784 ], [ 139.912407699999989, 35.9150981 ], [ 139.9201683, 35.9168889 ], [ 139.928337, 35.91804 ], [ 139.935069, 35.9253214 ], [ 139.9489868, 35.9311775 ], [ 139.9518999, 35.9358469 ] ] ] ] } }
]
}
