{
"type": "FeatureCollection",
"name": "fukuoka",
"crs": { "type": "name", "properties": { "name": "urn:ogc:def:crs:OGC:1.3:CRS84" } },
"features": [
{ "type": "Feature", "properties": { "hokenjo": "嘉穂・鞍手" }, "geometry": { "type": "MultiPolygon", "coordinates": [ [ [ [ 130.7643708, 33.5821392 ], [ 130.7620972, 33.5862872 ], [ 130.7651003, 33.5918942 ], [ 130.772566899999987, 33.5948089 ], [ 130.7720353, 33.5989597 ], [ 130.7757169, 33.6026656 ], [ 130.7754136, 33.6091403 ], [ 130.7702511, 33.6124569 ], [ 130.764345, 33.6118389 ], [ 130.7592936, 33.6185517 ], [ 130.759240799999986, 33.6218275 ], [ 130.7543131, 33.6290067 ], [ 130.7504856, 33.6315861 ], [ 130.751181699999989, 33.6353422 ], [ 130.747982799999988, 33.6402703 ], [ 130.751618899999983, 33.6437958 ], [ 130.7538558, 33.6500567 ], [ 130.7572817, 33.6503672 ], [ 130.7604936, 33.6543244 ], [ 130.7565131, 33.6640469 ], [ 130.754232799999983, 33.6652394 ], [ 130.7530908, 33.6726533 ], [ 130.7512528, 33.6738906 ], [ 130.7519303, 33.6809922 ], [ 130.755103599999984, 33.6847603 ], [ 130.7478506, 33.6995908 ], [ 130.743817200000024, 33.7017586 ], [ 130.7470908, 33.7044925 ], [ 130.7463519, 33.7085719 ], [ 130.7493078, 33.7111047 ], [ 130.7481933, 33.7159019 ], [ 130.7732981, 33.72257 ], [ 130.7738861, 33.7251731 ], [ 130.7820389, 33.7274081 ], [ 130.7885822, 33.7393011 ], [ 130.7920283, 33.7407314 ], [ 130.797390299999989, 33.7390406 ], [ 130.804028599999981, 33.7420358 ], [ 130.804877799999986, 33.7498122 ], [ 130.802134699999982, 33.7511169 ], [ 130.8022158, 33.7586986 ], [ 130.799402499999985, 33.7651858 ], [ 130.8024322, 33.7705506 ], [ 130.799423599999983, 33.7767936 ], [ 130.7948475, 33.7802839 ], [ 130.788603099999989, 33.7798514 ], [ 130.7845553, 33.7851731 ], [ 130.772945300000032, 33.7864744 ], [ 130.766637799999984, 33.7823858 ], [ 130.768125, 33.7772803 ], [ 130.7573844, 33.7694742 ], [ 130.7460012, 33.7721094 ], [ 130.7381411, 33.7705617 ], [ 130.729708099999982, 33.7744253 ], [ 130.7206769, 33.774180799999989 ], [ 130.7144394, 33.7849664 ], [ 130.7140014, 33.7876347 ], [ 130.7071614, 33.7960539 ], [ 130.7035622, 33.8012636 ], [ 130.7005719, 33.806468099999989 ], [ 130.6923325, 33.80688 ], [ 130.687897199999981, 33.812615 ], [ 130.6806517, 33.8110869 ], [ 130.6787942, 33.8165608 ], [ 130.674491099999983, 33.8215222 ], [ 130.669753899999989, 33.8196283 ], [ 130.6579906, 33.8191467 ], [ 130.653206900000015, 33.8158689 ], [ 130.6490058, 33.8096367 ], [ 130.641424199999989, 33.8090692 ], [ 130.635967199999982, 33.8127461 ], [ 130.636581399999983, 33.80656 ], [ 130.6331811, 33.804195 ], [ 130.634062199999988, 33.8001428 ], [ 130.6398156, 33.7906181 ], [ 130.6335583, 33.7906117 ], [ 130.6313269, 33.7850014 ], [ 130.6324319, 33.7801764 ], [ 130.6230161, 33.7809772 ], [ 130.619187499999981, 33.7830553 ], [ 130.61542559999998, 33.7816117 ], [ 130.613328599999988, 33.7774272 ], [ 130.605417499999987, 33.7770078 ], [ 130.6008775, 33.7706133 ], [ 130.6041275, 33.7645808 ], [ 130.5985167, 33.7619286 ], [ 130.5913928, 33.7617883 ], [ 130.584606899999983, 33.7597917 ], [ 130.5844081, 33.7568461 ], [ 130.5780028, 33.7557889 ], [ 130.5596725, 33.7549075 ], [ 130.5551106, 33.7505153 ], [ 130.5523619, 33.7443817 ], [ 130.5528544, 33.737645 ], [ 130.5488511, 33.7340808 ], [ 130.5477369, 33.7306117 ], [ 130.553723099999985, 33.7279731 ], [ 130.5580847, 33.7236644 ], [ 130.5586892, 33.7200475 ], [ 130.548288899999989, 33.7176306 ], [ 130.5447164, 33.7101658 ], [ 130.541991699999983, 33.7073208 ], [ 130.5427617, 33.7034272 ], [ 130.540964699999989, 33.6983475 ], [ 130.5448867, 33.6938228 ], [ 130.5397597, 33.6813467 ], [ 130.5414164, 33.6763844 ], [ 130.5497336, 33.6731903 ], [ 130.5513094, 33.6680794 ], [ 130.5620492, 33.6657481 ], [ 130.570528599999989, 33.6632589 ], [ 130.5752728, 33.6575933 ], [ 130.5739594, 33.6541072 ], [ 130.5690803, 33.6511472 ], [ 130.566422499999987, 33.6465417 ], [ 130.57311439999998, 33.6413892 ], [ 130.5750586, 33.6380656 ], [ 130.5774556, 33.6378564 ], [ 130.5857658, 33.6323667 ], [ 130.587330800000018, 33.6259828 ], [ 130.5844792, 33.6187333 ], [ 130.591656400000033, 33.6189906 ], [ 130.597101899999984, 33.6155764 ], [ 130.5935297, 33.6087811 ], [ 130.5855386, 33.6030881 ], [ 130.5798192, 33.6026956 ], [ 130.5680883, 33.6069408 ], [ 130.5608344, 33.6001356 ], [ 130.558137499999987, 33.5994931 ], [ 130.5629094, 33.5933225 ], [ 130.566421099999985, 33.5908011 ], [ 130.5681883, 33.5795803 ], [ 130.572706399999987, 33.5769414 ], [ 130.5750572, 33.5679914 ], [ 130.5794536, 33.5652961 ], [ 130.5804142, 33.5587572 ], [ 130.584088899999983, 33.5546767 ], [ 130.586331699999988, 33.5519053 ], [ 130.595596699999987, 33.5456675 ], [ 130.5945089, 33.5428414 ], [ 130.597841099999982, 33.5384975 ], [ 130.6120947, 33.5252025 ], [ 130.6099106, 33.5195272 ], [ 130.612248599999987, 33.517125 ], [ 130.6181847, 33.5159642 ], [ 130.6214464, 33.5060989 ], [ 130.627925799999986, 33.5045103 ], [ 130.6353078, 33.5072514 ], [ 130.636024400000025, 33.5048106 ], [ 130.6421442, 33.5055047 ], [ 130.6486861, 33.5097711 ], [ 130.6531353, 33.5109542 ], [ 130.658915799999988, 33.5081947 ], [ 130.6623847, 33.5038172 ], [ 130.668676399999981, 33.4980911 ], [ 130.672745, 33.4994253 ], [ 130.6821725, 33.4933094 ], [ 130.6871578, 33.4912058 ], [ 130.6891158, 33.4941039 ], [ 130.7115781, 33.4908819 ], [ 130.71688469999998, 33.4859553 ], [ 130.7270983, 33.4835822 ], [ 130.741794199999987, 33.4880656 ], [ 130.7485931, 33.4849192 ], [ 130.750092199999983, 33.4865172 ], [ 130.758961699999986, 33.4883319 ], [ 130.7656656, 33.4879614 ], [ 130.7799206, 33.4815892 ], [ 130.7872767, 33.479575 ], [ 130.7912289, 33.4709911 ], [ 130.7938828, 33.4724136 ], [ 130.806091399999985, 33.4718711 ], [ 130.809089700000015, 33.4751369 ], [ 130.8082983, 33.4834117 ], [ 130.8117178, 33.4873022 ], [ 130.817626099999984, 33.4888447 ], [ 130.8140114, 33.4931369 ], [ 130.8138375, 33.4971161 ], [ 130.8107183, 33.5022622 ], [ 130.8103353, 33.5096714 ], [ 130.804038599999984, 33.5112606 ], [ 130.803652799999981, 33.5173889 ], [ 130.80667889999998, 33.5368439 ], [ 130.803690599999982, 33.5384017 ], [ 130.8026686, 33.5472342 ], [ 130.7929097, 33.5559578 ], [ 130.7922869, 33.5601875 ], [ 130.7851444, 33.5683103 ], [ 130.7769897, 33.5686386 ], [ 130.77287579999998, 33.5707828 ], [ 130.7753161, 33.5747333 ], [ 130.7643708, 33.5821392 ] ] ] ] } },
{ "type": "Feature", "properties": { "hokenjo": "久留米市" }, "geometry": { "type": "MultiPolygon", "coordinates": [ [ [ [ 130.6667938, 33.3621927 ], [ 130.6505899, 33.3628468 ], [ 130.640158, 33.3584696 ], [ 130.631333, 33.3528401 ], [ 130.6274252, 33.3622035 ], [ 130.6293996, 33.3668715 ], [ 130.6152701, 33.367423 ], [ 130.6117452, 33.3655851 ], [ 130.6055499, 33.3674893 ], [ 130.5784305, 33.3670729 ], [ 130.577187, 33.3596491 ], [ 130.570642099999986, 33.3552151 ], [ 130.562334, 33.3552079 ], [ 130.557148499999983, 33.3505509 ], [ 130.5502218, 33.3483842 ], [ 130.550339899999983, 33.3454231 ], [ 130.5407923, 33.3456731 ], [ 130.5359785, 33.3429623 ], [ 130.531914799999981, 33.3446073 ], [ 130.5268012, 33.3402151 ], [ 130.5195512, 33.3404906 ], [ 130.5120959, 33.3440623 ], [ 130.506744, 33.3411592 ], [ 130.505649799999986, 33.3310667 ], [ 130.4994556, 33.3255759 ], [ 130.4840973, 33.3329184 ], [ 130.4781184, 33.3291712 ], [ 130.4769918, 33.3260037 ], [ 130.4830231, 33.3206184 ], [ 130.4875109, 33.3197087 ], [ 130.489394799999985, 33.3159292 ], [ 130.4849012, 33.306217 ], [ 130.4782559, 33.3043412 ], [ 130.466710899999981, 33.3047515 ], [ 130.4580181, 33.3032742 ], [ 130.4556112, 33.3008109 ], [ 130.4562345, 33.2937915 ], [ 130.466226399999982, 33.2903303 ], [ 130.46801, 33.2877784 ], [ 130.4648647, 33.2848565 ], [ 130.4529547, 33.2829481 ], [ 130.4487253, 33.2784078 ], [ 130.4482028, 33.2747492 ], [ 130.4505906, 33.2700562 ], [ 130.4497461, 33.2650976 ], [ 130.442458099999982, 33.264027 ], [ 130.4362298, 33.2697942 ], [ 130.4350842, 33.2758837 ], [ 130.437874699999981, 33.283797 ], [ 130.438495, 33.2893769 ], [ 130.43378, 33.2924503 ], [ 130.4268703, 33.2901437 ], [ 130.429872, 33.2862237 ], [ 130.4309461, 33.2805323 ], [ 130.4297278, 33.2745998 ], [ 130.4263234, 33.2706148 ], [ 130.4208428, 33.2718506 ], [ 130.417059199999983, 33.2672501 ], [ 130.4195092, 33.2616034 ], [ 130.4148959, 33.252649 ], [ 130.411351200000013, 33.2501545 ], [ 130.402096199999988, 33.2486515 ], [ 130.4000182, 33.2590998 ], [ 130.391979599999985, 33.2602287 ], [ 130.388965399999989, 33.2571192 ], [ 130.3910735, 33.2493587 ], [ 130.3903082, 33.2453037 ], [ 130.38520459999998, 33.2404612 ], [ 130.391629599999987, 33.238547 ], [ 130.395389699999981, 33.2322699 ], [ 130.4012296, 33.2297342 ], [ 130.411805099999981, 33.2324795 ], [ 130.4142999, 33.2284101 ], [ 130.4123885, 33.2247206 ], [ 130.4176479, 33.22611 ], [ 130.423139099999986, 33.2239735 ], [ 130.425499299999984, 33.2301146 ], [ 130.4375107, 33.2289165 ], [ 130.4353362, 33.2368923 ], [ 130.4422496, 33.2371749 ], [ 130.441574799999984, 33.2442367 ], [ 130.4439045, 33.2452115 ], [ 130.448587799999984, 33.2417714 ], [ 130.4579848, 33.2369095 ], [ 130.458507, 33.2298676 ], [ 130.4612198, 33.2242576 ], [ 130.4637009, 33.2241062 ], [ 130.4658126, 33.2280912 ], [ 130.469257, 33.2280853 ], [ 130.4722217, 33.2335398 ], [ 130.4748462, 33.232562 ], [ 130.478489199999984, 33.2417967 ], [ 130.4820492, 33.2398773 ], [ 130.4873136, 33.2436792 ], [ 130.4955081, 33.2439298 ], [ 130.5006009, 33.2466781 ], [ 130.5051095, 33.2446826 ], [ 130.5083295, 33.2469609 ], [ 130.5120517, 33.2535531 ], [ 130.5128661, 33.2601356 ], [ 130.5169789, 33.2583284 ], [ 130.5241378, 33.2587279 ], [ 130.526482499999986, 33.2602915 ], [ 130.5311485, 33.2580251 ], [ 130.535462, 33.2596508 ], [ 130.5345523, 33.2626493 ], [ 130.5459306, 33.2601498 ], [ 130.5569323, 33.2647601 ], [ 130.566109499999982, 33.2663835 ], [ 130.568243699999982, 33.2737901 ], [ 130.5756218, 33.2766265 ], [ 130.5797837, 33.2749137 ], [ 130.5871488, 33.2686232 ], [ 130.593424299999981, 33.2726782 ], [ 130.602114299999982, 33.274481 ], [ 130.6077891, 33.2804319 ], [ 130.613944900000035, 33.2827124 ], [ 130.616754899999989, 33.2861783 ], [ 130.6165852, 33.2908694 ], [ 130.6223449, 33.2926871 ], [ 130.6278558, 33.2917988 ], [ 130.6314138, 33.2964991 ], [ 130.637445499999984, 33.2988624 ], [ 130.646831, 33.2978346 ], [ 130.654443499999985, 33.300567099999988 ], [ 130.6633419, 33.3022388 ], [ 130.677290699999986, 33.3035405 ], [ 130.680351299999984, 33.3024833 ], [ 130.688526, 33.3040286 ], [ 130.689464, 33.3059838 ], [ 130.698749599999985, 33.3051927 ], [ 130.7053129, 33.3063961 ], [ 130.724037, 33.3021364 ], [ 130.7287412, 33.3026588 ], [ 130.7251437, 33.3211177 ], [ 130.723464799999988, 33.3247194 ], [ 130.7238026, 33.3377724 ], [ 130.726355399999989, 33.3401885 ], [ 130.7311257, 33.3401285 ], [ 130.7309565, 33.3469424 ], [ 130.726196499999986, 33.3471477 ], [ 130.7254729, 33.3510138 ], [ 130.7183506, 33.3530916 ], [ 130.7189156, 33.3559307 ], [ 130.725817799999987, 33.3577315 ], [ 130.7277662, 33.3528143 ], [ 130.731175899999982, 33.3532371 ], [ 130.731766199999981, 33.3590485 ], [ 130.7226995, 33.3608846 ], [ 130.7196754, 33.3592188 ], [ 130.707708699999984, 33.3601888 ], [ 130.7054795, 33.3641488 ], [ 130.7001773, 33.362086 ], [ 130.684199600000028, 33.3627927 ], [ 130.672966, 33.361561 ], [ 130.6667938, 33.3621927 ] ] ] ] } },
{ "type": "Feature", "properties": { "hokenjo": "京築" }, "geometry": { "type": "MultiPolygon", "coordinates": [ [ [ [ 131.1731614, 33.578235 ], [ 131.171996399999983, 33.5884217 ], [ 131.1783797, 33.5968175 ], [ 131.177915600000034, 33.6048247 ], [ 131.1850967, 33.6157653 ], [ 131.1847903, 33.6204146 ], [ 131.1786908, 33.6212609 ], [ 131.1661777, 33.6168798 ], [ 131.1617741, 33.6164604 ], [ 131.1549895, 33.6195521 ], [ 131.153865199999984, 33.6216141 ], [ 131.147511899999984, 33.6226536 ], [ 131.1447009, 33.6254293 ], [ 131.131829, 33.6269232 ], [ 131.1239526, 33.6263163 ], [ 131.120713599999988, 33.6304013 ], [ 131.1150017, 33.6305223 ], [ 131.1133773, 33.6239102 ], [ 131.10798459999998, 33.6239099 ], [ 131.109063599999985, 33.6181702 ], [ 131.106567800000022, 33.6169668 ], [ 131.1000774, 33.618090099999989 ], [ 131.0942619, 33.6277894 ], [ 131.0866595, 33.634447699999988 ], [ 131.0840028, 33.6367634 ], [ 131.080351, 33.6480497 ], [ 131.0727364, 33.656531699999988 ], [ 131.067338899999982, 33.6588153 ], [ 131.06578589999998, 33.6650368 ], [ 131.0619117, 33.6723014 ], [ 131.0593336, 33.6730887 ], [ 131.051543, 33.6861363 ], [ 131.0457963, 33.6890952 ], [ 131.0393523, 33.6921151 ], [ 131.034650699999986, 33.702321 ], [ 131.0306343, 33.7054742 ], [ 131.025208, 33.7170484 ], [ 131.021076099999988, 33.7308895 ], [ 131.0148566, 33.7346826 ], [ 131.0179611, 33.7389091 ], [ 131.0163225, 33.7416781 ], [ 131.0193223, 33.7453579 ], [ 131.016169599999984, 33.7507958 ], [ 131.009935499999983, 33.7499701 ], [ 131.011639, 33.7468939 ], [ 131.0083172, 33.7439131 ], [ 131.0041683, 33.7499182 ], [ 131.0008081, 33.7572777 ], [ 131.0177228, 33.7679882 ], [ 131.0116888, 33.7774934 ], [ 130.999273499999987, 33.7693707 ], [ 130.994465, 33.7749 ], [ 131.002997, 33.781048 ], [ 131.003692, 33.7833291 ], [ 130.9982971, 33.7915421 ], [ 131.002434199999982, 33.7941839 ], [ 130.9990368, 33.796658 ], [ 130.9935281, 33.794578099999988 ], [ 130.991063699999984, 33.7891276 ], [ 130.9869323, 33.7920909 ], [ 130.9878502, 33.796514 ], [ 131.00067439999998, 33.801785 ], [ 130.9988191, 33.8071005 ], [ 131.0044547, 33.8062488 ], [ 131.0154617, 33.8114135 ], [ 131.0117692, 33.8195906 ], [ 130.9852608, 33.8102565 ], [ 130.9812971, 33.8106303 ], [ 130.9744364, 33.8052442 ], [ 130.960333099999986, 33.7907917 ], [ 130.9577208, 33.7908106 ], [ 130.95327469999998, 33.7808581 ], [ 130.944810599999983, 33.7778292 ], [ 130.9410239, 33.7782883 ], [ 130.9337439, 33.7758464 ], [ 130.9267764, 33.7798356 ], [ 130.916411899999986, 33.7749228 ], [ 130.9166167, 33.7712233 ], [ 130.910086799999988, 33.7668333 ], [ 130.9134161, 33.7566992 ], [ 130.9095089, 33.7510558 ], [ 130.9100406, 33.748877799999988 ], [ 130.9072261, 33.7460028 ], [ 130.9022583, 33.7532061 ], [ 130.8986617, 33.7470689 ], [ 130.8970061, 33.7409339 ], [ 130.8946828, 33.7389931 ], [ 130.894338299999987, 33.7341436 ], [ 130.8917692, 33.73542 ], [ 130.8894558, 33.7424553 ], [ 130.87819, 33.7417147 ], [ 130.867835, 33.7342928 ], [ 130.867580299999986, 33.7305522 ], [ 130.8697764, 33.7227039 ], [ 130.8691442, 33.7150728 ], [ 130.8724244, 33.70511 ], [ 130.878438599999981, 33.6995953 ], [ 130.875216699999982, 33.6938481 ], [ 130.8755119, 33.6888131 ], [ 130.8825017, 33.6818581 ], [ 130.889738599999987, 33.669055 ], [ 130.8858108, 33.6609242 ], [ 130.8822853, 33.65774 ], [ 130.8848319, 33.6522478 ], [ 130.890531399999986, 33.6499094 ], [ 130.892633599999982, 33.6443289 ], [ 130.890294200000028, 33.6414833 ], [ 130.89356, 33.6359086 ], [ 130.902600299999989, 33.6397497 ], [ 130.908230299999985, 33.6366997 ], [ 130.9063167, 33.633785 ], [ 130.9058028, 33.6269333 ], [ 130.89801079999998, 33.61485 ], [ 130.902971899999983, 33.6103231 ], [ 130.9030053, 33.6041886 ], [ 130.9113117, 33.5957231 ], [ 130.9113519, 33.5894889 ], [ 130.918247799999989, 33.5864397 ], [ 130.9221847, 33.5749497 ], [ 130.920950799999986, 33.5651925 ], [ 130.923644199999984, 33.5604542 ], [ 130.9220267, 33.5574514 ], [ 130.9200706, 33.551855 ], [ 130.9269397, 33.5409606 ], [ 130.9331622, 33.5324589 ], [ 130.9312117, 33.5254794 ], [ 130.935037199999982, 33.5197725 ], [ 130.9351125, 33.5132219 ], [ 130.940219399999989, 33.5091325 ], [ 130.937958899999984, 33.4992217 ], [ 130.9471608, 33.4955356 ], [ 130.949887499999988, 33.4876692 ], [ 130.9561022, 33.4919764 ], [ 130.961586899999986, 33.4935825 ], [ 130.962606099999988, 33.4976908 ], [ 130.9696911, 33.5005106 ], [ 130.9723158, 33.5051542 ], [ 130.9815233, 33.5077608 ], [ 130.9866328, 33.5073272 ], [ 130.9899517, 33.5091406 ], [ 130.9976239, 33.5101133 ], [ 131.0014381, 33.5121756 ], [ 131.0151578, 33.5090675 ], [ 131.0193769, 33.5126028 ], [ 131.02679, 33.5139233 ], [ 131.0298369, 33.5188333 ], [ 131.0357392, 33.5190731 ], [ 131.0423506, 33.5140106 ], [ 131.0533117, 33.5078919 ], [ 131.0630975, 33.5102033 ], [ 131.0676508, 33.5090564 ], [ 131.0697386, 33.5067878 ], [ 131.0796547, 33.5053456 ], [ 131.0937006, 33.5073664 ], [ 131.100535, 33.5047553 ], [ 131.105507499999987, 33.5077561 ], [ 131.1189719, 33.5020825 ], [ 131.1301928, 33.5024242 ], [ 131.1336253, 33.5057733 ], [ 131.1415839, 33.5046392 ], [ 131.1546592, 33.5060719 ], [ 131.1557992, 33.5078669 ], [ 131.163157499999983, 33.5084608 ], [ 131.1671561, 33.5055942 ], [ 131.1759544, 33.5065581 ], [ 131.1741386, 33.5126233 ], [ 131.1680614, 33.5161542 ], [ 131.1697111, 33.5211619 ], [ 131.166710599999988, 33.5287125 ], [ 131.176753599999984, 33.5343961 ], [ 131.1868992, 33.5440383 ], [ 131.1905697, 33.5580253 ], [ 131.189403299999981, 33.5630758 ], [ 131.1861625, 33.5678636 ], [ 131.1760242, 33.5747183 ], [ 131.1731614, 33.578235 ] ] ], [ [ [ 131.0418608, 33.8212556 ], [ 131.0389854, 33.8355993 ], [ 131.0292813, 33.8342184 ], [ 131.0322702, 33.8199316 ], [ 131.0418608, 33.8212556 ] ] ] ] } },
{ "type": "Feature", "properties": { "hokenjo": "糸島" }, "geometry": { "type": "MultiPolygon", "coordinates": [ [ [ [ 130.197838599999983, 33.6397516 ], [ 130.1843965, 33.6326035 ], [ 130.1803959, 33.6329263 ], [ 130.1752845, 33.6298862 ], [ 130.1685798, 33.6302954 ], [ 130.167446899999987, 33.6325616 ], [ 130.1568742, 33.628141 ], [ 130.1541766, 33.6211226 ], [ 130.157934399999988, 33.6151398 ], [ 130.161956, 33.6126373 ], [ 130.1608334, 33.6084361 ], [ 130.1542796, 33.6012317 ], [ 130.1487506, 33.5966641 ], [ 130.137612599999983, 33.591544 ], [ 130.128016299999985, 33.5898499 ], [ 130.1176198, 33.591588 ], [ 130.108006, 33.5963384 ], [ 130.1062751, 33.5928203 ], [ 130.1087014, 33.5879191 ], [ 130.1059974, 33.5847987 ], [ 130.102544, 33.5875452 ], [ 130.092117299999984, 33.5852197 ], [ 130.088842799999981, 33.5833374 ], [ 130.0882369, 33.5777846 ], [ 130.0972765, 33.574262 ], [ 130.0987127, 33.5693624 ], [ 130.097698, 33.5643896 ], [ 130.100649, 33.5636022 ], [ 130.1067563, 33.5669931 ], [ 130.108290499999981, 33.5700215 ], [ 130.11538059999998, 33.5718901 ], [ 130.119676199999986, 33.5746043 ], [ 130.126182199999988, 33.5725134 ], [ 130.130365899999987, 33.566977 ], [ 130.1349964, 33.566310099999988 ], [ 130.134661199999982, 33.5613432 ], [ 130.1321422, 33.5586685 ], [ 130.1201902, 33.5583674 ], [ 130.1171329, 33.553806 ], [ 130.11610109999998, 33.5467406 ], [ 130.120147700000018, 33.5478856 ], [ 130.1261442, 33.5568126 ], [ 130.1348443, 33.5558681 ], [ 130.1413164, 33.5498962 ], [ 130.1468901, 33.5513256 ], [ 130.155654199999987, 33.5600332 ], [ 130.1641062, 33.561034 ], [ 130.165255699999989, 33.5550221 ], [ 130.1625986, 33.5489241 ], [ 130.158511299999986, 33.5484396 ], [ 130.1590089, 33.5446867 ], [ 130.1545596, 33.5427568 ], [ 130.1538921, 33.5370588 ], [ 130.1431843, 33.5348809 ], [ 130.1420604, 33.5324457 ], [ 130.1346863, 33.5286643 ], [ 130.130673799999983, 33.5289966 ], [ 130.1250416, 33.5244945 ], [ 130.1320356, 33.5227553 ], [ 130.1330678, 33.517384 ], [ 130.126801, 33.5100447 ], [ 130.1193663, 33.5077763 ], [ 130.114222899999987, 33.5077101 ], [ 130.112104, 33.5099537 ], [ 130.1061872, 33.509685 ], [ 130.1026211, 33.512923 ], [ 130.094726399999985, 33.5070816 ], [ 130.085982, 33.5050004 ], [ 130.0839109, 33.5062594 ], [ 130.0783504, 33.5034456 ], [ 130.0706619, 33.5025833 ], [ 130.0628724, 33.4979791 ], [ 130.048428699999988, 33.4952263 ], [ 130.04886639999998, 33.4874299 ], [ 130.0422954, 33.4787209 ], [ 130.040739, 33.4707587 ], [ 130.044925, 33.4674372 ], [ 130.050621399999983, 33.4693506 ], [ 130.0605986, 33.4703644 ], [ 130.0680692, 33.4725042 ], [ 130.073554699999988, 33.4691536 ], [ 130.088920799999983, 33.4686742 ], [ 130.098417499999982, 33.4698411 ], [ 130.1020344, 33.4717378 ], [ 130.1031303, 33.4758867 ], [ 130.1179947, 33.4750619 ], [ 130.129739699999988, 33.4755536 ], [ 130.1388006, 33.4704356 ], [ 130.1425447, 33.4743122 ], [ 130.148496699999981, 33.4772897 ], [ 130.1567672, 33.4767225 ], [ 130.163929199999984, 33.4723456 ], [ 130.1648606, 33.46918 ], [ 130.1759347, 33.4659231 ], [ 130.1827992, 33.4666481 ], [ 130.1886303, 33.4708236 ], [ 130.18867, 33.4747044 ], [ 130.194531399999988, 33.4761089 ], [ 130.197955, 33.4793442 ], [ 130.2055867, 33.4814042 ], [ 130.2233422, 33.4782794 ], [ 130.22680219999998, 33.4766953 ], [ 130.233427500000033, 33.4788692 ], [ 130.238231399999989, 33.4740261 ], [ 130.2442006, 33.4744056 ], [ 130.246408299999985, 33.4714592 ], [ 130.2523703, 33.4709636 ], [ 130.2575047, 33.4760731 ], [ 130.2721139, 33.4793511 ], [ 130.273529400000029, 33.4837439 ], [ 130.27269, 33.4881819 ], [ 130.2760156, 33.4894819 ], [ 130.271888099999984, 33.4951111 ], [ 130.2778883, 33.50161 ], [ 130.2795069, 33.5066556 ], [ 130.285607199999987, 33.5070678 ], [ 130.2917986, 33.5130061 ], [ 130.2922106, 33.5190714 ], [ 130.2882069, 33.5226189 ], [ 130.2873142, 33.5262517 ], [ 130.28924809999998, 33.5313189 ], [ 130.2886475, 33.5386419 ], [ 130.2838092, 33.5395275 ], [ 130.2775806, 33.5440275 ], [ 130.2697408, 33.5472275 ], [ 130.2664403, 33.5500072 ], [ 130.265583099999986, 33.5565647 ], [ 130.2575072, 33.5552281 ], [ 130.254517199999981, 33.5578056 ], [ 130.2497392, 33.55604 ], [ 130.2452217, 33.5577036 ], [ 130.2404314, 33.5517275 ], [ 130.2362661, 33.5553639 ], [ 130.2393844, 33.5589039 ], [ 130.2366561, 33.5664253 ], [ 130.239333099999982, 33.5674439 ], [ 130.2410672, 33.5730767 ], [ 130.237710599999986, 33.5804408 ], [ 130.226699699999983, 33.5813931 ], [ 130.2226286, 33.5794364 ], [ 130.2191872, 33.5805561 ], [ 130.211787499999986, 33.588985 ], [ 130.2097231, 33.5965475 ], [ 130.2101192, 33.6060533 ], [ 130.2059567, 33.6095433 ], [ 130.204968899999983, 33.6227097 ], [ 130.2067367, 33.6285414 ], [ 130.2039036, 33.6317236 ], [ 130.2039819, 33.635245 ], [ 130.197838599999983, 33.6397516 ] ] ], [ [ [ 130.04760109999998, 33.5757755 ], [ 130.0441858, 33.5724243 ], [ 130.0448776, 33.5687531 ], [ 130.050230299999981, 33.5656526 ], [ 130.054062, 33.5709761 ], [ 130.0529631, 33.5746204 ], [ 130.04760109999998, 33.5757755 ] ] ] ] } },
{ "type": "Feature", "properties": { "hokenjo": "宗像・遠賀" }, "geometry": { "type": "MultiPolygon", "coordinates": [ [ [ [ 130.5528544, 33.737645 ], [ 130.5523619, 33.7443817 ], [ 130.5551106, 33.7505153 ], [ 130.5596725, 33.7549075 ], [ 130.5780028, 33.7557889 ], [ 130.5844081, 33.7568461 ], [ 130.584606899999983, 33.7597917 ], [ 130.5913928, 33.7617883 ], [ 130.5985167, 33.7619286 ], [ 130.6041275, 33.7645808 ], [ 130.6008775, 33.7706133 ], [ 130.605417499999987, 33.7770078 ], [ 130.613328599999988, 33.7774272 ], [ 130.61542559999998, 33.7816117 ], [ 130.619187499999981, 33.7830553 ], [ 130.6230161, 33.7809772 ], [ 130.6324319, 33.7801764 ], [ 130.6313269, 33.7850014 ], [ 130.6335583, 33.7906117 ], [ 130.6398156, 33.7906181 ], [ 130.634062199999988, 33.8001428 ], [ 130.6331811, 33.804195 ], [ 130.636581399999983, 33.80656 ], [ 130.635967199999982, 33.8127461 ], [ 130.641424199999989, 33.8090692 ], [ 130.6490058, 33.8096367 ], [ 130.653206900000015, 33.8158689 ], [ 130.6579906, 33.8191467 ], [ 130.669753899999989, 33.8196283 ], [ 130.674491099999983, 33.8215222 ], [ 130.6787942, 33.8165608 ], [ 130.6806517, 33.8110869 ], [ 130.687897199999981, 33.812615 ], [ 130.6923325, 33.80688 ], [ 130.7005719, 33.806468099999989 ], [ 130.7035622, 33.8012636 ], [ 130.7066983, 33.8044033 ], [ 130.7165489, 33.8072969 ], [ 130.7217358, 33.8065789 ], [ 130.7252667, 33.8032697 ], [ 130.7311081, 33.812575599999988 ], [ 130.7384319, 33.8137756 ], [ 130.7430697, 33.8160769 ], [ 130.742847499999982, 33.8200147 ], [ 130.733801400000033, 33.8224742 ], [ 130.7297094, 33.8253458 ], [ 130.7288017, 33.830691699999988 ], [ 130.7184581, 33.8344494 ], [ 130.7208594, 33.8391383 ], [ 130.718462499999987, 33.8441522 ], [ 130.713115, 33.8467022 ], [ 130.7124689, 33.8493669 ], [ 130.706140799999986, 33.8527244 ], [ 130.7041575, 33.8576125 ], [ 130.700558299999983, 33.8575397 ], [ 130.699078899999989, 33.8623083 ], [ 130.6933047, 33.8677664 ], [ 130.694933599999985, 33.8720789 ], [ 130.6923381, 33.8783061 ], [ 130.687766899999986, 33.8804283 ], [ 130.682343299999985, 33.88807 ], [ 130.6816694, 33.8888117 ], [ 130.685228599999988, 33.8933597 ], [ 130.6855103, 33.8973808 ], [ 130.675468599999988, 33.9067836 ], [ 130.677965, 33.9122489 ], [ 130.6767078, 33.9162003 ], [ 130.6731978, 33.9186805 ], [ 130.662137799999982, 33.913351899999988 ], [ 130.6649419, 33.9096487 ], [ 130.6616761, 33.9075767 ], [ 130.663242, 33.9011423 ], [ 130.6534596, 33.8948861 ], [ 130.651464399999981, 33.892341 ], [ 130.635642600000011, 33.8854259 ], [ 130.6296615, 33.8832562 ], [ 130.6061099, 33.878778 ], [ 130.590982699999984, 33.8778444 ], [ 130.5770961, 33.8784407 ], [ 130.569695199999984, 33.880331 ], [ 130.5655605, 33.8846374 ], [ 130.562679, 33.8901627 ], [ 130.555331699999982, 33.8907663 ], [ 130.544430899999981, 33.8879805 ], [ 130.542943399999984, 33.8890857 ], [ 130.5407502, 33.8877801 ], [ 130.5292847, 33.8878739 ], [ 130.5297931, 33.8810359 ], [ 130.5282353, 33.8733737 ], [ 130.52145, 33.8631065 ], [ 130.511422399999987, 33.856872 ], [ 130.4956889, 33.8520466 ], [ 130.4879635, 33.8509895 ], [ 130.4819655, 33.8534572 ], [ 130.4797443, 33.8507 ], [ 130.4818845, 33.8493667 ], [ 130.4819939, 33.8432303 ], [ 130.478152, 33.8279027 ], [ 130.4734852, 33.8188466 ], [ 130.4657863, 33.8117301 ], [ 130.4520023, 33.8108142 ], [ 130.448322599999983, 33.8171238 ], [ 130.443964099999988, 33.8154136 ], [ 130.446327699999983, 33.8091162 ], [ 130.449838699999987, 33.8063046 ], [ 130.451203, 33.8016173 ], [ 130.4456735, 33.7948518 ], [ 130.445900599999987, 33.790722 ], [ 130.4503236, 33.7848401 ], [ 130.4610846, 33.7883517 ], [ 130.4657291, 33.785678 ], [ 130.469662299999982, 33.7787343 ], [ 130.470814099999984, 33.7742027 ], [ 130.468824399999988, 33.7580963 ], [ 130.4674091, 33.7537526 ], [ 130.4774372, 33.7515161 ], [ 130.480781399999984, 33.7519569 ], [ 130.4892482, 33.7473424 ], [ 130.4985753, 33.7452517 ], [ 130.509186900000032, 33.7403447 ], [ 130.5132878, 33.7407739 ], [ 130.5410211, 33.7379297 ], [ 130.5422289, 33.7349167 ], [ 130.5477369, 33.7306117 ], [ 130.5488511, 33.7340808 ], [ 130.5528544, 33.737645 ] ] ], [ [ [ 130.447771599999982, 33.9124446 ], [ 130.443727, 33.9153511 ], [ 130.4385735, 33.9154407 ], [ 130.4305627, 33.913469 ], [ 130.428227199999981, 33.9093211 ], [ 130.419155, 33.9125744 ], [ 130.409715299999988, 33.9105497 ], [ 130.407107599999989, 33.896496 ], [ 130.4101681, 33.8927636 ], [ 130.4265057, 33.8869034 ], [ 130.4307052, 33.8881408 ], [ 130.432487, 33.895857 ], [ 130.437531899999982, 33.9020004 ], [ 130.447771599999982, 33.9124446 ] ] ], [ [ [ 130.5065062, 33.9009699 ], [ 130.4989995, 33.9065064 ], [ 130.4967144, 33.9121097 ], [ 130.488999899999982, 33.9134918 ], [ 130.4876257, 33.9120933 ], [ 130.4948588, 33.9047294 ], [ 130.4957191, 33.8992199 ], [ 130.5012198, 33.8952954 ], [ 130.505636, 33.8970347 ], [ 130.5065062, 33.9009699 ] ] ], [ [ [ 130.098122, 34.241851499999989 ], [ 130.1050071, 34.2395618 ], [ 130.11245, 34.2462567 ], [ 130.1121588, 34.2498371 ], [ 130.1034982, 34.2488339 ], [ 130.098122, 34.241851499999989 ] ] ] ] } },
{ "type": "Feature", "properties": { "hokenjo": "筑紫" }, "geometry": { "type": "MultiPolygon", "coordinates": [ [ [ [ 130.45800939999998, 33.425015 ], [ 130.4614133, 33.4282372 ], [ 130.4743761, 33.435465 ], [ 130.480071899999984, 33.4361272 ], [ 130.491116399999981, 33.4397061 ], [ 130.49591, 33.4447669 ], [ 130.50353579999998, 33.4469258 ], [ 130.5096317, 33.4437986 ], [ 130.5111322, 33.4491128 ], [ 130.5218181, 33.4460467 ], [ 130.533685, 33.44146 ], [ 130.536470799999989, 33.4389819 ], [ 130.540492299999983, 33.4415647 ], [ 130.5496297, 33.4407606 ], [ 130.5523119, 33.4436744 ], [ 130.553595799999982, 33.4499292 ], [ 130.5614942, 33.4476625 ], [ 130.5714078, 33.4428539 ], [ 130.572398099999987, 33.4408181 ], [ 130.5797656, 33.4369711 ], [ 130.5846194, 33.4410267 ], [ 130.5755714, 33.4451133 ], [ 130.570639199999988, 33.4526608 ], [ 130.5656672, 33.4567656 ], [ 130.562015799999983, 33.4627578 ], [ 130.5622258, 33.4735608 ], [ 130.5663203, 33.4768897 ], [ 130.5715625, 33.4743147 ], [ 130.5800864, 33.472732799999989 ], [ 130.5882789, 33.4814236 ], [ 130.589019399999984, 33.4857342 ], [ 130.6019892, 33.4891356 ], [ 130.6041564, 33.4914772 ], [ 130.6101636, 33.4928083 ], [ 130.6100097, 33.4959214 ], [ 130.618576099999984, 33.5045992 ], [ 130.6214464, 33.5060989 ], [ 130.6181847, 33.5159642 ], [ 130.612248599999987, 33.517125 ], [ 130.6099106, 33.5195272 ], [ 130.6120947, 33.5252025 ], [ 130.597841099999982, 33.5384975 ], [ 130.5945089, 33.5428414 ], [ 130.595596699999987, 33.5456675 ], [ 130.586331699999988, 33.5519053 ], [ 130.584088899999983, 33.5546767 ], [ 130.5794189, 33.5531714 ], [ 130.5752192, 33.5447681 ], [ 130.5721556, 33.5424769 ], [ 130.565516699999989, 33.545110799999989 ], [ 130.5574583, 33.5521375 ], [ 130.549194699999987, 33.5564408 ], [ 130.5406719, 33.5549056 ], [ 130.5416756, 33.5492764 ], [ 130.534246699999983, 33.5437819 ], [ 130.5289167, 33.5427533 ], [ 130.5294419, 33.5359767 ], [ 130.52016, 33.5298139 ], [ 130.5143458, 33.5334283 ], [ 130.5143208, 33.5369756 ], [ 130.5082917, 33.5426661 ], [ 130.5093833, 33.5472197 ], [ 130.5030242, 33.5502669 ], [ 130.504303599999986, 33.5543939 ], [ 130.5019183, 33.5597125 ], [ 130.4987664, 33.5606661 ], [ 130.489171699999986, 33.558624699999989 ], [ 130.4856694, 33.5601864 ], [ 130.477838099999985, 33.5525253 ], [ 130.473701399999982, 33.5531719 ], [ 130.4667144, 33.5627858 ], [ 130.462171899999987, 33.5606969 ], [ 130.4693106, 33.5530247 ], [ 130.4684206, 33.5478042 ], [ 130.4711078, 33.5440967 ], [ 130.4689314, 33.5378936 ], [ 130.463394699999981, 33.5358414 ], [ 130.4596386, 33.5393481 ], [ 130.452167799999984, 33.5488161 ], [ 130.446064299999989, 33.5477317 ], [ 130.4396447, 33.5429069 ], [ 130.4403175, 33.5376531 ], [ 130.4430183, 33.5332278 ], [ 130.435812199999987, 33.52892 ], [ 130.437405, 33.5252156 ], [ 130.4340456, 33.5229056 ], [ 130.428356399999984, 33.5226747 ], [ 130.426803899999982, 33.5303897 ], [ 130.420728100000019, 33.5277908 ], [ 130.4165769, 33.5234869 ], [ 130.410755599999987, 33.5222625 ], [ 130.403925, 33.5185006 ], [ 130.4039439, 33.5135694 ], [ 130.3984356, 33.5130697 ], [ 130.396159399999988, 33.5071006 ], [ 130.385899199999983, 33.5070978 ], [ 130.3820622, 33.5055297 ], [ 130.377201899999989, 33.5082028 ], [ 130.3712328, 33.504775 ], [ 130.3783786, 33.4974928 ], [ 130.3814178, 33.4871203 ], [ 130.3812681, 33.4803814 ], [ 130.3830347, 33.4752386 ], [ 130.388018099999982, 33.4664619 ], [ 130.3858122, 33.4621011 ], [ 130.3879636, 33.4547972 ], [ 130.3993547, 33.4487908 ], [ 130.3988697, 33.4452797 ], [ 130.4043814, 33.4406042 ], [ 130.4031175, 33.4380819 ], [ 130.3959858, 33.440255 ], [ 130.3961636, 33.4274056 ], [ 130.404766099999989, 33.4162414 ], [ 130.407458599999984, 33.4154939 ], [ 130.415093300000024, 33.4092889 ], [ 130.407683099999986, 33.3986042 ], [ 130.4109458, 33.3954492 ], [ 130.419005800000036, 33.401120299999988 ], [ 130.4218756, 33.3985 ], [ 130.4287572, 33.3968758 ], [ 130.43835, 33.4003383 ], [ 130.4370358, 33.4048522 ], [ 130.441229199999981, 33.4102011 ], [ 130.442213899999985, 33.4156336 ], [ 130.446683900000011, 33.4185753 ], [ 130.4582608, 33.4199753 ], [ 130.45800939999998, 33.425015 ] ] ] ] } },
{ "type": "Feature", "properties": { "hokenjo": "田川" }, "geometry": { "type": "MultiPolygon", "coordinates": [ [ [ [ 130.9200706, 33.551855 ], [ 130.9220267, 33.5574514 ], [ 130.923644199999984, 33.5604542 ], [ 130.920950799999986, 33.5651925 ], [ 130.9221847, 33.5749497 ], [ 130.918247799999989, 33.5864397 ], [ 130.9113519, 33.5894889 ], [ 130.9113117, 33.5957231 ], [ 130.9030053, 33.6041886 ], [ 130.902971899999983, 33.6103231 ], [ 130.89801079999998, 33.61485 ], [ 130.9058028, 33.6269333 ], [ 130.9063167, 33.633785 ], [ 130.908230299999985, 33.6366997 ], [ 130.902600299999989, 33.6397497 ], [ 130.89356, 33.6359086 ], [ 130.890294200000028, 33.6414833 ], [ 130.892633599999982, 33.6443289 ], [ 130.890531399999986, 33.6499094 ], [ 130.8848319, 33.6522478 ], [ 130.8822853, 33.65774 ], [ 130.8858108, 33.6609242 ], [ 130.889738599999987, 33.669055 ], [ 130.8825017, 33.6818581 ], [ 130.8755119, 33.6888131 ], [ 130.875216699999982, 33.6938481 ], [ 130.878438599999981, 33.6995953 ], [ 130.8724244, 33.70511 ], [ 130.8691442, 33.7150728 ], [ 130.8697764, 33.7227039 ], [ 130.867580299999986, 33.7305522 ], [ 130.867835, 33.7342928 ], [ 130.8629436, 33.7363736 ], [ 130.855179199999981, 33.7356969 ], [ 130.8501728, 33.7332242 ], [ 130.847465799999981, 33.7259136 ], [ 130.8445961, 33.7244075 ], [ 130.837665, 33.7256964 ], [ 130.8269392, 33.72381 ], [ 130.822025, 33.7212639 ], [ 130.82093279999998, 33.7254886 ], [ 130.813961399999982, 33.7280933 ], [ 130.8107822, 33.7335114 ], [ 130.8056372, 33.7346561 ], [ 130.804028599999981, 33.7420358 ], [ 130.797390299999989, 33.7390406 ], [ 130.7920283, 33.7407314 ], [ 130.7885822, 33.7393011 ], [ 130.7820389, 33.7274081 ], [ 130.7738861, 33.7251731 ], [ 130.7732981, 33.72257 ], [ 130.7481933, 33.7159019 ], [ 130.7493078, 33.7111047 ], [ 130.7463519, 33.7085719 ], [ 130.7470908, 33.7044925 ], [ 130.743817200000024, 33.7017586 ], [ 130.7478506, 33.6995908 ], [ 130.755103599999984, 33.6847603 ], [ 130.7519303, 33.6809922 ], [ 130.7512528, 33.6738906 ], [ 130.7530908, 33.6726533 ], [ 130.754232799999983, 33.6652394 ], [ 130.7565131, 33.6640469 ], [ 130.7604936, 33.6543244 ], [ 130.7572817, 33.6503672 ], [ 130.7538558, 33.6500567 ], [ 130.751618899999983, 33.6437958 ], [ 130.747982799999988, 33.6402703 ], [ 130.751181699999989, 33.6353422 ], [ 130.7504856, 33.6315861 ], [ 130.7543131, 33.6290067 ], [ 130.759240799999986, 33.6218275 ], [ 130.7592936, 33.6185517 ], [ 130.764345, 33.6118389 ], [ 130.7702511, 33.6124569 ], [ 130.7754136, 33.6091403 ], [ 130.7757169, 33.6026656 ], [ 130.7720353, 33.5989597 ], [ 130.772566899999987, 33.5948089 ], [ 130.7651003, 33.5918942 ], [ 130.7620972, 33.5862872 ], [ 130.7643708, 33.5821392 ], [ 130.7753161, 33.5747333 ], [ 130.77287579999998, 33.5707828 ], [ 130.7769897, 33.5686386 ], [ 130.7851444, 33.5683103 ], [ 130.7922869, 33.5601875 ], [ 130.7929097, 33.5559578 ], [ 130.8026686, 33.5472342 ], [ 130.803690599999982, 33.5384017 ], [ 130.80667889999998, 33.5368439 ], [ 130.803652799999981, 33.5173889 ], [ 130.804038599999984, 33.5112606 ], [ 130.8103353, 33.5096714 ], [ 130.8107183, 33.5022622 ], [ 130.8138375, 33.4971161 ], [ 130.8140114, 33.4931369 ], [ 130.817626099999984, 33.4888447 ], [ 130.8213853, 33.4875 ], [ 130.829430299999984, 33.4882053 ], [ 130.837502500000028, 33.4842575 ], [ 130.8428342, 33.4855036 ], [ 130.8477969, 33.4793425 ], [ 130.8420275, 33.4744217 ], [ 130.8362956, 33.4721797 ], [ 130.8360633, 33.4683703 ], [ 130.844362200000035, 33.4621381 ], [ 130.8462389, 33.4572172 ], [ 130.8531547, 33.4476781 ], [ 130.8611886, 33.4468192 ], [ 130.864277499999986, 33.4510344 ], [ 130.8718681, 33.4497233 ], [ 130.8792547, 33.4511919 ], [ 130.8880155, 33.4506426 ], [ 130.890654399999988, 33.4526591 ], [ 130.8994534, 33.4510521 ], [ 130.9002807, 33.4492116 ], [ 130.910534499999983, 33.4497887 ], [ 130.915724499999982, 33.454804 ], [ 130.926285900000011, 33.4576245 ], [ 130.929246399999982, 33.4606255 ], [ 130.9298219, 33.4667014 ], [ 130.942418299999986, 33.4856425 ], [ 130.949887499999988, 33.4876692 ], [ 130.9471608, 33.4955356 ], [ 130.937958899999984, 33.4992217 ], [ 130.940219399999989, 33.5091325 ], [ 130.9351125, 33.5132219 ], [ 130.935037199999982, 33.5197725 ], [ 130.9312117, 33.5254794 ], [ 130.9331622, 33.5324589 ], [ 130.9269397, 33.5409606 ], [ 130.9200706, 33.551855 ] ] ] ] } },
{ "type": "Feature", "properties": { "hokenjo": "南筑後" }, "geometry": { "type": "MultiPolygon", "coordinates": [ [ [ [ 130.5322486, 33.065503 ], [ 130.535367899999983, 33.0780519 ], [ 130.5424534, 33.0817353 ], [ 130.5466312, 33.0805692 ], [ 130.549078399999985, 33.0840797 ], [ 130.552464499999985, 33.082972 ], [ 130.5559561, 33.0860917 ], [ 130.565612499999986, 33.0871056 ], [ 130.5654266, 33.0916334 ], [ 130.561199499999987, 33.0959125 ], [ 130.5617959, 33.1041892 ], [ 130.570799699999981, 33.1067387 ], [ 130.5731611, 33.1117403 ], [ 130.5801989, 33.1160192 ], [ 130.585355199999981, 33.1159881 ], [ 130.589760499999983, 33.1139379 ], [ 130.6010102, 33.1147926 ], [ 130.6070104, 33.1103896 ], [ 130.615551, 33.1085955 ], [ 130.6213426, 33.1112908 ], [ 130.6338393, 33.1131839 ], [ 130.6401299, 33.1133851 ], [ 130.656171699999987, 33.1085211 ], [ 130.6546883, 33.1153963 ], [ 130.6602639, 33.1181066 ], [ 130.6599508, 33.1246797 ], [ 130.663045499999981, 33.1345677 ], [ 130.6689003, 33.1389541 ], [ 130.666308, 33.1433846 ], [ 130.667536899999988, 33.1569549 ], [ 130.6787319, 33.1642424 ], [ 130.6778043, 33.1673896 ], [ 130.680021499999981, 33.1713087 ], [ 130.6852174, 33.1690768 ], [ 130.69308909999998, 33.1599513 ], [ 130.691041600000034, 33.1549458 ], [ 130.6933602, 33.151324699999989 ], [ 130.6971452, 33.153585 ], [ 130.704316299999988, 33.1516589 ], [ 130.7093582, 33.1518447 ], [ 130.712355699999989, 33.1553311 ], [ 130.723008099999987, 33.1519059 ], [ 130.727687299999985, 33.1543295 ], [ 130.734529399999985, 33.1534245 ], [ 130.7374853, 33.1463687 ], [ 130.7417614, 33.1431499 ], [ 130.745373, 33.1428121 ], [ 130.7497544, 33.1389058 ], [ 130.7538697, 33.1374494 ], [ 130.755014099999983, 33.1335356 ], [ 130.758553, 33.1315531 ], [ 130.7639174, 33.1320925 ], [ 130.7652263, 33.1285934 ], [ 130.7708893, 33.124332699999989 ], [ 130.7775557, 33.1232183 ], [ 130.7818796, 33.1248097 ], [ 130.7891768, 33.1240314 ], [ 130.7993543, 33.1203506 ], [ 130.8072793, 33.1158585 ], [ 130.8118215, 33.1166426 ], [ 130.82096869999998, 33.1113527 ], [ 130.8203792, 33.106571 ], [ 130.836597499999982, 33.1052553 ], [ 130.8427117, 33.1055564 ], [ 130.844120299999986, 33.1075075 ], [ 130.853322, 33.1091412 ], [ 130.855648699999989, 33.1130837 ], [ 130.861647299999987, 33.1175278 ], [ 130.8594584, 33.1213669 ], [ 130.8630135, 33.1226889 ], [ 130.8662249, 33.1268475 ], [ 130.86705569999998, 33.1337479 ], [ 130.8709591, 33.1424434 ], [ 130.871325399999989, 33.1475216 ], [ 130.8796463, 33.1529869 ], [ 130.8769585, 33.1594141 ], [ 130.8766182, 33.1646546 ], [ 130.8735279, 33.1678576 ], [ 130.8778471, 33.1741992 ], [ 130.8857183, 33.1762934 ], [ 130.887456899999989, 33.186271399999988 ], [ 130.8748655, 33.1892702 ], [ 130.869599099999988, 33.1938676 ], [ 130.8636774, 33.1930621 ], [ 130.8588751, 33.1980543 ], [ 130.8471946, 33.2031184 ], [ 130.8435546, 33.2072377 ], [ 130.836489, 33.2105999 ], [ 130.8388232, 33.2169287 ], [ 130.844462099999987, 33.2193095 ], [ 130.8450171, 33.2229101 ], [ 130.8493593, 33.2231078 ], [ 130.8595861, 33.2291264 ], [ 130.8525449, 33.2322553 ], [ 130.832929299999989, 33.2341702 ], [ 130.826261499999987, 33.2367633 ], [ 130.8251895, 33.241011 ], [ 130.8274773, 33.2449054 ], [ 130.8248515, 33.2534217 ], [ 130.8194714, 33.2579956 ], [ 130.8144481, 33.25673 ], [ 130.8041494, 33.2625633 ], [ 130.7929138, 33.2636016 ], [ 130.791685799999982, 33.269893 ], [ 130.787153499999988, 33.2707135 ], [ 130.7812894, 33.2686322 ], [ 130.7729224, 33.2754733 ], [ 130.768390499999981, 33.2818496 ], [ 130.751896599999981, 33.2827269 ], [ 130.7472558, 33.2800197 ], [ 130.743325, 33.2807247 ], [ 130.738525600000031, 33.2847153 ], [ 130.729994200000021, 33.2877741 ], [ 130.730270099999984, 33.2921455 ], [ 130.7250904, 33.29597 ], [ 130.724037, 33.3021364 ], [ 130.7053129, 33.3063961 ], [ 130.698749599999985, 33.3051927 ], [ 130.689464, 33.3059838 ], [ 130.688526, 33.3040286 ], [ 130.680351299999984, 33.3024833 ], [ 130.677290699999986, 33.3035405 ], [ 130.6633419, 33.3022388 ], [ 130.654443499999985, 33.300567099999988 ], [ 130.646831, 33.2978346 ], [ 130.637445499999984, 33.2988624 ], [ 130.6314138, 33.2964991 ], [ 130.6278558, 33.2917988 ], [ 130.6223449, 33.2926871 ], [ 130.6165852, 33.2908694 ], [ 130.616754899999989, 33.2861783 ], [ 130.613944900000035, 33.2827124 ], [ 130.6077891, 33.2804319 ], [ 130.602114299999982, 33.274481 ], [ 130.593424299999981, 33.2726782 ], [ 130.5871488, 33.2686232 ], [ 130.5797837, 33.2749137 ], [ 130.5756218, 33.2766265 ], [ 130.568243699999982, 33.2737901 ], [ 130.566109499999982, 33.2663835 ], [ 130.5569323, 33.2647601 ], [ 130.5459306, 33.2601498 ], [ 130.5345523, 33.2626493 ], [ 130.535462, 33.2596508 ], [ 130.5311485, 33.2580251 ], [ 130.526482499999986, 33.2602915 ], [ 130.5241378, 33.2587279 ], [ 130.5169789, 33.2583284 ], [ 130.5128661, 33.2601356 ], [ 130.5120517, 33.2535531 ], [ 130.5083295, 33.2469609 ], [ 130.5051095, 33.2446826 ], [ 130.5006009, 33.2466781 ], [ 130.4955081, 33.2439298 ], [ 130.4873136, 33.2436792 ], [ 130.4820492, 33.2398773 ], [ 130.478489199999984, 33.2417967 ], [ 130.4748462, 33.232562 ], [ 130.4722217, 33.2335398 ], [ 130.469257, 33.2280853 ], [ 130.4658126, 33.2280912 ], [ 130.4637009, 33.2241062 ], [ 130.4612198, 33.2242576 ], [ 130.458507, 33.2298676 ], [ 130.4579848, 33.2369095 ], [ 130.448587799999984, 33.2417714 ], [ 130.4439045, 33.2452115 ], [ 130.441574799999984, 33.2442367 ], [ 130.4422496, 33.2371749 ], [ 130.4353362, 33.2368923 ], [ 130.4375107, 33.2289165 ], [ 130.425499299999984, 33.2301146 ], [ 130.423139099999986, 33.2239735 ], [ 130.4176479, 33.22611 ], [ 130.4123885, 33.2247206 ], [ 130.4142999, 33.2284101 ], [ 130.411805099999981, 33.2324795 ], [ 130.4012296, 33.2297342 ], [ 130.395389699999981, 33.2322699 ], [ 130.391629599999987, 33.238547 ], [ 130.38520459999998, 33.2404612 ], [ 130.3786854, 33.2414659 ], [ 130.3732963, 33.2442648 ], [ 130.370129099999986, 33.2397647 ], [ 130.3706477, 33.2360863 ], [ 130.3790483, 33.2291788 ], [ 130.3788353, 33.2221504 ], [ 130.3761747, 33.2199217 ], [ 130.362058599999983, 33.2152028 ], [ 130.3550292, 33.2092311 ], [ 130.34268609999998, 33.2082814 ], [ 130.3397022, 33.2050172 ], [ 130.340555, 33.1884458 ], [ 130.34274689999998, 33.1882106 ], [ 130.347056399999985, 33.181955 ], [ 130.35312, 33.1804622 ], [ 130.352145, 33.1707964 ], [ 130.35357639999998, 33.1617939 ], [ 130.355926399999987, 33.1538175 ], [ 130.3557841, 33.1403569 ], [ 130.3666667, 33.1390224 ], [ 130.3733095, 33.1412871 ], [ 130.3736834, 33.1355174 ], [ 130.377003900000034, 33.1282392 ], [ 130.372728, 33.1232675 ], [ 130.3733034, 33.1196518 ], [ 130.3881413, 33.1114575 ], [ 130.397663699999981, 33.1078619 ], [ 130.3966437, 33.105454 ], [ 130.3875779, 33.0966069 ], [ 130.389558199999982, 33.0937141 ], [ 130.411729399999984, 33.0866832 ], [ 130.4121883, 33.0811743 ], [ 130.417677699999984, 33.07189 ], [ 130.4252564, 33.0529722 ], [ 130.422368899999981, 33.0511901 ], [ 130.4219287, 33.044836 ], [ 130.419282899999985, 33.0360503 ], [ 130.423106599999983, 33.0295442 ], [ 130.4077534, 33.0173351 ], [ 130.4099984, 33.013314 ], [ 130.414312699999982, 33.016799 ], [ 130.419316, 33.0079046 ], [ 130.4093174, 33.0094366 ], [ 130.396636799999982, 33.0047688 ], [ 130.396722499999981, 33.0000234 ], [ 130.413362399999983, 33.0040211 ], [ 130.4141367, 33.0023138 ], [ 130.424799399999984, 33.0051654 ], [ 130.436248899999981, 33.0050623 ], [ 130.444870899999984, 33.0024704 ], [ 130.450657, 33.0038963 ], [ 130.4684164, 33.0028741 ], [ 130.474590299999988, 33.0014389 ], [ 130.479228399999982, 33.00348 ], [ 130.483968399999981, 33.0016142 ], [ 130.4909276, 33.0030289 ], [ 130.499103599999984, 33.0065601 ], [ 130.507062499999989, 33.0038926 ], [ 130.508727199999981, 33.0074371 ], [ 130.512573299999985, 33.0075757 ], [ 130.515793, 33.0140185 ], [ 130.512903599999987, 33.0167691 ], [ 130.5109525, 33.0231377 ], [ 130.5055783, 33.0260732 ], [ 130.503747, 33.0340571 ], [ 130.5044734, 33.036789 ], [ 130.495035699999988, 33.0486757 ], [ 130.496728499999989, 33.0517579 ], [ 130.5037399, 33.0557504 ], [ 130.5040574, 33.058026 ], [ 130.513092299999983, 33.0615174 ], [ 130.5168737, 33.0655666 ], [ 130.5322486, 33.065503 ] ] ] ] } },
{ "type": "Feature", "properties": { "hokenjo": "粕屋" }, "geometry": { "type": "MultiPolygon", "coordinates": [ [ [ [ 130.566421099999985, 33.5908011 ], [ 130.5629094, 33.5933225 ], [ 130.558137499999987, 33.5994931 ], [ 130.5608344, 33.6001356 ], [ 130.5680883, 33.6069408 ], [ 130.5798192, 33.6026956 ], [ 130.5855386, 33.6030881 ], [ 130.5935297, 33.6087811 ], [ 130.597101899999984, 33.6155764 ], [ 130.591656400000033, 33.6189906 ], [ 130.5844792, 33.6187333 ], [ 130.587330800000018, 33.6259828 ], [ 130.5857658, 33.6323667 ], [ 130.5774556, 33.6378564 ], [ 130.5750586, 33.6380656 ], [ 130.57311439999998, 33.6413892 ], [ 130.566422499999987, 33.6465417 ], [ 130.5690803, 33.6511472 ], [ 130.5739594, 33.6541072 ], [ 130.5752728, 33.6575933 ], [ 130.570528599999989, 33.6632589 ], [ 130.5620492, 33.6657481 ], [ 130.5513094, 33.6680794 ], [ 130.5497336, 33.6731903 ], [ 130.5414164, 33.6763844 ], [ 130.5397597, 33.6813467 ], [ 130.5448867, 33.6938228 ], [ 130.540964699999989, 33.6983475 ], [ 130.5427617, 33.7034272 ], [ 130.541991699999983, 33.7073208 ], [ 130.5447164, 33.7101658 ], [ 130.548288899999989, 33.7176306 ], [ 130.5586892, 33.7200475 ], [ 130.5580847, 33.7236644 ], [ 130.553723099999985, 33.7279731 ], [ 130.5477369, 33.7306117 ], [ 130.5422289, 33.7349167 ], [ 130.5410211, 33.7379297 ], [ 130.5132878, 33.7407739 ], [ 130.509186900000032, 33.7403447 ], [ 130.4985753, 33.7452517 ], [ 130.4892482, 33.7473424 ], [ 130.480781399999984, 33.7519569 ], [ 130.4774372, 33.7515161 ], [ 130.4674091, 33.7537526 ], [ 130.461157499999985, 33.7405138 ], [ 130.458203699999984, 33.7361658 ], [ 130.4470978, 33.7250572 ], [ 130.432169, 33.7161202 ], [ 130.4269832, 33.7152291 ], [ 130.4212727, 33.7184157 ], [ 130.4180025, 33.7125482 ], [ 130.43057, 33.7082439 ], [ 130.4412322, 33.6988694 ], [ 130.447843899999981, 33.6978186 ], [ 130.4501386, 33.6903069 ], [ 130.4551606, 33.6795294 ], [ 130.4640564, 33.6828461 ], [ 130.4687706, 33.6795372 ], [ 130.46717, 33.6735031 ], [ 130.470573299999984, 33.6699497 ], [ 130.4689683, 33.6671308 ], [ 130.4795958, 33.6537747 ], [ 130.4790567, 33.6487386 ], [ 130.490449399999989, 33.6493853 ], [ 130.4945353, 33.6463472 ], [ 130.492175799999984, 33.6418231 ], [ 130.4942898, 33.6347031 ], [ 130.4944942, 33.6318903 ], [ 130.4857983, 33.6267911 ], [ 130.482493799999986, 33.6302786 ], [ 130.4751647, 33.6341861 ], [ 130.4721619, 33.6371986 ], [ 130.466445, 33.6308075 ], [ 130.4596728, 33.6288206 ], [ 130.4571018, 33.6244846 ], [ 130.4540969, 33.6249272 ], [ 130.451614700000022, 33.6188637 ], [ 130.4410856, 33.6126908 ], [ 130.444753099999986, 33.6088836 ], [ 130.4424108, 33.6066778 ], [ 130.4422783, 33.6063947 ], [ 130.4506403, 33.6023944 ], [ 130.4555006, 33.5961688 ], [ 130.4592417, 33.59688 ], [ 130.4634469, 33.5912844 ], [ 130.4692761, 33.5871247 ], [ 130.4775258, 33.5777228 ], [ 130.479382499999986, 33.57259 ], [ 130.4772792, 33.5672108 ], [ 130.4816467, 33.5648811 ], [ 130.485641099999981, 33.5602831 ], [ 130.4856694, 33.5601864 ], [ 130.489171699999986, 33.558624699999989 ], [ 130.4987664, 33.5606661 ], [ 130.5019183, 33.5597125 ], [ 130.504303599999986, 33.5543939 ], [ 130.5030242, 33.5502669 ], [ 130.5093833, 33.5472197 ], [ 130.5082917, 33.5426661 ], [ 130.5143208, 33.5369756 ], [ 130.5143458, 33.5334283 ], [ 130.52016, 33.5298139 ], [ 130.5294419, 33.5359767 ], [ 130.5289167, 33.5427533 ], [ 130.534246699999983, 33.5437819 ], [ 130.5416756, 33.5492764 ], [ 130.5406719, 33.5549056 ], [ 130.549194699999987, 33.5564408 ], [ 130.5574583, 33.5521375 ], [ 130.565516699999989, 33.545110799999989 ], [ 130.5721556, 33.5424769 ], [ 130.5752192, 33.5447681 ], [ 130.5794189, 33.5531714 ], [ 130.584088899999983, 33.5546767 ], [ 130.5804142, 33.5587572 ], [ 130.5794536, 33.5652961 ], [ 130.5750572, 33.5679914 ], [ 130.572706399999987, 33.5769414 ], [ 130.5681883, 33.5795803 ], [ 130.566421099999985, 33.5908011 ] ] ], [ [ [ 130.367483199999981, 33.7607969 ], [ 130.3761905, 33.7598385 ], [ 130.372611799999987, 33.7647458 ], [ 130.3635492, 33.7670617 ], [ 130.359349899999984, 33.7620931 ], [ 130.362797500000028, 33.7550295 ], [ 130.367483199999981, 33.7607969 ] ] ] ] } },
{ "type": "Feature", "properties": { "hokenjo": "福岡市" }, "geometry": { "type": "MultiPolygon", "coordinates": [ [ [ [ 130.3712328, 33.504775 ], [ 130.377201899999989, 33.5082028 ], [ 130.3820622, 33.5055297 ], [ 130.385899199999983, 33.5070978 ], [ 130.396159399999988, 33.5071006 ], [ 130.3984356, 33.5130697 ], [ 130.4039439, 33.5135694 ], [ 130.403925, 33.5185006 ], [ 130.410755599999987, 33.5222625 ], [ 130.4165769, 33.5234869 ], [ 130.420728100000019, 33.5277908 ], [ 130.426803899999982, 33.5303897 ], [ 130.428356399999984, 33.5226747 ], [ 130.4340456, 33.5229056 ], [ 130.437405, 33.5252156 ], [ 130.435812199999987, 33.52892 ], [ 130.4430183, 33.5332278 ], [ 130.4403175, 33.5376531 ], [ 130.4396447, 33.5429069 ], [ 130.446064299999989, 33.5477317 ], [ 130.452167799999984, 33.5488161 ], [ 130.4596386, 33.5393481 ], [ 130.463394699999981, 33.5358414 ], [ 130.4689314, 33.5378936 ], [ 130.4711078, 33.5440967 ], [ 130.4684206, 33.5478042 ], [ 130.4693106, 33.5530247 ], [ 130.462171899999987, 33.5606969 ], [ 130.4667144, 33.5627858 ], [ 130.473701399999982, 33.5531719 ], [ 130.477838099999985, 33.5525253 ], [ 130.4856694, 33.5601864 ], [ 130.485641099999981, 33.5602831 ], [ 130.4816467, 33.5648811 ], [ 130.4772792, 33.5672108 ], [ 130.479382499999986, 33.57259 ], [ 130.4775258, 33.5777228 ], [ 130.4692761, 33.5871247 ], [ 130.4634469, 33.5912844 ], [ 130.4592417, 33.59688 ], [ 130.4555006, 33.5961688 ], [ 130.4506403, 33.6023944 ], [ 130.4422783, 33.6063947 ], [ 130.4424108, 33.6066778 ], [ 130.444753099999986, 33.6088836 ], [ 130.4410856, 33.6126908 ], [ 130.451614700000022, 33.6188637 ], [ 130.4540969, 33.6249272 ], [ 130.4571018, 33.6244846 ], [ 130.4596728, 33.6288206 ], [ 130.466445, 33.6308075 ], [ 130.4721619, 33.6371986 ], [ 130.4751647, 33.6341861 ], [ 130.482493799999986, 33.6302786 ], [ 130.4857983, 33.6267911 ], [ 130.4944942, 33.6318903 ], [ 130.4942898, 33.6347031 ], [ 130.492175799999984, 33.6418231 ], [ 130.4945353, 33.6463472 ], [ 130.490449399999989, 33.6493853 ], [ 130.4790567, 33.6487386 ], [ 130.4795958, 33.6537747 ], [ 130.4689683, 33.6671308 ], [ 130.470573299999984, 33.6699497 ], [ 130.46717, 33.6735031 ], [ 130.4687706, 33.6795372 ], [ 130.4640564, 33.6828461 ], [ 130.4551606, 33.6795294 ], [ 130.4501386, 33.6903069 ], [ 130.447843899999981, 33.6978186 ], [ 130.4412322, 33.6988694 ], [ 130.43057, 33.7082439 ], [ 130.4180025, 33.7125482 ], [ 130.415901099999985, 33.7067182 ], [ 130.4162854, 33.7028299 ], [ 130.4057422, 33.6936123 ], [ 130.3996603, 33.6872369 ], [ 130.386934, 33.6787914 ], [ 130.373118399999981, 33.6715296 ], [ 130.3672841, 33.6692084 ], [ 130.353188, 33.6657811 ], [ 130.346267, 33.6618824 ], [ 130.3354094, 33.6603918 ], [ 130.3249563, 33.6601408 ], [ 130.333845199999985, 33.6493361 ], [ 130.3393525, 33.6519468 ], [ 130.350083899999987, 33.6484453 ], [ 130.354485499999981, 33.6442694 ], [ 130.3612828, 33.6441677 ], [ 130.3590026, 33.6485401 ], [ 130.3603142, 33.6582776 ], [ 130.3637641, 33.6599519 ], [ 130.368395099999987, 33.6651241 ], [ 130.3984635, 33.6709884 ], [ 130.405084499999987, 33.6746749 ], [ 130.403505599999988, 33.6810848 ], [ 130.4088232, 33.6836004 ], [ 130.4149035, 33.6840348 ], [ 130.4185248, 33.6863966 ], [ 130.4304965, 33.6867892 ], [ 130.4326189, 33.6825717 ], [ 130.4318544, 33.6785696 ], [ 130.4256076, 33.6749561 ], [ 130.4344778, 33.6622377 ], [ 130.4325317, 33.6590198 ], [ 130.425515099999984, 33.6605997 ], [ 130.4050164, 33.652172 ], [ 130.4063702, 33.649904899999989 ], [ 130.4134415, 33.6479752 ], [ 130.4168818, 33.6491949 ], [ 130.421777599999984, 33.6467111 ], [ 130.4205327, 33.6412136 ], [ 130.4113054, 33.6437439 ], [ 130.4073569, 33.6424621 ], [ 130.4041049, 33.634433099999988 ], [ 130.409564499999988, 33.6328904 ], [ 130.4054473, 33.628908 ], [ 130.4035729, 33.6229746 ], [ 130.4124286, 33.6204679 ], [ 130.413976599999984, 33.6170138 ], [ 130.4044994, 33.6193679 ], [ 130.4013352, 33.6184697 ], [ 130.399642299999982, 33.6136372 ], [ 130.3959528, 33.6102025 ], [ 130.402032599999984, 33.6050364 ], [ 130.3969631, 33.6033728 ], [ 130.3945233, 33.6023421 ], [ 130.3899721, 33.6097787 ], [ 130.3847026, 33.6075053 ], [ 130.3882729, 33.6016757 ], [ 130.3932116, 33.5973022 ], [ 130.3856692, 33.5941672 ], [ 130.383035399999983, 33.5968596 ], [ 130.3812563, 33.6027138 ], [ 130.3736237, 33.6050942 ], [ 130.369081, 33.6015775 ], [ 130.3593932, 33.596789 ], [ 130.3564948, 33.5966204 ], [ 130.352890799999983, 33.5951477 ], [ 130.3431583, 33.5957389 ], [ 130.3321124, 33.5974956 ], [ 130.327326299999982, 33.5936693 ], [ 130.323698, 33.5936947 ], [ 130.3233535, 33.5984896 ], [ 130.3136218, 33.5980644 ], [ 130.3119, 33.5879314 ], [ 130.3038129, 33.5834229 ], [ 130.2926027, 33.5801231 ], [ 130.2864894, 33.5831526 ], [ 130.279952899999984, 33.580914 ], [ 130.272945, 33.5826157 ], [ 130.2668018, 33.5868819 ], [ 130.2644151, 33.5939915 ], [ 130.2600133, 33.5912331 ], [ 130.251874099999981, 33.5966603 ], [ 130.2507219, 33.5999323 ], [ 130.2625347, 33.6027762 ], [ 130.2660325, 33.5973309 ], [ 130.2707644, 33.5961481 ], [ 130.2750706, 33.6097544 ], [ 130.2735068, 33.6114797 ], [ 130.2660918, 33.6127344 ], [ 130.2620705, 33.6108001 ], [ 130.2466149, 33.6116939 ], [ 130.237879199999981, 33.6137934 ], [ 130.2318147, 33.616867 ], [ 130.2293144, 33.6229001 ], [ 130.229812899999985, 33.6261084 ], [ 130.224883799999986, 33.6320747 ], [ 130.2250267, 33.6366663 ], [ 130.2290266, 33.6381382 ], [ 130.229035899999985, 33.6420518 ], [ 130.2346983, 33.6440851 ], [ 130.237110699999988, 33.6487894 ], [ 130.2325166, 33.6513825 ], [ 130.2309363, 33.6554901 ], [ 130.221534099999985, 33.6593119 ], [ 130.2101198, 33.6674479 ], [ 130.2063623, 33.6636319 ], [ 130.2073509, 33.6561753 ], [ 130.2092228, 33.6535205 ], [ 130.2065828, 33.6465685 ], [ 130.2001893, 33.6450928 ], [ 130.197838599999983, 33.6397516 ], [ 130.2039819, 33.635245 ], [ 130.2039036, 33.6317236 ], [ 130.2067367, 33.6285414 ], [ 130.204968899999983, 33.6227097 ], [ 130.2059567, 33.6095433 ], [ 130.2101192, 33.6060533 ], [ 130.2097231, 33.5965475 ], [ 130.211787499999986, 33.588985 ], [ 130.2191872, 33.5805561 ], [ 130.2226286, 33.5794364 ], [ 130.226699699999983, 33.5813931 ], [ 130.237710599999986, 33.5804408 ], [ 130.2410672, 33.5730767 ], [ 130.239333099999982, 33.5674439 ], [ 130.2366561, 33.5664253 ], [ 130.2393844, 33.5589039 ], [ 130.2362661, 33.5553639 ], [ 130.2404314, 33.5517275 ], [ 130.2452217, 33.5577036 ], [ 130.2497392, 33.55604 ], [ 130.254517199999981, 33.5578056 ], [ 130.2575072, 33.5552281 ], [ 130.265583099999986, 33.5565647 ], [ 130.2664403, 33.5500072 ], [ 130.2697408, 33.5472275 ], [ 130.2775806, 33.5440275 ], [ 130.2838092, 33.5395275 ], [ 130.2886475, 33.5386419 ], [ 130.28924809999998, 33.5313189 ], [ 130.2873142, 33.5262517 ], [ 130.2882069, 33.5226189 ], [ 130.2922106, 33.5190714 ], [ 130.2917986, 33.5130061 ], [ 130.285607199999987, 33.5070678 ], [ 130.2795069, 33.5066556 ], [ 130.2778883, 33.50161 ], [ 130.271888099999984, 33.4951111 ], [ 130.2760156, 33.4894819 ], [ 130.27269, 33.4881819 ], [ 130.273529400000029, 33.4837439 ], [ 130.2721139, 33.4793511 ], [ 130.2767067, 33.4788814 ], [ 130.2882464, 33.469613599999988 ], [ 130.2911856, 33.4694239 ], [ 130.2958817, 33.4635525 ], [ 130.3032569, 33.4613033 ], [ 130.305674399999987, 33.4631433 ], [ 130.311120599999981, 33.4619756 ], [ 130.313784199999986, 33.4580967 ], [ 130.319656899999984, 33.4587322 ], [ 130.3319722, 33.4512706 ], [ 130.3349992, 33.4503722 ], [ 130.3363728, 33.4452292 ], [ 130.3454281, 33.4450214 ], [ 130.3557869, 33.4332397 ], [ 130.3634931, 33.4348953 ], [ 130.3705794, 33.4332053 ], [ 130.375298099999981, 33.4302019 ], [ 130.378435, 33.425052199999989 ], [ 130.387393299999985, 33.4281158 ], [ 130.3911933, 33.4260775 ], [ 130.3961636, 33.4274056 ], [ 130.3959858, 33.440255 ], [ 130.4031175, 33.4380819 ], [ 130.4043814, 33.4406042 ], [ 130.3988697, 33.4452797 ], [ 130.3993547, 33.4487908 ], [ 130.3879636, 33.4547972 ], [ 130.3858122, 33.4621011 ], [ 130.388018099999982, 33.4664619 ], [ 130.3830347, 33.4752386 ], [ 130.3812681, 33.4803814 ], [ 130.3814178, 33.4871203 ], [ 130.3783786, 33.4974928 ], [ 130.3712328, 33.504775 ] ] ], [ [ [ 130.3136288, 33.6229431 ], [ 130.3075863, 33.6298879 ], [ 130.307787099999985, 33.6350064 ], [ 130.3017829, 33.6383459 ], [ 130.298441199999985, 33.6358186 ], [ 130.2994665, 33.6269163 ], [ 130.2975813, 33.620064899999988 ], [ 130.2950689, 33.6178689 ], [ 130.2978309, 33.6086501 ], [ 130.3011578, 33.6070228 ], [ 130.3076752, 33.6084856 ], [ 130.3088234, 33.611615 ], [ 130.3139133, 33.6159586 ], [ 130.3136288, 33.6229431 ] ] ], [ [ [ 130.3099853, 33.6785311 ], [ 130.3033633, 33.6876221 ], [ 130.299545099999989, 33.6895016 ], [ 130.290069, 33.6848305 ], [ 130.2859908, 33.6794478 ], [ 130.2888398, 33.677859 ], [ 130.2897188, 33.6711499 ], [ 130.297666199999981, 33.6625573 ], [ 130.2985581, 33.6603225 ], [ 130.3078285, 33.6592175 ], [ 130.3160599, 33.6616245 ], [ 130.3159193, 33.6660194 ], [ 130.3099853, 33.6785311 ] ] ], [ [ [ 130.237368799999985, 33.6842541 ], [ 130.2376663, 33.6897857 ], [ 130.2349126, 33.6930271 ], [ 130.2289913, 33.6944963 ], [ 130.2241707, 33.6913337 ], [ 130.2272361, 33.6866313 ], [ 130.23279789999998, 33.682701 ], [ 130.237368799999985, 33.6842541 ] ] ], [ [ [ 130.0329956, 33.8664901 ], [ 130.0370309, 33.8625085 ], [ 130.038609899999983, 33.868796 ], [ 130.0363026, 33.8741154 ], [ 130.0329956, 33.8664901 ] ] ], [ [ [ 130.42617, 33.6618713 ], [ 130.428181599999988, 33.6651978 ], [ 130.4249355, 33.6719071 ], [ 130.4211173, 33.6753302 ], [ 130.415767, 33.6752219 ], [ 130.401719899999989, 33.6673511 ], [ 130.395135899999985, 33.6646462 ], [ 130.394260799999984, 33.6621564 ], [ 130.3981705, 33.6555215 ], [ 130.4140816, 33.6614003 ], [ 130.4175002, 33.6582963 ], [ 130.42617, 33.6618713 ] ] ] ] } },
{ "type": "Feature", "properties": { "hokenjo": "北九州市" }, "geometry": { "type": "MultiPolygon", "coordinates": [ [ [ [ 130.799423599999983, 33.7767936 ], [ 130.8024322, 33.7705506 ], [ 130.799402499999985, 33.7651858 ], [ 130.8022158, 33.7586986 ], [ 130.802134699999982, 33.7511169 ], [ 130.804877799999986, 33.7498122 ], [ 130.804028599999981, 33.7420358 ], [ 130.8056372, 33.7346561 ], [ 130.8107822, 33.7335114 ], [ 130.813961399999982, 33.7280933 ], [ 130.82093279999998, 33.7254886 ], [ 130.822025, 33.7212639 ], [ 130.8269392, 33.72381 ], [ 130.837665, 33.7256964 ], [ 130.8445961, 33.7244075 ], [ 130.847465799999981, 33.7259136 ], [ 130.8501728, 33.7332242 ], [ 130.855179199999981, 33.7356969 ], [ 130.8629436, 33.7363736 ], [ 130.867835, 33.7342928 ], [ 130.87819, 33.7417147 ], [ 130.8894558, 33.7424553 ], [ 130.8917692, 33.73542 ], [ 130.894338299999987, 33.7341436 ], [ 130.8946828, 33.7389931 ], [ 130.8970061, 33.7409339 ], [ 130.8986617, 33.7470689 ], [ 130.9022583, 33.7532061 ], [ 130.9072261, 33.7460028 ], [ 130.9100406, 33.748877799999988 ], [ 130.9095089, 33.7510558 ], [ 130.9134161, 33.7566992 ], [ 130.910086799999988, 33.7668333 ], [ 130.9166167, 33.7712233 ], [ 130.916411899999986, 33.7749228 ], [ 130.9267764, 33.7798356 ], [ 130.9337439, 33.7758464 ], [ 130.9410239, 33.7782883 ], [ 130.944810599999983, 33.7778292 ], [ 130.95327469999998, 33.7808581 ], [ 130.9577208, 33.7908106 ], [ 130.960333099999986, 33.7907917 ], [ 130.9744364, 33.8052442 ], [ 130.9812971, 33.8106303 ], [ 130.9800737, 33.8118647 ], [ 130.9665561, 33.8094983 ], [ 130.963652, 33.8172264 ], [ 130.956691899999981, 33.8296142 ], [ 130.960379, 33.8390431 ], [ 130.976222299999989, 33.834371 ], [ 130.977422599999983, 33.844444 ], [ 130.983002299999981, 33.8455649 ], [ 130.987942799999985, 33.8508277 ], [ 130.9934594, 33.8510298 ], [ 130.998221699999988, 33.8683236 ], [ 130.9887362, 33.8687122 ], [ 130.984239299999984, 33.8639787 ], [ 130.9821116, 33.8670609 ], [ 130.9868847, 33.8722866 ], [ 130.9866123, 33.881464 ], [ 130.990545, 33.885627 ], [ 130.9951958, 33.8850613 ], [ 130.9940225, 33.8751454 ], [ 130.999752199999989, 33.8736522 ], [ 131.0040242, 33.889526 ], [ 131.0020312, 33.8920882 ], [ 130.9908749, 33.8957676 ], [ 130.988629, 33.9003316 ], [ 130.9935908, 33.9022879 ], [ 130.996857300000016, 33.9072668 ], [ 130.9999071, 33.9035101 ], [ 131.0044331, 33.9039997 ], [ 131.00191479999998, 33.9095964 ], [ 131.005234299999984, 33.9152901 ], [ 131.0132197, 33.9158218 ], [ 131.014560099999983, 33.9192671 ], [ 131.0014134, 33.9245537 ], [ 131.010608099999985, 33.9303156 ], [ 131.0079715, 33.9342589 ], [ 131.010773299999983, 33.9418901 ], [ 131.021085299999982, 33.9418674 ], [ 131.021939, 33.9471224 ], [ 131.01837, 33.9511295 ], [ 131.023941899999983, 33.9576872 ], [ 131.020095699999985, 33.9622944 ], [ 131.010846099999981, 33.9654594 ], [ 131.00215559999998, 33.9698844 ], [ 130.992243299999984, 33.9617519 ], [ 130.974486, 33.959072 ], [ 130.9708085, 33.9614609 ], [ 130.9630076, 33.9621967 ], [ 130.961655799999988, 33.9566987 ], [ 130.9624263, 33.9476626 ], [ 130.9545904, 33.9421043 ], [ 130.9462441, 33.9383765 ], [ 130.9424392, 33.9317454 ], [ 130.9411878, 33.9241642 ], [ 130.939418599999982, 33.9226637 ], [ 130.9318944, 33.907844 ], [ 130.926245199999983, 33.9027223 ], [ 130.9170897, 33.8961009 ], [ 130.9150668, 33.8957768 ], [ 130.905482899999981, 33.8942081 ], [ 130.901156499999985, 33.8907601 ], [ 130.8946971, 33.892137 ], [ 130.8920809, 33.8880951 ], [ 130.8878043, 33.8884892 ], [ 130.8881096, 33.8934175 ], [ 130.8930471, 33.8962667 ], [ 130.887785800000017, 33.9020629 ], [ 130.8735699, 33.8971303 ], [ 130.871044500000011, 33.8993762 ], [ 130.8841718, 33.9051773 ], [ 130.871811899999983, 33.9159809 ], [ 130.854799899999989, 33.9087123 ], [ 130.851155, 33.9065634 ], [ 130.8520227, 33.9100677 ], [ 130.8691346, 33.9174982 ], [ 130.866588899999982, 33.9204966 ], [ 130.850490500000035, 33.9149218 ], [ 130.848289099999988, 33.9193159 ], [ 130.8575511, 33.9244195 ], [ 130.8550309, 33.929487 ], [ 130.844995399999988, 33.9278999 ], [ 130.8247632, 33.9205184 ], [ 130.8215633, 33.9108191 ], [ 130.823914299999984, 33.906728 ], [ 130.8227097, 33.9036216 ], [ 130.8158195, 33.8997429 ], [ 130.816060099999987, 33.897353 ], [ 130.805745500000029, 33.891711 ], [ 130.806885199999982, 33.8848441 ], [ 130.8087773, 33.878774 ], [ 130.8058098, 33.8755755 ], [ 130.8001223, 33.8754371 ], [ 130.804748, 33.8816202 ], [ 130.803604899999982, 33.8905878 ], [ 130.797349199999985, 33.8856104 ], [ 130.784894799999989, 33.882697 ], [ 130.7822785, 33.8781873 ], [ 130.7823237, 33.8820047 ], [ 130.7498622, 33.8739396 ], [ 130.744441699999982, 33.887741 ], [ 130.74673, 33.8863412 ], [ 130.750329099999988, 33.8792855 ], [ 130.753708599999982, 33.8781757 ], [ 130.7837982, 33.8859225 ], [ 130.7854719, 33.8908578 ], [ 130.795795699999985, 33.8903775 ], [ 130.800291099999981, 33.8927093 ], [ 130.8074624, 33.899738 ], [ 130.8143331, 33.9021788 ], [ 130.816731, 33.9142217 ], [ 130.810196499999989, 33.9146646 ], [ 130.809733199999982, 33.9180534 ], [ 130.817396, 33.9170147 ], [ 130.818565299999989, 33.9229626 ], [ 130.8159274, 33.9264798 ], [ 130.8125067, 33.9263912 ], [ 130.8065219, 33.9296211 ], [ 130.8074355, 33.9315476 ], [ 130.777514599999989, 33.9342669 ], [ 130.7753198, 33.9271817 ], [ 130.7570627, 33.9204235 ], [ 130.751585, 33.9232395 ], [ 130.768801199999984, 33.9291231 ], [ 130.7687919, 33.9339493 ], [ 130.760102, 33.9339307 ], [ 130.760077, 33.9396147 ], [ 130.768785799999989, 33.9406297 ], [ 130.768692499999986, 33.9473112 ], [ 130.7526033, 33.9452485 ], [ 130.7526287, 33.9319614 ], [ 130.739564699999988, 33.9319294 ], [ 130.738013699999982, 33.9270081 ], [ 130.732472699999988, 33.9289226 ], [ 130.729087, 33.9343666 ], [ 130.722344099999987, 33.9346596 ], [ 130.7173512, 33.9375818 ], [ 130.70105, 33.9386581 ], [ 130.6947894, 33.937578099999989 ], [ 130.6874109, 33.9344289 ], [ 130.6823894, 33.9242681 ], [ 130.6731978, 33.9186805 ], [ 130.6767078, 33.9162003 ], [ 130.677965, 33.9122489 ], [ 130.675468599999988, 33.9067836 ], [ 130.6855103, 33.8973808 ], [ 130.685228599999988, 33.8933597 ], [ 130.6816694, 33.8888117 ], [ 130.682343299999985, 33.88807 ], [ 130.687766899999986, 33.8804283 ], [ 130.6923381, 33.8783061 ], [ 130.694933599999985, 33.8720789 ], [ 130.6933047, 33.8677664 ], [ 130.699078899999989, 33.8623083 ], [ 130.700558299999983, 33.8575397 ], [ 130.7041575, 33.8576125 ], [ 130.706140799999986, 33.8527244 ], [ 130.7124689, 33.8493669 ], [ 130.713115, 33.8467022 ], [ 130.718462499999987, 33.8441522 ], [ 130.7208594, 33.8391383 ], [ 130.7184581, 33.8344494 ], [ 130.7288017, 33.830691699999988 ], [ 130.7297094, 33.8253458 ], [ 130.733801400000033, 33.8224742 ], [ 130.742847499999982, 33.8200147 ], [ 130.7430697, 33.8160769 ], [ 130.7384319, 33.8137756 ], [ 130.7311081, 33.812575599999988 ], [ 130.7252667, 33.8032697 ], [ 130.7217358, 33.8065789 ], [ 130.7165489, 33.8072969 ], [ 130.7066983, 33.8044033 ], [ 130.7035622, 33.8012636 ], [ 130.7071614, 33.7960539 ], [ 130.7140014, 33.7876347 ], [ 130.7144394, 33.7849664 ], [ 130.7206769, 33.774180799999989 ], [ 130.729708099999982, 33.7744253 ], [ 130.7381411, 33.7705617 ], [ 130.7460012, 33.7721094 ], [ 130.7573844, 33.7694742 ], [ 130.768125, 33.7772803 ], [ 130.766637799999984, 33.7823858 ], [ 130.772945300000032, 33.7864744 ], [ 130.7845553, 33.7851731 ], [ 130.788603099999989, 33.7798514 ], [ 130.7948475, 33.7802839 ], [ 130.799423599999983, 33.7767936 ] ] ], [ [ [ 130.8322916, 33.9498436 ], [ 130.8143184, 33.9434361 ], [ 130.8120485, 33.9478549 ], [ 130.8088884, 33.9487299 ], [ 130.799705599999982, 33.9461131 ], [ 130.7774211, 33.9460739 ], [ 130.7774331, 33.9404754 ], [ 130.784142, 33.940508699999988 ], [ 130.7842243, 33.9349923 ], [ 130.809851399999985, 33.9326691 ], [ 130.814520099999982, 33.9342181 ], [ 130.8222551, 33.9303749 ], [ 130.831543399999987, 33.9344116 ], [ 130.845046199999985, 33.9392383 ], [ 130.8322916, 33.9498436 ] ] ], [ [ [ 130.8173411, 33.9892542 ], [ 130.822649399999989, 33.9870594 ], [ 130.8201444, 33.9946692 ], [ 130.8132511, 34.0011425 ], [ 130.813704199999989, 33.9961158 ], [ 130.8173411, 33.9892542 ] ] ], [ [ [ 130.731655599999982, 34.0161994 ], [ 130.727019399999989, 34.0155728 ], [ 130.7254792, 34.0190642 ], [ 130.722121099999981, 34.0166414 ], [ 130.7243078, 34.0120392 ], [ 130.728707499999985, 34.0087153 ], [ 130.731655599999982, 34.0161994 ] ] ], [ [ [ 131.034329899999989, 33.8580303 ], [ 131.0246459, 33.8566636 ], [ 131.0292813, 33.8342184 ], [ 131.0389854, 33.8355993 ], [ 131.034329899999989, 33.8580303 ] ] ] ] } },
{ "type": "Feature", "properties": { "hokenjo": "北筑後" }, "geometry": { "type": "MultiPolygon", "coordinates": [ [ [ [ 130.7287412, 33.3026588 ], [ 130.724037, 33.3021364 ], [ 130.7250904, 33.29597 ], [ 130.730270099999984, 33.2921455 ], [ 130.729994200000021, 33.2877741 ], [ 130.738525600000031, 33.2847153 ], [ 130.743325, 33.2807247 ], [ 130.7472558, 33.2800197 ], [ 130.751896599999981, 33.2827269 ], [ 130.768390499999981, 33.2818496 ], [ 130.7729224, 33.2754733 ], [ 130.7812894, 33.2686322 ], [ 130.787153499999988, 33.2707135 ], [ 130.791685799999982, 33.269893 ], [ 130.7929138, 33.2636016 ], [ 130.8041494, 33.2625633 ], [ 130.8144481, 33.25673 ], [ 130.8194714, 33.2579956 ], [ 130.8248515, 33.2534217 ], [ 130.8287029, 33.2574586 ], [ 130.8381221, 33.2582428 ], [ 130.84526409999998, 33.257507 ], [ 130.848739099999989, 33.2610292 ], [ 130.8553541, 33.2625684 ], [ 130.8639053, 33.261167 ], [ 130.868047499999989, 33.2640786 ], [ 130.867580299999986, 33.2679822 ], [ 130.8606972, 33.266745 ], [ 130.857379399999985, 33.2704294 ], [ 130.856489399999987, 33.2753488 ], [ 130.852074099999982, 33.2774697 ], [ 130.8571277, 33.2849733 ], [ 130.8639728, 33.2891669 ], [ 130.8663483, 33.2921121 ], [ 130.8652753, 33.296743 ], [ 130.8615797, 33.3031896 ], [ 130.863040499999983, 33.3050324 ], [ 130.856306099999983, 33.3185393 ], [ 130.85437779999998, 33.3246621 ], [ 130.854776099999981, 33.3291457 ], [ 130.8506011, 33.336659 ], [ 130.8450288, 33.3386979 ], [ 130.8420855, 33.3366587 ], [ 130.835348, 33.3435459 ], [ 130.8401863, 33.3457937 ], [ 130.8422563, 33.3502576 ], [ 130.850195499999984, 33.3537682 ], [ 130.8617993, 33.3625999 ], [ 130.8597191, 33.3729622 ], [ 130.862427699999984, 33.3766644 ], [ 130.885839799999985, 33.3792317 ], [ 130.884578399999981, 33.3894328 ], [ 130.8876137, 33.4005006 ], [ 130.8876134, 33.4044636 ], [ 130.891995899999984, 33.4064456 ], [ 130.889539499999984, 33.415179 ], [ 130.8925256, 33.4199848 ], [ 130.8916934, 33.4299451 ], [ 130.8952698, 33.4331729 ], [ 130.8975762, 33.4385465 ], [ 130.8949207, 33.4461557 ], [ 130.9002807, 33.4492116 ], [ 130.8994534, 33.4510521 ], [ 130.890654399999988, 33.4526591 ], [ 130.8880155, 33.4506426 ], [ 130.8792547, 33.4511919 ], [ 130.8718681, 33.4497233 ], [ 130.864277499999986, 33.4510344 ], [ 130.8611886, 33.4468192 ], [ 130.8531547, 33.4476781 ], [ 130.8462389, 33.4572172 ], [ 130.844362200000035, 33.4621381 ], [ 130.8360633, 33.4683703 ], [ 130.8362956, 33.4721797 ], [ 130.8420275, 33.4744217 ], [ 130.8477969, 33.4793425 ], [ 130.8428342, 33.4855036 ], [ 130.837502500000028, 33.4842575 ], [ 130.829430299999984, 33.4882053 ], [ 130.8213853, 33.4875 ], [ 130.817626099999984, 33.4888447 ], [ 130.8117178, 33.4873022 ], [ 130.8082983, 33.4834117 ], [ 130.809089700000015, 33.4751369 ], [ 130.806091399999985, 33.4718711 ], [ 130.7938828, 33.4724136 ], [ 130.7912289, 33.4709911 ], [ 130.7872767, 33.479575 ], [ 130.7799206, 33.4815892 ], [ 130.7656656, 33.4879614 ], [ 130.758961699999986, 33.4883319 ], [ 130.750092199999983, 33.4865172 ], [ 130.7485931, 33.4849192 ], [ 130.741794199999987, 33.4880656 ], [ 130.7270983, 33.4835822 ], [ 130.71688469999998, 33.4859553 ], [ 130.7115781, 33.4908819 ], [ 130.6891158, 33.4941039 ], [ 130.6871578, 33.4912058 ], [ 130.6821725, 33.4933094 ], [ 130.672745, 33.4994253 ], [ 130.668676399999981, 33.4980911 ], [ 130.6623847, 33.5038172 ], [ 130.658915799999988, 33.5081947 ], [ 130.6531353, 33.5109542 ], [ 130.6486861, 33.5097711 ], [ 130.6421442, 33.5055047 ], [ 130.636024400000025, 33.5048106 ], [ 130.6353078, 33.5072514 ], [ 130.627925799999986, 33.5045103 ], [ 130.6214464, 33.5060989 ], [ 130.618576099999984, 33.5045992 ], [ 130.6100097, 33.4959214 ], [ 130.6101636, 33.4928083 ], [ 130.6041564, 33.4914772 ], [ 130.6019892, 33.4891356 ], [ 130.589019399999984, 33.4857342 ], [ 130.5882789, 33.4814236 ], [ 130.5800864, 33.472732799999989 ], [ 130.5715625, 33.4743147 ], [ 130.5663203, 33.4768897 ], [ 130.5622258, 33.4735608 ], [ 130.562015799999983, 33.4627578 ], [ 130.5656672, 33.4567656 ], [ 130.570639199999988, 33.4526608 ], [ 130.5755714, 33.4451133 ], [ 130.5846194, 33.4410267 ], [ 130.5797656, 33.4369711 ], [ 130.572398099999987, 33.4408181 ], [ 130.5714078, 33.4428539 ], [ 130.5614942, 33.4476625 ], [ 130.553595799999982, 33.4499292 ], [ 130.5523119, 33.4436744 ], [ 130.5496297, 33.4407606 ], [ 130.540492299999983, 33.4415647 ], [ 130.536470799999989, 33.4389819 ], [ 130.5351514, 33.4343892 ], [ 130.5373678, 33.4262986 ], [ 130.5410642, 33.4212228 ], [ 130.5416822, 33.4039031 ], [ 130.5419592, 33.3663414 ], [ 130.540258099999988, 33.3652172 ], [ 130.5359785, 33.3429623 ], [ 130.5407923, 33.3456731 ], [ 130.550339899999983, 33.3454231 ], [ 130.5502218, 33.3483842 ], [ 130.557148499999983, 33.3505509 ], [ 130.562334, 33.3552079 ], [ 130.570642099999986, 33.3552151 ], [ 130.577187, 33.3596491 ], [ 130.5784305, 33.3670729 ], [ 130.6055499, 33.3674893 ], [ 130.6117452, 33.3655851 ], [ 130.6152701, 33.367423 ], [ 130.6293996, 33.3668715 ], [ 130.6274252, 33.3622035 ], [ 130.631333, 33.3528401 ], [ 130.640158, 33.3584696 ], [ 130.6505899, 33.3628468 ], [ 130.6667938, 33.3621927 ], [ 130.672966, 33.361561 ], [ 130.684199600000028, 33.3627927 ], [ 130.7001773, 33.362086 ], [ 130.7054795, 33.3641488 ], [ 130.707708699999984, 33.3601888 ], [ 130.7196754, 33.3592188 ], [ 130.7226995, 33.3608846 ], [ 130.731766199999981, 33.3590485 ], [ 130.731175899999982, 33.3532371 ], [ 130.7277662, 33.3528143 ], [ 130.725817799999987, 33.3577315 ], [ 130.7189156, 33.3559307 ], [ 130.7183506, 33.3530916 ], [ 130.7254729, 33.3510138 ], [ 130.726196499999986, 33.3471477 ], [ 130.7309565, 33.3469424 ], [ 130.7311257, 33.3401285 ], [ 130.726355399999989, 33.3401885 ], [ 130.7238026, 33.3377724 ], [ 130.723464799999988, 33.3247194 ], [ 130.7251437, 33.3211177 ], [ 130.7287412, 33.3026588 ] ] ] ] } }
]
}
