{
"type": "FeatureCollection",
"name": "fukushima",
"crs": { "type": "name", "properties": { "name": "urn:ogc:def:crs:OGC:1.3:CRS84" } },
"features": [
{ "type": "Feature", "properties": { "hokenjo": "いわき市" }, "geometry": { "type": "Polygon", "coordinates": [ [ [ 140.877419799999984, 37.2772791 ], [ 140.859171299999986, 37.2743463 ], [ 140.8529972, 37.2591397 ], [ 140.845835099999988, 37.2583147 ], [ 140.8375977, 37.2619059 ], [ 140.831998200000015, 37.2604226 ], [ 140.8269114, 37.2543066 ], [ 140.814812500000016, 37.2525064 ], [ 140.807088199999981, 37.2542395 ], [ 140.794776899999988, 37.2613051 ], [ 140.787502, 37.2674543 ], [ 140.787014299999981, 37.2751614 ], [ 140.793038400000029, 37.2848853 ], [ 140.7798896, 37.2881847 ], [ 140.778552099999985, 37.2964417 ], [ 140.7661905, 37.2951001 ], [ 140.766103, 37.2988412 ], [ 140.7432449, 37.2970629 ], [ 140.728511699999984, 37.3082688 ], [ 140.723216399999984, 37.3195402 ], [ 140.7137741, 37.3190583 ], [ 140.706881399999986, 37.3149678 ], [ 140.69560629999998, 37.3149903 ], [ 140.690246, 37.3002209 ], [ 140.694808, 37.2987223 ], [ 140.693379, 37.2889484 ], [ 140.689125900000022, 37.287251 ], [ 140.6938592, 37.2777563 ], [ 140.6856125, 37.2683707 ], [ 140.6864027, 37.2604994 ], [ 140.682886199999984, 37.2533107 ], [ 140.685385, 37.2445652 ], [ 140.6828301, 37.2344841 ], [ 140.6678322, 37.2255664 ], [ 140.66246049999998, 37.2282617 ], [ 140.649699699999985, 37.2222622 ], [ 140.647255699999988, 37.2176711 ], [ 140.6274626, 37.2117975 ], [ 140.6175941, 37.203692 ], [ 140.613814099999985, 37.205502 ], [ 140.6070154, 37.2040053 ], [ 140.6050816, 37.1944489 ], [ 140.6079096, 37.1881664 ], [ 140.6011245, 37.1789828 ], [ 140.6097451, 37.169745899999988 ], [ 140.6127008, 37.1580089 ], [ 140.61186189999998, 37.1540754 ], [ 140.627475299999986, 37.1479639 ], [ 140.632564799999983, 37.1546753 ], [ 140.6373513, 37.1408837 ], [ 140.642838899999987, 37.1333814 ], [ 140.6413092, 37.1270947 ], [ 140.646316, 37.1192229 ], [ 140.650776899999983, 37.119941 ], [ 140.656991799999986, 37.1105504 ], [ 140.6567296, 37.1054257 ], [ 140.6619253, 37.1011639 ], [ 140.664327899999989, 37.0912204 ], [ 140.6529797, 37.0851942 ], [ 140.6581271, 37.076526 ], [ 140.654171599999984, 37.0723631 ], [ 140.640496499999983, 37.0689005 ], [ 140.6428703, 37.0567361 ], [ 140.6337747, 37.0555915 ], [ 140.624220799999989, 37.0474995 ], [ 140.62387529999998, 37.0360701 ], [ 140.620607399999983, 37.0344861 ], [ 140.6208494, 37.0202039 ], [ 140.6141935, 37.0132466 ], [ 140.6067725, 37.0147237 ], [ 140.5994038, 37.005223 ], [ 140.5913908, 37.0020246 ], [ 140.576693299999988, 36.9925104 ], [ 140.5659454, 36.9857783 ], [ 140.5701454, 36.9751561 ], [ 140.582242799999989, 36.9655916 ], [ 140.582733, 36.9534509 ], [ 140.586113, 36.9452843 ], [ 140.5938745, 36.9342796 ], [ 140.5929639, 36.9264645 ], [ 140.598044499999986, 36.9250465 ], [ 140.607192699999985, 36.9127662 ], [ 140.612469399999981, 36.9106721 ], [ 140.6147039, 36.9045061 ], [ 140.6226892, 36.9032263 ], [ 140.6372819, 36.8975636 ], [ 140.6473818, 36.9009969 ], [ 140.655865399999982, 36.8972866 ], [ 140.664611399999984, 36.896425799999989 ], [ 140.6837172, 36.8906266 ], [ 140.702223799999985, 36.8835134 ], [ 140.7054877, 36.8783944 ], [ 140.7141392, 36.8728283 ], [ 140.729355, 36.8744146 ], [ 140.7342078, 36.871592799999988 ], [ 140.7405024, 36.8755644 ], [ 140.745864399999988, 36.871242699999989 ], [ 140.755556399999989, 36.8695485 ], [ 140.7668315, 36.8615498 ], [ 140.7772056, 36.8673825 ], [ 140.7864299, 36.86195 ], [ 140.794669, 36.8851645 ], [ 140.8009157, 36.8943147 ], [ 140.8166507, 36.9083835 ], [ 140.826602900000012, 36.9127337 ], [ 140.8408073, 36.909524 ], [ 140.854264799999982, 36.9201411 ], [ 140.858792, 36.9206496 ], [ 140.8715435, 36.9278692 ], [ 140.8804906, 36.9277073 ], [ 140.892086299999988, 36.9374035 ], [ 140.907649599999985, 36.9454293 ], [ 140.9149064, 36.9419481 ], [ 140.9152004, 36.9364322 ], [ 140.9245204, 36.9351968 ], [ 140.9255689, 36.9410173 ], [ 140.937514599999986, 36.9527134 ], [ 140.949440399999986, 36.9564899 ], [ 140.9598708, 36.9677287 ], [ 140.966964599999983, 36.9703733 ], [ 140.968021, 36.9841165 ], [ 140.9732247, 36.9916202 ], [ 140.9827824, 36.9951337 ], [ 140.975754599999988, 37.0113365 ], [ 140.9727212, 37.0226198 ], [ 140.9738635, 37.0551225 ], [ 140.98272, 37.0892784 ], [ 140.991622300000017, 37.1030152 ], [ 140.999297399999989, 37.1107745 ], [ 141.000641699999989, 37.118324 ], [ 140.9975494, 37.1225689 ], [ 140.9990065, 37.1383308 ], [ 141.003239, 37.1524639 ], [ 140.9994884, 37.1717701 ], [ 141.000426, 37.1836432 ], [ 140.980508499999985, 37.1856336 ], [ 140.9684684, 37.1891434 ], [ 140.9566959, 37.1858844 ], [ 140.935949099999988, 37.1955104 ], [ 140.903960899999987, 37.2143052 ], [ 140.900950699999981, 37.2203944 ], [ 140.8751102, 37.220883 ], [ 140.8671229, 37.2278855 ], [ 140.878115900000012, 37.2406801 ], [ 140.8746459, 37.2531404 ], [ 140.86709639999998, 37.2596812 ], [ 140.872358199999979, 37.2643306 ], [ 140.871895699999982, 37.2706634 ], [ 140.877419799999984, 37.2772791 ] ] ] } },
{ "type": "Feature", "properties": { "hokenjo": "会津" }, "geometry": { "type": "Polygon", "coordinates": [ [ [ 139.8749833, 37.3612021 ], [ 139.8840119, 37.3539374 ], [ 139.885764099999989, 37.3429368 ], [ 139.9040732, 37.3518165 ], [ 139.9178483, 37.3549779 ], [ 139.919875499999989, 37.3492196 ], [ 139.9112451, 37.3486807 ], [ 139.910169, 37.3403213 ], [ 139.914968900000019, 37.3307285 ], [ 139.9204923, 37.3254549 ], [ 139.9323312, 37.32406 ], [ 139.9478814, 37.3281828 ], [ 139.951299800000015, 37.3363772 ], [ 139.958463199999983, 37.3365225 ], [ 139.9660635, 37.3330578 ], [ 139.9896727, 37.3273983 ], [ 139.9986822, 37.3308914 ], [ 140.0094909, 37.3269692 ], [ 140.0124754, 37.3229975 ], [ 140.0190017, 37.3353186 ], [ 140.0254134, 37.3421008 ], [ 140.03599939999998, 37.3367641 ], [ 140.037438, 37.3420819 ], [ 140.050782, 37.3556416 ], [ 140.0535071, 37.3661677 ], [ 140.0465544, 37.3889033 ], [ 140.051025399999986, 37.4143433 ], [ 140.057547100000022, 37.4180542 ], [ 140.0631114, 37.4286125 ], [ 140.078976499999982, 37.4330283 ], [ 140.103946, 37.4530386 ], [ 140.113355399999989, 37.4698485 ], [ 140.1325411, 37.4638791 ], [ 140.149142899999987, 37.4633302 ], [ 140.160215, 37.4612749 ], [ 140.1667147, 37.4577577 ], [ 140.175790899999981, 37.4579921 ], [ 140.182334, 37.4512721 ], [ 140.198528399999987, 37.4490032 ], [ 140.201821, 37.4610215 ], [ 140.199426599999981, 37.4699121 ], [ 140.193002399999983, 37.4737404 ], [ 140.198782599999987, 37.4847493 ], [ 140.1926201, 37.4936426 ], [ 140.187175599999989, 37.4960679 ], [ 140.1903484, 37.5027146 ], [ 140.189749899999981, 37.5104404 ], [ 140.1783747, 37.5131251 ], [ 140.177425299999982, 37.517050399999988 ], [ 140.1679102, 37.5222726 ], [ 140.1654992, 37.5272993 ], [ 140.1791383, 37.5352354 ], [ 140.1832709, 37.5408682 ], [ 140.190994599999982, 37.5447362 ], [ 140.1921983, 37.5537598 ], [ 140.1998806, 37.5558776 ], [ 140.2100361, 37.5624648 ], [ 140.2185059, 37.5544859 ], [ 140.2282663, 37.5550443 ], [ 140.231596699999983, 37.5650176 ], [ 140.238706799999989, 37.5724584 ], [ 140.240099099999981, 37.5850929 ], [ 140.238274099999984, 37.5898699 ], [ 140.2486838, 37.598976 ], [ 140.2611781, 37.6018568 ], [ 140.2749737, 37.6185877 ], [ 140.284704399999981, 37.6259761 ], [ 140.2806819, 37.6416862 ], [ 140.2825676, 37.6542967 ], [ 140.2779828, 37.6618751 ], [ 140.2601034, 37.6669252 ], [ 140.2451838, 37.6761356 ], [ 140.230721599999981, 37.6792541 ], [ 140.2318603, 37.6900676 ], [ 140.2366926, 37.6954808 ], [ 140.236528199999981, 37.7038421 ], [ 140.2314448, 37.7077504 ], [ 140.2292804, 37.7165399 ], [ 140.231876, 37.7302081 ], [ 140.2433637, 37.7340366 ], [ 140.237254899999982, 37.7464685 ], [ 140.218682699999988, 37.7461825 ], [ 140.2043878, 37.7476984 ], [ 140.1995986, 37.7528111 ], [ 140.178261599999985, 37.7565026 ], [ 140.171936499999987, 37.7560432 ], [ 140.1615608, 37.7567163 ], [ 140.1460098, 37.7527202 ], [ 140.140084, 37.7394273 ], [ 140.1273711, 37.7339179 ], [ 140.1153712, 37.734356 ], [ 140.102283299999982, 37.7376126 ], [ 140.086783699999984, 37.7579953 ], [ 140.080321199999986, 37.7560881 ], [ 140.069042699999983, 37.7579025 ], [ 140.0646041, 37.7677972 ], [ 140.0484821, 37.7790493 ], [ 140.0374981, 37.76798 ], [ 140.0218596, 37.7652956 ], [ 140.019282299999986, 37.7619598 ], [ 140.010234699999984, 37.7639903 ], [ 140.0019944, 37.7594001 ], [ 139.992568799999987, 37.7586995 ], [ 139.9780398, 37.7662409 ], [ 139.9787579, 37.773752 ], [ 139.973387, 37.7757781 ], [ 139.9672598, 37.7838076 ], [ 139.9688162, 37.7874676 ], [ 139.960145899999986, 37.7956475 ], [ 139.9621304, 37.8058025 ], [ 139.957919, 37.8148614 ], [ 139.9498759, 37.8163692 ], [ 139.94087810000002, 37.8217389 ], [ 139.9325986, 37.8293939 ], [ 139.925464799999986, 37.8141565 ], [ 139.902514600000018, 37.8137012 ], [ 139.8980795, 37.8101754 ], [ 139.880071800000024, 37.8101059 ], [ 139.863683399999985, 37.8247937 ], [ 139.8559855, 37.8258829 ], [ 139.8383336, 37.8146982 ], [ 139.8308563, 37.8151288 ], [ 139.821613899999988, 37.8119938 ], [ 139.8132963, 37.8039996 ], [ 139.804129, 37.806273 ], [ 139.802583699999985, 37.8141141 ], [ 139.7949567, 37.8176416 ], [ 139.7824147, 37.8320405 ], [ 139.7578964, 37.8246197 ], [ 139.755421899999988, 37.8221319 ], [ 139.7413068, 37.8202928 ], [ 139.7388387, 37.8156383 ], [ 139.7283324, 37.8122414 ], [ 139.721621199999987, 37.8094228 ], [ 139.71354, 37.7989923 ], [ 139.7049485, 37.795839 ], [ 139.6965597, 37.785122099999988 ], [ 139.6801897, 37.7750444 ], [ 139.677690499999983, 37.770088 ], [ 139.6687064, 37.7632649 ], [ 139.6665011, 37.7569991 ], [ 139.6578877, 37.7550075 ], [ 139.657232, 37.7408503 ], [ 139.652360499999986, 37.7379431 ], [ 139.649612599999983, 37.729062 ], [ 139.642947599999985, 37.7276081 ], [ 139.624487599999981, 37.7083495 ], [ 139.6217192, 37.6998211 ], [ 139.6283178, 37.6919461 ], [ 139.609411699999981, 37.6842711 ], [ 139.6009233, 37.6688306 ], [ 139.593831099999989, 37.6650758 ], [ 139.5886597, 37.6672478 ], [ 139.5684933, 37.6531339 ], [ 139.5630577, 37.6538136 ], [ 139.54932119999998, 37.6490934 ], [ 139.551690899999983, 37.6368225 ], [ 139.5460395, 37.6288909 ], [ 139.552149499999985, 37.6187539 ], [ 139.548507799999982, 37.609865 ], [ 139.5543666, 37.6023956 ], [ 139.56235, 37.6001097 ], [ 139.5641536, 37.5888311 ], [ 139.570403, 37.5795125 ], [ 139.5718321, 37.5682697 ], [ 139.567590599999988, 37.5627497 ], [ 139.570224699999983, 37.5505311 ], [ 139.5701991, 37.5390639 ], [ 139.5785325, 37.5301581 ], [ 139.5905845, 37.5279406 ], [ 139.58510579999998, 37.5128971 ], [ 139.567032, 37.5023457 ], [ 139.5428464, 37.5120251 ], [ 139.5200954, 37.5138373 ], [ 139.513787799999989, 37.5086245 ], [ 139.496737199999984, 37.5125703 ], [ 139.4859863, 37.5103096 ], [ 139.475797699999987, 37.5025827 ], [ 139.466098, 37.5083296 ], [ 139.457198799999986, 37.5178676 ], [ 139.4389512, 37.5131894 ], [ 139.428429199999982, 37.5142497 ], [ 139.414216399999987, 37.5082975 ], [ 139.410655, 37.5020203 ], [ 139.41403219999998, 37.4968009 ], [ 139.4078908, 37.492461399999989 ], [ 139.409850799999987, 37.483886 ], [ 139.405786899999981, 37.4775718 ], [ 139.4063622, 37.4662061 ], [ 139.3975127, 37.4598392 ], [ 139.4025447, 37.4446626 ], [ 139.392737399999987, 37.4363635 ], [ 139.389586, 37.4301138 ], [ 139.3919324, 37.4235385 ], [ 139.3776953, 37.4128047 ], [ 139.3812443, 37.4016053 ], [ 139.3749161, 37.385944 ], [ 139.3647345, 37.3822284 ], [ 139.3787356, 37.3629407 ], [ 139.381596, 37.3546144 ], [ 139.399170699999985, 37.3631707 ], [ 139.407233599999984, 37.3469733 ], [ 139.416125300000033, 37.3453777 ], [ 139.416717399999982, 37.3398502 ], [ 139.4258477, 37.3401986 ], [ 139.429366499999986, 37.3332366 ], [ 139.4478255, 37.3344183 ], [ 139.462231799999984, 37.3468927 ], [ 139.474818699999986, 37.3470261 ], [ 139.48942, 37.3590635 ], [ 139.4978356, 37.3693624 ], [ 139.5043226, 37.3688091 ], [ 139.516291199999984, 37.378996 ], [ 139.519945399999983, 37.3695277 ], [ 139.5267312, 37.3648641 ], [ 139.5437016, 37.3630149 ], [ 139.551934599999981, 37.3570161 ], [ 139.5475954, 37.3519461 ], [ 139.5522104, 37.3445175 ], [ 139.5483131, 37.3361103 ], [ 139.5645901, 37.3280127 ], [ 139.5736571, 37.3215611 ], [ 139.574254, 37.3075444 ], [ 139.579688399999981, 37.285995 ], [ 139.5946199, 37.2777923 ], [ 139.597472399999987, 37.2716506 ], [ 139.5925781, 37.2664445 ], [ 139.5943078, 37.2577581 ], [ 139.587324699999982, 37.2520467 ], [ 139.5921491, 37.2426256 ], [ 139.590254, 37.2228709 ], [ 139.60108630000002, 37.2082034 ], [ 139.612048, 37.2074409 ], [ 139.617621899999989, 37.2145656 ], [ 139.6224832, 37.2279181 ], [ 139.635034099999984, 37.2278706 ], [ 139.654789, 37.2298906 ], [ 139.6572291, 37.2393261 ], [ 139.669856899999985, 37.2406184 ], [ 139.6721542, 37.246412 ], [ 139.6912994, 37.2498969 ], [ 139.695893899999987, 37.2472914 ], [ 139.7055048, 37.2542731 ], [ 139.709917099999984, 37.2619094 ], [ 139.7128797, 37.2726844 ], [ 139.718108299999983, 37.2730214 ], [ 139.7308974, 37.279248 ], [ 139.7353719, 37.2875046 ], [ 139.7444342, 37.2917843 ], [ 139.7616782, 37.2841988 ], [ 139.7691252, 37.2853166 ], [ 139.77845019999998, 37.2813963 ], [ 139.7920315, 37.2880465 ], [ 139.7921488, 37.3034281 ], [ 139.8038761, 37.3089336 ], [ 139.8114626, 37.30777 ], [ 139.8290255, 37.3209361 ], [ 139.829384200000021, 37.3259703 ], [ 139.8360329, 37.3321383 ], [ 139.8320554, 37.3373805 ], [ 139.8326304, 37.3440885 ], [ 139.839658499999985, 37.3466169 ], [ 139.8491764, 37.346137899999988 ], [ 139.8529475, 37.3555607 ], [ 139.868948499999988, 37.361464 ], [ 139.8749833, 37.3612021 ] ] ] } },
{ "type": "Feature", "properties": { "hokenjo": "郡山市" }, "geometry": { "type": "Polygon", "coordinates": [ [ [ 140.03599939999998, 37.3367641 ], [ 140.04077909999998, 37.3327547 ], [ 140.067936, 37.3243316 ], [ 140.075663, 37.3172163 ], [ 140.081768399999987, 37.3208902 ], [ 140.1028971, 37.3208819 ], [ 140.1062705, 37.3191599 ], [ 140.1146091, 37.3198099 ], [ 140.1155717, 37.3289405 ], [ 140.121372799999989, 37.3282674 ], [ 140.1303849, 37.3344861 ], [ 140.1345588, 37.3300297 ], [ 140.1487761, 37.3345438 ], [ 140.1518327, 37.3316461 ], [ 140.1669099, 37.3384247 ], [ 140.168039099999987, 37.3461702 ], [ 140.1737527, 37.3450302 ], [ 140.17389559999998, 37.3548416 ], [ 140.1809418, 37.3603183 ], [ 140.1837027, 37.3688019 ], [ 140.1892369, 37.3697349 ], [ 140.1976583, 37.357868 ], [ 140.2042387, 37.3599855 ], [ 140.219551, 37.356408 ], [ 140.219031199999989, 37.3497907 ], [ 140.228181799999987, 37.3408535 ], [ 140.2381244, 37.3349891 ], [ 140.2519862, 37.3343707 ], [ 140.272427, 37.3364485 ], [ 140.2759929, 37.3343207 ], [ 140.3013207, 37.3386476 ], [ 140.3096486, 37.3420695 ], [ 140.3269502, 37.3405291 ], [ 140.347955, 37.3435014 ], [ 140.3535551, 37.3393781 ], [ 140.3761873, 37.3431303 ], [ 140.3748402, 37.3293537 ], [ 140.3895526, 37.321725 ], [ 140.41850789999998, 37.3117207 ], [ 140.431940200000014, 37.3094135 ], [ 140.441124699999989, 37.3054274 ], [ 140.454642399999983, 37.3065401 ], [ 140.4640322, 37.2984801 ], [ 140.4709665, 37.2970051 ], [ 140.474869, 37.2920698 ], [ 140.4921592, 37.2883873 ], [ 140.4967973, 37.2848017 ], [ 140.5080022, 37.2843761 ], [ 140.5205187, 37.275445 ], [ 140.5226481, 37.2695111 ], [ 140.5349396, 37.2660227 ], [ 140.5457726, 37.2725263 ], [ 140.557811099999981, 37.2732966 ], [ 140.555428700000022, 37.2912513 ], [ 140.5594021, 37.2957763 ], [ 140.557955, 37.3105282 ], [ 140.561368099999981, 37.3144527 ], [ 140.5501606, 37.3258541 ], [ 140.543430199999989, 37.3273233 ], [ 140.5380529, 37.3332375 ], [ 140.54514709999998, 37.3472394 ], [ 140.5546201, 37.3613436 ], [ 140.559984900000018, 37.3654396 ], [ 140.5419315, 37.3743309 ], [ 140.536374, 37.384867 ], [ 140.5287864, 37.3899799 ], [ 140.51910239999998, 37.3902727 ], [ 140.5174624, 37.3879597 ], [ 140.4936356, 37.3882293 ], [ 140.487524800000017, 37.3705239 ], [ 140.477468499999986, 37.3719036 ], [ 140.48038950000003, 37.3812856 ], [ 140.478215299999988, 37.3898565 ], [ 140.467673499999989, 37.3862668 ], [ 140.459455099999985, 37.3897066 ], [ 140.453695, 37.3859621 ], [ 140.444214, 37.391936 ], [ 140.4523495, 37.4002866 ], [ 140.450825399999985, 37.4078198 ], [ 140.44248, 37.4084753 ], [ 140.4407094, 37.4159546 ], [ 140.428737399999989, 37.4202431 ], [ 140.4254894, 37.427934 ], [ 140.4291694, 37.4300026 ], [ 140.444164299999983, 37.4256835 ], [ 140.4493249, 37.4293753 ], [ 140.4463322, 37.4346278 ], [ 140.4576576, 37.438009 ], [ 140.4633282, 37.4331306 ], [ 140.4701025, 37.4318564 ], [ 140.4740788, 37.4440822 ], [ 140.467514099999988, 37.4535914 ], [ 140.4734838, 37.4693415 ], [ 140.4853038, 37.4747094 ], [ 140.47800490000003, 37.4814994 ], [ 140.4664105, 37.4825264 ], [ 140.460264, 37.4800556 ], [ 140.4414732, 37.4816203 ], [ 140.424156, 37.4855122 ], [ 140.4215729, 37.4807809 ], [ 140.41271279999998, 37.4820569 ], [ 140.406185, 37.489795 ], [ 140.391243, 37.4772578 ], [ 140.3837599, 37.478855 ], [ 140.373217399999987, 37.4713859 ], [ 140.3516813, 37.4707587 ], [ 140.3443091, 37.4794226 ], [ 140.3378107, 37.4786515 ], [ 140.3357828, 37.4698048 ], [ 140.325601799999987, 37.4710901 ], [ 140.3182074, 37.4775112 ], [ 140.322495799999984, 37.4852496 ], [ 140.3196122, 37.490339 ], [ 140.3182157, 37.506709 ], [ 140.317958, 37.5154257 ], [ 140.3042345, 37.5216424 ], [ 140.3065943, 37.525981 ], [ 140.2990112, 37.5314818 ], [ 140.2966988, 37.5460927 ], [ 140.291696699999989, 37.5479002 ], [ 140.285796399999981, 37.5554122 ], [ 140.287892900000031, 37.5625636 ], [ 140.277781, 37.5821826 ], [ 140.2800105, 37.5910823 ], [ 140.287239299999982, 37.5994143 ], [ 140.285038499999985, 37.6054665 ], [ 140.290327499999989, 37.6118098 ], [ 140.2891373, 37.6207152 ], [ 140.284704399999981, 37.6259761 ], [ 140.2749737, 37.6185877 ], [ 140.2611781, 37.6018568 ], [ 140.2486838, 37.598976 ], [ 140.238274099999984, 37.5898699 ], [ 140.240099099999981, 37.5850929 ], [ 140.238706799999989, 37.5724584 ], [ 140.231596699999983, 37.5650176 ], [ 140.2282663, 37.5550443 ], [ 140.2185059, 37.5544859 ], [ 140.2100361, 37.5624648 ], [ 140.1998806, 37.5558776 ], [ 140.1921983, 37.5537598 ], [ 140.190994599999982, 37.5447362 ], [ 140.1832709, 37.5408682 ], [ 140.1791383, 37.5352354 ], [ 140.1654992, 37.5272993 ], [ 140.1679102, 37.5222726 ], [ 140.177425299999982, 37.517050399999988 ], [ 140.1783747, 37.5131251 ], [ 140.189749899999981, 37.5104404 ], [ 140.1903484, 37.5027146 ], [ 140.187175599999989, 37.4960679 ], [ 140.1926201, 37.4936426 ], [ 140.198782599999987, 37.4847493 ], [ 140.193002399999983, 37.4737404 ], [ 140.199426599999981, 37.4699121 ], [ 140.201821, 37.4610215 ], [ 140.198528399999987, 37.4490032 ], [ 140.182334, 37.4512721 ], [ 140.175790899999981, 37.4579921 ], [ 140.1667147, 37.4577577 ], [ 140.160215, 37.4612749 ], [ 140.149142899999987, 37.4633302 ], [ 140.1325411, 37.4638791 ], [ 140.113355399999989, 37.4698485 ], [ 140.103946, 37.4530386 ], [ 140.078976499999982, 37.4330283 ], [ 140.0631114, 37.4286125 ], [ 140.057547100000022, 37.4180542 ], [ 140.051025399999986, 37.4143433 ], [ 140.0465544, 37.3889033 ], [ 140.0535071, 37.3661677 ], [ 140.050782, 37.3556416 ], [ 140.037438, 37.3420819 ], [ 140.03599939999998, 37.3367641 ] ] ] } },
{ "type": "Feature", "properties": { "hokenjo": "県中" }, "geometry": { "type": "Polygon", "coordinates": [ [ [ 140.4385189, 37.0741315 ], [ 140.450754099999983, 37.0785709 ], [ 140.467700899999983, 37.0784839 ], [ 140.490583099999981, 37.07907 ], [ 140.497773, 37.0855161 ], [ 140.5073864, 37.0805811 ], [ 140.51922159999998, 37.0669199 ], [ 140.5292667, 37.0607583 ], [ 140.5410164, 37.063235 ], [ 140.550745, 37.0549051 ], [ 140.5566265, 37.0542215 ], [ 140.558784299999985, 37.0399987 ], [ 140.5547052, 37.034512 ], [ 140.5579501, 37.024107 ], [ 140.56183679999998, 37.0208906 ], [ 140.560526899999985, 37.0022564 ], [ 140.576693299999988, 36.9925104 ], [ 140.5913908, 37.0020246 ], [ 140.5994038, 37.005223 ], [ 140.6067725, 37.0147237 ], [ 140.6141935, 37.0132466 ], [ 140.6208494, 37.0202039 ], [ 140.620607399999983, 37.0344861 ], [ 140.62387529999998, 37.0360701 ], [ 140.624220799999989, 37.0474995 ], [ 140.6337747, 37.0555915 ], [ 140.6428703, 37.0567361 ], [ 140.640496499999983, 37.0689005 ], [ 140.654171599999984, 37.0723631 ], [ 140.6581271, 37.076526 ], [ 140.6529797, 37.0851942 ], [ 140.664327899999989, 37.0912204 ], [ 140.6619253, 37.1011639 ], [ 140.6567296, 37.1054257 ], [ 140.656991799999986, 37.1105504 ], [ 140.650776899999983, 37.119941 ], [ 140.646316, 37.1192229 ], [ 140.6413092, 37.1270947 ], [ 140.642838899999987, 37.1333814 ], [ 140.6373513, 37.1408837 ], [ 140.632564799999983, 37.1546753 ], [ 140.627475299999986, 37.1479639 ], [ 140.61186189999998, 37.1540754 ], [ 140.6127008, 37.1580089 ], [ 140.6097451, 37.169745899999988 ], [ 140.6011245, 37.1789828 ], [ 140.6079096, 37.1881664 ], [ 140.6050816, 37.1944489 ], [ 140.6070154, 37.2040053 ], [ 140.613814099999985, 37.205502 ], [ 140.6175941, 37.203692 ], [ 140.6274626, 37.2117975 ], [ 140.647255699999988, 37.2176711 ], [ 140.649699699999985, 37.2222622 ], [ 140.66246049999998, 37.2282617 ], [ 140.6678322, 37.2255664 ], [ 140.6828301, 37.2344841 ], [ 140.685385, 37.2445652 ], [ 140.682886199999984, 37.2533107 ], [ 140.6864027, 37.2604994 ], [ 140.6856125, 37.2683707 ], [ 140.6938592, 37.2777563 ], [ 140.689125900000022, 37.287251 ], [ 140.693379, 37.2889484 ], [ 140.694808, 37.2987223 ], [ 140.690246, 37.3002209 ], [ 140.69560629999998, 37.3149903 ], [ 140.706881399999986, 37.3149678 ], [ 140.7137741, 37.3190583 ], [ 140.723216399999984, 37.3195402 ], [ 140.719572299999982, 37.3242096 ], [ 140.718652099999986, 37.3342271 ], [ 140.7071846, 37.3462707 ], [ 140.7011005, 37.3572191 ], [ 140.704799399999985, 37.3672856 ], [ 140.6999194, 37.3745022 ], [ 140.7069534, 37.3786284 ], [ 140.7158622, 37.3892386 ], [ 140.7149976, 37.3972539 ], [ 140.725997, 37.4002508 ], [ 140.728456, 37.4045969 ], [ 140.7405958, 37.4010516 ], [ 140.742942699999986, 37.393616 ], [ 140.755388399999987, 37.3928776 ], [ 140.7642368, 37.3835006 ], [ 140.770174699999984, 37.3872339 ], [ 140.7953039, 37.3808777 ], [ 140.815439, 37.3823112 ], [ 140.8258119, 37.3803861 ], [ 140.834851499999985, 37.3751766 ], [ 140.850606299999981, 37.3727682 ], [ 140.851747499999988, 37.3835065 ], [ 140.859798600000033, 37.3870489 ], [ 140.8585783, 37.406615 ], [ 140.8616792, 37.4096392 ], [ 140.8537278, 37.4214017 ], [ 140.85019939999998, 37.4384723 ], [ 140.8451249, 37.4413675 ], [ 140.8432656, 37.4501673 ], [ 140.845529, 37.4553886 ], [ 140.835699399999982, 37.4617931 ], [ 140.833568099999979, 37.4683001 ], [ 140.8196567, 37.4639054 ], [ 140.8136414, 37.4706627 ], [ 140.7994803, 37.4726464 ], [ 140.7919071, 37.4687223 ], [ 140.788059799999985, 37.473425 ], [ 140.7799506, 37.4756479 ], [ 140.771565399999986, 37.4721459 ], [ 140.764087, 37.4793771 ], [ 140.753915299999989, 37.4855024 ], [ 140.747606, 37.4849586 ], [ 140.7403731, 37.4905769 ], [ 140.731211299999984, 37.4901664 ], [ 140.7026, 37.5020543 ], [ 140.6921509, 37.5034141 ], [ 140.70545629999998, 37.5233318 ], [ 140.696045699999985, 37.5258657 ], [ 140.681912, 37.5380767 ], [ 140.6695418, 37.5337545 ], [ 140.6566224, 37.5377404 ], [ 140.646433600000023, 37.5350872 ], [ 140.6391463, 37.5262822 ], [ 140.6280602, 37.524877 ], [ 140.621771199999984, 37.5199017 ], [ 140.6170009, 37.5222354 ], [ 140.6075213, 37.521219 ], [ 140.603055399999988, 37.5176632 ], [ 140.583993, 37.5101114 ], [ 140.5731386, 37.5094673 ], [ 140.5665353, 37.5029118 ], [ 140.5582674, 37.5014452 ], [ 140.5496172, 37.5056613 ], [ 140.544666299999989, 37.5113488 ], [ 140.535483299999981, 37.5079075 ], [ 140.5284417, 37.4988259 ], [ 140.517664800000034, 37.5036496 ], [ 140.5066163, 37.4848978 ], [ 140.5009473, 37.4826382 ], [ 140.481816399999985, 37.485166899999989 ], [ 140.47800490000003, 37.4814994 ], [ 140.4853038, 37.4747094 ], [ 140.4734838, 37.4693415 ], [ 140.467514099999988, 37.4535914 ], [ 140.4740788, 37.4440822 ], [ 140.4701025, 37.4318564 ], [ 140.4633282, 37.4331306 ], [ 140.4576576, 37.438009 ], [ 140.4463322, 37.4346278 ], [ 140.4493249, 37.4293753 ], [ 140.444164299999983, 37.4256835 ], [ 140.4291694, 37.4300026 ], [ 140.4254894, 37.427934 ], [ 140.428737399999989, 37.4202431 ], [ 140.4407094, 37.4159546 ], [ 140.44248, 37.4084753 ], [ 140.450825399999985, 37.4078198 ], [ 140.4523495, 37.4002866 ], [ 140.444214, 37.391936 ], [ 140.453695, 37.3859621 ], [ 140.459455099999985, 37.3897066 ], [ 140.467673499999989, 37.3862668 ], [ 140.478215299999988, 37.3898565 ], [ 140.48038950000003, 37.3812856 ], [ 140.477468499999986, 37.3719036 ], [ 140.487524800000017, 37.3705239 ], [ 140.4936356, 37.3882293 ], [ 140.5174624, 37.3879597 ], [ 140.51910239999998, 37.3902727 ], [ 140.5287864, 37.3899799 ], [ 140.536374, 37.384867 ], [ 140.5419315, 37.3743309 ], [ 140.559984900000018, 37.3654396 ], [ 140.5546201, 37.3613436 ], [ 140.54514709999998, 37.3472394 ], [ 140.5380529, 37.3332375 ], [ 140.543430199999989, 37.3273233 ], [ 140.5501606, 37.3258541 ], [ 140.561368099999981, 37.3144527 ], [ 140.557955, 37.3105282 ], [ 140.5594021, 37.2957763 ], [ 140.555428700000022, 37.2912513 ], [ 140.557811099999981, 37.2732966 ], [ 140.5457726, 37.2725263 ], [ 140.5349396, 37.2660227 ], [ 140.5226481, 37.2695111 ], [ 140.5205187, 37.275445 ], [ 140.5080022, 37.2843761 ], [ 140.4967973, 37.2848017 ], [ 140.4921592, 37.2883873 ], [ 140.474869, 37.2920698 ], [ 140.4709665, 37.2970051 ], [ 140.4640322, 37.2984801 ], [ 140.454642399999983, 37.3065401 ], [ 140.441124699999989, 37.3054274 ], [ 140.431940200000014, 37.3094135 ], [ 140.41850789999998, 37.3117207 ], [ 140.3895526, 37.321725 ], [ 140.3748402, 37.3293537 ], [ 140.3761873, 37.3431303 ], [ 140.3535551, 37.3393781 ], [ 140.347955, 37.3435014 ], [ 140.3269502, 37.3405291 ], [ 140.3096486, 37.3420695 ], [ 140.3013207, 37.3386476 ], [ 140.2759929, 37.3343207 ], [ 140.272427, 37.3364485 ], [ 140.2519862, 37.3343707 ], [ 140.2381244, 37.3349891 ], [ 140.228181799999987, 37.3408535 ], [ 140.219031199999989, 37.3497907 ], [ 140.219551, 37.356408 ], [ 140.2042387, 37.3599855 ], [ 140.1976583, 37.357868 ], [ 140.1892369, 37.3697349 ], [ 140.1837027, 37.3688019 ], [ 140.1809418, 37.3603183 ], [ 140.17389559999998, 37.3548416 ], [ 140.1737527, 37.3450302 ], [ 140.168039099999987, 37.3461702 ], [ 140.1669099, 37.3384247 ], [ 140.1518327, 37.3316461 ], [ 140.1487761, 37.3345438 ], [ 140.1345588, 37.3300297 ], [ 140.1303849, 37.3344861 ], [ 140.121372799999989, 37.3282674 ], [ 140.1155717, 37.3289405 ], [ 140.1146091, 37.3198099 ], [ 140.1062705, 37.3191599 ], [ 140.1028971, 37.3208819 ], [ 140.081768399999987, 37.3208902 ], [ 140.075663, 37.3172163 ], [ 140.067936, 37.3243316 ], [ 140.04077909999998, 37.3327547 ], [ 140.03599939999998, 37.3367641 ], [ 140.0254134, 37.3421008 ], [ 140.0190017, 37.3353186 ], [ 140.0124754, 37.3229975 ], [ 140.001402499999983, 37.3185394 ], [ 139.9990427, 37.3099217 ], [ 139.99333679999998, 37.30762 ], [ 139.9919161, 37.2971945 ], [ 139.975748899999985, 37.2829434 ], [ 139.9775927, 37.2731476 ], [ 139.963014499999986, 37.2731801 ], [ 139.964713099999983, 37.2653071 ], [ 139.969229399999989, 37.2592798 ], [ 139.964680099999981, 37.2503816 ], [ 139.9664115, 37.2467521 ], [ 139.9520535, 37.2360352 ], [ 139.947994699999981, 37.2278166 ], [ 139.9479001, 37.2213453 ], [ 139.9579582, 37.2166814 ], [ 139.965774, 37.2070551 ], [ 139.982141, 37.2019362 ], [ 139.993840200000022, 37.1963245 ], [ 139.999528699999985, 37.1996797 ], [ 140.017798699999986, 37.1969725 ], [ 140.0305678, 37.200343 ], [ 140.03922, 37.2060996 ], [ 140.0483032, 37.2031832 ], [ 140.0522736, 37.2082315 ], [ 140.071338, 37.2099503 ], [ 140.0735176, 37.2174045 ], [ 140.071888799999982, 37.2239742 ], [ 140.0830967, 37.2264261 ], [ 140.089181, 37.2332136 ], [ 140.089723600000013, 37.2398644 ], [ 140.099483900000024, 37.2428349 ], [ 140.0992904, 37.251703 ], [ 140.112171, 37.2575099 ], [ 140.11434269999998, 37.2616361 ], [ 140.124953299999987, 37.2600822 ], [ 140.132020499999982, 37.2553961 ], [ 140.139551899999987, 37.2542605 ], [ 140.147742199999982, 37.2445947 ], [ 140.1703928, 37.2415933 ], [ 140.1788635, 37.2454288 ], [ 140.199995699999988, 37.2365783 ], [ 140.2037158, 37.2372441 ], [ 140.2108433, 37.2283954 ], [ 140.22388, 37.2243507 ], [ 140.23008059999998, 37.2256265 ], [ 140.2411976, 37.2205679 ], [ 140.24677269999998, 37.2227343 ], [ 140.2540833, 37.2199476 ], [ 140.2794367, 37.2209336 ], [ 140.283411199999989, 37.2254747 ], [ 140.2931841, 37.2263025 ], [ 140.300151699999986, 37.2239906 ], [ 140.3018176, 37.2335797 ], [ 140.3099072, 37.2345769 ], [ 140.3168628, 37.2275947 ], [ 140.3205255, 37.2172133 ], [ 140.330549800000028, 37.218133 ], [ 140.332784799999985, 37.2231819 ], [ 140.3453216, 37.2187152 ], [ 140.3556324, 37.2268293 ], [ 140.3665383, 37.2206548 ], [ 140.3890118, 37.2239371 ], [ 140.3931748, 37.222554599999988 ], [ 140.397231799999986, 37.2217507 ], [ 140.400756799999982, 37.2126204 ], [ 140.3946862, 37.2030354 ], [ 140.4008101, 37.196981099999988 ], [ 140.398897799999986, 37.1918292 ], [ 140.4072554, 37.1826141 ], [ 140.4092651, 37.1711904 ], [ 140.403888599999988, 37.1681307 ], [ 140.4042517, 37.1612103 ], [ 140.3924606, 37.1600626 ], [ 140.3846309, 37.1547042 ], [ 140.380593600000026, 37.1471108 ], [ 140.3698421, 37.1397444 ], [ 140.3677171, 37.1258879 ], [ 140.370265099999983, 37.1222359 ], [ 140.387132799999989, 37.1264423 ], [ 140.3916633, 37.1217365 ], [ 140.40396, 37.1214584 ], [ 140.4089914, 37.1167673 ], [ 140.4119474, 37.1077565 ], [ 140.397656, 37.0987863 ], [ 140.3900186, 37.0898938 ], [ 140.3832452, 37.0901339 ], [ 140.3729966, 37.0804812 ], [ 140.382924299999985, 37.072982 ], [ 140.3922944, 37.0762644 ], [ 140.3952916, 37.0839608 ], [ 140.4058736, 37.0849099 ], [ 140.402282, 37.0734425 ], [ 140.404343899999986, 37.0590042 ], [ 140.40834049999998, 37.0524789 ], [ 140.4145409, 37.0540277 ], [ 140.432009099999988, 37.043164 ], [ 140.4253851, 37.0377952 ], [ 140.423795, 37.0312938 ], [ 140.4324334, 37.0315754 ], [ 140.4490691, 37.0356647 ], [ 140.4382721, 37.0511834 ], [ 140.4342882, 37.0664904 ], [ 140.4385189, 37.0741315 ] ] ] } },
{ "type": "Feature", "properties": { "hokenjo": "県南" }, "geometry": { "type": "Polygon", "coordinates": [ [ [ 140.51905069999998, 36.8361539 ], [ 140.5284828, 36.8399947 ], [ 140.528199799999982, 36.8436414 ], [ 140.5379662, 36.8587729 ], [ 140.545466, 36.8581371 ], [ 140.560369399999985, 36.863359 ], [ 140.564845099999985, 36.8622398 ], [ 140.575497499999983, 36.8691114 ], [ 140.5804726, 36.8668897 ], [ 140.5860322, 36.8731527 ], [ 140.5922463, 36.873453 ], [ 140.5932933, 36.8798411 ], [ 140.5793774, 36.896136299999988 ], [ 140.580773599999986, 36.9044077 ], [ 140.5656558, 36.9164339 ], [ 140.5705423, 36.9311326 ], [ 140.5681473, 36.9373696 ], [ 140.574696099999983, 36.942078 ], [ 140.586113, 36.9452843 ], [ 140.582733, 36.9534509 ], [ 140.582242799999989, 36.9655916 ], [ 140.5701454, 36.9751561 ], [ 140.5659454, 36.9857783 ], [ 140.576693299999988, 36.9925104 ], [ 140.560526899999985, 37.0022564 ], [ 140.56183679999998, 37.0208906 ], [ 140.5579501, 37.024107 ], [ 140.5547052, 37.034512 ], [ 140.558784299999985, 37.0399987 ], [ 140.5566265, 37.0542215 ], [ 140.550745, 37.0549051 ], [ 140.5410164, 37.063235 ], [ 140.5292667, 37.0607583 ], [ 140.51922159999998, 37.0669199 ], [ 140.5073864, 37.0805811 ], [ 140.497773, 37.0855161 ], [ 140.490583099999981, 37.07907 ], [ 140.467700899999983, 37.0784839 ], [ 140.450754099999983, 37.0785709 ], [ 140.4385189, 37.0741315 ], [ 140.4342882, 37.0664904 ], [ 140.4382721, 37.0511834 ], [ 140.4490691, 37.0356647 ], [ 140.4324334, 37.0315754 ], [ 140.423795, 37.0312938 ], [ 140.4253851, 37.0377952 ], [ 140.432009099999988, 37.043164 ], [ 140.4145409, 37.0540277 ], [ 140.40834049999998, 37.0524789 ], [ 140.404343899999986, 37.0590042 ], [ 140.402282, 37.0734425 ], [ 140.4058736, 37.0849099 ], [ 140.3952916, 37.0839608 ], [ 140.3922944, 37.0762644 ], [ 140.382924299999985, 37.072982 ], [ 140.3729966, 37.0804812 ], [ 140.3832452, 37.0901339 ], [ 140.3900186, 37.0898938 ], [ 140.397656, 37.0987863 ], [ 140.4119474, 37.1077565 ], [ 140.4089914, 37.1167673 ], [ 140.40396, 37.1214584 ], [ 140.3916633, 37.1217365 ], [ 140.387132799999989, 37.1264423 ], [ 140.370265099999983, 37.1222359 ], [ 140.3677171, 37.1258879 ], [ 140.3698421, 37.1397444 ], [ 140.380593600000026, 37.1471108 ], [ 140.3846309, 37.1547042 ], [ 140.3924606, 37.1600626 ], [ 140.4042517, 37.1612103 ], [ 140.403888599999988, 37.1681307 ], [ 140.4092651, 37.1711904 ], [ 140.4072554, 37.1826141 ], [ 140.398897799999986, 37.1918292 ], [ 140.4008101, 37.196981099999988 ], [ 140.3946862, 37.2030354 ], [ 140.400756799999982, 37.2126204 ], [ 140.397231799999986, 37.2217507 ], [ 140.3931748, 37.222554599999988 ], [ 140.3890118, 37.2239371 ], [ 140.3665383, 37.2206548 ], [ 140.3556324, 37.2268293 ], [ 140.3453216, 37.2187152 ], [ 140.332784799999985, 37.2231819 ], [ 140.330549800000028, 37.218133 ], [ 140.3205255, 37.2172133 ], [ 140.3168628, 37.2275947 ], [ 140.3099072, 37.2345769 ], [ 140.3018176, 37.2335797 ], [ 140.300151699999986, 37.2239906 ], [ 140.2931841, 37.2263025 ], [ 140.283411199999989, 37.2254747 ], [ 140.2794367, 37.2209336 ], [ 140.2540833, 37.2199476 ], [ 140.24677269999998, 37.2227343 ], [ 140.2411976, 37.2205679 ], [ 140.23008059999998, 37.2256265 ], [ 140.22388, 37.2243507 ], [ 140.2108433, 37.2283954 ], [ 140.2037158, 37.2372441 ], [ 140.199995699999988, 37.2365783 ], [ 140.1788635, 37.2454288 ], [ 140.1703928, 37.2415933 ], [ 140.147742199999982, 37.2445947 ], [ 140.139551899999987, 37.2542605 ], [ 140.132020499999982, 37.2553961 ], [ 140.124953299999987, 37.2600822 ], [ 140.11434269999998, 37.2616361 ], [ 140.112171, 37.2575099 ], [ 140.0992904, 37.251703 ], [ 140.099483900000024, 37.2428349 ], [ 140.089723600000013, 37.2398644 ], [ 140.089181, 37.2332136 ], [ 140.0830967, 37.2264261 ], [ 140.071888799999982, 37.2239742 ], [ 140.0735176, 37.2174045 ], [ 140.071338, 37.2099503 ], [ 140.0522736, 37.2082315 ], [ 140.0483032, 37.2031832 ], [ 140.03922, 37.2060996 ], [ 140.0305678, 37.200343 ], [ 140.017798699999986, 37.1969725 ], [ 139.999528699999985, 37.1996797 ], [ 139.993840200000022, 37.1963245 ], [ 139.982141, 37.2019362 ], [ 139.968009699999982, 37.1865824 ], [ 139.9598665, 37.179925 ], [ 139.963985600000029, 37.1609957 ], [ 139.9612612, 37.1532957 ], [ 139.9631245, 37.1484838 ], [ 139.9792498, 37.146879 ], [ 139.9904927, 37.1427153 ], [ 139.9955587, 37.1438808 ], [ 140.0145546, 37.1401241 ], [ 140.0244486, 37.143007 ], [ 140.0470743, 37.135437499999988 ], [ 140.0575107, 37.1260341 ], [ 140.065962499999983, 37.1273438 ], [ 140.0893589, 37.1215882 ], [ 140.093735899999984, 37.124196 ], [ 140.1026721, 37.1210479 ], [ 140.1280492, 37.1041717 ], [ 140.1370216, 37.1064642 ], [ 140.150794099999985, 37.0943292 ], [ 140.1583547, 37.0805778 ], [ 140.1643664, 37.0794116 ], [ 140.172827, 37.070255 ], [ 140.1848235, 37.069208499999988 ], [ 140.1930621, 37.0655035 ], [ 140.1906507, 37.0566663 ], [ 140.1997829, 37.0476927 ], [ 140.199271899999985, 37.0284133 ], [ 140.203334399999989, 37.0238704 ], [ 140.219735, 37.0185113 ], [ 140.224654500000014, 37.0238046 ], [ 140.2424438, 37.0238789 ], [ 140.2489324, 37.0258739 ], [ 140.251390099999981, 37.0091856 ], [ 140.2402132, 37.0002751 ], [ 140.2440287, 36.9913251 ], [ 140.250976399999985, 36.9833748 ], [ 140.24420139999998, 36.9789909 ], [ 140.2439046, 36.9731779 ], [ 140.2523263, 36.9666723 ], [ 140.253089800000026, 36.9629679 ], [ 140.244495, 36.9569699 ], [ 140.2406349, 36.9498463 ], [ 140.243614, 36.9432657 ], [ 140.253509899999983, 36.9412346 ], [ 140.27297489999998, 36.9301548 ], [ 140.2835739, 36.935245 ], [ 140.2927039, 36.9331974 ], [ 140.3027167, 36.9270313 ], [ 140.307729200000011, 36.9191896 ], [ 140.321856699999984, 36.9077831 ], [ 140.3240457, 36.893338 ], [ 140.3466128, 36.8850195 ], [ 140.3652118, 36.8843249 ], [ 140.3719118, 36.8701821 ], [ 140.3685912, 36.8670853 ], [ 140.3705789, 36.8552227 ], [ 140.374901699999981, 36.8507872 ], [ 140.3772061, 36.8379247 ], [ 140.3871298, 36.834168 ], [ 140.402982399999985, 36.8313684 ], [ 140.413497799999988, 36.8321206 ], [ 140.4158428, 36.8285653 ], [ 140.4309284, 36.8173024 ], [ 140.4394857, 36.820486 ], [ 140.453338799999983, 36.8029848 ], [ 140.4665191, 36.7918489 ], [ 140.480138499999981, 36.7998242 ], [ 140.4805896, 36.8037364 ], [ 140.48918089999998, 36.8093511 ], [ 140.4889212, 36.8187127 ], [ 140.5029256, 36.8190343 ], [ 140.516680899999983, 36.8265565 ], [ 140.51905069999998, 36.8361539 ] ] ] } },
{ "type": "Feature", "properties": { "hokenjo": "県北" }, "geometry": { "type": "Polygon", "coordinates": [ [ [ 140.5066163, 37.4848978 ], [ 140.517664800000034, 37.5036496 ], [ 140.5284417, 37.4988259 ], [ 140.535483299999981, 37.5079075 ], [ 140.544666299999989, 37.5113488 ], [ 140.5496172, 37.5056613 ], [ 140.5582674, 37.5014452 ], [ 140.5665353, 37.5029118 ], [ 140.5731386, 37.5094673 ], [ 140.583993, 37.5101114 ], [ 140.603055399999988, 37.5176632 ], [ 140.6075213, 37.521219 ], [ 140.6170009, 37.5222354 ], [ 140.621771199999984, 37.5199017 ], [ 140.6280602, 37.524877 ], [ 140.6391463, 37.5262822 ], [ 140.646433600000023, 37.5350872 ], [ 140.6566224, 37.5377404 ], [ 140.6695418, 37.5337545 ], [ 140.681912, 37.5380767 ], [ 140.683697600000016, 37.5428356 ], [ 140.6862557, 37.5473092 ], [ 140.6947854, 37.5603999 ], [ 140.7013232, 37.5753985 ], [ 140.7134158, 37.5731426 ], [ 140.7240803, 37.5868744 ], [ 140.726256799999987, 37.593393299999988 ], [ 140.718246, 37.6014437 ], [ 140.7064739, 37.6063479 ], [ 140.6990218, 37.6054391 ], [ 140.6770728, 37.6206131 ], [ 140.668637499999988, 37.6296673 ], [ 140.6665729, 37.6416076 ], [ 140.6687316, 37.6528459 ], [ 140.6647591, 37.655833099999988 ], [ 140.667102299999982, 37.6761559 ], [ 140.6601703, 37.6799817 ], [ 140.6559714, 37.6876037 ], [ 140.6460092, 37.6842704 ], [ 140.6448957, 37.6916534 ], [ 140.649797799999988, 37.697732599999988 ], [ 140.6618205, 37.7020429 ], [ 140.6616572, 37.7087656 ], [ 140.6681232, 37.7114131 ], [ 140.6695105, 37.72256 ], [ 140.6765029, 37.728102 ], [ 140.6765835, 37.7364733 ], [ 140.682941199999988, 37.7419133 ], [ 140.7008065, 37.7449014 ], [ 140.7049853, 37.7501568 ], [ 140.7283917, 37.7518616 ], [ 140.735890499999982, 37.7571184 ], [ 140.735741499999989, 37.7682131 ], [ 140.7235825, 37.761803 ], [ 140.702497599999987, 37.7595467 ], [ 140.699540399999989, 37.7639439 ], [ 140.6844446, 37.7701773 ], [ 140.6783706, 37.787271 ], [ 140.6898718, 37.7965331 ], [ 140.6943733, 37.803265 ], [ 140.686447, 37.8195234 ], [ 140.684244899999982, 37.8308897 ], [ 140.679504799999989, 37.8368519 ], [ 140.6869386, 37.8422449 ], [ 140.6915774, 37.8495073 ], [ 140.6928514, 37.8570475 ], [ 140.6827614, 37.874071 ], [ 140.682882799999987, 37.8795121 ], [ 140.6908894, 37.8836742 ], [ 140.688544899999982, 37.8891347 ], [ 140.66697640000001, 37.8950577 ], [ 140.6600044, 37.9008844 ], [ 140.6468621, 37.898637 ], [ 140.644672, 37.8954487 ], [ 140.627342299999981, 37.8990733 ], [ 140.6224464, 37.9026361 ], [ 140.6157302, 37.9147683 ], [ 140.5984092, 37.9076407 ], [ 140.5918144, 37.9061694 ], [ 140.5753147, 37.9144806 ], [ 140.5663792, 37.9227909 ], [ 140.5625578, 37.917912 ], [ 140.5630291, 37.9114354 ], [ 140.53688630000002, 37.907590299999988 ], [ 140.531325899999985, 37.9052456 ], [ 140.5218199, 37.9087992 ], [ 140.5157922, 37.9034934 ], [ 140.502173, 37.9045749 ], [ 140.498347699999982, 37.9003599 ], [ 140.4878833, 37.899850799999989 ], [ 140.4841765, 37.9015272 ], [ 140.4684805, 37.8941143 ], [ 140.4709272, 37.8855437 ], [ 140.4587965, 37.8735283 ], [ 140.458892, 37.8652559 ], [ 140.466866399999986, 37.8576781 ], [ 140.4749512, 37.8547261 ], [ 140.471520199999986, 37.8409651 ], [ 140.4818129, 37.827347 ], [ 140.4920474, 37.827185299999989 ], [ 140.4891006, 37.8127162 ], [ 140.4963941, 37.8106595 ], [ 140.5025434, 37.8144244 ], [ 140.510131, 37.8091547 ], [ 140.5203237, 37.8059968 ], [ 140.5171839, 37.7980716 ], [ 140.5281693, 37.7936052 ], [ 140.52354219999998, 37.790328 ], [ 140.5219894, 37.7791627 ], [ 140.528223, 37.7710047 ], [ 140.5274071, 37.7629833 ], [ 140.5333858, 37.7611289 ], [ 140.553737, 37.7658376 ], [ 140.570010599999989, 37.7610065 ], [ 140.55759519999998, 37.7431263 ], [ 140.550145900000018, 37.7394066 ], [ 140.545434799999981, 37.7280036 ], [ 140.542522099999985, 37.7124503 ], [ 140.545950799999986, 37.7086031 ], [ 140.5465084, 37.7008661 ], [ 140.5396519, 37.694442599999988 ], [ 140.5472508, 37.6899778 ], [ 140.548473699999988, 37.6746234 ], [ 140.5621626, 37.6708984 ], [ 140.5610733, 37.6640545 ], [ 140.5688642, 37.6579092 ], [ 140.555322499999988, 37.6509021 ], [ 140.548795700000028, 37.6507643 ], [ 140.5496881, 37.643171 ], [ 140.5246807, 37.6358447 ], [ 140.5281003, 37.6440313 ], [ 140.5152956, 37.6420722 ], [ 140.5134966, 37.6340341 ], [ 140.5065014, 37.6255419 ], [ 140.4986252, 37.6258817 ], [ 140.5027959, 37.6330894 ], [ 140.501632, 37.6383314 ], [ 140.4909188, 37.6389734 ], [ 140.4825893, 37.6419686 ], [ 140.485431399999982, 37.6508394 ], [ 140.474133699999982, 37.6483909 ], [ 140.456125, 37.6469881 ], [ 140.4426771, 37.6491699 ], [ 140.437343, 37.645396 ], [ 140.424507, 37.6450238 ], [ 140.4150443, 37.6425183 ], [ 140.4025586, 37.6480653 ], [ 140.3918454, 37.6467912 ], [ 140.3778218, 37.6512333 ], [ 140.3613674, 37.6476098 ], [ 140.3468254, 37.6469516 ], [ 140.3338033, 37.6503089 ], [ 140.330313499999988, 37.6481626 ], [ 140.2971011, 37.6452857 ], [ 140.28757539999998, 37.6398961 ], [ 140.2806819, 37.6416862 ], [ 140.284704399999981, 37.6259761 ], [ 140.2891373, 37.6207152 ], [ 140.290327499999989, 37.6118098 ], [ 140.285038499999985, 37.6054665 ], [ 140.287239299999982, 37.5994143 ], [ 140.2800105, 37.5910823 ], [ 140.277781, 37.5821826 ], [ 140.287892900000031, 37.5625636 ], [ 140.285796399999981, 37.5554122 ], [ 140.291696699999989, 37.5479002 ], [ 140.2966988, 37.5460927 ], [ 140.2990112, 37.5314818 ], [ 140.3065943, 37.525981 ], [ 140.3042345, 37.5216424 ], [ 140.317958, 37.5154257 ], [ 140.3182157, 37.506709 ], [ 140.3196122, 37.490339 ], [ 140.322495799999984, 37.4852496 ], [ 140.3182074, 37.4775112 ], [ 140.325601799999987, 37.4710901 ], [ 140.3357828, 37.4698048 ], [ 140.3378107, 37.4786515 ], [ 140.3443091, 37.4794226 ], [ 140.3516813, 37.4707587 ], [ 140.373217399999987, 37.4713859 ], [ 140.3837599, 37.478855 ], [ 140.391243, 37.4772578 ], [ 140.406185, 37.489795 ], [ 140.41271279999998, 37.4820569 ], [ 140.4215729, 37.4807809 ], [ 140.424156, 37.4855122 ], [ 140.4414732, 37.4816203 ], [ 140.460264, 37.4800556 ], [ 140.4664105, 37.4825264 ], [ 140.47800490000003, 37.4814994 ], [ 140.481816399999985, 37.485166899999989 ], [ 140.5009473, 37.4826382 ], [ 140.5066163, 37.4848978 ] ] ] } },
{ "type": "Feature", "properties": { "hokenjo": "相双" }, "geometry": { "type": "Polygon", "coordinates": [ [ [ 140.8529972, 37.2591397 ], [ 140.859171299999986, 37.2743463 ], [ 140.877419799999984, 37.2772791 ], [ 140.871895699999982, 37.2706634 ], [ 140.872358199999979, 37.2643306 ], [ 140.86709639999998, 37.2596812 ], [ 140.8746459, 37.2531404 ], [ 140.878115900000012, 37.2406801 ], [ 140.8671229, 37.2278855 ], [ 140.8751102, 37.220883 ], [ 140.900950699999981, 37.2203944 ], [ 140.903960899999987, 37.2143052 ], [ 140.935949099999988, 37.1955104 ], [ 140.9566959, 37.1858844 ], [ 140.9684684, 37.1891434 ], [ 140.980508499999985, 37.1856336 ], [ 141.000426, 37.1836432 ], [ 141.0025028, 37.200404 ], [ 141.0071714, 37.2155465 ], [ 141.0122505, 37.2231221 ], [ 141.0123744, 37.2283538 ], [ 141.0204952, 37.2402075 ], [ 141.0131285, 37.2410682 ], [ 141.013899899999984, 37.260575 ], [ 141.018034699999987, 37.2777021 ], [ 141.0238861, 37.2955219 ], [ 141.025469499999986, 37.3134077 ], [ 141.0281211, 37.3163951 ], [ 141.0252678, 37.324786 ], [ 141.028282, 37.3408772 ], [ 141.036875, 37.3635638 ], [ 141.0355849, 37.3731088 ], [ 141.033865099999986, 37.3854703 ], [ 141.035296099999982, 37.3958664 ], [ 141.0333833, 37.4058534 ], [ 141.034845, 37.42689 ], [ 141.034055, 37.4308544 ], [ 141.037969100000026, 37.45379 ], [ 141.036552799999981, 37.4663563 ], [ 141.042009399999984, 37.4832319 ], [ 141.0389979, 37.4875104 ], [ 141.0390047, 37.498142099999988 ], [ 141.034209799999985, 37.5136511 ], [ 141.030451699999986, 37.5287988 ], [ 141.0289392, 37.554365499999989 ], [ 141.0266388, 37.5607427 ], [ 141.02489319999998, 37.583435 ], [ 141.0270504, 37.6031701 ], [ 141.0227607, 37.6152532 ], [ 141.0223957, 37.6268544 ], [ 141.023980500000022, 37.6426797 ], [ 141.0189064, 37.6573735 ], [ 141.0222516, 37.6642827 ], [ 141.013687799999985, 37.6770878 ], [ 141.0112067, 37.6884319 ], [ 141.011318499999987, 37.7218075 ], [ 141.0121979, 37.7328181 ], [ 141.0080256, 37.7496863 ], [ 140.999834, 37.7613266 ], [ 140.9909484, 37.7677814 ], [ 140.9880925, 37.7778721 ], [ 140.9859525, 37.8069342 ], [ 140.986394, 37.8236871 ], [ 140.9597121, 37.8329473 ], [ 140.9591691, 37.8414851 ], [ 140.9538413, 37.851867 ], [ 140.9558562, 37.8593679 ], [ 140.945282599999985, 37.8571365 ], [ 140.941003599999988, 37.8621697 ], [ 140.9332681, 37.8805775 ], [ 140.931014, 37.8961713 ], [ 140.923966399999983, 37.8949123 ], [ 140.9151764, 37.8978393 ], [ 140.90111970000001, 37.8976378 ], [ 140.898147699999981, 37.9029889 ], [ 140.890517499999987, 37.9022961 ], [ 140.8810072, 37.8978671 ], [ 140.8701557, 37.8964174 ], [ 140.8562514, 37.8909001 ], [ 140.856486099999984, 37.8829829 ], [ 140.860688399999987, 37.8791515 ], [ 140.8545795, 37.8745182 ], [ 140.860739, 37.867176799999989 ], [ 140.858636599999983, 37.8562711 ], [ 140.850538799999981, 37.849232 ], [ 140.8541774, 37.8419298 ], [ 140.8559334, 37.8286309 ], [ 140.853638599999982, 37.8213604 ], [ 140.8581441, 37.8144152 ], [ 140.8537159, 37.8070291 ], [ 140.85791039999998, 37.8028538 ], [ 140.8517168, 37.7953081 ], [ 140.8303735, 37.794823199999989 ], [ 140.823587, 37.7987421 ], [ 140.8107542, 37.7956244 ], [ 140.800757299999987, 37.7978333 ], [ 140.7749815, 37.8063114 ], [ 140.7725302, 37.7973656 ], [ 140.779407, 37.7909487 ], [ 140.786776, 37.7891776 ], [ 140.794487799999985, 37.7821856 ], [ 140.8029271, 37.7799773 ], [ 140.795529099999982, 37.7735482 ], [ 140.78735469999998, 37.7748132 ], [ 140.775219599999986, 37.7818166 ], [ 140.7571472, 37.7854742 ], [ 140.7380282, 37.7872324 ], [ 140.7269698, 37.7814792 ], [ 140.723001899999986, 37.7925352 ], [ 140.711524500000024, 37.8006621 ], [ 140.6943733, 37.803265 ], [ 140.6898718, 37.7965331 ], [ 140.6783706, 37.787271 ], [ 140.6844446, 37.7701773 ], [ 140.699540399999989, 37.7639439 ], [ 140.702497599999987, 37.7595467 ], [ 140.7235825, 37.761803 ], [ 140.735741499999989, 37.7682131 ], [ 140.735890499999982, 37.7571184 ], [ 140.7283917, 37.7518616 ], [ 140.7049853, 37.7501568 ], [ 140.7008065, 37.7449014 ], [ 140.682941199999988, 37.7419133 ], [ 140.6765835, 37.7364733 ], [ 140.6765029, 37.728102 ], [ 140.6695105, 37.72256 ], [ 140.6681232, 37.7114131 ], [ 140.6616572, 37.7087656 ], [ 140.6618205, 37.7020429 ], [ 140.649797799999988, 37.697732599999988 ], [ 140.6448957, 37.6916534 ], [ 140.6460092, 37.6842704 ], [ 140.6559714, 37.6876037 ], [ 140.6601703, 37.6799817 ], [ 140.667102299999982, 37.6761559 ], [ 140.6647591, 37.655833099999988 ], [ 140.6687316, 37.6528459 ], [ 140.6665729, 37.6416076 ], [ 140.668637499999988, 37.6296673 ], [ 140.6770728, 37.6206131 ], [ 140.6990218, 37.6054391 ], [ 140.7064739, 37.6063479 ], [ 140.718246, 37.6014437 ], [ 140.726256799999987, 37.593393299999988 ], [ 140.7240803, 37.5868744 ], [ 140.7134158, 37.5731426 ], [ 140.7013232, 37.5753985 ], [ 140.6947854, 37.5603999 ], [ 140.6862557, 37.5473092 ], [ 140.683697600000016, 37.5428356 ], [ 140.681912, 37.5380767 ], [ 140.696045699999985, 37.5258657 ], [ 140.70545629999998, 37.5233318 ], [ 140.6921509, 37.5034141 ], [ 140.7026, 37.5020543 ], [ 140.731211299999984, 37.4901664 ], [ 140.7403731, 37.4905769 ], [ 140.747606, 37.4849586 ], [ 140.753915299999989, 37.4855024 ], [ 140.764087, 37.4793771 ], [ 140.771565399999986, 37.4721459 ], [ 140.7799506, 37.4756479 ], [ 140.788059799999985, 37.473425 ], [ 140.7919071, 37.4687223 ], [ 140.7994803, 37.4726464 ], [ 140.8136414, 37.4706627 ], [ 140.8196567, 37.4639054 ], [ 140.833568099999979, 37.4683001 ], [ 140.835699399999982, 37.4617931 ], [ 140.845529, 37.4553886 ], [ 140.8432656, 37.4501673 ], [ 140.8451249, 37.4413675 ], [ 140.85019939999998, 37.4384723 ], [ 140.8537278, 37.4214017 ], [ 140.8616792, 37.4096392 ], [ 140.8585783, 37.406615 ], [ 140.859798600000033, 37.3870489 ], [ 140.851747499999988, 37.3835065 ], [ 140.850606299999981, 37.3727682 ], [ 140.834851499999985, 37.3751766 ], [ 140.8258119, 37.3803861 ], [ 140.815439, 37.3823112 ], [ 140.7953039, 37.3808777 ], [ 140.770174699999984, 37.3872339 ], [ 140.7642368, 37.3835006 ], [ 140.755388399999987, 37.3928776 ], [ 140.742942699999986, 37.393616 ], [ 140.7405958, 37.4010516 ], [ 140.728456, 37.4045969 ], [ 140.725997, 37.4002508 ], [ 140.7149976, 37.3972539 ], [ 140.7158622, 37.3892386 ], [ 140.7069534, 37.3786284 ], [ 140.6999194, 37.3745022 ], [ 140.704799399999985, 37.3672856 ], [ 140.7011005, 37.3572191 ], [ 140.7071846, 37.3462707 ], [ 140.718652099999986, 37.3342271 ], [ 140.719572299999982, 37.3242096 ], [ 140.723216399999984, 37.3195402 ], [ 140.728511699999984, 37.3082688 ], [ 140.7432449, 37.2970629 ], [ 140.766103, 37.2988412 ], [ 140.7661905, 37.2951001 ], [ 140.778552099999985, 37.2964417 ], [ 140.7798896, 37.2881847 ], [ 140.793038400000029, 37.2848853 ], [ 140.787014299999981, 37.2751614 ], [ 140.787502, 37.2674543 ], [ 140.794776899999988, 37.2613051 ], [ 140.807088199999981, 37.2542395 ], [ 140.814812500000016, 37.2525064 ], [ 140.8269114, 37.2543066 ], [ 140.831998200000015, 37.2604226 ], [ 140.8375977, 37.2619059 ], [ 140.845835099999988, 37.2583147 ], [ 140.8529972, 37.2591397 ] ] ] } },
{ "type": "Feature", "properties": { "hokenjo": "南会津" }, "geometry": { "type": "Polygon", "coordinates": [ [ [ 139.4566752, 36.9538359 ], [ 139.4599313, 36.9696539 ], [ 139.472691699999984, 36.9713548 ], [ 139.4843324, 36.9754373 ], [ 139.494286599999981, 36.9679334 ], [ 139.5038616, 36.9695684 ], [ 139.515136399999989, 36.9778444 ], [ 139.5327206, 36.9817591 ], [ 139.5447268, 36.9908877 ], [ 139.5544641, 36.9924924 ], [ 139.5567208, 36.9967823 ], [ 139.564630199999982, 36.9968804 ], [ 139.579534699999982, 37.0049462 ], [ 139.581893399999984, 37.014902 ], [ 139.588054, 37.0153467 ], [ 139.5986943, 37.012045 ], [ 139.6028368, 37.0159711 ], [ 139.611628199999984, 37.0137953 ], [ 139.6255248, 37.0259863 ], [ 139.624970599999983, 37.0327213 ], [ 139.635647899999981, 37.0318752 ], [ 139.6516339, 37.037307399999989 ], [ 139.655743699999988, 37.0419165 ], [ 139.664954, 37.040531 ], [ 139.6767289, 37.0567387 ], [ 139.6920637, 37.0625484 ], [ 139.700531, 37.0593751 ], [ 139.711005799999981, 37.0684217 ], [ 139.72415669999998, 37.0699081 ], [ 139.7329632, 37.068668099999989 ], [ 139.737281599999989, 37.0720293 ], [ 139.75271189999998, 37.0705873 ], [ 139.76285919999998, 37.0756856 ], [ 139.7778582, 37.0888293 ], [ 139.787951, 37.0907023 ], [ 139.809505699999988, 37.0848446 ], [ 139.8185369, 37.0852121 ], [ 139.818254199999984, 37.0966657 ], [ 139.8211274, 37.1087368 ], [ 139.815188799999987, 37.1161507 ], [ 139.8190358, 37.1217785 ], [ 139.827928899999989, 37.126291 ], [ 139.8317731, 37.1336409 ], [ 139.8478357, 37.1394518 ], [ 139.8518004, 37.1371518 ], [ 139.8609649, 37.1408201 ], [ 139.8662894, 37.1472279 ], [ 139.877567699999986, 37.1461268 ], [ 139.894644199999988, 37.1532587 ], [ 139.9024317, 37.1542715 ], [ 139.9065072, 37.1495315 ], [ 139.9163355, 37.147626 ], [ 139.9244373, 37.1518785 ], [ 139.9337959, 37.1537366 ], [ 139.9436959, 37.1525883 ], [ 139.954614599999985, 37.1549407 ], [ 139.9612612, 37.1532957 ], [ 139.963985600000029, 37.1609957 ], [ 139.9598665, 37.179925 ], [ 139.968009699999982, 37.1865824 ], [ 139.982141, 37.2019362 ], [ 139.965774, 37.2070551 ], [ 139.9579582, 37.2166814 ], [ 139.9479001, 37.2213453 ], [ 139.947994699999981, 37.2278166 ], [ 139.9520535, 37.2360352 ], [ 139.9664115, 37.2467521 ], [ 139.964680099999981, 37.2503816 ], [ 139.969229399999989, 37.2592798 ], [ 139.964713099999983, 37.2653071 ], [ 139.963014499999986, 37.2731801 ], [ 139.9775927, 37.2731476 ], [ 139.975748899999985, 37.2829434 ], [ 139.9919161, 37.2971945 ], [ 139.99333679999998, 37.30762 ], [ 139.9990427, 37.3099217 ], [ 140.001402499999983, 37.3185394 ], [ 140.0124754, 37.3229975 ], [ 140.0094909, 37.3269692 ], [ 139.9986822, 37.3308914 ], [ 139.9896727, 37.3273983 ], [ 139.9660635, 37.3330578 ], [ 139.958463199999983, 37.3365225 ], [ 139.951299800000015, 37.3363772 ], [ 139.9478814, 37.3281828 ], [ 139.9323312, 37.32406 ], [ 139.9204923, 37.3254549 ], [ 139.914968900000019, 37.3307285 ], [ 139.910169, 37.3403213 ], [ 139.9112451, 37.3486807 ], [ 139.919875499999989, 37.3492196 ], [ 139.9178483, 37.3549779 ], [ 139.9040732, 37.3518165 ], [ 139.885764099999989, 37.3429368 ], [ 139.8840119, 37.3539374 ], [ 139.8749833, 37.3612021 ], [ 139.868948499999988, 37.361464 ], [ 139.8529475, 37.3555607 ], [ 139.8491764, 37.346137899999988 ], [ 139.839658499999985, 37.3466169 ], [ 139.8326304, 37.3440885 ], [ 139.8320554, 37.3373805 ], [ 139.8360329, 37.3321383 ], [ 139.829384200000021, 37.3259703 ], [ 139.8290255, 37.3209361 ], [ 139.8114626, 37.30777 ], [ 139.8038761, 37.3089336 ], [ 139.7921488, 37.3034281 ], [ 139.7920315, 37.2880465 ], [ 139.77845019999998, 37.2813963 ], [ 139.7691252, 37.2853166 ], [ 139.7616782, 37.2841988 ], [ 139.7444342, 37.2917843 ], [ 139.7353719, 37.2875046 ], [ 139.7308974, 37.279248 ], [ 139.718108299999983, 37.2730214 ], [ 139.7128797, 37.2726844 ], [ 139.709917099999984, 37.2619094 ], [ 139.7055048, 37.2542731 ], [ 139.695893899999987, 37.2472914 ], [ 139.6912994, 37.2498969 ], [ 139.6721542, 37.246412 ], [ 139.669856899999985, 37.2406184 ], [ 139.6572291, 37.2393261 ], [ 139.654789, 37.2298906 ], [ 139.635034099999984, 37.2278706 ], [ 139.6224832, 37.2279181 ], [ 139.617621899999989, 37.2145656 ], [ 139.612048, 37.2074409 ], [ 139.60108630000002, 37.2082034 ], [ 139.590254, 37.2228709 ], [ 139.5921491, 37.2426256 ], [ 139.587324699999982, 37.2520467 ], [ 139.5943078, 37.2577581 ], [ 139.5925781, 37.2664445 ], [ 139.597472399999987, 37.2716506 ], [ 139.5946199, 37.2777923 ], [ 139.579688399999981, 37.285995 ], [ 139.574254, 37.3075444 ], [ 139.5736571, 37.3215611 ], [ 139.5645901, 37.3280127 ], [ 139.5483131, 37.3361103 ], [ 139.5522104, 37.3445175 ], [ 139.5475954, 37.3519461 ], [ 139.551934599999981, 37.3570161 ], [ 139.5437016, 37.3630149 ], [ 139.5267312, 37.3648641 ], [ 139.519945399999983, 37.3695277 ], [ 139.516291199999984, 37.378996 ], [ 139.5043226, 37.3688091 ], [ 139.4978356, 37.3693624 ], [ 139.48942, 37.3590635 ], [ 139.474818699999986, 37.3470261 ], [ 139.462231799999984, 37.3468927 ], [ 139.4478255, 37.3344183 ], [ 139.429366499999986, 37.3332366 ], [ 139.4258477, 37.3401986 ], [ 139.416717399999982, 37.3398502 ], [ 139.416125300000033, 37.3453777 ], [ 139.407233599999984, 37.3469733 ], [ 139.399170699999985, 37.3631707 ], [ 139.381596, 37.3546144 ], [ 139.3787356, 37.3629407 ], [ 139.3647345, 37.3822284 ], [ 139.3749161, 37.385944 ], [ 139.3812443, 37.4016053 ], [ 139.3776953, 37.4128047 ], [ 139.3919324, 37.4235385 ], [ 139.389586, 37.4301138 ], [ 139.392737399999987, 37.4363635 ], [ 139.4025447, 37.4446626 ], [ 139.3975127, 37.4598392 ], [ 139.3855227, 37.4636136 ], [ 139.368535899999983, 37.4654067 ], [ 139.362550299999981, 37.469968 ], [ 139.3512536, 37.4655559 ], [ 139.3458296, 37.4602712 ], [ 139.335142600000012, 37.4577887 ], [ 139.3264711, 37.4623863 ], [ 139.30712459999998, 37.4586008 ], [ 139.286511599999983, 37.4522447 ], [ 139.2772201, 37.4528256 ], [ 139.258916, 37.4470643 ], [ 139.251219599999985, 37.4524401 ], [ 139.2374695, 37.4451477 ], [ 139.2229989, 37.4486163 ], [ 139.2130329, 37.4386533 ], [ 139.2075318, 37.4289088 ], [ 139.2083714, 37.417075 ], [ 139.1986886, 37.4130275 ], [ 139.2076041, 37.4006028 ], [ 139.207712099999981, 37.3962183 ], [ 139.2153007, 37.3912644 ], [ 139.2219371, 37.3933339 ], [ 139.231665099999987, 37.3873753 ], [ 139.2314614, 37.3802323 ], [ 139.238031899999982, 37.3729484 ], [ 139.233553699999987, 37.357014 ], [ 139.23362179999998, 37.3436065 ], [ 139.2281491, 37.3432757 ], [ 139.217869899999982, 37.334029799999989 ], [ 139.2221131, 37.3150101 ], [ 139.215691199999981, 37.3086426 ], [ 139.21229, 37.286209 ], [ 139.2054105, 37.2836131 ], [ 139.191774899999984, 37.2693367 ], [ 139.174689799999982, 37.2563489 ], [ 139.164756899999986, 37.2394278 ], [ 139.1659041, 37.2321656 ], [ 139.172544599999981, 37.2249475 ], [ 139.1830602, 37.2173917 ], [ 139.1871291, 37.2097139 ], [ 139.194794700000017, 37.2039626 ], [ 139.1967213, 37.1940143 ], [ 139.205266300000034, 37.1942167 ], [ 139.21309309999998, 37.1996401 ], [ 139.21784839999998, 37.2094945 ], [ 139.2262409, 37.2035315 ], [ 139.2284387, 37.1970898 ], [ 139.2378754, 37.1878382 ], [ 139.2445812, 37.1811404 ], [ 139.2432162, 37.1703796 ], [ 139.251159799999982, 37.1659179 ], [ 139.252985699999982, 37.1612541 ], [ 139.2456717, 37.144860799999989 ], [ 139.243300799999986, 37.127163 ], [ 139.2353732, 37.1139436 ], [ 139.2357395, 37.1024597 ], [ 139.2408759, 37.0937378 ], [ 139.238646099999983, 37.0905067 ], [ 139.2487333, 37.0813728 ], [ 139.2470227, 37.0707937 ], [ 139.257342699999981, 37.0559354 ], [ 139.259555399999982, 37.043297599999988 ], [ 139.254621499999985, 37.0402513 ], [ 139.248540599999984, 37.0309007 ], [ 139.248512, 37.023949099999989 ], [ 139.2433666, 37.0151346 ], [ 139.2510297, 37.0046188 ], [ 139.2537868, 36.9903319 ], [ 139.252148399999982, 36.9765689 ], [ 139.248066699999981, 36.971415 ], [ 139.2511625, 36.9620317 ], [ 139.241817199999986, 36.9490747 ], [ 139.2433955, 36.944615 ], [ 139.229994299999987, 36.94016 ], [ 139.2405585, 36.9294836 ], [ 139.2546585, 36.9323356 ], [ 139.261425799999984, 36.9379145 ], [ 139.268209399999989, 36.9385934 ], [ 139.2817106, 36.9311473 ], [ 139.294819, 36.9344643 ], [ 139.305069299999985, 36.9258121 ], [ 139.3090176, 36.9269646 ], [ 139.3277344, 36.9245454 ], [ 139.3423867, 36.9275332 ], [ 139.352782, 36.9157691 ], [ 139.373131600000022, 36.9183938 ], [ 139.3833024, 36.9114027 ], [ 139.3932892, 36.9107955 ], [ 139.3991426, 36.9200911 ], [ 139.4121911, 36.9276055 ], [ 139.426900599999982, 36.9241664 ], [ 139.434956299999982, 36.935867 ], [ 139.4344486, 36.9418536 ], [ 139.4566752, 36.9538359 ] ] ] } },
{ "type": "Feature", "properties": { "hokenjo": "福島市" }, "geometry": { "type": "Polygon", "coordinates": [ [ [ 140.4841765, 37.9015272 ], [ 140.4766622, 37.9069164 ], [ 140.469531, 37.9178687 ], [ 140.4674791, 37.9378184 ], [ 140.4748798, 37.9467822 ], [ 140.4614995, 37.9525767 ], [ 140.447813699999983, 37.9511268 ], [ 140.444713899999982, 37.9569546 ], [ 140.434087, 37.9537996 ], [ 140.4241621, 37.9569519 ], [ 140.4146203, 37.9632881 ], [ 140.4092119, 37.9637423 ], [ 140.407524099999989, 37.9736231 ], [ 140.3985698, 37.9744207 ], [ 140.388407199999989, 37.9691158 ], [ 140.3856379, 37.9648949 ], [ 140.3856298, 37.9537199 ], [ 140.355149399999988, 37.9578528 ], [ 140.355770399999983, 37.9521326 ], [ 140.3485909, 37.9501573 ], [ 140.3287568, 37.9582273 ], [ 140.3166441, 37.9580931 ], [ 140.302261499999986, 37.9690951 ], [ 140.2916497, 37.970355 ], [ 140.2772367, 37.9755777 ], [ 140.2713177, 37.9666402 ], [ 140.273359299999981, 37.95679 ], [ 140.2780747, 37.9526286 ], [ 140.2752888, 37.9472466 ], [ 140.2785854, 37.9425358 ], [ 140.2793412, 37.9337197 ], [ 140.272198, 37.9200483 ], [ 140.266582699999987, 37.9170883 ], [ 140.2646437, 37.9062161 ], [ 140.2707201, 37.8907374 ], [ 140.2649394, 37.8862308 ], [ 140.264915799999983, 37.8795177 ], [ 140.269932499999982, 37.8742949 ], [ 140.2699327, 37.8666811 ], [ 140.2656287, 37.862548 ], [ 140.2673034, 37.8476799 ], [ 140.2621849, 37.8403919 ], [ 140.262116, 37.8344163 ], [ 140.268781, 37.824091 ], [ 140.290584, 37.815104 ], [ 140.2988018, 37.8078082 ], [ 140.2903364, 37.8012563 ], [ 140.2822113, 37.7982291 ], [ 140.282339, 37.7919694 ], [ 140.276288, 37.781768 ], [ 140.266175299999986, 37.7791769 ], [ 140.2549501, 37.7646178 ], [ 140.244371199999989, 37.758414 ], [ 140.237254899999982, 37.7464685 ], [ 140.2433637, 37.7340366 ], [ 140.231876, 37.7302081 ], [ 140.2292804, 37.7165399 ], [ 140.2314448, 37.7077504 ], [ 140.236528199999981, 37.7038421 ], [ 140.2366926, 37.6954808 ], [ 140.2318603, 37.6900676 ], [ 140.230721599999981, 37.6792541 ], [ 140.2451838, 37.6761356 ], [ 140.2601034, 37.6669252 ], [ 140.2779828, 37.6618751 ], [ 140.2825676, 37.6542967 ], [ 140.2806819, 37.6416862 ], [ 140.28757539999998, 37.6398961 ], [ 140.2971011, 37.6452857 ], [ 140.330313499999988, 37.6481626 ], [ 140.3338033, 37.6503089 ], [ 140.3468254, 37.6469516 ], [ 140.3613674, 37.6476098 ], [ 140.3778218, 37.6512333 ], [ 140.3918454, 37.6467912 ], [ 140.4025586, 37.6480653 ], [ 140.4150443, 37.6425183 ], [ 140.424507, 37.6450238 ], [ 140.437343, 37.645396 ], [ 140.4426771, 37.6491699 ], [ 140.456125, 37.6469881 ], [ 140.474133699999982, 37.6483909 ], [ 140.485431399999982, 37.6508394 ], [ 140.4825893, 37.6419686 ], [ 140.4909188, 37.6389734 ], [ 140.501632, 37.6383314 ], [ 140.5027959, 37.6330894 ], [ 140.4986252, 37.6258817 ], [ 140.5065014, 37.6255419 ], [ 140.5134966, 37.6340341 ], [ 140.5152956, 37.6420722 ], [ 140.5281003, 37.6440313 ], [ 140.5246807, 37.6358447 ], [ 140.5496881, 37.643171 ], [ 140.548795700000028, 37.6507643 ], [ 140.555322499999988, 37.6509021 ], [ 140.5688642, 37.6579092 ], [ 140.5610733, 37.6640545 ], [ 140.5621626, 37.6708984 ], [ 140.548473699999988, 37.6746234 ], [ 140.5472508, 37.6899778 ], [ 140.5396519, 37.694442599999988 ], [ 140.5465084, 37.7008661 ], [ 140.545950799999986, 37.7086031 ], [ 140.542522099999985, 37.7124503 ], [ 140.545434799999981, 37.7280036 ], [ 140.550145900000018, 37.7394066 ], [ 140.55759519999998, 37.7431263 ], [ 140.570010599999989, 37.7610065 ], [ 140.553737, 37.7658376 ], [ 140.5333858, 37.7611289 ], [ 140.5274071, 37.7629833 ], [ 140.528223, 37.7710047 ], [ 140.5219894, 37.7791627 ], [ 140.52354219999998, 37.790328 ], [ 140.5281693, 37.7936052 ], [ 140.5171839, 37.7980716 ], [ 140.5203237, 37.8059968 ], [ 140.510131, 37.8091547 ], [ 140.5025434, 37.8144244 ], [ 140.4963941, 37.8106595 ], [ 140.4891006, 37.8127162 ], [ 140.4920474, 37.827185299999989 ], [ 140.4818129, 37.827347 ], [ 140.471520199999986, 37.8409651 ], [ 140.4749512, 37.8547261 ], [ 140.466866399999986, 37.8576781 ], [ 140.458892, 37.8652559 ], [ 140.4587965, 37.8735283 ], [ 140.4709272, 37.8855437 ], [ 140.4684805, 37.8941143 ], [ 140.4841765, 37.9015272 ] ] ] } }
]
}
