{
"type": "FeatureCollection",
"name": "fukui",
"crs": { "type": "name", "properties": { "name": "urn:ogc:def:crs:OGC:1.3:CRS84" } },
"features": [
{ "type": "Feature", "properties": { "hokenjo": "奥越" }, "geometry": { "type": "MultiPolygon", "coordinates": [ [ [ [ 136.6586758, 36.0695074 ], [ 136.6577456, 36.0744174 ], [ 136.654965299999986, 36.0777546 ], [ 136.6568184, 36.0845724 ], [ 136.6533545, 36.0864476 ], [ 136.651344699999981, 36.0922324 ], [ 136.6455075, 36.0947551 ], [ 136.642073399999987, 36.0980721 ], [ 136.6322634, 36.0994109 ], [ 136.6271903, 36.1038317 ], [ 136.6221703, 36.1064631 ], [ 136.614730899999984, 36.1083078 ], [ 136.61143, 36.1127642 ], [ 136.6122747, 36.1168197 ], [ 136.604429499999981, 36.1221817 ], [ 136.603408699999989, 36.1279447 ], [ 136.595372, 36.1320711 ], [ 136.590484799999984, 36.1312171 ], [ 136.584863399999989, 36.1359454 ], [ 136.581714299999987, 36.1363335 ], [ 136.5763246, 36.1422262 ], [ 136.562851, 36.1463654 ], [ 136.5600921, 36.1530148 ], [ 136.5549974, 36.1529759 ], [ 136.5517524, 36.154903399999988 ], [ 136.545294899999988, 36.1528203 ], [ 136.541427699999986, 36.1536544 ], [ 136.537688799999984, 36.1503814 ], [ 136.5266782, 36.1481239 ], [ 136.5215277, 36.1513772 ], [ 136.511944299999982, 36.1462733 ], [ 136.5057021, 36.1466291 ], [ 136.5030391, 36.1496624 ], [ 136.497068, 36.1496682 ], [ 136.491840199999984, 36.1581399 ], [ 136.488045699999986, 36.1591407 ], [ 136.4833419, 36.1568605 ], [ 136.477067399999981, 36.151443 ], [ 136.474129299999987, 36.1466227 ], [ 136.470058699999981, 36.1454253 ], [ 136.4653476, 36.1406297 ], [ 136.4644514, 36.1379339 ], [ 136.4565117, 36.1362931 ], [ 136.44881479999998, 36.1406897 ], [ 136.440389499999981, 36.1373589 ], [ 136.4396131, 36.1348142 ], [ 136.434882800000025, 36.1344031 ], [ 136.428967500000027, 36.1321217 ], [ 136.4253397, 36.1336779 ], [ 136.4068791, 36.1283665 ], [ 136.40236969999998, 36.1278735 ], [ 136.3993616, 36.1250124 ], [ 136.3927813, 36.1249387 ], [ 136.391332399999982, 36.1161701 ], [ 136.3969524, 36.1136104 ], [ 136.3982416, 36.1091082 ], [ 136.4041665, 36.0991996 ], [ 136.3990149, 36.0963434 ], [ 136.395647300000036, 36.0922123 ], [ 136.3884009, 36.0907998 ], [ 136.388287099999985, 36.0875193 ], [ 136.409479, 36.0810057 ], [ 136.4290926, 36.0763098 ], [ 136.4380056, 36.0754279 ], [ 136.439328900000021, 36.069484 ], [ 136.435921399999984, 36.0617921 ], [ 136.4329502, 36.0587635 ], [ 136.4325211, 36.0542296 ], [ 136.4354716, 36.0502013 ], [ 136.4320035, 36.0433221 ], [ 136.441018899999989, 36.032358 ], [ 136.4454653, 36.0220322 ], [ 136.4530694, 36.0180155 ], [ 136.457834099999985, 36.0164536 ], [ 136.450506900000022, 36.0123522 ], [ 136.448941599999984, 36.0101219 ], [ 136.452688199999983, 36.0059586 ], [ 136.454727, 36.0009606 ], [ 136.4515806, 35.9968992 ], [ 136.4562709, 35.9918884 ], [ 136.452883899999989, 35.9872278 ], [ 136.4487997, 35.9855439 ], [ 136.449381099999982, 35.981752299999989 ], [ 136.452353, 35.9794623 ], [ 136.4521455, 35.9741551 ], [ 136.456313, 35.9692521 ], [ 136.454503499999987, 35.9587862 ], [ 136.4563632, 35.9545501 ], [ 136.462124, 35.9532504 ], [ 136.4653615, 35.950819 ], [ 136.4618998, 35.9447443 ], [ 136.4614934, 35.938831 ], [ 136.464075, 35.9327971 ], [ 136.454810899999984, 35.9318338 ], [ 136.4555742, 35.928608 ], [ 136.463651699999986, 35.925766 ], [ 136.4671794, 35.9215838 ], [ 136.4605244, 35.9205524 ], [ 136.4606106, 35.9190635 ], [ 136.4556555, 35.9135569 ], [ 136.4513536, 35.9128246 ], [ 136.44661, 35.9101452 ], [ 136.4387744, 35.9086419 ], [ 136.4375933, 35.9010474 ], [ 136.432523299999986, 35.8963502 ], [ 136.4329555, 35.8888569 ], [ 136.436278, 35.8860605 ], [ 136.439264399999985, 35.8860061 ], [ 136.4398602, 35.8779211 ], [ 136.4330716, 35.8719386 ], [ 136.434963499999981, 35.8671483 ], [ 136.42764649999998, 35.8588527 ], [ 136.4297982, 35.8549347 ], [ 136.4355787, 35.849638 ], [ 136.4322659, 35.8471222 ], [ 136.428319, 35.8411867 ], [ 136.4288568, 35.8389903 ], [ 136.423778700000014, 35.8344564 ], [ 136.4234056, 35.832535 ], [ 136.4267643, 35.823330299999988 ], [ 136.422932299999985, 35.8208616 ], [ 136.4232412, 35.8130189 ], [ 136.426427599999982, 35.8100847 ], [ 136.432563099999982, 35.8071386 ], [ 136.43104169999998, 35.8027136 ], [ 136.431264199999987, 35.7979158 ], [ 136.4278989, 35.7948297 ], [ 136.4228253, 35.7933566 ], [ 136.4196537, 35.7868877 ], [ 136.415965900000032, 35.7824458 ], [ 136.4189639, 35.7823033 ], [ 136.4239742, 35.7785919 ], [ 136.430727499999989, 35.7750291 ], [ 136.4385125, 35.7744247 ], [ 136.441207, 35.7751783 ], [ 136.4458047, 35.7729083 ], [ 136.4515372, 35.7766483 ], [ 136.458932200000021, 35.7790672 ], [ 136.4615806, 35.7787139 ], [ 136.4675767, 35.7732164 ], [ 136.474593299999981, 35.7727514 ], [ 136.484579199999985, 35.7751425 ], [ 136.4859322, 35.7731144 ], [ 136.4965147, 35.7655331 ], [ 136.497074699999985, 35.7607625 ], [ 136.5033621, 35.7508733 ], [ 136.5061566, 35.7503314 ], [ 136.5081511, 35.7570078 ], [ 136.5119152, 35.7585742 ], [ 136.513708799999989, 35.7622483 ], [ 136.5138952, 35.7666383 ], [ 136.5119638, 35.7719108 ], [ 136.5133069, 35.7753303 ], [ 136.518462699999986, 35.7794339 ], [ 136.52012910000002, 35.7832033 ], [ 136.5252361, 35.7879666 ], [ 136.530646599999983, 35.78415 ], [ 136.545281, 35.7787111 ], [ 136.5506816, 35.7810808 ], [ 136.5558177, 35.7809777 ], [ 136.561591, 35.7786877 ], [ 136.5658349, 35.779658 ], [ 136.568648, 35.77767 ], [ 136.5723238, 35.7780441 ], [ 136.5770674, 35.7815194 ], [ 136.5801352, 35.7815591 ], [ 136.5859963, 35.7844299 ], [ 136.5848202, 35.7880324 ], [ 136.5860941, 35.7915235 ], [ 136.5900149, 35.7956585 ], [ 136.595434899999987, 35.7953727 ], [ 136.5991496, 35.7985299 ], [ 136.606814899999989, 35.7922077 ], [ 136.6094807, 35.7923349 ], [ 136.6114513, 35.7887963 ], [ 136.623024900000019, 35.7877674 ], [ 136.627747699999986, 35.7910743 ], [ 136.626111, 35.7954179 ], [ 136.632427399999983, 35.7957207 ], [ 136.6381838, 35.7974907 ], [ 136.640796599999987, 35.8034876 ], [ 136.645195199999989, 35.8068317 ], [ 136.652511, 35.7987254 ], [ 136.652669299999985, 35.7910631 ], [ 136.65432629999998, 35.7858826 ], [ 136.657665399999985, 35.7834826 ], [ 136.6661354, 35.7851364 ], [ 136.6720496, 35.7913084 ], [ 136.677591, 35.7920886 ], [ 136.6814096, 35.789835 ], [ 136.6897788, 35.7892827 ], [ 136.6944588, 35.7911577 ], [ 136.6971207, 35.7940627 ], [ 136.7000429, 35.7941738 ], [ 136.7051243, 35.7914257 ], [ 136.7100479, 35.7920433 ], [ 136.711985699999985, 35.7947216 ], [ 136.7166796, 35.7964566 ], [ 136.720584100000025, 35.8002179 ], [ 136.7245177, 35.8081476 ], [ 136.7323838, 35.8065763 ], [ 136.7410966, 35.8010688 ], [ 136.7451591, 35.8042944 ], [ 136.754466, 35.8092424 ], [ 136.7639096, 35.8106072 ], [ 136.771578, 35.8067958 ], [ 136.7743855, 35.8066734 ], [ 136.7741418, 35.8000473 ], [ 136.7760213, 35.7988331 ], [ 136.7833999, 35.7981087 ], [ 136.7893168, 35.7994359 ], [ 136.792790699999983, 35.8069479 ], [ 136.7958741, 35.8090581 ], [ 136.7984358, 35.8212151 ], [ 136.797089699999987, 35.8280953 ], [ 136.799421699999982, 35.8313426 ], [ 136.799917, 35.8372026 ], [ 136.802290900000031, 35.8440264 ], [ 136.8057714, 35.8429153 ], [ 136.815449799999982, 35.8425362 ], [ 136.8251161, 35.8454065 ], [ 136.8310731, 35.8518137 ], [ 136.8323629, 35.8574434 ], [ 136.830148399999985, 35.8655729 ], [ 136.825754599999982, 35.8700817 ], [ 136.8260057, 35.8745817 ], [ 136.8202196, 35.8793964 ], [ 136.8228786, 35.8864053 ], [ 136.8237686, 35.8927664 ], [ 136.816533099999987, 35.9050436 ], [ 136.8137026, 35.9109227 ], [ 136.8114884, 35.9126446 ], [ 136.8058279, 35.9128757 ], [ 136.799467599999986, 35.9203182 ], [ 136.7924788, 35.9207866 ], [ 136.786503499999981, 35.9222971 ], [ 136.783863199999985, 35.9277757 ], [ 136.7868566, 35.9336466 ], [ 136.7933855, 35.9409234 ], [ 136.793456099999986, 35.9455896 ], [ 136.78906, 35.9486584 ], [ 136.784864199999987, 35.9486487 ], [ 136.77664919999998, 35.9511918 ], [ 136.7721, 35.950226 ], [ 136.757862599999982, 35.9557138 ], [ 136.7528654, 35.9564599 ], [ 136.749907, 35.9594046 ], [ 136.7488459, 35.9636019 ], [ 136.7505076, 35.9670346 ], [ 136.75347739999998, 35.968144099999989 ], [ 136.752416499999981, 35.9731252 ], [ 136.7533355, 35.9782121 ], [ 136.7515319, 35.9872669 ], [ 136.7496933, 35.9909002 ], [ 136.7414145, 35.991945799999989 ], [ 136.7270795, 35.9956156 ], [ 136.7293951, 36.0014586 ], [ 136.7288854, 36.0093556 ], [ 136.7323465, 36.013282499999988 ], [ 136.7308727, 36.0175727 ], [ 136.7343894, 36.0209891 ], [ 136.733196099999986, 36.0274822 ], [ 136.7357261, 36.0323147 ], [ 136.734727, 36.0422627 ], [ 136.735395399999987, 36.0478925 ], [ 136.7330206, 36.0487175 ], [ 136.740510699999987, 36.0543125 ], [ 136.7444324, 36.0599422 ], [ 136.752732899999984, 36.0623719 ], [ 136.7590188, 36.0670777 ], [ 136.7642568, 36.0676824 ], [ 136.764074099999988, 36.0741952 ], [ 136.759841099999989, 36.0805916 ], [ 136.757253599999984, 36.0816183 ], [ 136.754284399999989, 36.0862902 ], [ 136.745298599999984, 36.0851453 ], [ 136.7388166, 36.0803886 ], [ 136.7324808, 36.0803756 ], [ 136.7247597, 36.0823484 ], [ 136.7153256, 36.082065 ], [ 136.707105, 36.0795559 ], [ 136.6990453, 36.0738784 ], [ 136.695598599999983, 36.074444 ], [ 136.6785175, 36.0705401 ], [ 136.674238299999985, 36.067228199999988 ], [ 136.662290499999983, 36.0676291 ], [ 136.6586758, 36.0695074 ] ] ] ] } },
{ "type": "Feature", "properties": { "hokenjo": "坂井" }, "geometry": { "type": "MultiPolygon", "coordinates": [ [ [ [ 136.3294005, 36.2020187 ], [ 136.3278675, 36.2099048 ], [ 136.3300783, 36.2130845 ], [ 136.3311789, 36.2183776 ], [ 136.329007499999989, 36.2242971 ], [ 136.3324034, 36.2295862 ], [ 136.3269803, 36.2322084 ], [ 136.323255599999982, 36.2316668 ], [ 136.316677, 36.2350806 ], [ 136.3154817, 36.2383009 ], [ 136.3176181, 36.2407779 ], [ 136.31529759999998, 36.2458848 ], [ 136.308420399999989, 36.2468179 ], [ 136.3049446, 36.2504704 ], [ 136.302114, 36.2575156 ], [ 136.294646299999982, 36.2607484 ], [ 136.2894871, 36.2604095 ], [ 136.2854715, 36.2616745 ], [ 136.2822093, 36.265739499999988 ], [ 136.2800043, 36.2643548 ], [ 136.2750668, 36.2661776 ], [ 136.2691891, 36.2663817 ], [ 136.2682677, 36.2692706 ], [ 136.2615305, 36.2733553 ], [ 136.259847399999984, 36.2778984 ], [ 136.2561997, 36.2799109 ], [ 136.2567708, 36.2866959 ], [ 136.2585944, 36.2893209 ], [ 136.2492475, 36.2917617 ], [ 136.2438603, 36.2952993 ], [ 136.2407457, 36.2911515 ], [ 136.2300426, 36.2837212 ], [ 136.2173565, 36.2758534 ], [ 136.1968703, 36.2645369 ], [ 136.1831851, 36.2576198 ], [ 136.171892899999989, 36.2525721 ], [ 136.162034, 36.2497815 ], [ 136.157881, 36.2501219 ], [ 136.1539191, 36.2534091 ], [ 136.147516699999983, 36.2538217 ], [ 136.141172899999987, 36.2528282 ], [ 136.1364826, 36.2504591 ], [ 136.1264725, 36.251050299999989 ], [ 136.123397499999982, 36.2500297 ], [ 136.1308407, 36.2418039 ], [ 136.1307832, 36.2393499 ], [ 136.1254614, 36.2382154 ], [ 136.1331725, 36.2284001 ], [ 136.1347108, 36.2207455 ], [ 136.129659, 36.2190341 ], [ 136.132017099999985, 36.2139221 ], [ 136.127218699999986, 36.2089662 ], [ 136.1218321, 36.2011372 ], [ 136.1265536, 36.1989179 ], [ 136.1310966, 36.2051854 ], [ 136.133987499999989, 36.2038303 ], [ 136.127262299999984, 36.1944318 ], [ 136.1276522, 36.1900876 ], [ 136.1210553, 36.1896086 ], [ 136.1144237, 36.1926868 ], [ 136.100029, 36.1728934 ], [ 136.1072992, 36.1694284 ], [ 136.1193729, 36.1658548 ], [ 136.126037, 36.1627662 ], [ 136.1254931, 36.1579768 ], [ 136.1303456, 36.1586451 ], [ 136.1310245, 36.1638446 ], [ 136.13531709999998, 36.1695254 ], [ 136.13809089999998, 36.1699446 ], [ 136.1382073, 36.1632679 ], [ 136.147880099999981, 36.1634126 ], [ 136.1515537, 36.1668957 ], [ 136.1567334, 36.1641618 ], [ 136.1618992, 36.1587846 ], [ 136.1644078, 36.1488482 ], [ 136.1680847, 36.1431059 ], [ 136.175053099999985, 36.1394126 ], [ 136.1778297, 36.1336818 ], [ 136.1813369, 36.1334507 ], [ 136.18846019999998, 36.1304929 ], [ 136.1917866, 36.1304215 ], [ 136.1941874, 36.126459 ], [ 136.1937278, 36.123781 ], [ 136.1979408, 36.1215034 ], [ 136.209522199999981, 36.1204818 ], [ 136.216879899999981, 36.1209337 ], [ 136.230658, 36.1207834 ], [ 136.2338847, 36.1186612 ], [ 136.242928299999988, 36.1207106 ], [ 136.245591099999984, 36.1182062 ], [ 136.254066599999987, 36.1236487 ], [ 136.255475499999989, 36.113162 ], [ 136.2536608, 36.1065065 ], [ 136.2569346, 36.1049209 ], [ 136.264134399999989, 36.1051701 ], [ 136.2699699, 36.1040726 ], [ 136.2756238, 36.1093048 ], [ 136.2756602, 36.1112595 ], [ 136.281369399999988, 36.1134987 ], [ 136.2804855, 36.1208978 ], [ 136.2853039, 36.1195709 ], [ 136.2840022, 36.1111555 ], [ 136.290404199999983, 36.1160025 ], [ 136.2921566, 36.1134503 ], [ 136.298671399999989, 36.1115445 ], [ 136.2962475, 36.1073089 ], [ 136.3063075, 36.1037667 ], [ 136.315462199999985, 36.1037253 ], [ 136.318250799999987, 36.1022564 ], [ 136.3229598, 36.10276 ], [ 136.3244928, 36.1066994 ], [ 136.332931699999989, 36.1096374 ], [ 136.3359245, 36.1124099 ], [ 136.3393848, 36.110917199999989 ], [ 136.3436337, 36.1112727 ], [ 136.345940399999989, 36.1138141 ], [ 136.3554234, 36.1168649 ], [ 136.3602129, 36.124506599999989 ], [ 136.360234599999984, 36.1274327 ], [ 136.3716818, 36.1300574 ], [ 136.375776799999983, 36.1259249 ], [ 136.3847544, 36.126911 ], [ 136.3927813, 36.1249387 ], [ 136.3993616, 36.1250124 ], [ 136.40236969999998, 36.1278735 ], [ 136.4068791, 36.1283665 ], [ 136.4253397, 36.1336779 ], [ 136.428967500000027, 36.1321217 ], [ 136.434882800000025, 36.1344031 ], [ 136.4396131, 36.1348142 ], [ 136.440389499999981, 36.1373589 ], [ 136.437835899999982, 36.1423242 ], [ 136.431763099999984, 36.1434726 ], [ 136.4268089, 36.148897 ], [ 136.424193699999989, 36.1545787 ], [ 136.414285300000017, 36.1566237 ], [ 136.411636099999981, 36.1600796 ], [ 136.413267, 36.1669537 ], [ 136.4093062, 36.1722268 ], [ 136.404815, 36.170276799999989 ], [ 136.397697, 36.1705288 ], [ 136.3907144, 36.1675269 ], [ 136.379668, 36.1682699 ], [ 136.374020200000018, 36.1700427 ], [ 136.3688955, 36.1698347 ], [ 136.365917200000013, 36.1661639 ], [ 136.357969699999984, 36.1651405 ], [ 136.3550988, 36.1688364 ], [ 136.351436, 36.1693494 ], [ 136.344118200000025, 36.1729797 ], [ 136.337608599999982, 36.1837267 ], [ 136.3356666, 36.1848703 ], [ 136.336961299999984, 36.1907934 ], [ 136.335979899999984, 36.1946317 ], [ 136.3334652, 36.1950964 ], [ 136.331214099999983, 36.2008862 ], [ 136.3294005, 36.2020187 ] ] ] ] } },
{ "type": "Feature", "properties": { "hokenjo": "若狭" }, "geometry": { "type": "MultiPolygon", "coordinates": [ [ [ [ 135.7919602, 35.3811156 ], [ 135.7908936, 35.3866389 ], [ 135.7952397, 35.3873853 ], [ 135.7991036, 35.3849195 ], [ 135.8075292, 35.3853617 ], [ 135.810074499999985, 35.3917709 ], [ 135.808092, 35.3952414 ], [ 135.8105592, 35.4032614 ], [ 135.8107603, 35.4094667 ], [ 135.8132144, 35.4129778 ], [ 135.8192344, 35.4125489 ], [ 135.826695199999989, 35.41465 ], [ 135.8320374, 35.4122406 ], [ 135.8363149, 35.4120084 ], [ 135.8383729, 35.4142231 ], [ 135.8441573, 35.4130775 ], [ 135.849679, 35.4105945 ], [ 135.8531334, 35.411537 ], [ 135.8543367, 35.4151495 ], [ 135.8572845, 35.4173623 ], [ 135.858782500000018, 35.4262669 ], [ 135.860424699999982, 35.4285386 ], [ 135.8591644, 35.4322989 ], [ 135.85245, 35.4380056 ], [ 135.8490459, 35.4423328 ], [ 135.840902, 35.4413511 ], [ 135.83595649999998, 35.4434414 ], [ 135.829162599999989, 35.4484703 ], [ 135.819612899999981, 35.4509447 ], [ 135.8152842, 35.4569336 ], [ 135.8156114, 35.4619353 ], [ 135.8100811, 35.4661253 ], [ 135.8124981, 35.4741569 ], [ 135.8118667, 35.4756855 ], [ 135.801833599999981, 35.4800003 ], [ 135.798691099999985, 35.4827722 ], [ 135.7993591, 35.4852803 ], [ 135.7969191, 35.4896769 ], [ 135.8061866, 35.490828 ], [ 135.81196079999998, 35.4890291 ], [ 135.8175575, 35.4836591 ], [ 135.8234756, 35.4797686 ], [ 135.834725, 35.4834847 ], [ 135.8374617, 35.482467199999988 ], [ 135.8433086, 35.4843989 ], [ 135.8447769, 35.4869066 ], [ 135.8423608, 35.4956355 ], [ 135.845364099999983, 35.5019903 ], [ 135.8421214, 35.5069586 ], [ 135.8414486, 35.5130077 ], [ 135.8375197, 35.515528 ], [ 135.8320489, 35.5225024 ], [ 135.841945600000031, 35.531248 ], [ 135.8428375, 35.5335938 ], [ 135.849594199999984, 35.5373527 ], [ 135.851337, 35.5410385 ], [ 135.8441684, 35.5492038 ], [ 135.8394156, 35.5500663 ], [ 135.8354795, 35.5541357 ], [ 135.8273003, 35.5583955 ], [ 135.8222192, 35.5596952 ], [ 135.8190717, 35.5660446 ], [ 135.8142976, 35.5672104 ], [ 135.8151843, 35.5716489 ], [ 135.810226400000033, 35.5714904 ], [ 135.8031976, 35.5683724 ], [ 135.805005599999987, 35.5642924 ], [ 135.8090962, 35.5649349 ], [ 135.81283449999998, 35.5633824 ], [ 135.811673399999989, 35.5590127 ], [ 135.8155375, 35.5566241 ], [ 135.8187539, 35.5568216 ], [ 135.8245875, 35.552586 ], [ 135.825520899999987, 35.546661 ], [ 135.8274, 35.543511 ], [ 135.831056099999984, 35.5422635 ], [ 135.833734599999985, 35.535903399999988 ], [ 135.8272217, 35.5332836 ], [ 135.821891699999981, 35.5335563 ], [ 135.8204728, 35.5363871 ], [ 135.813164199999989, 35.5358783 ], [ 135.8164156, 35.5329638 ], [ 135.815404199999989, 35.5297338 ], [ 135.811948, 35.5275469 ], [ 135.8064451, 35.5282374 ], [ 135.805882699999984, 35.5320424 ], [ 135.796215499999988, 35.5261207 ], [ 135.7952119, 35.5309496 ], [ 135.7922994, 35.5298499 ], [ 135.7884569, 35.5314205 ], [ 135.7857749, 35.5365499 ], [ 135.790064699999988, 35.5404569 ], [ 135.7848405, 35.542979599999988 ], [ 135.779662699999989, 35.5503027 ], [ 135.773486599999984, 35.5504444 ], [ 135.7659333, 35.5573063 ], [ 135.7642755, 35.553198 ], [ 135.7714311, 35.5466388 ], [ 135.769508, 35.5433119 ], [ 135.7639869, 35.5449666 ], [ 135.7588313, 35.5425719 ], [ 135.753969899999987, 35.5459954 ], [ 135.750057699999985, 35.5556541 ], [ 135.7527744, 35.5580718 ], [ 135.7507689, 35.5656502 ], [ 135.7450802, 35.5643063 ], [ 135.7411825, 35.5682816 ], [ 135.735829699999982, 35.5713479 ], [ 135.7286672, 35.5690479 ], [ 135.7197152, 35.5690366 ], [ 135.7150977, 35.5699888 ], [ 135.711906900000031, 35.5671429 ], [ 135.711404099999982, 35.563756 ], [ 135.7076566, 35.5642993 ], [ 135.7035543, 35.5580927 ], [ 135.6953193, 35.5516454 ], [ 135.6900679, 35.5487774 ], [ 135.68915149999998, 35.5448774 ], [ 135.6944643, 35.5426827 ], [ 135.697322899999989, 35.5443504 ], [ 135.702889299999981, 35.544305 ], [ 135.7078276, 35.5422486 ], [ 135.7125782, 35.5425393 ], [ 135.716782099999989, 35.5407438 ], [ 135.7185235, 35.5358444 ], [ 135.716642, 35.5253941 ], [ 135.718069, 35.5197035 ], [ 135.722991799999988, 35.521766 ], [ 135.7271934, 35.5215716 ], [ 135.7320681, 35.5254425 ], [ 135.737139, 35.5352806 ], [ 135.7433704, 35.5370096 ], [ 135.7505477, 35.5361271 ], [ 135.758006199999983, 35.5386431 ], [ 135.7633338, 35.5375787 ], [ 135.7650376, 35.533995 ], [ 135.7634114, 35.5310556 ], [ 135.7519752, 35.5320628 ], [ 135.7509498, 35.5300393 ], [ 135.750683899999984, 35.5174537 ], [ 135.7491915, 35.5138073 ], [ 135.740595, 35.5026737 ], [ 135.7408356, 35.4985996 ], [ 135.737468899999982, 35.4944145 ], [ 135.7339098, 35.4930817 ], [ 135.7307418, 35.4951586 ], [ 135.727212399999985, 35.4917527 ], [ 135.7199952, 35.4911198 ], [ 135.7196314, 35.4850404 ], [ 135.7142074, 35.483223099999989 ], [ 135.710845899999981, 35.484922 ], [ 135.7077007, 35.4898276 ], [ 135.7021674, 35.4894914 ], [ 135.700222599999989, 35.4927759 ], [ 135.6960784, 35.4912215 ], [ 135.691737099999983, 35.4877234 ], [ 135.675471, 35.4875741 ], [ 135.6654102, 35.4901372 ], [ 135.662885599999981, 35.4937791 ], [ 135.6602742, 35.4921035 ], [ 135.6582089, 35.4854553 ], [ 135.654327599999988, 35.480423 ], [ 135.648179299999981, 35.4782893 ], [ 135.645167, 35.4786039 ], [ 135.638514, 35.4797399 ], [ 135.6317996, 35.4824482 ], [ 135.626458899999989, 35.481486 ], [ 135.6207461, 35.4859672 ], [ 135.60522659999998, 35.4836901 ], [ 135.5979599, 35.4883115 ], [ 135.592337, 35.4904444 ], [ 135.583507199999985, 35.4907408 ], [ 135.5922204, 35.4945227 ], [ 135.596788, 35.4921398 ], [ 135.606293, 35.4902618 ], [ 135.6095161, 35.4920428 ], [ 135.6161099, 35.4924209 ], [ 135.6238089, 35.4910212 ], [ 135.6285023, 35.4918463 ], [ 135.630271, 35.4963613 ], [ 135.636419599999982, 35.5039453 ], [ 135.6420482, 35.506879 ], [ 135.642143799999985, 35.5097677 ], [ 135.637382699999989, 35.512432 ], [ 135.6395497, 35.5167504 ], [ 135.6347738, 35.5188492 ], [ 135.644263, 35.5256956 ], [ 135.654697, 35.5309303 ], [ 135.6612389, 35.5292433 ], [ 135.6615919, 35.525994 ], [ 135.6661153, 35.5234905 ], [ 135.668850599999985, 35.525218 ], [ 135.6656511, 35.5337007 ], [ 135.6620067, 35.5328579 ], [ 135.6596346, 35.5347338 ], [ 135.661178, 35.5385289 ], [ 135.665308600000031, 35.5413753 ], [ 135.656925900000033, 35.5449477 ], [ 135.651963599999988, 35.5454823 ], [ 135.6519007, 35.5426727 ], [ 135.6429982, 35.5416289 ], [ 135.6419645, 35.5391953 ], [ 135.636633599999982, 35.5369817 ], [ 135.633084699999984, 35.5375184 ], [ 135.630022, 35.5339939 ], [ 135.6267351, 35.5330793 ], [ 135.619676699999985, 35.5265142 ], [ 135.620637499999987, 35.5214933 ], [ 135.617909199999986, 35.5188126 ], [ 135.612571, 35.5188384 ], [ 135.6067071, 35.5171609 ], [ 135.6025295, 35.5138921 ], [ 135.59191, 35.5024077 ], [ 135.5877772, 35.5001643 ], [ 135.5808207, 35.4981987 ], [ 135.576864699999987, 35.4995852 ], [ 135.5748829, 35.4933806 ], [ 135.5644634, 35.490329 ], [ 135.556065499999988, 35.4905673 ], [ 135.5515149, 35.4940105 ], [ 135.5461216, 35.4944632 ], [ 135.542822699999988, 35.4909549 ], [ 135.536140099999983, 35.4888664 ], [ 135.5190371, 35.4937783 ], [ 135.5142065, 35.4972021 ], [ 135.5136895, 35.5012923 ], [ 135.510553, 35.5009324 ], [ 135.507309, 35.5057022 ], [ 135.5101497, 35.5092089 ], [ 135.50889669999998, 35.5121982 ], [ 135.5134545, 35.5156828 ], [ 135.51430689999998, 35.5213758 ], [ 135.512508, 35.5228297 ], [ 135.5166844, 35.5261038 ], [ 135.514137799999986, 35.5357499 ], [ 135.516446299999984, 35.5395838 ], [ 135.5183149, 35.5458107 ], [ 135.5183169, 35.5496141 ], [ 135.503678799999989, 35.5494897 ], [ 135.5020802, 35.553400499999988 ], [ 135.499295800000027, 35.5538399 ], [ 135.4994338, 35.5475227 ], [ 135.502199099999984, 35.5425888 ], [ 135.5013013, 35.5400972 ], [ 135.507413899999989, 35.5388718 ], [ 135.5092535, 35.5369199 ], [ 135.50581649999998, 35.5328561 ], [ 135.5028144, 35.533277 ], [ 135.502633299999985, 35.5247319 ], [ 135.4973202, 35.5249722 ], [ 135.4946329, 35.5222454 ], [ 135.4918516, 35.523605599999989 ], [ 135.4937699, 35.5283291 ], [ 135.4886699, 35.5290616 ], [ 135.48751, 35.5228132 ], [ 135.480877199999981, 35.5219414 ], [ 135.4778762, 35.5255352 ], [ 135.48216069999998, 35.5299686 ], [ 135.483508199999989, 35.5343044 ], [ 135.4806204, 35.5353447 ], [ 135.4699847, 35.529632 ], [ 135.4682379, 35.5314442 ], [ 135.474742099999986, 35.5380608 ], [ 135.4733187, 35.5407738 ], [ 135.4779465, 35.5421238 ], [ 135.4798965, 35.5466208 ], [ 135.4785661, 35.5511106 ], [ 135.4837488, 35.5541777 ], [ 135.4815341, 35.5565108 ], [ 135.474122699999981, 35.5537166 ], [ 135.466844899999984, 35.5519138 ], [ 135.4604846, 35.5484569 ], [ 135.4596382, 35.5434252 ], [ 135.4541376, 35.5369339 ], [ 135.4545393, 35.5341539 ], [ 135.449862, 35.5272497 ], [ 135.4499262, 35.5207961 ], [ 135.4597607, 35.5144544 ], [ 135.4636382, 35.5131644 ], [ 135.4666559, 35.5094861 ], [ 135.4730323, 35.5082308 ], [ 135.4762246, 35.5054927 ], [ 135.472575899999981, 35.5011764 ], [ 135.4763032, 35.4896811 ], [ 135.4706673, 35.4893 ], [ 135.4695865, 35.4847872 ], [ 135.4624809, 35.4788075 ], [ 135.4589545, 35.4729716 ], [ 135.458429199999983, 35.4688569 ], [ 135.462768399999987, 35.4622469 ], [ 135.4694523, 35.4581583 ], [ 135.4703218, 35.4544872 ], [ 135.480862, 35.4480822 ], [ 135.486088699999982, 35.4485991 ], [ 135.490983699999987, 35.4385525 ], [ 135.4977882, 35.4375453 ], [ 135.5004854, 35.4325472 ], [ 135.49547339999998, 35.4292591 ], [ 135.495364, 35.4264094 ], [ 135.500506699999988, 35.4232605 ], [ 135.502049, 35.4200314 ], [ 135.5056946, 35.4208975 ], [ 135.5101448, 35.4244219 ], [ 135.515904, 35.4219483 ], [ 135.520807900000023, 35.4229263 ], [ 135.527022599999981, 35.4184152 ], [ 135.527722899999986, 35.4121419 ], [ 135.5299698, 35.4084238 ], [ 135.5251979, 35.4030847 ], [ 135.527903399999985, 35.3976597 ], [ 135.531642299999987, 35.3927969 ], [ 135.5287815, 35.3907225 ], [ 135.527146499999986, 35.3846858 ], [ 135.5275412, 35.3802172 ], [ 135.5369801, 35.3766714 ], [ 135.5504096, 35.376875 ], [ 135.5532671, 35.3778469 ], [ 135.558780399999989, 35.3764797 ], [ 135.565838499999984, 35.3773266 ], [ 135.5717285, 35.3742639 ], [ 135.5796116, 35.3748739 ], [ 135.5839485, 35.3702025 ], [ 135.5881024, 35.3682575 ], [ 135.5938693, 35.3704822 ], [ 135.5949482, 35.3726497 ], [ 135.599785699999984, 35.3712186 ], [ 135.6070627, 35.3714955 ], [ 135.6116782, 35.3692164 ], [ 135.615096099999988, 35.37106 ], [ 135.6234708, 35.3698991 ], [ 135.628368, 35.3668791 ], [ 135.6366375, 35.3637094 ], [ 135.6423644, 35.3667153 ], [ 135.652443299999987, 35.3599394 ], [ 135.65932810000001, 35.3584975 ], [ 135.6613433, 35.3563419 ], [ 135.6681984, 35.3570664 ], [ 135.6694956, 35.3543444 ], [ 135.6736684, 35.353278 ], [ 135.677114499999988, 35.3498377 ], [ 135.6800964, 35.3500283 ], [ 135.685260299999982, 35.3474333 ], [ 135.689952799999986, 35.3478539 ], [ 135.6923512, 35.3459406 ], [ 135.7009865, 35.3436869 ], [ 135.710724299999981, 35.3480014 ], [ 135.71279149999998, 35.3530783 ], [ 135.7189385, 35.3553 ], [ 135.725016499999981, 35.3517353 ], [ 135.727798, 35.3525814 ], [ 135.7314791, 35.3505522 ], [ 135.7363705, 35.3511464 ], [ 135.7406219, 35.3539469 ], [ 135.740168, 35.3582722 ], [ 135.7441411, 35.3589383 ], [ 135.7507539, 35.3570036 ], [ 135.75518169999998, 35.3544456 ], [ 135.7600342, 35.3543542 ], [ 135.764373899999981, 35.3565245 ], [ 135.7687853, 35.3560145 ], [ 135.7700687, 35.3599756 ], [ 135.777749, 35.3659392 ], [ 135.779145699999987, 35.3735247 ], [ 135.7839238, 35.3770142 ], [ 135.789978599999984, 35.3783673 ], [ 135.7919602, 35.3811156 ] ] ] ] } },
{ "type": "Feature", "properties": { "hokenjo": "丹南" }, "geometry": { "type": "MultiPolygon", "coordinates": [ [ [ [ 136.3560167, 35.7844222 ], [ 136.3570887, 35.7868316 ], [ 136.364065899999986, 35.7881755 ], [ 136.3766584, 35.795178 ], [ 136.388956399999984, 35.7917908 ], [ 136.3895006, 35.7880422 ], [ 136.3960998, 35.7880422 ], [ 136.40013639999998, 35.7893669 ], [ 136.401660099999987, 35.7860755 ], [ 136.4088514, 35.7803027 ], [ 136.415965900000032, 35.7824458 ], [ 136.4196537, 35.7868877 ], [ 136.4228253, 35.7933566 ], [ 136.4278989, 35.7948297 ], [ 136.431264199999987, 35.7979158 ], [ 136.43104169999998, 35.8027136 ], [ 136.432563099999982, 35.8071386 ], [ 136.426427599999982, 35.8100847 ], [ 136.4232412, 35.8130189 ], [ 136.422932299999985, 35.8208616 ], [ 136.4267643, 35.823330299999988 ], [ 136.4234056, 35.832535 ], [ 136.423778700000014, 35.8344564 ], [ 136.4288568, 35.8389903 ], [ 136.428319, 35.8411867 ], [ 136.4322659, 35.8471222 ], [ 136.4355787, 35.849638 ], [ 136.4297982, 35.8549347 ], [ 136.42764649999998, 35.8588527 ], [ 136.434963499999981, 35.8671483 ], [ 136.4330716, 35.8719386 ], [ 136.4398602, 35.8779211 ], [ 136.439264399999985, 35.8860061 ], [ 136.436278, 35.8860605 ], [ 136.4329555, 35.8888569 ], [ 136.432523299999986, 35.8963502 ], [ 136.4375933, 35.9010474 ], [ 136.4387744, 35.9086419 ], [ 136.44661, 35.9101452 ], [ 136.4513536, 35.9128246 ], [ 136.4556555, 35.9135569 ], [ 136.4606106, 35.9190635 ], [ 136.4605244, 35.9205524 ], [ 136.452253899999988, 35.9214555 ], [ 136.43868089999998, 35.9278127 ], [ 136.4398017, 35.9322577 ], [ 136.43608279999998, 35.9356988 ], [ 136.4293256, 35.9383254 ], [ 136.423016499999989, 35.9387971 ], [ 136.4173801, 35.9429657 ], [ 136.406746, 35.9489799 ], [ 136.4002707, 35.9482793 ], [ 136.3893543, 35.9522932 ], [ 136.3839085, 35.9512327 ], [ 136.375440699999984, 35.9517002 ], [ 136.3725024, 35.9492488 ], [ 136.3670085, 35.9478938 ], [ 136.3583018, 35.9475413 ], [ 136.352204299999983, 35.9423511 ], [ 136.350469299999986, 35.9391536 ], [ 136.3501881, 35.9343153 ], [ 136.3455817, 35.931435 ], [ 136.341493899999989, 35.9328081 ], [ 136.3386042, 35.9297592 ], [ 136.333737, 35.9286731 ], [ 136.333948099999986, 35.9393361 ], [ 136.3315651, 35.94293 ], [ 136.334919, 35.9467472 ], [ 136.3360491, 35.9514122 ], [ 136.332841300000013, 35.9522299 ], [ 136.3229374, 35.9518575 ], [ 136.3230591, 35.9567255 ], [ 136.3183971, 35.9580191 ], [ 136.3173583, 35.9635711 ], [ 136.3119997, 35.9661241 ], [ 136.3037819, 35.9644386 ], [ 136.300073, 35.9686469 ], [ 136.2900775, 35.9740005 ], [ 136.2851102, 35.9736733 ], [ 136.2825747, 35.9717597 ], [ 136.2748461, 35.9721544 ], [ 136.2711308, 35.9779711 ], [ 136.2673244, 35.9779564 ], [ 136.259381599999983, 35.9804153 ], [ 136.2545427, 35.9793244 ], [ 136.2388786, 35.98346 ], [ 136.2320914, 35.9906691 ], [ 136.2262944, 35.9895291 ], [ 136.223827199999988, 35.9904556 ], [ 136.219954699999988, 35.9879033 ], [ 136.2187413, 35.9846386 ], [ 136.2151724, 35.9833753 ], [ 136.2151165, 35.9804217 ], [ 136.2096235, 35.9770923 ], [ 136.2056318, 35.9712364 ], [ 136.2037793, 35.9752523 ], [ 136.206381599999986, 35.9857328 ], [ 136.1946527, 35.9907783 ], [ 136.189383, 35.9910697 ], [ 136.1798097, 35.9944569 ], [ 136.1806875, 35.99914 ], [ 136.1760008, 35.999806899999989 ], [ 136.16828, 35.9978767 ], [ 136.1659166, 35.9962572 ], [ 136.160534899999988, 35.9968856 ], [ 136.159185799999989, 35.9937697 ], [ 136.155225799999982, 35.9922867 ], [ 136.1411808, 35.9922053 ], [ 136.136254399999984, 35.9937014 ], [ 136.135064699999987, 35.9967458 ], [ 136.1280931, 36.0038758 ], [ 136.120842499999981, 36.0010494 ], [ 136.117550599999987, 36.0025492 ], [ 136.1103142, 36.0022431 ], [ 136.09654279999998, 36.0059964 ], [ 136.097354200000012, 36.0092811 ], [ 136.093282, 36.0099091 ], [ 136.0924392, 36.0126803 ], [ 136.08678759999998, 36.015738899999988 ], [ 136.081037, 36.0142766 ], [ 136.0817629, 36.0189347 ], [ 136.0752862, 36.0212116 ], [ 136.0718501, 36.0238991 ], [ 136.0721488, 36.0281183 ], [ 136.0665646, 36.0264244 ], [ 136.063604, 36.0277719 ], [ 136.0572971, 36.0269291 ], [ 136.0550599, 36.0150691 ], [ 136.0482132, 36.0074889 ], [ 136.0475562, 36.004293 ], [ 136.0329157, 35.9969964 ], [ 136.0306737, 35.9997658 ], [ 136.0271409, 35.9973947 ], [ 136.0225668, 36.0055763 ], [ 136.017570399999983, 36.0088858 ], [ 136.016421, 36.0112455 ], [ 136.0117304, 36.0142363 ], [ 136.0057065, 36.0099963 ], [ 136.0034877, 36.0054374 ], [ 136.003856, 36.0004102 ], [ 136.0024843, 35.9968711 ], [ 136.0040363, 35.9910149 ], [ 136.0071771, 35.986308 ], [ 136.0022435, 35.9863558 ], [ 135.996201499999984, 35.9826941 ], [ 135.9907249, 35.9828444 ], [ 135.9845535, 35.9854152 ], [ 135.985563499999984, 35.9877836 ], [ 135.9698382, 35.9918652 ], [ 135.9643729, 35.9975142 ], [ 135.965295199999986, 35.9919616 ], [ 135.9607699, 35.9904391 ], [ 135.9620392, 35.9867347 ], [ 135.957689599999981, 35.9817683 ], [ 135.9606799, 35.9782338 ], [ 135.9585104, 35.9761193 ], [ 135.961982, 35.9716306 ], [ 135.9669926, 35.9696655 ], [ 135.969535399999984, 35.9623972 ], [ 135.981201299999981, 35.9544147 ], [ 135.986720099999985, 35.9489849 ], [ 135.986465399999986, 35.9439674 ], [ 135.993984899999987, 35.939189 ], [ 135.9967245, 35.9358258 ], [ 135.997618099999983, 35.9232931 ], [ 135.9951705, 35.912248 ], [ 135.9978604, 35.9029669 ], [ 135.9952844, 35.8984959 ], [ 135.9949957, 35.8923414 ], [ 135.997549500000019, 35.884487199999988 ], [ 136.0112297, 35.8723578 ], [ 136.0209841, 35.8651711 ], [ 136.0298659, 35.8571478 ], [ 136.0387351, 35.8505547 ], [ 136.0456438, 35.8430293 ], [ 136.0544966, 35.8350631 ], [ 136.061568, 35.8296806 ], [ 136.070309899999984, 35.824832 ], [ 136.076399899999984, 35.8116531 ], [ 136.083836099999985, 35.8011158 ], [ 136.0876769, 35.7978709 ], [ 136.0901441, 35.7911237 ], [ 136.099802399999987, 35.7791612 ], [ 136.09900829999998, 35.7715051 ], [ 136.0967197, 35.7673443 ], [ 136.098310199999986, 35.7652384 ], [ 136.1127663, 35.7654151 ], [ 136.117637699999989, 35.7577223 ], [ 136.118542099999985, 35.7518459 ], [ 136.123650699999985, 35.748404 ], [ 136.1269299, 35.7424532 ], [ 136.130287100000032, 35.7411643 ], [ 136.13262180000001, 35.7373332 ], [ 136.132550899999984, 35.7298634 ], [ 136.1335698, 35.7249473 ], [ 136.1319934, 35.7226912 ], [ 136.142598099999987, 35.7160623 ], [ 136.1487881, 35.7106518 ], [ 136.1492261, 35.7063282 ], [ 136.147116899999986, 35.6992718 ], [ 136.1503483, 35.6977154 ], [ 136.156753899999984, 35.7003687 ], [ 136.1613769, 35.6977018 ], [ 136.1660444, 35.6972512 ], [ 136.166774700000019, 35.7022148 ], [ 136.171558299999987, 35.7017384 ], [ 136.174593099999981, 35.7037373 ], [ 136.178356899999983, 35.7018104 ], [ 136.185284699999983, 35.7037262 ], [ 136.193091399999986, 35.7007617 ], [ 136.198502499999989, 35.6895737 ], [ 136.2041906, 35.6867906 ], [ 136.2080425, 35.6876947 ], [ 136.2118108, 35.6824464 ], [ 136.2194711, 35.6843539 ], [ 136.2235039, 35.6814769 ], [ 136.2276795, 35.6804699 ], [ 136.2311353, 35.6826933 ], [ 136.234407, 35.6824621 ], [ 136.2446498, 35.6737882 ], [ 136.2503726, 35.6762451 ], [ 136.257475699999986, 35.6712798 ], [ 136.264031, 35.6710604 ], [ 136.269359899999984, 35.6687278 ], [ 136.280534099999983, 35.6612753 ], [ 136.290423, 35.6658253 ], [ 136.289165, 35.6717255 ], [ 136.2960053, 35.6756772 ], [ 136.2989323, 35.6788102 ], [ 136.2943501, 35.6810694 ], [ 136.2919181, 35.6840708 ], [ 136.2917737, 35.6903922 ], [ 136.297620599999988, 35.6917758 ], [ 136.3047401, 35.7015331 ], [ 136.3108479, 35.705665 ], [ 136.3103826, 35.7105273 ], [ 136.3130945, 35.7128928 ], [ 136.3226929, 35.715632 ], [ 136.3235134, 35.7180312 ], [ 136.320524299999988, 35.7229334 ], [ 136.3236062, 35.7249748 ], [ 136.3269601, 35.731517 ], [ 136.3240409, 35.7404615 ], [ 136.325025399999987, 35.7446604 ], [ 136.3200492, 35.7472932 ], [ 136.318402, 35.7509754 ], [ 136.3201659, 35.7585282 ], [ 136.3220284, 35.7609938 ], [ 136.3216567, 35.7652999 ], [ 136.3279478, 35.7751019 ], [ 136.3328123, 35.7763877 ], [ 136.3467656, 35.776244399999989 ], [ 136.3484123, 35.7800244 ], [ 136.3560167, 35.7844222 ] ] ] ] } },
{ "type": "Feature", "properties": { "hokenjo": "二州" }, "geometry": { "type": "MultiPolygon", "coordinates": [ [ [ [ 135.8543367, 35.4151495 ], [ 135.8531334, 35.411537 ], [ 135.85561389999998, 35.409032 ], [ 135.854338899999988, 35.4007784 ], [ 135.8604331, 35.3952517 ], [ 135.8645319, 35.3944228 ], [ 135.8755535, 35.3974047 ], [ 135.8802868, 35.400602 ], [ 135.8905701, 35.403175 ], [ 135.8935459, 35.4107344 ], [ 135.8929815, 35.4198475 ], [ 135.900977300000022, 35.4257589 ], [ 135.9027112, 35.4294331 ], [ 135.908075599999989, 35.4295217 ], [ 135.9141622, 35.4321061 ], [ 135.914595099999985, 35.4379897 ], [ 135.9128148, 35.4400008 ], [ 135.912455099999988, 35.4486856 ], [ 135.9155767, 35.4561189 ], [ 135.914853099999988, 35.4591361 ], [ 135.9173281, 35.4667553 ], [ 135.916009799999983, 35.4705783 ], [ 135.921690899999987, 35.4761197 ], [ 135.9237379, 35.4817022 ], [ 135.9222943, 35.4858183 ], [ 135.9248251, 35.4899705 ], [ 135.929833700000017, 35.4919614 ], [ 135.933214, 35.502308 ], [ 135.9352882, 35.5039116 ], [ 135.9380218, 35.5111619 ], [ 135.9375996, 35.513845 ], [ 135.9396471, 35.5205427 ], [ 135.94702239999998, 35.5204755 ], [ 135.9518201, 35.5112236 ], [ 135.9523701, 35.5062214 ], [ 135.95758619999998, 35.5059605 ], [ 135.962579799999986, 35.501333 ], [ 135.967187, 35.5029844 ], [ 135.9726464, 35.5001055 ], [ 135.9809511, 35.4866892 ], [ 135.989506899999981, 35.4926819 ], [ 135.993190199999987, 35.4915872 ], [ 136.0066649, 35.4918194 ], [ 136.0116863, 35.4976167 ], [ 136.011726899999985, 35.5048406 ], [ 136.0151033, 35.5087292 ], [ 136.0159636, 35.5122722 ], [ 136.020132200000035, 35.5118961 ], [ 136.0235347, 35.5192331 ], [ 136.028842199999985, 35.5234281 ], [ 136.026168899999988, 35.5268506 ], [ 136.0265325, 35.5294967 ], [ 136.0282755, 35.5290678 ], [ 136.040938, 35.5321817 ], [ 136.046376899999984, 35.5301756 ], [ 136.0483466, 35.5345317 ], [ 136.060716499999984, 35.5318673 ], [ 136.0623516, 35.5281484 ], [ 136.0692335, 35.5262473 ], [ 136.0770468, 35.5305414 ], [ 136.0766968, 35.5344337 ], [ 136.0793526, 35.5357248 ], [ 136.0832285, 35.5405584 ], [ 136.090072600000013, 35.5376915 ], [ 136.093557299999986, 35.5373431 ], [ 136.0974276, 35.5338895 ], [ 136.103783100000015, 35.5304112 ], [ 136.1071981, 35.5303665 ], [ 136.1060876, 35.538639 ], [ 136.1094062, 35.5451187 ], [ 136.1090504, 35.5496579 ], [ 136.105449599999986, 35.5554193 ], [ 136.110095699999988, 35.5592868 ], [ 136.1106782, 35.563324 ], [ 136.108894099999986, 35.5671968 ], [ 136.112599099999983, 35.5734109 ], [ 136.1122202, 35.5798382 ], [ 136.1167657, 35.5788107 ], [ 136.1215804, 35.576164 ], [ 136.1328174, 35.5745281 ], [ 136.138686799999988, 35.5756726 ], [ 136.143330099999986, 35.5711487 ], [ 136.149560899999983, 35.5713903 ], [ 136.15086850000003, 35.5728814 ], [ 136.157564, 35.5712417 ], [ 136.1632396, 35.5711442 ], [ 136.1668804, 35.5653523 ], [ 136.1703298, 35.5710881 ], [ 136.166466, 35.5826545 ], [ 136.172421, 35.5883389 ], [ 136.177485499999989, 35.5949839 ], [ 136.17437, 35.6035919 ], [ 136.1708026, 35.6086775 ], [ 136.1703612, 35.6123575 ], [ 136.1668898, 35.618625 ], [ 136.1643393, 35.6199547 ], [ 136.1626043, 35.6239094 ], [ 136.159866, 35.6252277 ], [ 136.159773600000022, 35.6349591 ], [ 136.1573066, 35.6412586 ], [ 136.155446899999987, 35.6418399 ], [ 136.1515439, 35.6482766 ], [ 136.1500634, 35.6545452 ], [ 136.150401500000015, 35.6588555 ], [ 136.1478151, 35.6625199 ], [ 136.137487099999987, 35.665076299999988 ], [ 136.1344938, 35.669823 ], [ 136.139614100000017, 35.6779702 ], [ 136.1423127, 35.6790177 ], [ 136.1434941, 35.6830391 ], [ 136.1481469, 35.6873118 ], [ 136.1502605, 35.6911226 ], [ 136.1503483, 35.6977154 ], [ 136.147116899999986, 35.6992718 ], [ 136.1492261, 35.7063282 ], [ 136.1487881, 35.7106518 ], [ 136.142598099999987, 35.7160623 ], [ 136.1319934, 35.7226912 ], [ 136.1335698, 35.7249473 ], [ 136.132550899999984, 35.7298634 ], [ 136.13262180000001, 35.7373332 ], [ 136.130287100000032, 35.7411643 ], [ 136.1269299, 35.7424532 ], [ 136.123650699999985, 35.748404 ], [ 136.118542099999985, 35.7518459 ], [ 136.117637699999989, 35.7577223 ], [ 136.1127663, 35.7654151 ], [ 136.098310199999986, 35.7652384 ], [ 136.101209899999986, 35.7581501 ], [ 136.1013963, 35.7529134 ], [ 136.099925499999983, 35.7466765 ], [ 136.094560199999989, 35.7421743 ], [ 136.0881705, 35.7413423 ], [ 136.0864947, 35.7381673 ], [ 136.0955247, 35.7365632 ], [ 136.097261299999985, 35.7338246 ], [ 136.096026599999988, 35.7294732 ], [ 136.09856689999998, 35.726314 ], [ 136.094955699999986, 35.7200368 ], [ 136.090956299999988, 35.7169359 ], [ 136.0924221, 35.711039 ], [ 136.0870157, 35.707371 ], [ 136.084217099999989, 35.707424 ], [ 136.0785366, 35.7035612 ], [ 136.0816094, 35.6994601 ], [ 136.080050199999988, 35.6972937 ], [ 136.0814039, 35.6891655 ], [ 136.086155099999985, 35.6853402 ], [ 136.0825037, 35.6814147 ], [ 136.0755962, 35.6795151 ], [ 136.0742947, 35.6780596 ], [ 136.074293499999982, 35.6673969 ], [ 136.0715663, 35.6657059 ], [ 136.066774899999984, 35.6659154 ], [ 136.0625527, 35.6680608 ], [ 136.0622942, 35.6637826 ], [ 136.067857799999985, 35.6642846 ], [ 136.0718487, 35.6606773 ], [ 136.0560117, 35.65667 ], [ 136.0482796, 35.6570611 ], [ 136.043230599999987, 35.6599658 ], [ 136.045565399999987, 35.6634533 ], [ 136.042385199999984, 35.6669985 ], [ 136.0428497, 35.6694832 ], [ 136.0377911, 35.6721543 ], [ 136.0363353, 35.6755909 ], [ 136.0333784, 35.6756606 ], [ 136.026530399999984, 35.6790951 ], [ 136.025457, 35.6834962 ], [ 136.0315171, 35.691637299999989 ], [ 136.0362399, 35.6943251 ], [ 136.039727299999981, 35.6918873 ], [ 136.0441856, 35.6911447 ], [ 136.044189599999982, 35.6980241 ], [ 136.041009, 35.6986304 ], [ 136.0417682, 35.7059437 ], [ 136.0376905, 35.7098176 ], [ 136.0399827, 35.712914 ], [ 136.0364788, 35.7174659 ], [ 136.0357813, 35.7210325 ], [ 136.0383994, 35.7252195 ], [ 136.0364094, 35.729625 ], [ 136.0281416, 35.7373629 ], [ 136.0277155, 35.7413953 ], [ 136.022483, 35.7452146 ], [ 136.02404439999998, 35.7499742 ], [ 136.0292069, 35.744562 ], [ 136.036252099999984, 35.7419414 ], [ 136.030287099999981, 35.7532159 ], [ 136.0259523, 35.7548246 ], [ 136.0234616, 35.7604106 ], [ 136.0199855, 35.7636625 ], [ 136.0090922, 35.7553358 ], [ 136.005371699999984, 35.7560858 ], [ 136.0011552, 35.7498811 ], [ 135.9948067, 35.7486569 ], [ 135.9845009, 35.7397332 ], [ 135.9841659, 35.73577 ], [ 135.98110029999998, 35.7331047 ], [ 135.9760162, 35.7325167 ], [ 135.9744294, 35.7353022 ], [ 135.968447199999986, 35.7351156 ], [ 135.9645864, 35.7301119 ], [ 135.9587616, 35.7269961 ], [ 135.954487199999988, 35.7227195 ], [ 135.9544047, 35.7201217 ], [ 135.9594319, 35.7166789 ], [ 135.9585483, 35.7107567 ], [ 135.9596555, 35.7018231 ], [ 135.9626227, 35.6996789 ], [ 135.966719899999987, 35.701524 ], [ 135.965568599999983, 35.710747 ], [ 135.971245, 35.7118073 ], [ 135.972642399999984, 35.7087537 ], [ 135.9707027, 35.7041782 ], [ 135.9754321, 35.6982724 ], [ 135.976261600000015, 35.6895814 ], [ 135.977565199999987, 35.6866937 ], [ 135.9730065, 35.677529299999989 ], [ 135.9682518, 35.6742379 ], [ 135.9688601, 35.6689145 ], [ 135.966894199999984, 35.6673181 ], [ 135.9668203, 35.6596948 ], [ 135.9631555, 35.6571809 ], [ 135.9713169, 35.6560715 ], [ 135.9746222, 35.6546521 ], [ 135.976266899999985, 35.650984 ], [ 135.9855904, 35.6431946 ], [ 135.9848853, 35.6364862 ], [ 135.9808842, 35.6302771 ], [ 135.9742636, 35.6247127 ], [ 135.9682225, 35.6222827 ], [ 135.9623468, 35.6224528 ], [ 135.961138200000022, 35.6246913 ], [ 135.9545771, 35.6290889 ], [ 135.95480809999998, 35.633317 ], [ 135.95001019999998, 35.6338789 ], [ 135.948130099999986, 35.6320894 ], [ 135.9514084, 35.6286266 ], [ 135.9450297, 35.6237689 ], [ 135.944578600000028, 35.6208527 ], [ 135.939802499999985, 35.6156758 ], [ 135.933596099999988, 35.6125291 ], [ 135.925797, 35.6101083 ], [ 135.9135396, 35.6093641 ], [ 135.90759509999998, 35.6163278 ], [ 135.9078714, 35.6243512 ], [ 135.898859099999981, 35.6239907 ], [ 135.894411800000029, 35.6200333 ], [ 135.8962118, 35.6163604 ], [ 135.8955465, 35.613499399999988 ], [ 135.891481299999981, 35.6119828 ], [ 135.8851118, 35.6178457 ], [ 135.8799124, 35.6163814 ], [ 135.8766397, 35.6103313 ], [ 135.8701513, 35.6083037 ], [ 135.8652305, 35.610301 ], [ 135.859256099999982, 35.6110707 ], [ 135.8569105, 35.6181215 ], [ 135.8598139, 35.6203807 ], [ 135.85929, 35.6231657 ], [ 135.8555266, 35.6246971 ], [ 135.8490602, 35.6227724 ], [ 135.8435653, 35.6266232 ], [ 135.846134399999983, 35.6354954 ], [ 135.83937419999998, 35.637631 ], [ 135.8344142, 35.6365004 ], [ 135.8276947, 35.6388482 ], [ 135.822824199999985, 35.6441621 ], [ 135.8146429, 35.6422496 ], [ 135.813070899999985, 35.634944 ], [ 135.8154989, 35.63253 ], [ 135.8220561, 35.6375028 ], [ 135.8277146, 35.6352629 ], [ 135.8328254, 35.6313988 ], [ 135.823568199999983, 35.631347 ], [ 135.8231461, 35.6287046 ], [ 135.829245, 35.6242501 ], [ 135.8390144, 35.6202997 ], [ 135.838684699999988, 35.616139 ], [ 135.834992, 35.6154804 ], [ 135.830166, 35.6119641 ], [ 135.827393, 35.6081939 ], [ 135.834235399999983, 35.604796 ], [ 135.8394145, 35.6074598 ], [ 135.84303509999998, 35.6075363 ], [ 135.846184199999982, 35.6013693 ], [ 135.8535186, 35.6030709 ], [ 135.8555331, 35.5920592 ], [ 135.857512, 35.5895225 ], [ 135.8545441, 35.586597499999989 ], [ 135.857375, 35.5818035 ], [ 135.8484106, 35.5775319 ], [ 135.8498739, 35.5737185 ], [ 135.848198, 35.5708707 ], [ 135.8428183, 35.5710315 ], [ 135.8404712, 35.5683376 ], [ 135.839692899999989, 35.5631477 ], [ 135.834680599999984, 35.561781599999989 ], [ 135.8279387, 35.5640131 ], [ 135.8278258, 35.5685203 ], [ 135.8233707, 35.5702439 ], [ 135.8212067, 35.5737316 ], [ 135.8151843, 35.5716489 ], [ 135.8142976, 35.5672104 ], [ 135.8190717, 35.5660446 ], [ 135.8222192, 35.5596952 ], [ 135.8273003, 35.5583955 ], [ 135.8354795, 35.5541357 ], [ 135.8394156, 35.5500663 ], [ 135.8441684, 35.5492038 ], [ 135.851337, 35.5410385 ], [ 135.849594199999984, 35.5373527 ], [ 135.8428375, 35.5335938 ], [ 135.841945600000031, 35.531248 ], [ 135.8320489, 35.5225024 ], [ 135.8375197, 35.515528 ], [ 135.8414486, 35.5130077 ], [ 135.8421214, 35.5069586 ], [ 135.845364099999983, 35.5019903 ], [ 135.8423608, 35.4956355 ], [ 135.8447769, 35.4869066 ], [ 135.8433086, 35.4843989 ], [ 135.8374617, 35.482467199999988 ], [ 135.834725, 35.4834847 ], [ 135.8234756, 35.4797686 ], [ 135.8175575, 35.4836591 ], [ 135.81196079999998, 35.4890291 ], [ 135.8061866, 35.490828 ], [ 135.7969191, 35.4896769 ], [ 135.7993591, 35.4852803 ], [ 135.798691099999985, 35.4827722 ], [ 135.801833599999981, 35.4800003 ], [ 135.8118667, 35.4756855 ], [ 135.8124981, 35.4741569 ], [ 135.8100811, 35.4661253 ], [ 135.8156114, 35.4619353 ], [ 135.8152842, 35.4569336 ], [ 135.819612899999981, 35.4509447 ], [ 135.829162599999989, 35.4484703 ], [ 135.83595649999998, 35.4434414 ], [ 135.840902, 35.4413511 ], [ 135.8490459, 35.4423328 ], [ 135.85245, 35.4380056 ], [ 135.8591644, 35.4322989 ], [ 135.860424699999982, 35.4285386 ], [ 135.858782500000018, 35.4262669 ], [ 135.8572845, 35.4173623 ], [ 135.8543367, 35.4151495 ] ] ], [ [ [ 135.802565099999981, 35.632521 ], [ 135.806482099999982, 35.6312494 ], [ 135.8050298, 35.6393724 ], [ 135.802565099999981, 35.632521 ] ] ] ] } },
{ "type": "Feature", "properties": { "hokenjo": "福井" }, "geometry": { "type": "MultiPolygon", "coordinates": [ [ [ [ 136.4320035, 36.0433221 ], [ 136.4354716, 36.0502013 ], [ 136.4325211, 36.0542296 ], [ 136.4329502, 36.0587635 ], [ 136.435921399999984, 36.0617921 ], [ 136.439328900000021, 36.069484 ], [ 136.4380056, 36.0754279 ], [ 136.4290926, 36.0763098 ], [ 136.409479, 36.0810057 ], [ 136.388287099999985, 36.0875193 ], [ 136.3884009, 36.0907998 ], [ 136.395647300000036, 36.0922123 ], [ 136.3990149, 36.0963434 ], [ 136.4041665, 36.0991996 ], [ 136.3982416, 36.1091082 ], [ 136.3969524, 36.1136104 ], [ 136.391332399999982, 36.1161701 ], [ 136.3927813, 36.1249387 ], [ 136.3847544, 36.126911 ], [ 136.375776799999983, 36.1259249 ], [ 136.3716818, 36.1300574 ], [ 136.360234599999984, 36.1274327 ], [ 136.3602129, 36.124506599999989 ], [ 136.3554234, 36.1168649 ], [ 136.345940399999989, 36.1138141 ], [ 136.3436337, 36.1112727 ], [ 136.3393848, 36.110917199999989 ], [ 136.3359245, 36.1124099 ], [ 136.332931699999989, 36.1096374 ], [ 136.3244928, 36.1066994 ], [ 136.3229598, 36.10276 ], [ 136.318250799999987, 36.1022564 ], [ 136.315462199999985, 36.1037253 ], [ 136.3063075, 36.1037667 ], [ 136.2962475, 36.1073089 ], [ 136.298671399999989, 36.1115445 ], [ 136.2921566, 36.1134503 ], [ 136.290404199999983, 36.1160025 ], [ 136.2840022, 36.1111555 ], [ 136.2853039, 36.1195709 ], [ 136.2804855, 36.1208978 ], [ 136.281369399999988, 36.1134987 ], [ 136.2756602, 36.1112595 ], [ 136.2756238, 36.1093048 ], [ 136.2699699, 36.1040726 ], [ 136.2773477, 36.1029526 ], [ 136.280683, 36.1035851 ], [ 136.2813066, 36.0989359 ], [ 136.288072199999988, 36.0983578 ], [ 136.2883674, 36.0949103 ], [ 136.2824316, 36.0944539 ], [ 136.2801263, 36.0930126 ], [ 136.2872777, 36.0827492 ], [ 136.2922552, 36.0829097 ], [ 136.292406, 36.0788247 ], [ 136.2888032, 36.0758081 ], [ 136.2852263, 36.0760487 ], [ 136.281634, 36.0740881 ], [ 136.2845498, 36.0687017 ], [ 136.284477, 36.0632048 ], [ 136.28637759999998, 36.0615442 ], [ 136.286445600000036, 36.0560817 ], [ 136.2913031, 36.0529045 ], [ 136.2933701, 36.0497489 ], [ 136.296967599999988, 36.049707 ], [ 136.2972695, 36.0461412 ], [ 136.3147418, 36.041402 ], [ 136.318516499999987, 36.0418164 ], [ 136.320359599999989, 36.0477692 ], [ 136.3289035, 36.0483483 ], [ 136.3354482, 36.0526113 ], [ 136.340634100000017, 36.0529872 ], [ 136.346148199999988, 36.0425861 ], [ 136.3460701, 36.0396291 ], [ 136.350803499999984, 36.0365744 ], [ 136.3575563, 36.0358691 ], [ 136.359988, 36.0339555 ], [ 136.367376, 36.0335502 ], [ 136.3788391, 36.043271499999989 ], [ 136.384289699999982, 36.0470799 ], [ 136.3901658, 36.0478593 ], [ 136.4074469, 36.0459426 ], [ 136.4133018, 36.0424927 ], [ 136.425605099999984, 36.0397924 ], [ 136.4320035, 36.0433221 ] ] ] ] } },
{ "type": "Feature", "properties": { "hokenjo": "福井市" }, "geometry": { "type": "MultiPolygon", "coordinates": [ [ [ [ 136.2699699, 36.1040726 ], [ 136.264134399999989, 36.1051701 ], [ 136.2569346, 36.1049209 ], [ 136.2536608, 36.1065065 ], [ 136.255475499999989, 36.113162 ], [ 136.254066599999987, 36.1236487 ], [ 136.245591099999984, 36.1182062 ], [ 136.242928299999988, 36.1207106 ], [ 136.2338847, 36.1186612 ], [ 136.230658, 36.1207834 ], [ 136.216879899999981, 36.1209337 ], [ 136.209522199999981, 36.1204818 ], [ 136.1979408, 36.1215034 ], [ 136.1937278, 36.123781 ], [ 136.1941874, 36.126459 ], [ 136.1917866, 36.1304215 ], [ 136.18846019999998, 36.1304929 ], [ 136.1813369, 36.1334507 ], [ 136.1778297, 36.1336818 ], [ 136.175053099999985, 36.1394126 ], [ 136.1680847, 36.1431059 ], [ 136.1644078, 36.1488482 ], [ 136.1618992, 36.1587846 ], [ 136.1567334, 36.1641618 ], [ 136.1515537, 36.1668957 ], [ 136.147880099999981, 36.1634126 ], [ 136.1382073, 36.1632679 ], [ 136.13809089999998, 36.1699446 ], [ 136.13531709999998, 36.1695254 ], [ 136.1310245, 36.1638446 ], [ 136.1303456, 36.1586451 ], [ 136.1254931, 36.1579768 ], [ 136.126037, 36.1627662 ], [ 136.1193729, 36.1658548 ], [ 136.1072992, 36.1694284 ], [ 136.100029, 36.1728934 ], [ 136.0903942, 36.1605279 ], [ 136.0950287, 36.1578535 ], [ 136.0933671, 36.1532246 ], [ 136.0850594, 36.14519 ], [ 136.0766017, 36.1384569 ], [ 136.0620548, 36.1298818 ], [ 136.054821, 36.1279203 ], [ 136.054317699999984, 36.1210435 ], [ 136.0485601, 36.1169478 ], [ 136.0486302, 36.1099682 ], [ 136.0414447, 36.1051148 ], [ 136.035854699999987, 36.102424 ], [ 136.0322908, 36.0972629 ], [ 136.0308325, 36.0930952 ], [ 136.0303788, 36.0860143 ], [ 136.0242362, 36.0757475 ], [ 136.026138799999984, 36.0727977 ], [ 136.02129, 36.0709229 ], [ 136.0189478, 36.0568928 ], [ 136.0155603, 36.0529921 ], [ 136.0165749, 36.0496702 ], [ 136.0115523, 36.0470192 ], [ 136.0096098, 36.0431164 ], [ 136.009496899999988, 36.0368788 ], [ 136.0106212, 36.0333344 ], [ 136.0050143, 36.0295381 ], [ 135.998446699999988, 36.021481 ], [ 135.997557799999981, 36.0191769 ], [ 135.9915801, 36.0148368 ], [ 135.985590299999984, 36.0089166 ], [ 135.9826098, 36.008792 ], [ 135.9792516, 36.0051967 ], [ 135.9750172, 36.0046746 ], [ 135.971816, 36.0013679 ], [ 135.968129399999981, 36.0009496 ], [ 135.9643729, 35.9975142 ], [ 135.9698382, 35.9918652 ], [ 135.985563499999984, 35.9877836 ], [ 135.9845535, 35.9854152 ], [ 135.9907249, 35.9828444 ], [ 135.996201499999984, 35.9826941 ], [ 136.0022435, 35.9863558 ], [ 136.0071771, 35.986308 ], [ 136.0040363, 35.9910149 ], [ 136.0024843, 35.9968711 ], [ 136.003856, 36.0004102 ], [ 136.0034877, 36.0054374 ], [ 136.0057065, 36.0099963 ], [ 136.0117304, 36.0142363 ], [ 136.016421, 36.0112455 ], [ 136.017570399999983, 36.0088858 ], [ 136.0225668, 36.0055763 ], [ 136.0271409, 35.9973947 ], [ 136.0306737, 35.9997658 ], [ 136.0329157, 35.9969964 ], [ 136.0475562, 36.004293 ], [ 136.0482132, 36.0074889 ], [ 136.0550599, 36.0150691 ], [ 136.0572971, 36.0269291 ], [ 136.063604, 36.0277719 ], [ 136.0665646, 36.0264244 ], [ 136.0721488, 36.0281183 ], [ 136.0718501, 36.0238991 ], [ 136.0752862, 36.0212116 ], [ 136.0817629, 36.0189347 ], [ 136.081037, 36.0142766 ], [ 136.08678759999998, 36.015738899999988 ], [ 136.0924392, 36.0126803 ], [ 136.093282, 36.0099091 ], [ 136.097354200000012, 36.0092811 ], [ 136.09654279999998, 36.0059964 ], [ 136.1103142, 36.0022431 ], [ 136.117550599999987, 36.0025492 ], [ 136.120842499999981, 36.0010494 ], [ 136.1280931, 36.0038758 ], [ 136.135064699999987, 35.9967458 ], [ 136.136254399999984, 35.9937014 ], [ 136.1411808, 35.9922053 ], [ 136.155225799999982, 35.9922867 ], [ 136.159185799999989, 35.9937697 ], [ 136.160534899999988, 35.9968856 ], [ 136.1659166, 35.9962572 ], [ 136.16828, 35.9978767 ], [ 136.1760008, 35.999806899999989 ], [ 136.1806875, 35.99914 ], [ 136.1798097, 35.9944569 ], [ 136.189383, 35.9910697 ], [ 136.1946527, 35.9907783 ], [ 136.206381599999986, 35.9857328 ], [ 136.2037793, 35.9752523 ], [ 136.2056318, 35.9712364 ], [ 136.2096235, 35.9770923 ], [ 136.2151165, 35.9804217 ], [ 136.2151724, 35.9833753 ], [ 136.2187413, 35.9846386 ], [ 136.219954699999988, 35.9879033 ], [ 136.223827199999988, 35.9904556 ], [ 136.2262944, 35.9895291 ], [ 136.2320914, 35.9906691 ], [ 136.2388786, 35.98346 ], [ 136.2545427, 35.9793244 ], [ 136.259381599999983, 35.9804153 ], [ 136.2673244, 35.9779564 ], [ 136.2711308, 35.9779711 ], [ 136.2748461, 35.9721544 ], [ 136.2825747, 35.9717597 ], [ 136.2851102, 35.9736733 ], [ 136.2900775, 35.9740005 ], [ 136.300073, 35.9686469 ], [ 136.3037819, 35.9644386 ], [ 136.3119997, 35.9661241 ], [ 136.3173583, 35.9635711 ], [ 136.3183971, 35.9580191 ], [ 136.3230591, 35.9567255 ], [ 136.3229374, 35.9518575 ], [ 136.332841300000013, 35.9522299 ], [ 136.3360491, 35.9514122 ], [ 136.334919, 35.9467472 ], [ 136.3315651, 35.94293 ], [ 136.333948099999986, 35.9393361 ], [ 136.333737, 35.9286731 ], [ 136.3386042, 35.9297592 ], [ 136.341493899999989, 35.9328081 ], [ 136.3455817, 35.931435 ], [ 136.3501881, 35.9343153 ], [ 136.350469299999986, 35.9391536 ], [ 136.352204299999983, 35.9423511 ], [ 136.3583018, 35.9475413 ], [ 136.3670085, 35.9478938 ], [ 136.3725024, 35.9492488 ], [ 136.375440699999984, 35.9517002 ], [ 136.3839085, 35.9512327 ], [ 136.3893543, 35.9522932 ], [ 136.4002707, 35.9482793 ], [ 136.406746, 35.9489799 ], [ 136.4173801, 35.9429657 ], [ 136.423016499999989, 35.9387971 ], [ 136.4293256, 35.9383254 ], [ 136.43608279999998, 35.9356988 ], [ 136.4398017, 35.9322577 ], [ 136.43868089999998, 35.9278127 ], [ 136.452253899999988, 35.9214555 ], [ 136.4605244, 35.9205524 ], [ 136.4671794, 35.9215838 ], [ 136.463651699999986, 35.925766 ], [ 136.4555742, 35.928608 ], [ 136.454810899999984, 35.9318338 ], [ 136.464075, 35.9327971 ], [ 136.4614934, 35.938831 ], [ 136.4618998, 35.9447443 ], [ 136.4653615, 35.950819 ], [ 136.462124, 35.9532504 ], [ 136.4563632, 35.9545501 ], [ 136.454503499999987, 35.9587862 ], [ 136.456313, 35.9692521 ], [ 136.4521455, 35.9741551 ], [ 136.452353, 35.9794623 ], [ 136.449381099999982, 35.981752299999989 ], [ 136.4487997, 35.9855439 ], [ 136.452883899999989, 35.9872278 ], [ 136.4562709, 35.9918884 ], [ 136.4515806, 35.9968992 ], [ 136.454727, 36.0009606 ], [ 136.452688199999983, 36.0059586 ], [ 136.448941599999984, 36.0101219 ], [ 136.450506900000022, 36.0123522 ], [ 136.457834099999985, 36.0164536 ], [ 136.4530694, 36.0180155 ], [ 136.4454653, 36.0220322 ], [ 136.441018899999989, 36.032358 ], [ 136.4320035, 36.0433221 ], [ 136.425605099999984, 36.0397924 ], [ 136.4133018, 36.0424927 ], [ 136.4074469, 36.0459426 ], [ 136.3901658, 36.0478593 ], [ 136.384289699999982, 36.0470799 ], [ 136.3788391, 36.043271499999989 ], [ 136.367376, 36.0335502 ], [ 136.359988, 36.0339555 ], [ 136.3575563, 36.0358691 ], [ 136.350803499999984, 36.0365744 ], [ 136.3460701, 36.0396291 ], [ 136.346148199999988, 36.0425861 ], [ 136.340634100000017, 36.0529872 ], [ 136.3354482, 36.0526113 ], [ 136.3289035, 36.0483483 ], [ 136.320359599999989, 36.0477692 ], [ 136.318516499999987, 36.0418164 ], [ 136.3147418, 36.041402 ], [ 136.2972695, 36.0461412 ], [ 136.296967599999988, 36.049707 ], [ 136.2933701, 36.0497489 ], [ 136.2913031, 36.0529045 ], [ 136.286445600000036, 36.0560817 ], [ 136.28637759999998, 36.0615442 ], [ 136.284477, 36.0632048 ], [ 136.2845498, 36.0687017 ], [ 136.281634, 36.0740881 ], [ 136.2852263, 36.0760487 ], [ 136.2888032, 36.0758081 ], [ 136.292406, 36.0788247 ], [ 136.2922552, 36.0829097 ], [ 136.2872777, 36.0827492 ], [ 136.2801263, 36.0930126 ], [ 136.2824316, 36.0944539 ], [ 136.2883674, 36.0949103 ], [ 136.288072199999988, 36.0983578 ], [ 136.2813066, 36.0989359 ], [ 136.280683, 36.1035851 ], [ 136.2773477, 36.1029526 ], [ 136.2699699, 36.1040726 ] ] ] ] } }
]
}
