{
"type": "FeatureCollection",
"name": "gifu",
"crs": { "type": "name", "properties": { "name": "urn:ogc:def:crs:OGC:1.3:CRS84" } },
"features": [
{ "type": "Feature", "properties": { "hokenjo": "可茂" }, "geometry": { "type": "MultiPolygon", "coordinates": [ [ [ [ 137.1603619, 35.3983963 ], [ 137.1786114, 35.3919594 ], [ 137.1941656, 35.4038185 ], [ 137.1923611, 35.4113385 ], [ 137.2058831, 35.4248704 ], [ 137.1984784, 35.4376537 ], [ 137.2034035, 35.4697323 ], [ 137.228741499999984, 35.4730184 ], [ 137.2344918, 35.4583929 ], [ 137.2506032, 35.464432599999988 ], [ 137.2711957, 35.4958012 ], [ 137.2868599, 35.5082151 ], [ 137.2690055, 35.5269792 ], [ 137.3234603, 35.5354534 ], [ 137.3415278, 35.5479347 ], [ 137.34830119999998, 35.5629892 ], [ 137.369257299999987, 35.5670303 ], [ 137.386167299999983, 35.5620206 ], [ 137.3989626, 35.5734381 ], [ 137.387776799999983, 35.5953891 ], [ 137.3930516, 35.6083388 ], [ 137.4126838, 35.626453 ], [ 137.4007325, 35.6462908 ], [ 137.4056225, 35.6611988 ], [ 137.373126100000036, 35.6720693 ], [ 137.353917199999984, 35.6947051 ], [ 137.343687499999987, 35.6959473 ], [ 137.33102, 35.7109689 ], [ 137.3024256, 35.7021753 ], [ 137.2849172, 35.6912594 ], [ 137.267921699999988, 35.6982847 ], [ 137.2495289, 35.689507 ], [ 137.24346079999998, 35.6747497 ], [ 137.2183992, 35.6816939 ], [ 137.1931844, 35.6679551 ], [ 137.197753299999988, 35.6565834 ], [ 137.170040199999988, 35.6372104 ], [ 137.1460794, 35.6312268 ], [ 137.1405136, 35.6248765 ], [ 137.112369, 35.6208273 ], [ 137.091143500000015, 35.6314345 ], [ 137.0636874, 35.6231701 ], [ 137.0530578, 35.5932121 ], [ 137.0712933, 35.5705096 ], [ 137.044049199999989, 35.5496235 ], [ 137.0160324, 35.5370833 ], [ 136.9929476, 35.5175238 ], [ 136.9923681, 35.5081177 ], [ 136.9491215, 35.5071158 ], [ 136.9471948, 35.4990414 ], [ 136.9630143, 35.4684188 ], [ 136.959700700000013, 35.4466263 ], [ 136.94852179999998, 35.4294412 ], [ 136.961117, 35.4145821 ], [ 136.9643726, 35.420939 ], [ 136.993215599999985, 35.4241958 ], [ 136.9785767, 35.4064202 ], [ 136.987312799999984, 35.4019839 ], [ 137.0021237, 35.3814806 ], [ 137.0282815, 35.3753243 ], [ 137.0476217, 35.3646929 ], [ 137.0625709, 35.3921829 ], [ 137.0762279, 35.3854471 ], [ 137.079286400000029, 35.3740657 ], [ 137.1132556, 35.3691236 ], [ 137.12372449999998, 35.3844358 ], [ 137.1452344, 35.377038 ], [ 137.1603619, 35.3983963 ] ] ] ] } },
{ "type": "Feature", "properties": { "hokenjo": "関" }, "geometry": { "type": "MultiPolygon", "coordinates": [ [ [ [ 137.098959399999984, 35.6793855 ], [ 137.0510137, 35.6940367 ], [ 137.066640399999983, 35.7038064 ], [ 137.068980400000015, 35.720007 ], [ 137.096875499999982, 35.7264059 ], [ 137.131961, 35.7410495 ], [ 137.131587699999983, 35.7691504 ], [ 137.1275599, 35.7768523 ], [ 137.1303825, 35.8041309 ], [ 137.12265, 35.8334151 ], [ 137.1291947, 35.8457079 ], [ 137.143702499999989, 35.8506787 ], [ 137.1649267, 35.8470371 ], [ 137.1654039, 35.8603462 ], [ 137.1404067, 35.8827 ], [ 137.122002899999984, 35.910596 ], [ 137.108447400000017, 35.9144512 ], [ 137.10244849999998, 35.9256348 ], [ 137.0790313, 35.9125862 ], [ 137.0695938, 35.917335099999988 ], [ 137.0690778, 35.9391522 ], [ 137.048525899999987, 35.9604697 ], [ 137.0395222, 35.9537202 ], [ 137.024017, 35.9606466 ], [ 137.0083281, 35.9510963 ], [ 136.9829133, 35.9175272 ], [ 136.9719819, 35.924650799999988 ], [ 136.9725044, 35.9379019 ], [ 136.9593796, 35.978525 ], [ 136.9513465, 35.9797375 ], [ 136.9315852, 35.9983431 ], [ 136.9308169, 36.0057687 ], [ 136.9038607, 36.0183164 ], [ 136.895911, 36.027747 ], [ 136.874608199999983, 36.0157269 ], [ 136.8453964, 36.008448199999989 ], [ 136.812276199999985, 36.0148272 ], [ 136.7950981, 36.051524 ], [ 136.7771937, 36.0526804 ], [ 136.7642568, 36.0676824 ], [ 136.7444324, 36.0599422 ], [ 136.735395399999987, 36.0478925 ], [ 136.7343894, 36.0209891 ], [ 136.7270795, 35.9956156 ], [ 136.7496933, 35.9909002 ], [ 136.7528654, 35.9564599 ], [ 136.78906, 35.9486584 ], [ 136.7933855, 35.9409234 ], [ 136.783863199999985, 35.9277757 ], [ 136.8137026, 35.9109227 ], [ 136.8237686, 35.8927664 ], [ 136.8202196, 35.8793964 ], [ 136.8323629, 35.8574434 ], [ 136.8251161, 35.8454065 ], [ 136.802290900000031, 35.8440264 ], [ 136.7958741, 35.8090581 ], [ 136.7892532, 35.7993951 ], [ 136.754466, 35.8092424 ], [ 136.7410966, 35.8010688 ], [ 136.7245177, 35.8081476 ], [ 136.7100479, 35.7920433 ], [ 136.6720496, 35.7913084 ], [ 136.6661354, 35.7851364 ], [ 136.682917, 35.7717556 ], [ 136.6855089, 35.7600112 ], [ 136.681258600000035, 35.7345521 ], [ 136.6957538, 35.7170007 ], [ 136.7135844, 35.718506 ], [ 136.730369599999989, 35.7114243 ], [ 136.721494299999989, 35.6944088 ], [ 136.739863499999984, 35.683716 ], [ 136.768468399999989, 35.683166299999989 ], [ 136.7724742, 35.6674418 ], [ 136.804601099999985, 35.6550229 ], [ 136.806441899999982, 35.6092501 ], [ 136.789448199999981, 35.5936343 ], [ 136.7937829, 35.5712707 ], [ 136.8042921, 35.5732171 ], [ 136.820706299999983, 35.5602871 ], [ 136.809192, 35.5477771 ], [ 136.8152179, 35.5317252 ], [ 136.8262748, 35.5305886 ], [ 136.8404409, 35.5123731 ], [ 136.8435701, 35.4997045 ], [ 136.8376003, 35.4633542 ], [ 136.8509206, 35.4692497 ], [ 136.885458, 35.4573617 ], [ 136.8817871, 35.4446597 ], [ 136.904787200000015, 35.4462486 ], [ 136.9421896, 35.4273951 ], [ 136.94852179999998, 35.4294412 ], [ 136.959700700000013, 35.4466263 ], [ 136.9630143, 35.4684188 ], [ 136.9471948, 35.4990414 ], [ 136.9491215, 35.5071158 ], [ 136.9923681, 35.5081177 ], [ 136.9929476, 35.5175238 ], [ 137.0160324, 35.5370833 ], [ 137.044049199999989, 35.5496235 ], [ 137.0712933, 35.5705096 ], [ 137.0530578, 35.5932121 ], [ 137.0636874, 35.6231701 ], [ 137.091143500000015, 35.6314345 ], [ 137.098959399999984, 35.6793855 ] ] ] ] } },
{ "type": "Feature", "properties": { "hokenjo": "岐阜" }, "geometry": { "type": "MultiPolygon", "coordinates": [ [ [ [ 136.706203599999981, 35.2780374 ], [ 136.7282975, 35.2996857 ], [ 136.7539462, 35.3448938 ], [ 136.7591118, 35.3571949 ], [ 136.77464089999998, 35.3696041 ], [ 136.777199, 35.3695029 ], [ 136.794063699999981, 35.3660682 ], [ 136.804232, 35.3601416 ], [ 136.8342501, 35.3559999 ], [ 136.886178299999983, 35.3775265 ], [ 136.9220742, 35.3791784 ], [ 136.961713, 35.3997713 ], [ 136.961117, 35.4145821 ], [ 136.94852179999998, 35.4294412 ], [ 136.9421896, 35.4273951 ], [ 136.904787200000015, 35.4462486 ], [ 136.8817871, 35.4446597 ], [ 136.8602128, 35.4343064 ], [ 136.82273, 35.4267648 ], [ 136.8176263, 35.4185165 ], [ 136.8129521, 35.3874068 ], [ 136.803607, 35.3871147 ], [ 136.7860561, 35.3999852 ], [ 136.768904599999985, 35.3931568 ], [ 136.7628426, 35.3785032 ], [ 136.7447004, 35.3635516 ], [ 136.7289834, 35.3565746 ], [ 136.711037799999986, 35.3512843 ], [ 136.6884192, 35.3523401 ], [ 136.688676099999981, 35.3458318 ], [ 136.6851806, 35.3278704 ], [ 136.669042200000035, 35.3184868 ], [ 136.665222199999988, 35.3074029 ], [ 136.6723905, 35.292139899999988 ], [ 136.6772991, 35.2781696 ], [ 136.6572318, 35.2575054 ], [ 136.6778746, 35.2410576 ], [ 136.696019899999982, 35.2586404 ], [ 136.706203599999981, 35.2780374 ] ] ], [ [ [ 136.690584799999982, 35.3667907 ], [ 136.705862, 35.390354599999988 ], [ 136.6932143, 35.4116037 ], [ 136.6988716, 35.421584 ], [ 136.6984333, 35.4472612 ], [ 136.698084099999988, 35.4629078 ], [ 136.6830794, 35.4754606 ], [ 136.6980614, 35.4827575 ], [ 136.6922693, 35.4983226 ], [ 136.6967434, 35.509048 ], [ 136.6828654, 35.5156257 ], [ 136.6897162, 35.5263104 ], [ 136.6832143, 35.5377479 ], [ 136.6967752, 35.5430001 ], [ 136.717769299999986, 35.5205365 ], [ 136.7368223, 35.5079349 ], [ 136.747317899999985, 35.5104066 ], [ 136.7783595, 35.4897983 ], [ 136.7995853, 35.4849828 ], [ 136.8120792, 35.5125844 ], [ 136.8152179, 35.5317252 ], [ 136.809192, 35.5477771 ], [ 136.820706299999983, 35.5602871 ], [ 136.8042921, 35.5732171 ], [ 136.7937829, 35.5712707 ], [ 136.789448199999981, 35.5936343 ], [ 136.806441899999982, 35.6092501 ], [ 136.804601099999985, 35.6550229 ], [ 136.7724742, 35.6674418 ], [ 136.768468399999989, 35.683166299999989 ], [ 136.739863499999984, 35.683716 ], [ 136.721494299999989, 35.6944088 ], [ 136.730369599999989, 35.7114243 ], [ 136.7135844, 35.718506 ], [ 136.6957538, 35.7170007 ], [ 136.681258600000035, 35.7345521 ], [ 136.6855089, 35.7600112 ], [ 136.682917, 35.7717556 ], [ 136.6661354, 35.7851364 ], [ 136.652511, 35.7987254 ], [ 136.626111, 35.7954179 ], [ 136.6114513, 35.7887963 ], [ 136.5991496, 35.7985299 ], [ 136.5723238, 35.7780441 ], [ 136.545281, 35.7787111 ], [ 136.5252361, 35.7879666 ], [ 136.5119638, 35.7719108 ], [ 136.513708799999989, 35.7622483 ], [ 136.529661, 35.75108 ], [ 136.535364, 35.7314759 ], [ 136.5289565, 35.7169792 ], [ 136.5367948, 35.698467 ], [ 136.5154076, 35.6758707 ], [ 136.5360063, 35.6448824 ], [ 136.559701, 35.6283987 ], [ 136.559911199999988, 35.6010731 ], [ 136.5645075, 35.5863945 ], [ 136.5850611, 35.5776934 ], [ 136.6070158, 35.5785017 ], [ 136.6281516, 35.5711046 ], [ 136.6436635, 35.5539146 ], [ 136.633472399999988, 35.5484002 ], [ 136.649498699999981, 35.5283649 ], [ 136.6397548, 35.5234863 ], [ 136.653854699999982, 35.5095216 ], [ 136.660039399999988, 35.4940939 ], [ 136.656246899999985, 35.4799781 ], [ 136.632990399999983, 35.4287881 ], [ 136.6400276, 35.4039632 ], [ 136.6411809, 35.3876137 ], [ 136.6527142, 35.3813215 ], [ 136.6728478, 35.3671838 ], [ 136.690584799999982, 35.3667907 ] ] ] ] } },
{ "type": "Feature", "properties": { "hokenjo": "岐阜市" }, "geometry": { "type": "MultiPolygon", "coordinates": [ [ [ [ 136.8152179, 35.5317252 ], [ 136.8120792, 35.5125844 ], [ 136.7995853, 35.4849828 ], [ 136.7783595, 35.4897983 ], [ 136.747317899999985, 35.5104066 ], [ 136.7368223, 35.5079349 ], [ 136.717769299999986, 35.5205365 ], [ 136.6967752, 35.5430001 ], [ 136.6832143, 35.5377479 ], [ 136.6897162, 35.5263104 ], [ 136.6828654, 35.5156257 ], [ 136.6967434, 35.509048 ], [ 136.6922693, 35.4983226 ], [ 136.6980614, 35.4827575 ], [ 136.6830794, 35.4754606 ], [ 136.698084099999988, 35.4629078 ], [ 136.6984333, 35.4472612 ], [ 136.6988716, 35.421584 ], [ 136.6932143, 35.4116037 ], [ 136.705862, 35.390354599999988 ], [ 136.690584799999982, 35.3667907 ], [ 136.6884192, 35.3523401 ], [ 136.711037799999986, 35.3512843 ], [ 136.7289834, 35.3565746 ], [ 136.7447004, 35.3635516 ], [ 136.7628426, 35.3785032 ], [ 136.768904599999985, 35.3931568 ], [ 136.7860561, 35.3999852 ], [ 136.803607, 35.3871147 ], [ 136.8129521, 35.3874068 ], [ 136.8176263, 35.4185165 ], [ 136.82273, 35.4267648 ], [ 136.8602128, 35.4343064 ], [ 136.8817871, 35.4446597 ], [ 136.885458, 35.4573617 ], [ 136.8509206, 35.4692497 ], [ 136.8376003, 35.4633542 ], [ 136.8435701, 35.4997045 ], [ 136.8404409, 35.5123731 ], [ 136.8262748, 35.5305886 ], [ 136.8152179, 35.5317252 ] ] ] ] } },
{ "type": "Feature", "properties": { "hokenjo": "恵那" }, "geometry": { "type": "MultiPolygon", "coordinates": [ [ [ [ 137.5752278, 35.4000087 ], [ 137.5906736, 35.3936112 ], [ 137.618430599999982, 35.3917384 ], [ 137.6336892, 35.3990351 ], [ 137.621973699999984, 35.4118959 ], [ 137.6153048, 35.4308393 ], [ 137.593149, 35.4469176 ], [ 137.629591299999987, 35.4773834 ], [ 137.624546399999986, 35.5006062 ], [ 137.631577199999981, 35.5089037 ], [ 137.6072561, 35.5335434 ], [ 137.6024983, 35.530702 ], [ 137.5745085, 35.5445293 ], [ 137.5704327, 35.5798973 ], [ 137.5654413, 35.5850443 ], [ 137.5383037, 35.5847973 ], [ 137.5138088, 35.6080228 ], [ 137.528149899999988, 35.6359776 ], [ 137.5454475, 35.6510823 ], [ 137.5353739, 35.6658051 ], [ 137.4971964, 35.6884819 ], [ 137.486042, 35.7054994 ], [ 137.4852124, 35.7247041 ], [ 137.465539899999982, 35.7437655 ], [ 137.4595727, 35.7614036 ], [ 137.440179299999983, 35.7585533 ], [ 137.4239727, 35.7743585 ], [ 137.3999479, 35.7753963 ], [ 137.3917926, 35.7985826 ], [ 137.36028589999998, 35.7959684 ], [ 137.3339554, 35.7644276 ], [ 137.3287992, 35.7410862 ], [ 137.33102, 35.7109689 ], [ 137.343687499999987, 35.6959473 ], [ 137.353917199999984, 35.6947051 ], [ 137.373126100000036, 35.6720693 ], [ 137.4056225, 35.6611988 ], [ 137.4007325, 35.6462908 ], [ 137.4126838, 35.626453 ], [ 137.3930516, 35.6083388 ], [ 137.387776799999983, 35.5953891 ], [ 137.3989626, 35.5734381 ], [ 137.386167299999983, 35.5620206 ], [ 137.369257299999987, 35.5670303 ], [ 137.34830119999998, 35.5629892 ], [ 137.3415278, 35.5479347 ], [ 137.3234603, 35.5354534 ], [ 137.2690055, 35.5269792 ], [ 137.2868599, 35.5082151 ], [ 137.2711957, 35.4958012 ], [ 137.2506032, 35.464432599999988 ], [ 137.2632635, 35.4637531 ], [ 137.2727984, 35.4515326 ], [ 137.2999035, 35.4506539 ], [ 137.3118207, 35.4420473 ], [ 137.3323038, 35.4407564 ], [ 137.334039599999983, 35.4276714 ], [ 137.350792399999989, 35.4197172 ], [ 137.3413673, 35.4046333 ], [ 137.345239, 35.3950694 ], [ 137.334371399999981, 35.3758672 ], [ 137.301973600000025, 35.3391734 ], [ 137.298475, 35.3304984 ], [ 137.3345553, 35.332955 ], [ 137.3377975, 35.3135462 ], [ 137.3281694, 35.2950237 ], [ 137.308081099999981, 35.2911557 ], [ 137.3446299, 35.2737176 ], [ 137.3440991, 35.2578579 ], [ 137.361969099999982, 35.2609737 ], [ 137.385120199999989, 35.2587039 ], [ 137.3881936, 35.2401198 ], [ 137.416806899999983, 35.2404017 ], [ 137.424915199999987, 35.2268809 ], [ 137.462144699999982, 35.2411234 ], [ 137.4765794, 35.2534056 ], [ 137.4965544, 35.259019 ], [ 137.5141267, 35.2699595 ], [ 137.5213659, 35.2842587 ], [ 137.5434292, 35.2805534 ], [ 137.5620779, 35.2877254 ], [ 137.5601154, 35.309599 ], [ 137.6015482, 35.3310384 ], [ 137.6025699, 35.3544954 ], [ 137.5983872, 35.3791818 ], [ 137.5779497, 35.390129 ], [ 137.5752278, 35.4000087 ] ] ] ] } },
{ "type": "Feature", "properties": { "hokenjo": "西濃" }, "geometry": { "type": "MultiPolygon", "coordinates": [ [ [ [ 136.536336799999987, 35.2502009 ], [ 136.5502821, 35.2319065 ], [ 136.5617454, 35.2055259 ], [ 136.5851893, 35.1944595 ], [ 136.6125082, 35.1594204 ], [ 136.6155521, 35.1499285 ], [ 136.6460185, 35.1476596 ], [ 136.6556424, 35.1610527 ], [ 136.6743399, 35.152501 ], [ 136.6723174, 35.1887774 ], [ 136.683132699999987, 35.1998302 ], [ 136.6778746, 35.2410576 ], [ 136.6572318, 35.2575054 ], [ 136.6772991, 35.2781696 ], [ 136.6723905, 35.292139899999988 ], [ 136.665222199999988, 35.3074029 ], [ 136.669042200000035, 35.3184868 ], [ 136.6851806, 35.3278704 ], [ 136.688676099999981, 35.3458318 ], [ 136.6884192, 35.3523401 ], [ 136.690584799999982, 35.3667907 ], [ 136.6728478, 35.3671838 ], [ 136.6527142, 35.3813215 ], [ 136.6411809, 35.3876137 ], [ 136.6400276, 35.4039632 ], [ 136.632990399999983, 35.4287881 ], [ 136.656246899999985, 35.4799781 ], [ 136.660039399999988, 35.4940939 ], [ 136.653854699999982, 35.5095216 ], [ 136.6397548, 35.5234863 ], [ 136.649498699999981, 35.5283649 ], [ 136.633472399999988, 35.5484002 ], [ 136.6436635, 35.5539146 ], [ 136.6281516, 35.5711046 ], [ 136.6070158, 35.5785017 ], [ 136.5850611, 35.5776934 ], [ 136.5645075, 35.5863945 ], [ 136.559911199999988, 35.6010731 ], [ 136.559701, 35.6283987 ], [ 136.5360063, 35.6448824 ], [ 136.5154076, 35.6758707 ], [ 136.5367948, 35.698467 ], [ 136.5289565, 35.7169792 ], [ 136.535364, 35.7314759 ], [ 136.529661, 35.75108 ], [ 136.513708799999989, 35.7622483 ], [ 136.4965147, 35.7655331 ], [ 136.484579199999985, 35.7751425 ], [ 136.4615806, 35.7787139 ], [ 136.430727499999989, 35.7750291 ], [ 136.4088514, 35.7803027 ], [ 136.40013639999998, 35.7893669 ], [ 136.3766584, 35.795178 ], [ 136.3484123, 35.7800244 ], [ 136.3279478, 35.7751019 ], [ 136.318402, 35.7509754 ], [ 136.3269601, 35.731517 ], [ 136.2919181, 35.6840708 ], [ 136.2765662, 35.6514759 ], [ 136.2885594, 35.6205882 ], [ 136.3155612, 35.6233956 ], [ 136.323675899999984, 35.6165164 ], [ 136.3227504, 35.5700071 ], [ 136.316262599999988, 35.5559393 ], [ 136.3221002, 35.5443472 ], [ 136.3373201, 35.5502545 ], [ 136.3409279, 35.5372834 ], [ 136.3566621, 35.5399145 ], [ 136.3625161, 35.5584814 ], [ 136.3735642, 35.5593942 ], [ 136.384252799999985, 35.5330913 ], [ 136.4004045, 35.5300818 ], [ 136.40229, 35.5132524 ], [ 136.387833699999987, 35.4968327 ], [ 136.4017672, 35.4699406 ], [ 136.420363899999984, 35.4662348 ], [ 136.426169099999981, 35.448161 ], [ 136.4118081, 35.4185981 ], [ 136.427965199999988, 35.4007845 ], [ 136.4443518, 35.3894251 ], [ 136.4368935, 35.3791324 ], [ 136.411911799999984, 35.369896 ], [ 136.4223251, 35.3483896 ], [ 136.4111739, 35.3279421 ], [ 136.412264199999981, 35.3155627 ], [ 136.4026572, 35.3004519 ], [ 136.3911497, 35.2901969 ], [ 136.395735299999984, 35.2809452 ], [ 136.3891544, 35.2497666 ], [ 136.3797433, 35.2409375 ], [ 136.4121697, 35.2183986 ], [ 136.430901299999988, 35.2294044 ], [ 136.4407219, 35.2167427 ], [ 136.4658227, 35.2374766 ], [ 136.4828121, 35.2397613 ], [ 136.505984899999987, 35.2350607 ], [ 136.5136421, 35.2504221 ], [ 136.527668, 35.2575326 ], [ 136.536336799999987, 35.2502009 ] ] ] ] } },
{ "type": "Feature", "properties": { "hokenjo": "東濃" }, "geometry": { "type": "MultiPolygon", "coordinates": [ [ [ [ 137.275788799999987, 35.2906127 ], [ 137.308081099999981, 35.2911557 ], [ 137.3281694, 35.2950237 ], [ 137.3377975, 35.3135462 ], [ 137.3345553, 35.332955 ], [ 137.298475, 35.3304984 ], [ 137.301973600000025, 35.3391734 ], [ 137.334371399999981, 35.3758672 ], [ 137.345239, 35.3950694 ], [ 137.3413673, 35.4046333 ], [ 137.350792399999989, 35.4197172 ], [ 137.334039599999983, 35.4276714 ], [ 137.3323038, 35.4407564 ], [ 137.3118207, 35.4420473 ], [ 137.2999035, 35.4506539 ], [ 137.2727984, 35.4515326 ], [ 137.2632635, 35.4637531 ], [ 137.2506032, 35.464432599999988 ], [ 137.2344918, 35.4583929 ], [ 137.228741499999984, 35.4730184 ], [ 137.2034035, 35.4697323 ], [ 137.1984784, 35.4376537 ], [ 137.2058831, 35.4248704 ], [ 137.1923611, 35.4113385 ], [ 137.1941656, 35.4038185 ], [ 137.1786114, 35.3919594 ], [ 137.1603619, 35.3983963 ], [ 137.1452344, 35.377038 ], [ 137.12372449999998, 35.3844358 ], [ 137.1132556, 35.3691236 ], [ 137.079286400000029, 35.3740657 ], [ 137.0762279, 35.3854471 ], [ 137.0625709, 35.3921829 ], [ 137.0476217, 35.3646929 ], [ 137.046276299999988, 35.3396177 ], [ 137.0617574, 35.3390313 ], [ 137.072978799999987, 35.3264569 ], [ 137.064078199999983, 35.3206633 ], [ 137.081310699999989, 35.2921908 ], [ 137.0989315, 35.2925275 ], [ 137.101027099999982, 35.3016161 ], [ 137.131594299999989, 35.2936278 ], [ 137.1458298, 35.2797995 ], [ 137.165455399999985, 35.2822573 ], [ 137.1760932, 35.2703828 ], [ 137.184472299999982, 35.2540964 ], [ 137.1999576, 35.2514636 ], [ 137.2112759, 35.2596909 ], [ 137.224574599999983, 35.2564925 ], [ 137.2499432, 35.2685469 ], [ 137.262663799999984, 35.2852019 ], [ 137.275788799999987, 35.2906127 ] ] ] ] } },
{ "type": "Feature", "properties": { "hokenjo": "飛騨" }, "geometry": { "type": "MultiPolygon", "coordinates": [ [ [ [ 137.4754446, 35.8936431 ], [ 137.483431300000035, 35.9137881 ], [ 137.505572199999989, 35.9406206 ], [ 137.5188843, 35.9397339 ], [ 137.5325574, 35.9616172 ], [ 137.5442658, 35.9723758 ], [ 137.543458, 35.9828708 ], [ 137.5747045, 35.9956889 ], [ 137.5902959, 36.0065411 ], [ 137.6002235, 36.0285714 ], [ 137.598324599999984, 36.0431891 ], [ 137.6137233, 36.0596169 ], [ 137.608225299999987, 36.0779319 ], [ 137.5723486, 36.0885921 ], [ 137.5508575, 36.1098751 ], [ 137.560466900000023, 36.1304712 ], [ 137.5547123, 36.1376602 ], [ 137.5678929, 36.1533762 ], [ 137.591222499999986, 36.1641171 ], [ 137.5951746, 36.1903495 ], [ 137.581042699999983, 36.1953098 ], [ 137.5729804, 36.2184109 ], [ 137.5830254, 36.2203965 ], [ 137.596350199999989, 36.2429762 ], [ 137.6059233, 36.2487867 ], [ 137.6287978, 36.2783659 ], [ 137.647820599999989, 36.2890517 ], [ 137.6506743, 36.3273979 ], [ 137.619173499999988, 36.3642093 ], [ 137.5870865, 36.3719642 ], [ 137.587156599999986, 36.3895919 ], [ 137.559505299999984, 36.3874516 ], [ 137.539973100000026, 36.3927001 ], [ 137.5202639, 36.4060673 ], [ 137.511721199999982, 36.4234492 ], [ 137.4739861, 36.4253547 ], [ 137.460829099999984, 36.4122361 ], [ 137.4101603, 36.4246308 ], [ 137.395221599999985, 36.4363975 ], [ 137.394874499999986, 36.4555744 ], [ 137.3614978, 36.4500514 ], [ 137.357999899999982, 36.4363089 ], [ 137.338619099999988, 36.4338934 ], [ 137.3195298, 36.4244579 ], [ 137.3138746, 36.4416679 ], [ 137.316782499999988, 36.460989 ], [ 137.298325, 36.4582582 ], [ 137.2777734, 36.464816 ], [ 137.2563786, 36.4511413 ], [ 137.247612, 36.4619639 ], [ 137.2313608, 36.4442619 ], [ 137.213190699999984, 36.4379714 ], [ 137.194743, 36.4466442 ], [ 137.1596966, 36.4564442 ], [ 137.142266299999989, 36.4431473 ], [ 137.124225599999988, 36.422092 ], [ 137.1115103, 36.4153828 ], [ 137.0948827, 36.3839667 ], [ 137.078726, 36.3843114 ], [ 137.048982500000022, 36.3456856 ], [ 137.052278199999989, 36.3295056 ], [ 137.0212512, 36.3091765 ], [ 137.0025575, 36.2868959 ], [ 136.990147799999988, 36.2871173 ], [ 136.9753058, 36.274364 ], [ 136.958241099999981, 36.2776793 ], [ 136.971117099999987, 36.3155432 ], [ 136.9548969, 36.3393504 ], [ 136.9074742, 36.3608416 ], [ 136.890090499999985, 36.3455585 ], [ 136.8651003, 36.3496604 ], [ 136.837345299999981, 36.34731 ], [ 136.8424871, 36.3332575 ], [ 136.8265682, 36.3025831 ], [ 136.792287099999982, 36.299211 ], [ 136.8145787, 36.266402 ], [ 136.8335478, 36.2648556 ], [ 136.8504017, 36.2519207 ], [ 136.843850799999984, 36.2367976 ], [ 136.82099359999998, 36.2107418 ], [ 136.7994364, 36.1813066 ], [ 136.7984073, 36.1725641 ], [ 136.765992, 36.1608761 ], [ 136.780734699999982, 36.1413777 ], [ 136.7649568, 36.1056083 ], [ 136.7539692, 36.090198 ], [ 136.7642568, 36.0676824 ], [ 136.7771937, 36.0526804 ], [ 136.7950981, 36.051524 ], [ 136.812276199999985, 36.0148272 ], [ 136.8453964, 36.008448199999989 ], [ 136.874608199999983, 36.0157269 ], [ 136.895911, 36.027747 ], [ 136.9038607, 36.0183164 ], [ 136.9308169, 36.0057687 ], [ 136.9315852, 35.9983431 ], [ 136.9513465, 35.9797375 ], [ 136.9593796, 35.978525 ], [ 136.9725044, 35.9379019 ], [ 136.9719819, 35.924650799999988 ], [ 136.9829133, 35.9175272 ], [ 137.0083281, 35.9510963 ], [ 137.024017, 35.9606466 ], [ 137.0395222, 35.9537202 ], [ 137.048525899999987, 35.9604697 ], [ 137.0690778, 35.9391522 ], [ 137.0695938, 35.917335099999988 ], [ 137.0790313, 35.9125862 ], [ 137.10244849999998, 35.9256348 ], [ 137.108447400000017, 35.9144512 ], [ 137.122002899999984, 35.910596 ], [ 137.1404067, 35.8827 ], [ 137.1654039, 35.8603462 ], [ 137.1649267, 35.8470371 ], [ 137.143702499999989, 35.8506787 ], [ 137.1291947, 35.8457079 ], [ 137.12265, 35.8334151 ], [ 137.1303825, 35.8041309 ], [ 137.1275599, 35.7768523 ], [ 137.131587699999983, 35.7691504 ], [ 137.131961, 35.7410495 ], [ 137.096875499999982, 35.7264059 ], [ 137.068980400000015, 35.720007 ], [ 137.066640399999983, 35.7038064 ], [ 137.0510137, 35.6940367 ], [ 137.098959399999984, 35.6793855 ], [ 137.091143500000015, 35.6314345 ], [ 137.112369, 35.6208273 ], [ 137.1405136, 35.6248765 ], [ 137.1460794, 35.6312268 ], [ 137.170040199999988, 35.6372104 ], [ 137.197753299999988, 35.6565834 ], [ 137.1931844, 35.6679551 ], [ 137.2183992, 35.6816939 ], [ 137.24346079999998, 35.6747497 ], [ 137.2495289, 35.689507 ], [ 137.267921699999988, 35.6982847 ], [ 137.2849172, 35.6912594 ], [ 137.3024256, 35.7021753 ], [ 137.33102, 35.7109689 ], [ 137.3287992, 35.7410862 ], [ 137.3339554, 35.7644276 ], [ 137.36028589999998, 35.7959684 ], [ 137.33627869999998, 35.7988254 ], [ 137.326029, 35.812128099999988 ], [ 137.3321439, 35.8406801 ], [ 137.356776699999983, 35.8427323 ], [ 137.36758530000003, 35.860667 ], [ 137.3671651, 35.8767981 ], [ 137.3808162, 35.8924222 ], [ 137.4376141, 35.9050509 ], [ 137.458648100000033, 35.8893145 ], [ 137.4754446, 35.8936431 ] ] ] ] } }
]
}
