{
"type": "FeatureCollection",
"name": "gunma_region",
"crs": { "type": "name", "properties": { "name": "urn:ogc:def:crs:OGC:1.3:CRS84" } },
"features": [
{ "type": "Feature", "properties": { "hokenjo": "西毛" }, "geometry": { "type": "Polygon", "coordinates": [ [ [ 138.802190599999989, 36.0334023 ], [ 138.8284892, 36.0374417 ], [ 138.8291117, 36.0413125 ], [ 138.842827, 36.0558178 ], [ 138.8460371, 36.066625 ], [ 138.8615232, 36.071408 ], [ 138.8643329, 36.0770858 ], [ 138.8867129, 36.084178 ], [ 138.8978588, 36.0906546 ], [ 138.9163141, 36.093749 ], [ 138.9314905, 36.0881031 ], [ 138.944795299999981, 36.0944887 ], [ 138.9565534, 36.105702 ], [ 138.9596181, 36.1239923 ], [ 138.970012, 36.124239 ], [ 138.9856907, 36.1155714 ], [ 138.9930424, 36.1244648 ], [ 139.001958, 36.1253295 ], [ 139.015621899999985, 36.1340693 ], [ 139.0311978, 36.127727 ], [ 139.042404299999987, 36.1284595 ], [ 139.0427221, 36.1480274 ], [ 139.060561299999989, 36.1522632 ], [ 139.056385799999987, 36.1805197 ], [ 139.0630495, 36.1858105 ], [ 139.06332279999998, 36.1957122 ], [ 139.081726, 36.2148873 ], [ 139.0889819, 36.2284328 ], [ 139.1111951, 36.258497 ], [ 139.107711599999988, 36.2613542 ], [ 139.117780499999981, 36.2687564 ], [ 139.1296639, 36.2833976 ], [ 139.1107381, 36.2820706 ], [ 139.0966716, 36.2884292 ], [ 139.1007411, 36.2992481 ], [ 139.0876567, 36.3122734 ], [ 139.0929879, 36.3243095 ], [ 139.07733589999998, 36.3327228 ], [ 139.069056, 36.3524634 ], [ 139.056512400000031, 36.3557103 ], [ 139.044646799999981, 36.3516661 ], [ 139.0442965, 36.3639034 ], [ 139.0308584, 36.3745956 ], [ 139.0254837, 36.3843192 ], [ 139.030513499999984, 36.3943625 ], [ 139.028191099999987, 36.4066803 ], [ 139.020491599999986, 36.4121239 ], [ 139.007195, 36.406786499999988 ], [ 139.0024316, 36.4193389 ], [ 138.9937022, 36.4235534 ], [ 138.9817688, 36.4135303 ], [ 138.9628616, 36.4121303 ], [ 138.949836299999987, 36.4296484 ], [ 138.9377661, 36.4352697 ], [ 138.9247503, 36.4480497 ], [ 138.9073425, 36.4573123 ], [ 138.9093509, 36.471728399999989 ], [ 138.8951248, 36.4822426 ], [ 138.877445099999989, 36.4829948 ], [ 138.86579279999998, 36.4813301 ], [ 138.860050299999983, 36.4734645 ], [ 138.8477447, 36.4750836 ], [ 138.826325700000012, 36.4730883 ], [ 138.7625957, 36.4790522 ], [ 138.7545074, 36.4760689 ], [ 138.730724, 36.4776078 ], [ 138.7232323, 36.482229499999988 ], [ 138.706675599999983, 36.4784847 ], [ 138.6976731, 36.4730403 ], [ 138.6871597, 36.4734909 ], [ 138.678172499999988, 36.4638009 ], [ 138.670304099999981, 36.4625812 ], [ 138.6551963, 36.4517087 ], [ 138.643290399999984, 36.4372565 ], [ 138.647144199999985, 36.4246873 ], [ 138.6444228, 36.4114393 ], [ 138.648387499999984, 36.4074676 ], [ 138.6521697, 36.3950693 ], [ 138.6496388, 36.3789443 ], [ 138.6571635, 36.3689015 ], [ 138.6500806, 36.3524833 ], [ 138.6505402, 36.3321299 ], [ 138.6533058, 36.3243699 ], [ 138.6478921, 36.3144757 ], [ 138.6534518, 36.3030438 ], [ 138.6448862, 36.2945366 ], [ 138.6305834, 36.2884563 ], [ 138.6125089, 36.2856552 ], [ 138.6035602, 36.2749466 ], [ 138.6059522, 36.2667947 ], [ 138.6021776, 36.2495005 ], [ 138.6124968, 36.240918 ], [ 138.611870399999987, 36.2293913 ], [ 138.6222445, 36.2145857 ], [ 138.6332098, 36.2160893 ], [ 138.636707, 36.2042704 ], [ 138.6227973, 36.1969279 ], [ 138.637105, 36.1748848 ], [ 138.594566, 36.165606 ], [ 138.5805832, 36.1757418 ], [ 138.5802668, 36.1623987 ], [ 138.593301, 36.153069599999988 ], [ 138.600662, 36.1356262 ], [ 138.6221612, 36.1319551 ], [ 138.634091499999982, 36.1339701 ], [ 138.6373362, 36.124344 ], [ 138.645098099999984, 36.119632 ], [ 138.6451831, 36.0988067 ], [ 138.630626399999983, 36.0913281 ], [ 138.633211599999981, 36.080874 ], [ 138.642815399999989, 36.0687423 ], [ 138.6441711, 36.0495702 ], [ 138.631487900000025, 36.0282788 ], [ 138.661696399999983, 36.0120147 ], [ 138.6797494, 36.0116149 ], [ 138.690803499999987, 35.9908019 ], [ 138.712550100000016, 35.985333 ], [ 138.716809, 35.9929044 ], [ 138.732168, 35.9983321 ], [ 138.7437698, 36.0100999 ], [ 138.7544112, 36.034526 ], [ 138.7691413, 36.0388126 ], [ 138.780632199999985, 36.0368507 ], [ 138.7909755, 36.0293998 ], [ 138.802190599999989, 36.0334023 ] ] ] } },
{ "type": "Feature", "properties": { "hokenjo": "中毛" }, "geometry": { "type": "Polygon", "coordinates": [ [ [ 139.1713676, 36.2737217 ], [ 139.2121454, 36.2563364 ], [ 139.224004, 36.2583017 ], [ 139.237474, 36.2462047 ], [ 139.267010699999986, 36.242622 ], [ 139.2726494, 36.249241399999988 ], [ 139.273588099999984, 36.2833203 ], [ 139.255762299999986, 36.2950364 ], [ 139.2674465, 36.3026436 ], [ 139.269047799999981, 36.3242072 ], [ 139.261758, 36.3303503 ], [ 139.2730824, 36.368684699999989 ], [ 139.2663268, 36.3781856 ], [ 139.2676411, 36.3924456 ], [ 139.2501763, 36.3951364 ], [ 139.2557553, 36.4078219 ], [ 139.245607700000022, 36.4055506 ], [ 139.2407757, 36.3970728 ], [ 139.226544599999983, 36.4037967 ], [ 139.2246049, 36.4262711 ], [ 139.21293, 36.4517142 ], [ 139.2110567, 36.4765836 ], [ 139.2018103, 36.4919003 ], [ 139.1963653, 36.5139381 ], [ 139.188684199999983, 36.5260661 ], [ 139.193439899999987, 36.5594283 ], [ 139.169344, 36.5616961 ], [ 139.1625042, 36.5554278 ], [ 139.151878399999987, 36.5544469 ], [ 139.135117799999989, 36.5340775 ], [ 139.1178544, 36.5255131 ], [ 139.0982913, 36.5126281 ], [ 139.0761637, 36.4940431 ], [ 139.0635992, 36.4760186 ], [ 139.052925499999986, 36.4682889 ], [ 139.0493219, 36.4557342 ], [ 139.041216599999984, 36.4519109 ], [ 139.0366129, 36.4354647 ], [ 139.0234716, 36.4171842 ], [ 139.0125711, 36.4327134 ], [ 139.0024517, 36.4270259 ], [ 139.0024316, 36.4193389 ], [ 139.007195, 36.406786499999988 ], [ 139.020491599999986, 36.4121239 ], [ 139.028191099999987, 36.4066803 ], [ 139.030513499999984, 36.3943625 ], [ 139.0254837, 36.3843192 ], [ 139.0308584, 36.3745956 ], [ 139.0442965, 36.3639034 ], [ 139.044646799999981, 36.3516661 ], [ 139.056512400000031, 36.3557103 ], [ 139.069056, 36.3524634 ], [ 139.07733589999998, 36.3327228 ], [ 139.0929879, 36.3243095 ], [ 139.0876567, 36.3122734 ], [ 139.1007411, 36.2992481 ], [ 139.0966716, 36.2884292 ], [ 139.1107381, 36.2820706 ], [ 139.1296639, 36.2833976 ], [ 139.136117499999983, 36.2784206 ], [ 139.163903399999981, 36.2789117 ], [ 139.1713676, 36.2737217 ] ] ] } },
{ "type": "Feature", "properties": { "hokenjo": "東毛" }, "geometry": { "type": "Polygon", "coordinates": [ [ [ 139.573465199999987, 36.2042202 ], [ 139.587932199999983, 36.2103421 ], [ 139.6037864, 36.2034154 ], [ 139.613016099999982, 36.1937329 ], [ 139.626409199999983, 36.1932498 ], [ 139.6515043, 36.1983742 ], [ 139.6493985, 36.2111911 ], [ 139.6695714, 36.2151336 ], [ 139.6589444, 36.2314133 ], [ 139.6423853, 36.2413469 ], [ 139.63071979999998, 36.2548413 ], [ 139.636530599999986, 36.2618794 ], [ 139.6339082, 36.2702277 ], [ 139.615917, 36.273651799999989 ], [ 139.608602499999989, 36.2680954 ], [ 139.5897511, 36.2686249 ], [ 139.5612701, 36.2671298 ], [ 139.549172299999981, 36.2804461 ], [ 139.5440298, 36.2757837 ], [ 139.5256081, 36.2847033 ], [ 139.5001241, 36.2760931 ], [ 139.482548799999989, 36.2720276 ], [ 139.4638779, 36.2715209 ], [ 139.4674588, 36.280494499999989 ], [ 139.457065199999988, 36.2891929 ], [ 139.4436493, 36.2883609 ], [ 139.44353289999998, 36.2936937 ], [ 139.4267154, 36.3039501 ], [ 139.415699599999982, 36.3158696 ], [ 139.4148605, 36.3243179 ], [ 139.422792499999986, 36.3322562 ], [ 139.3969375, 36.3458212 ], [ 139.3884358, 36.3546446 ], [ 139.370346399999988, 36.3660818 ], [ 139.3609777, 36.3836803 ], [ 139.3768632, 36.4110282 ], [ 139.3917375, 36.4243104 ], [ 139.3943909, 36.434222 ], [ 139.402526500000022, 36.4368154 ], [ 139.4123085, 36.4507037 ], [ 139.4110996, 36.4584345 ], [ 139.4278378, 36.459112 ], [ 139.4364747, 36.4659753 ], [ 139.4296598, 36.4819462 ], [ 139.417928099999983, 36.4946392 ], [ 139.4216846, 36.5087439 ], [ 139.4276774, 36.5106353 ], [ 139.4399125, 36.5254012 ], [ 139.4362892, 36.5380653 ], [ 139.439298899999983, 36.5509631 ], [ 139.4511006, 36.549707 ], [ 139.4607579, 36.5532467 ], [ 139.4656191, 36.5636201 ], [ 139.48304109999998, 36.5832779 ], [ 139.47384, 36.5904562 ], [ 139.4700145, 36.6041526 ], [ 139.4450419, 36.6072926 ], [ 139.4268648, 36.6011331 ], [ 139.4123734, 36.6081242 ], [ 139.3987036, 36.6021895 ], [ 139.3866888, 36.6119833 ], [ 139.3522884, 36.6150903 ], [ 139.3457328, 36.6233469 ], [ 139.3296545, 36.627588599999989 ], [ 139.3281489, 36.6334217 ], [ 139.3055656, 36.6159956 ], [ 139.297857599999986, 36.595146799999988 ], [ 139.2886087, 36.5896821 ], [ 139.257678, 36.5917511 ], [ 139.241790899999984, 36.5880669 ], [ 139.2374901, 36.581608 ], [ 139.1908589, 36.5687194 ], [ 139.193439899999987, 36.5594283 ], [ 139.188684199999983, 36.5260661 ], [ 139.1963653, 36.5139381 ], [ 139.2018103, 36.4919003 ], [ 139.2110567, 36.4765836 ], [ 139.21293, 36.4517142 ], [ 139.2246049, 36.4262711 ], [ 139.226544599999983, 36.4037967 ], [ 139.2407757, 36.3970728 ], [ 139.245607700000022, 36.4055506 ], [ 139.2557553, 36.4078219 ], [ 139.2501763, 36.3951364 ], [ 139.2676411, 36.3924456 ], [ 139.2663268, 36.3781856 ], [ 139.2730824, 36.368684699999989 ], [ 139.261758, 36.3303503 ], [ 139.269047799999981, 36.3242072 ], [ 139.2674465, 36.3026436 ], [ 139.255762299999986, 36.2950364 ], [ 139.273588099999984, 36.2833203 ], [ 139.2726494, 36.249241399999988 ], [ 139.31514869999998, 36.236614 ], [ 139.358233, 36.253328 ], [ 139.376673, 36.2445049 ], [ 139.3829188, 36.2378691 ], [ 139.393431599999985, 36.2276241 ], [ 139.4168335, 36.2180671 ], [ 139.4543486, 36.1914103 ], [ 139.474425, 36.1894575 ], [ 139.493468399999983, 36.1921661 ], [ 139.5211697, 36.1912204 ], [ 139.5352186, 36.1929429 ], [ 139.5547379, 36.2008285 ], [ 139.573465199999987, 36.2042202 ] ] ] } },
{ "type": "Feature", "properties": { "hokenjo": "北毛" }, "geometry": { "type": "Polygon", "coordinates": [ [ [ 138.9937022, 36.4235534 ], [ 139.0024316, 36.4193389 ], [ 139.0024517, 36.4270259 ], [ 139.0125711, 36.4327134 ], [ 139.0234716, 36.4171842 ], [ 139.0366129, 36.4354647 ], [ 139.041216599999984, 36.4519109 ], [ 139.0493219, 36.4557342 ], [ 139.052925499999986, 36.4682889 ], [ 139.0635992, 36.4760186 ], [ 139.0761637, 36.4940431 ], [ 139.0982913, 36.5126281 ], [ 139.1178544, 36.5255131 ], [ 139.135117799999989, 36.5340775 ], [ 139.151878399999987, 36.5544469 ], [ 139.1625042, 36.5554278 ], [ 139.169344, 36.5616961 ], [ 139.193439899999987, 36.5594283 ], [ 139.1908589, 36.5687194 ], [ 139.2374901, 36.581608 ], [ 139.241790899999984, 36.5880669 ], [ 139.257678, 36.5917511 ], [ 139.2886087, 36.5896821 ], [ 139.297857599999986, 36.595146799999988 ], [ 139.3055656, 36.6159956 ], [ 139.3281489, 36.6334217 ], [ 139.3305344, 36.6422639 ], [ 139.326701899999989, 36.6571124 ], [ 139.334522099999987, 36.6656913 ], [ 139.3392598, 36.6783337 ], [ 139.3369184, 36.6921298 ], [ 139.3563423, 36.7070976 ], [ 139.3702772, 36.7449519 ], [ 139.3560761, 36.7504533 ], [ 139.3508204, 36.7634497 ], [ 139.353056899999984, 36.7736089 ], [ 139.374331, 36.7842909 ], [ 139.377934499999981, 36.804449 ], [ 139.3886118, 36.8052681 ], [ 139.3910727, 36.8144334 ], [ 139.4066996, 36.8269401 ], [ 139.3973384, 36.8346943 ], [ 139.3866684, 36.8355163 ], [ 139.352618299999989, 36.8490716 ], [ 139.358205699999985, 36.8722102 ], [ 139.3678722, 36.8771802 ], [ 139.370632, 36.8895955 ], [ 139.379421, 36.8979866 ], [ 139.3939033, 36.9032788 ], [ 139.373131600000022, 36.9183938 ], [ 139.352782, 36.9157691 ], [ 139.3423867, 36.9275332 ], [ 139.3275122, 36.9245857 ], [ 139.305069299999985, 36.9258121 ], [ 139.294819, 36.9344643 ], [ 139.2817106, 36.9311473 ], [ 139.268209399999989, 36.9385934 ], [ 139.2405585, 36.9294836 ], [ 139.229811499999983, 36.9382719 ], [ 139.2377908, 36.9463453 ], [ 139.228714699999983, 36.9611977 ], [ 139.2054482, 36.9559405 ], [ 139.1803143, 36.9645219 ], [ 139.1752329, 36.9736039 ], [ 139.1794466, 36.990758 ], [ 139.1709955, 37.0019791 ], [ 139.1495783, 37.0102216 ], [ 139.145333599999987, 37.0189383 ], [ 139.131906099999981, 37.0257277 ], [ 139.1229492, 37.0471441 ], [ 139.1113054, 37.0552138 ], [ 139.097016199999985, 37.0586263 ], [ 139.0904056, 37.0449172 ], [ 139.091194900000033, 37.0199694 ], [ 139.0805043, 37.0086403 ], [ 139.073541, 37.0085297 ], [ 139.050117299999982, 36.9948673 ], [ 139.0477311, 36.9876704 ], [ 139.0303269, 36.9837026 ], [ 139.015498899999983, 36.9882862 ], [ 139.00064519999998, 36.9792129 ], [ 138.969846499999989, 36.981414 ], [ 138.966479599999985, 36.978840399999989 ], [ 138.963801599999982, 36.9527696 ], [ 138.9668015, 36.9307926 ], [ 138.9766909, 36.9207907 ], [ 138.974396399999989, 36.9131484 ], [ 138.9797347, 36.9044593 ], [ 138.979168499999986, 36.8911763 ], [ 138.971554, 36.8872676 ], [ 138.9537171, 36.8951951 ], [ 138.9311859, 36.8916834 ], [ 138.923006099999981, 36.8833848 ], [ 138.917168299999986, 36.8703729 ], [ 138.9221149, 36.8610373 ], [ 138.9170504, 36.8489376 ], [ 138.9240484, 36.8472332 ], [ 138.929067299999986, 36.8326438 ], [ 138.902597499999985, 36.8271163 ], [ 138.8795302, 36.8249771 ], [ 138.8755835, 36.8185888 ], [ 138.850947099999985, 36.8120319 ], [ 138.839570100000032, 36.8171756 ], [ 138.8217443, 36.8176261 ], [ 138.8291017, 36.7953698 ], [ 138.8269235, 36.7722913 ], [ 138.817770300000035, 36.7615857 ], [ 138.806286699999987, 36.7645327 ], [ 138.7953446, 36.7581371 ], [ 138.78941949999998, 36.7448738 ], [ 138.770344199999982, 36.7461646 ], [ 138.7533253, 36.7549827 ], [ 138.7270274, 36.7641688 ], [ 138.7218737, 36.7496902 ], [ 138.7130742, 36.7392182 ], [ 138.6964294, 36.7383052 ], [ 138.6753029, 36.7309379 ], [ 138.648925099999985, 36.7271196 ], [ 138.630087800000013, 36.7195448 ], [ 138.621771099999989, 36.7202131 ], [ 138.611141, 36.7065767 ], [ 138.594335199999989, 36.7137961 ], [ 138.583267700000022, 36.7013063 ], [ 138.57489769999998, 36.7071219 ], [ 138.5436391, 36.7038345 ], [ 138.5200164, 36.6923172 ], [ 138.517917499999982, 36.6769961 ], [ 138.5343382, 36.6662687 ], [ 138.5251132, 36.6512603 ], [ 138.5081027, 36.6482672 ], [ 138.4900819, 36.6411958 ], [ 138.473097199999984, 36.6440483 ], [ 138.459056299999986, 36.634838 ], [ 138.460575700000021, 36.6264722 ], [ 138.454973599999988, 36.6138508 ], [ 138.4415833, 36.6106694 ], [ 138.4288355, 36.5978914 ], [ 138.4202948, 36.5772373 ], [ 138.4284295, 36.5686962 ], [ 138.428840899999983, 36.5562254 ], [ 138.4177233, 36.5431929 ], [ 138.4139777, 36.5326066 ], [ 138.4042466, 36.5220652 ], [ 138.4060318, 36.5073641 ], [ 138.397132, 36.4905822 ], [ 138.4007603, 36.4814539 ], [ 138.4000711, 36.461405 ], [ 138.4031264, 36.4523194 ], [ 138.401449899999989, 36.4340211 ], [ 138.4416014, 36.4225929 ], [ 138.45696479999998, 36.4202401 ], [ 138.45965, 36.4047504 ], [ 138.477868, 36.4044499 ], [ 138.4889574, 36.4009335 ], [ 138.4920572, 36.4132576 ], [ 138.5054347, 36.4147704 ], [ 138.529346799999985, 36.4030427 ], [ 138.540611499999983, 36.4028493 ], [ 138.555008, 36.4177737 ], [ 138.570938499999983, 36.419564 ], [ 138.590196099999986, 36.4238904 ], [ 138.6078664, 36.4231879 ], [ 138.6266344, 36.415504 ], [ 138.6371514, 36.4172162 ], [ 138.6444228, 36.4114393 ], [ 138.647144199999985, 36.4246873 ], [ 138.643290399999984, 36.4372565 ], [ 138.6551963, 36.4517087 ], [ 138.670304099999981, 36.4625812 ], [ 138.678172499999988, 36.4638009 ], [ 138.6871597, 36.4734909 ], [ 138.6976731, 36.4730403 ], [ 138.706675599999983, 36.4784847 ], [ 138.7232323, 36.482229499999988 ], [ 138.730724, 36.4776078 ], [ 138.7545074, 36.4760689 ], [ 138.7625957, 36.4790522 ], [ 138.826325700000012, 36.4730883 ], [ 138.8477447, 36.4750836 ], [ 138.860050299999983, 36.4734645 ], [ 138.86579279999998, 36.4813301 ], [ 138.877445099999989, 36.4829948 ], [ 138.8951248, 36.4822426 ], [ 138.9093509, 36.471728399999989 ], [ 138.9073425, 36.4573123 ], [ 138.9247503, 36.4480497 ], [ 138.9377661, 36.4352697 ], [ 138.949836299999987, 36.4296484 ], [ 138.9628616, 36.4121303 ], [ 138.9817688, 36.4135303 ], [ 138.9937022, 36.4235534 ] ] ] } }
]
}
