{
"type": "FeatureCollection",
"name": "hiroshima",
"crs": { "type": "name", "properties": { "name": "urn:ogc:def:crs:OGC:1.3:CRS84" } },
"features": [
{ "type": "Feature", "properties": { "hokenjo": "呉市" }, "geometry": { "type": "MultiPolygon", "coordinates": [ [ [ [ 132.53386279999998, 34.0468261 ], [ 132.5385197, 34.0679992 ], [ 132.5332908, 34.0742292 ], [ 132.5312903, 34.0733914 ], [ 132.5266997, 34.0580953 ], [ 132.5195458, 34.0515725 ], [ 132.5242022, 34.0485864 ], [ 132.53386279999998, 34.0468261 ] ] ], [ [ [ 132.5468511, 34.0786056 ], [ 132.54105389999998, 34.0687481 ], [ 132.55054, 34.0716425 ], [ 132.5494433, 34.0794861 ], [ 132.5468511, 34.0786056 ] ] ], [ [ [ 132.5355491, 34.1875424 ], [ 132.533240399999983, 34.1915541 ], [ 132.538109599999984, 34.1987849 ], [ 132.5348583, 34.2004626 ], [ 132.527019199999984, 34.2002213 ], [ 132.518345, 34.1924105 ], [ 132.5075128, 34.1886627 ], [ 132.502951199999984, 34.1853278 ], [ 132.495473, 34.169641 ], [ 132.493205599999982, 34.1625029 ], [ 132.4930617, 34.1539653 ], [ 132.497251399999982, 34.1471544 ], [ 132.5043732, 34.1475324 ], [ 132.5081022, 34.1441553 ], [ 132.50418639999998, 34.1333817 ], [ 132.4958389, 34.1330111 ], [ 132.488797799999986, 34.130705 ], [ 132.4765372, 34.1234692 ], [ 132.472153099999986, 34.1182681 ], [ 132.4582981, 34.1154483 ], [ 132.4518378, 34.111953299999989 ], [ 132.447536899999989, 34.104350599999989 ], [ 132.4477272, 34.094313299999989 ], [ 132.4536383, 34.0942453 ], [ 132.456893899999983, 34.0849794 ], [ 132.4623014, 34.0823556 ], [ 132.472148, 34.087994 ], [ 132.484397199999989, 34.0909575 ], [ 132.4985192, 34.0909586 ], [ 132.502108099999987, 34.1033256 ], [ 132.5064467, 34.1039763 ], [ 132.513799399999982, 34.0989588 ], [ 132.511843299999981, 34.0955106 ], [ 132.5245842, 34.0952456 ], [ 132.532607499999983, 34.1037267 ], [ 132.537707499999982, 34.0946214 ], [ 132.5410967, 34.0993522 ], [ 132.5456806, 34.0978992 ], [ 132.543124399999982, 34.0912808 ], [ 132.5476994, 34.0900564 ], [ 132.5495601, 34.079701 ], [ 132.556213899999989, 34.0824781 ], [ 132.567796099999981, 34.0970142 ], [ 132.5698175, 34.1152356 ], [ 132.575868899999989, 34.1157925 ], [ 132.5830767, 34.1225664 ], [ 132.574005299999982, 34.1270581 ], [ 132.560559399999988, 34.1170589 ], [ 132.5492878, 34.1173417 ], [ 132.547171099999986, 34.1120819 ], [ 132.5398597, 34.1103586 ], [ 132.5401886, 34.115815 ], [ 132.5376018, 34.1210484 ], [ 132.54315, 34.1227931 ], [ 132.5470161, 34.1287869 ], [ 132.549493, 34.1493567 ], [ 132.546182499999986, 34.1502139 ], [ 132.5308889, 34.1474592 ], [ 132.5300211, 34.1530936 ], [ 132.5217151, 34.1574693 ], [ 132.531242099999986, 34.1654166 ], [ 132.5342839, 34.1617124 ], [ 132.540025, 34.1643795 ], [ 132.5412287, 34.173318699999989 ], [ 132.5558967, 34.1784417 ], [ 132.551963299999983, 34.1823887 ], [ 132.5527143, 34.1866527 ], [ 132.547443, 34.1895492 ], [ 132.5355491, 34.1875424 ] ] ], [ [ [ 132.6657322, 34.1550736 ], [ 132.672550799999982, 34.1507581 ], [ 132.6712914, 34.1597439 ], [ 132.6657322, 34.1550736 ] ] ], [ [ [ 132.5712833, 34.1634828 ], [ 132.569830700000011, 34.1573442 ], [ 132.579205299999984, 34.1590103 ], [ 132.5780067, 34.1682486 ], [ 132.5712833, 34.1634828 ] ] ], [ [ [ 132.6844614, 34.1877117 ], [ 132.682960799999989, 34.1923486 ], [ 132.6749675, 34.195655 ], [ 132.675, 34.2022959 ], [ 132.656616499999984, 34.1962789 ], [ 132.6486145, 34.1864087 ], [ 132.6487598, 34.1810751 ], [ 132.644677299999984, 34.1729434 ], [ 132.6503592, 34.1706029 ], [ 132.656688, 34.1761929 ], [ 132.6680919, 34.1708056 ], [ 132.676233599999989, 34.1750535 ], [ 132.6806748, 34.1841362 ], [ 132.6844614, 34.1877117 ] ] ], [ [ [ 132.556664399999988, 34.3228556 ], [ 132.554465, 34.3128483 ], [ 132.5364358, 34.3147492 ], [ 132.530895, 34.3134658 ], [ 132.53016359999998, 34.3046406 ], [ 132.5191881, 34.2971183 ], [ 132.5125467, 34.2995792 ], [ 132.507772499999987, 34.2967401 ], [ 132.509041599999989, 34.2927604 ], [ 132.5190418, 34.2820097 ], [ 132.5143644, 34.2677239 ], [ 132.516652, 34.2639404 ], [ 132.5145718, 34.2569457 ], [ 132.5228832, 34.2583507 ], [ 132.530346100000031, 34.2518843 ], [ 132.5291426, 34.2443322 ], [ 132.5354908, 34.2437591 ], [ 132.5450973, 34.2402318 ], [ 132.551706699999983, 34.2424679 ], [ 132.558521399999989, 34.2382396 ], [ 132.5483872, 34.2285306 ], [ 132.5381112, 34.228629 ], [ 132.5315569, 34.222171 ], [ 132.543920499999984, 34.2096354 ], [ 132.5382572, 34.1958126 ], [ 132.540398499999981, 34.1944393 ], [ 132.5534826, 34.1944381 ], [ 132.555002, 34.1967487 ], [ 132.5691133, 34.2006627 ], [ 132.5876704, 34.2136428 ], [ 132.5935227, 34.2125218 ], [ 132.596065, 34.2167756 ], [ 132.5899603, 34.219812 ], [ 132.596178399999985, 34.2292445 ], [ 132.605749, 34.2265197 ], [ 132.602754299999987, 34.2201464 ], [ 132.6090992, 34.2185279 ], [ 132.6162066, 34.2206106 ], [ 132.615344599999986, 34.2151301 ], [ 132.6261476, 34.2111394 ], [ 132.6266951, 34.2063243 ], [ 132.631795399999987, 34.2063969 ], [ 132.638152, 34.2032082 ], [ 132.650823299999985, 34.20466 ], [ 132.6614478, 34.208971 ], [ 132.6575111, 34.214134 ], [ 132.660239300000029, 34.2175121 ], [ 132.667487199999982, 34.2191026 ], [ 132.680253599999986, 34.2108623 ], [ 132.686418299999985, 34.2142293 ], [ 132.6850744, 34.2224548 ], [ 132.6893169, 34.2236784 ], [ 132.700079499999987, 34.2355341 ], [ 132.7202896, 34.2411051 ], [ 132.7282456, 34.2395686 ], [ 132.733095099999986, 34.2426566 ], [ 132.7396674, 34.2431945 ], [ 132.749680499999982, 34.2416489 ], [ 132.7538462, 34.2386873 ], [ 132.7603484, 34.2408925 ], [ 132.7583644, 34.2465845 ], [ 132.7681115, 34.2496493 ], [ 132.7724249, 34.2530828 ], [ 132.7720171, 34.2588473 ], [ 132.764812899999981, 34.2625981 ], [ 132.758199, 34.2602242 ], [ 132.7597653, 34.2678917 ], [ 132.7536863, 34.2757348 ], [ 132.7560895, 34.2815308 ], [ 132.7659582, 34.281648 ], [ 132.767899699999987, 34.2799333 ], [ 132.7851995, 34.276986799999989 ], [ 132.7808781, 34.2813369 ], [ 132.7810153, 34.2860875 ], [ 132.775055, 34.2882036 ], [ 132.7706331, 34.2868272 ], [ 132.7593094, 34.29608 ], [ 132.7618108, 34.299575 ], [ 132.755797200000018, 34.3077633 ], [ 132.7561672, 34.32 ], [ 132.7546958, 34.3293078 ], [ 132.752088900000018, 34.3332022 ], [ 132.742599399999989, 34.3306075 ], [ 132.7399078, 34.3267775 ], [ 132.7268167, 34.322105 ], [ 132.7144697, 34.3080394 ], [ 132.703841399999988, 34.3132178 ], [ 132.6906792, 34.3028017 ], [ 132.6778361, 34.2983792 ], [ 132.6640414, 34.2883933 ], [ 132.6601128, 34.2931378 ], [ 132.649654699999985, 34.3113125 ], [ 132.6450211, 34.3098986 ], [ 132.639496899999983, 34.3150469 ], [ 132.6295964, 34.3113781 ], [ 132.6215086, 34.3125897 ], [ 132.606826399999989, 34.3167056 ], [ 132.597406399999983, 34.3049225 ], [ 132.5929094, 34.3072622 ], [ 132.5869825, 34.3154792 ], [ 132.58058280000003, 34.3156911 ], [ 132.571394199999986, 34.3199561 ], [ 132.567987499999987, 34.3193192 ], [ 132.5646853, 34.3254519 ], [ 132.556664399999988, 34.3228556 ] ] ], [ [ [ 132.7894867, 34.1225108 ], [ 132.7861139, 34.1143217 ], [ 132.795431399999984, 34.1144039 ], [ 132.7894867, 34.1225108 ] ] ], [ [ [ 132.769540799999987, 34.1556472 ], [ 132.75817, 34.1524803 ], [ 132.75993, 34.1481739 ], [ 132.77501, 34.1555758 ], [ 132.769540799999987, 34.1556472 ] ] ], [ [ [ 132.868438699999984, 34.1797448 ], [ 132.860445699999985, 34.1823903 ], [ 132.847122, 34.1931432 ], [ 132.8490439, 34.1962914 ], [ 132.8428691, 34.1918217 ], [ 132.8342281, 34.1898797 ], [ 132.8313528, 34.1856775 ], [ 132.823553, 34.1871751 ], [ 132.8185024, 34.18311 ], [ 132.8073147, 34.1774272 ], [ 132.8033494, 34.1725883 ], [ 132.806052199999982, 34.1616979 ], [ 132.8007657, 34.1585084 ], [ 132.8026324, 34.1549771 ], [ 132.8105089, 34.1541847 ], [ 132.817945, 34.1510264 ], [ 132.827225, 34.1534642 ], [ 132.8388453, 34.1581995 ], [ 132.8460456, 34.1598084 ], [ 132.8588392, 34.1678689 ], [ 132.86863, 34.1767978 ], [ 132.868438699999984, 34.1797448 ] ] ], [ [ [ 132.7722078, 34.1611086 ], [ 132.7821128, 34.160862 ], [ 132.7926881, 34.165345 ], [ 132.795119699999987, 34.16786 ], [ 132.7993712, 34.1760947 ], [ 132.791942799999987, 34.1847339 ], [ 132.7865458, 34.1888161 ], [ 132.78133889999998, 34.1875192 ], [ 132.778163299999989, 34.1820367 ], [ 132.771365299999985, 34.1764011 ], [ 132.7722078, 34.1611086 ] ] ], [ [ [ 132.73861, 34.1965039 ], [ 132.7286025, 34.1980044 ], [ 132.7210925, 34.1969936 ], [ 132.711995799999983, 34.2038075 ], [ 132.6987564, 34.2039111 ], [ 132.6931506, 34.2014433 ], [ 132.6895058, 34.1964289 ], [ 132.6858219, 34.1825861 ], [ 132.6945335, 34.1823023 ], [ 132.7041956, 34.1792428 ], [ 132.712828799999983, 34.1810653 ], [ 132.716614199999981, 34.1732942 ], [ 132.7230475, 34.1693586 ], [ 132.7280078, 34.1727567 ], [ 132.7390622, 34.1730464 ], [ 132.74386530000001, 34.1639778 ], [ 132.7489117, 34.1626097 ], [ 132.7595628, 34.1678439 ], [ 132.7601422, 34.1720567 ], [ 132.7653408, 34.1769192 ], [ 132.7645478, 34.1817997 ], [ 132.75468859999998, 34.1826794 ], [ 132.759406700000028, 34.1920172 ], [ 132.7533531, 34.1943572 ], [ 132.7447836, 34.1929475 ], [ 132.73861, 34.1965039 ] ] ], [ [ [ 132.811915299999981, 34.1953067 ], [ 132.8089986, 34.1886581 ], [ 132.819967599999984, 34.1907481 ], [ 132.819993899999986, 34.1949181 ], [ 132.811915299999981, 34.1953067 ] ] ] ] } },
{ "type": "Feature", "properties": { "hokenjo": "広島市" }, "geometry": { "type": "MultiPolygon", "coordinates": [ [ [ [ 132.445541800000029, 34.3178051 ], [ 132.444146099999983, 34.3252397 ], [ 132.440888199999989, 34.3258917 ], [ 132.4325423, 34.3201015 ], [ 132.4336802, 34.3147167 ], [ 132.424029700000034, 34.3028143 ], [ 132.4318424, 34.2980625 ], [ 132.442234499999984, 34.3023624 ], [ 132.445541800000029, 34.3178051 ] ] ], [ [ [ 132.458598199999983, 34.343639 ], [ 132.464907899999986, 34.3424379 ], [ 132.462982399999987, 34.3504494 ], [ 132.4600156, 34.3517218 ], [ 132.458598199999983, 34.343639 ] ] ], [ [ [ 132.517593600000026, 34.3651043 ], [ 132.5178477, 34.3638017 ], [ 132.518244, 34.3617399 ], [ 132.51816, 34.3622136 ], [ 132.5273958, 34.3684869 ], [ 132.531054399999988, 34.37605 ], [ 132.5461714, 34.3860519 ], [ 132.5580031, 34.385148099999988 ], [ 132.5669144, 34.3816567 ], [ 132.5660636, 34.376075 ], [ 132.578736700000036, 34.3744872 ], [ 132.5811956, 34.3807622 ], [ 132.5915228, 34.3804478 ], [ 132.598255599999987, 34.3784567 ], [ 132.6013092, 34.3802617 ], [ 132.6144933, 34.3748972 ], [ 132.62289389999998, 34.3731339 ], [ 132.6314008, 34.3615878 ], [ 132.627506399999987, 34.3531578 ], [ 132.6427764, 34.3532869 ], [ 132.6442008, 34.3617242 ], [ 132.651041099999986, 34.3647117 ], [ 132.6536233, 34.3687444 ], [ 132.6501106, 34.3765183 ], [ 132.64933, 34.3835861 ], [ 132.6443078, 34.3887622 ], [ 132.646455799999984, 34.3959267 ], [ 132.640365299999985, 34.3990561 ], [ 132.644342199999983, 34.4130986 ], [ 132.6521567, 34.4223422 ], [ 132.6597844, 34.4232808 ], [ 132.666071099999982, 34.4276156 ], [ 132.663511699999987, 34.437469199999988 ], [ 132.654622499999988, 34.4434758 ], [ 132.647496099999984, 34.4375994 ], [ 132.6415108, 34.4419683 ], [ 132.6357281, 34.4433558 ], [ 132.633246899999989, 34.450025 ], [ 132.6240233, 34.4462689 ], [ 132.6154425, 34.4465181 ], [ 132.6139628, 34.4512453 ], [ 132.607919399999986, 34.4565472 ], [ 132.60052109999998, 34.4572828 ], [ 132.6025208, 34.46806 ], [ 132.6060039, 34.4717458 ], [ 132.6068467, 34.4810481 ], [ 132.601036599999986, 34.4834472 ], [ 132.6030312, 34.4871667 ], [ 132.609162, 34.4902925 ], [ 132.6186597, 34.4907833 ], [ 132.6283048, 34.4982991 ], [ 132.633428, 34.5070394 ], [ 132.6443928, 34.5052869 ], [ 132.649133299999988, 34.5146119 ], [ 132.6559556, 34.5233711 ], [ 132.6629431, 34.5265433 ], [ 132.665376399999985, 34.5315467 ], [ 132.673694399999988, 34.5304308 ], [ 132.6842206, 34.5268067 ], [ 132.6931325, 34.5293842 ], [ 132.6960978, 34.5358267 ], [ 132.6868828, 34.5413583 ], [ 132.6920797, 34.5462642 ], [ 132.6876006, 34.5566697 ], [ 132.689875299999983, 34.5618267 ], [ 132.6832886, 34.5655192 ], [ 132.6856139, 34.5721075 ], [ 132.6940903, 34.5839033 ], [ 132.6929183, 34.5898486 ], [ 132.6791125, 34.6039806 ], [ 132.671574199999981, 34.6067519 ], [ 132.664829199999986, 34.6069147 ], [ 132.653965, 34.5995303 ], [ 132.645723299999986, 34.6020311 ], [ 132.632482499999981, 34.5971586 ], [ 132.6244997, 34.6000481 ], [ 132.6195753, 34.5987456 ], [ 132.613585299999983, 34.6011947 ], [ 132.6086372, 34.59629 ], [ 132.610368099999988, 34.5922806 ], [ 132.6082031, 34.5860358 ], [ 132.59619, 34.5853422 ], [ 132.590257799999989, 34.5815756 ], [ 132.590812199999988, 34.5752267 ], [ 132.5781394, 34.5640158 ], [ 132.573187499999989, 34.5631861 ], [ 132.569189400000027, 34.5725622 ], [ 132.565661899999981, 34.5721236 ], [ 132.5605478, 34.576856899999989 ], [ 132.5507256, 34.5782892 ], [ 132.5440064, 34.583652799999989 ], [ 132.5385219, 34.5832228 ], [ 132.530742799999985, 34.5881825 ], [ 132.5326494, 34.5908961 ], [ 132.5248358, 34.6063764 ], [ 132.51938, 34.6069836 ], [ 132.51181889999998, 34.5964303 ], [ 132.49934829999998, 34.5937025 ], [ 132.498175799999984, 34.5989569 ], [ 132.4875894, 34.6059708 ], [ 132.4812631, 34.6061119 ], [ 132.480345299999982, 34.611755 ], [ 132.4724214, 34.6147669 ], [ 132.4644222, 34.61384 ], [ 132.4566525, 34.6032425 ], [ 132.4497106, 34.5997622 ], [ 132.4389447, 34.5920044 ], [ 132.4306656, 34.5972847 ], [ 132.425847799999985, 34.6031761 ], [ 132.4207222, 34.6031153 ], [ 132.4152939, 34.5991306 ], [ 132.4046775, 34.6023467 ], [ 132.4000531, 34.6038914 ], [ 132.394665, 34.5991347 ], [ 132.3901447, 34.5916344 ], [ 132.3917844, 34.5853819 ], [ 132.387290299999989, 34.5831117 ], [ 132.388135299999988, 34.5732689 ], [ 132.3906772, 34.5710697 ], [ 132.3897725, 34.5621881 ], [ 132.3747586, 34.5480261 ], [ 132.36767, 34.544975 ], [ 132.3669994, 34.5400692 ], [ 132.3599169, 34.5381486 ], [ 132.363543099999987, 34.547458299999988 ], [ 132.352575799999983, 34.5545314 ], [ 132.342770799999983, 34.5518689 ], [ 132.3404739, 34.5551828 ], [ 132.3310342, 34.5552353 ], [ 132.3049661, 34.5507172 ], [ 132.292223899999982, 34.547445 ], [ 132.2915161, 34.5446753 ], [ 132.2789464, 34.5422658 ], [ 132.269525, 34.5353656 ], [ 132.2655622, 34.5358708 ], [ 132.2492136, 34.5296583 ], [ 132.2395531, 34.5169567 ], [ 132.242400799999984, 34.5104278 ], [ 132.238976399999984, 34.5074792 ], [ 132.23322109999998, 34.511055 ], [ 132.229867499999983, 34.5093597 ], [ 132.215028099999984, 34.5142119 ], [ 132.2056911, 34.5097678 ], [ 132.2039383, 34.4994028 ], [ 132.1960894, 34.4963897 ], [ 132.188895299999984, 34.4982633 ], [ 132.2000033, 34.4909294 ], [ 132.2032797, 34.4847292 ], [ 132.1966878, 34.4776161 ], [ 132.1934939, 34.4679431 ], [ 132.19361, 34.457395 ], [ 132.1961411, 34.453155 ], [ 132.178555, 34.4426453 ], [ 132.1913783, 34.4351556 ], [ 132.1936097, 34.4313558 ], [ 132.190948599999984, 34.4243172 ], [ 132.195605, 34.4158592 ], [ 132.218199699999985, 34.4163325 ], [ 132.218892499999981, 34.4199033 ], [ 132.228968899999984, 34.4311431 ], [ 132.235660599999989, 34.4311433 ], [ 132.24511, 34.4232583 ], [ 132.24945, 34.4236081 ], [ 132.2543258, 34.4178253 ], [ 132.2547539, 34.4140464 ], [ 132.2813275, 34.4095564 ], [ 132.284781399999986, 34.4024631 ], [ 132.2831069, 34.4001511 ], [ 132.2843878, 34.3897214 ], [ 132.2931858, 34.3853175 ], [ 132.3000783, 34.3842575 ], [ 132.30346, 34.3926028 ], [ 132.3003778, 34.3991317 ], [ 132.29956, 34.4073033 ], [ 132.305194199999988, 34.4144528 ], [ 132.3113936, 34.4192606 ], [ 132.3143939, 34.4159144 ], [ 132.3129597, 34.4100769 ], [ 132.316689699999984, 34.4061289 ], [ 132.3242789, 34.4058433 ], [ 132.320743300000032, 34.3972811 ], [ 132.320913600000011, 34.388045 ], [ 132.316996099999983, 34.3812586 ], [ 132.3235967, 34.3796119 ], [ 132.3346464, 34.3722517 ], [ 132.3354439, 34.3676453 ], [ 132.3423367, 34.3663417 ], [ 132.3470068, 34.3565426 ], [ 132.360316399999988, 34.3557159 ], [ 132.3647262, 34.3474676 ], [ 132.376853399999987, 34.3523658 ], [ 132.3751331, 34.359694 ], [ 132.3781851, 34.3608929 ], [ 132.3974978, 34.3630231 ], [ 132.3992623, 34.365365 ], [ 132.4132051, 34.3572021 ], [ 132.4204752, 34.3592474 ], [ 132.436683300000027, 34.3530753 ], [ 132.4379612, 34.3456247 ], [ 132.4439925, 34.3405392 ], [ 132.449817, 34.3408363 ], [ 132.449487299999987, 34.346836 ], [ 132.452495, 34.3528014 ], [ 132.469128399999988, 34.3529117 ], [ 132.478512400000028, 34.3567219 ], [ 132.4826343, 34.3536019 ], [ 132.4919688, 34.3534777 ], [ 132.496418399999982, 34.3570178 ], [ 132.5061574, 34.3557284 ], [ 132.517593600000026, 34.3651043 ] ], [ [ 132.4997208, 34.38931 ], [ 132.4958408, 34.3953244 ], [ 132.504142, 34.4043541 ], [ 132.506896899999987, 34.4031906 ], [ 132.514342199999987, 34.4066822 ], [ 132.5172336, 34.4135275 ], [ 132.5311844, 34.4214914 ], [ 132.5407169, 34.4176683 ], [ 132.5355583, 34.4104933 ], [ 132.5283442, 34.3934933 ], [ 132.5277494, 34.3884131 ], [ 132.5235156, 34.3868247 ], [ 132.5148997, 34.3780219 ], [ 132.5162178, 34.3750322 ], [ 132.5014008, 34.3760303 ], [ 132.4997208, 34.38931 ] ] ], [ [ [ 132.5380281, 34.3581306 ], [ 132.5281339, 34.3601272 ], [ 132.519174199999981, 34.3565569 ], [ 132.5229194, 34.3418522 ], [ 132.5300853, 34.333678299999988 ], [ 132.5336083, 34.3164428 ], [ 132.5364358, 34.3147492 ], [ 132.554465, 34.3128483 ], [ 132.556664399999988, 34.3228556 ], [ 132.5517317, 34.3315703 ], [ 132.5513847, 34.3397986 ], [ 132.5543547, 34.3441261 ], [ 132.5489208, 34.3568083 ], [ 132.539154599999989, 34.361507 ], [ 132.5380281, 34.3581306 ] ] ], [ [ [ 132.4806819, 34.3312625 ], [ 132.4865983, 34.3359664 ], [ 132.485563499999984, 34.3441342 ], [ 132.481464499999987, 34.3469688 ], [ 132.4768005, 34.3458581 ], [ 132.4806819, 34.3312625 ] ] ], [ [ [ 132.519174199999981, 34.3565569 ], [ 132.5189607, 34.3578218 ], [ 132.5103139, 34.3535319 ], [ 132.519174199999981, 34.3565569 ] ] ] ] } },
{ "type": "Feature", "properties": { "hokenjo": "西部" }, "geometry": { "type": "MultiPolygon", "coordinates": [ [ [ [ 132.4068211, 34.1679139 ], [ 132.3918117, 34.1753606 ], [ 132.3854833, 34.177495799999988 ], [ 132.3816042, 34.1712408 ], [ 132.383931099999984, 34.1648525 ], [ 132.3831008, 34.1568383 ], [ 132.3872983, 34.1499328 ], [ 132.4050619, 34.1477928 ], [ 132.4137, 34.15066 ], [ 132.4170872, 34.1586378 ], [ 132.4100056, 34.1684956 ], [ 132.4068211, 34.1679139 ] ] ], [ [ [ 132.3195531, 34.1898758 ], [ 132.3117661, 34.1984164 ], [ 132.301255, 34.1965947 ], [ 132.296466899999984, 34.1993261 ], [ 132.2924281, 34.1890542 ], [ 132.301645799999989, 34.1864325 ], [ 132.3153681, 34.1870756 ], [ 132.3195531, 34.1898758 ] ] ], [ [ [ 132.2273798, 34.2354264 ], [ 132.229158399999989, 34.2486931 ], [ 132.2342553, 34.2588207 ], [ 132.238872, 34.2613626 ], [ 132.2495251, 34.2647125 ], [ 132.2529089, 34.2693666 ], [ 132.2595857, 34.27385 ], [ 132.2643225, 34.2725459 ], [ 132.2820767, 34.2859502 ], [ 132.2811247, 34.2886067 ], [ 132.287349, 34.2974468 ], [ 132.2970717, 34.3035437 ], [ 132.3097812, 34.3176062 ], [ 132.3126959, 34.3174424 ], [ 132.317835, 34.3243623 ], [ 132.3210401, 34.331687 ], [ 132.3196318, 34.3377265 ], [ 132.326778099999984, 34.344117 ], [ 132.3333084, 34.3441375 ], [ 132.3367584, 34.3376844 ], [ 132.3477384, 34.3414394 ], [ 132.346067299999987, 34.3445644 ], [ 132.338796699999989, 34.3463902 ], [ 132.351197, 34.3509446 ], [ 132.355011, 34.3488402 ], [ 132.350107799999989, 34.3534536 ], [ 132.3470068, 34.3565426 ], [ 132.3423367, 34.3663417 ], [ 132.3354439, 34.3676453 ], [ 132.3346464, 34.3722517 ], [ 132.3235967, 34.3796119 ], [ 132.316996099999983, 34.3812586 ], [ 132.320913600000011, 34.388045 ], [ 132.320743300000032, 34.3972811 ], [ 132.3242789, 34.4058433 ], [ 132.316689699999984, 34.4061289 ], [ 132.3129597, 34.4100769 ], [ 132.3143939, 34.4159144 ], [ 132.3113936, 34.4192606 ], [ 132.305194199999988, 34.4144528 ], [ 132.29956, 34.4073033 ], [ 132.3003778, 34.3991317 ], [ 132.30346, 34.3926028 ], [ 132.3000783, 34.3842575 ], [ 132.2931858, 34.3853175 ], [ 132.2843878, 34.3897214 ], [ 132.2831069, 34.4001511 ], [ 132.284781399999986, 34.4024631 ], [ 132.2813275, 34.4095564 ], [ 132.2547539, 34.4140464 ], [ 132.2543258, 34.4178253 ], [ 132.24945, 34.4236081 ], [ 132.24511, 34.4232583 ], [ 132.235660599999989, 34.4311433 ], [ 132.228968899999984, 34.4311431 ], [ 132.218892499999981, 34.4199033 ], [ 132.218199699999985, 34.4163325 ], [ 132.195605, 34.4158592 ], [ 132.190948599999984, 34.4243172 ], [ 132.1936097, 34.4313558 ], [ 132.1913783, 34.4351556 ], [ 132.178555, 34.4426453 ], [ 132.1961411, 34.453155 ], [ 132.19361, 34.457395 ], [ 132.1934939, 34.4679431 ], [ 132.1966878, 34.4776161 ], [ 132.2032797, 34.4847292 ], [ 132.2000033, 34.4909294 ], [ 132.188895299999984, 34.4982633 ], [ 132.1960894, 34.4963897 ], [ 132.2039383, 34.4994028 ], [ 132.2056911, 34.5097678 ], [ 132.215028099999984, 34.5142119 ], [ 132.229867499999983, 34.5093597 ], [ 132.23322109999998, 34.511055 ], [ 132.238976399999984, 34.5074792 ], [ 132.242400799999984, 34.5104278 ], [ 132.2395531, 34.5169567 ], [ 132.2492136, 34.5296583 ], [ 132.2655622, 34.5358708 ], [ 132.269525, 34.5353656 ], [ 132.2789464, 34.5422658 ], [ 132.2915161, 34.5446753 ], [ 132.292223899999982, 34.547445 ], [ 132.3049661, 34.5507172 ], [ 132.3310342, 34.5552353 ], [ 132.3404739, 34.5551828 ], [ 132.342770799999983, 34.5518689 ], [ 132.352575799999983, 34.5545314 ], [ 132.363543099999987, 34.547458299999988 ], [ 132.3599169, 34.5381486 ], [ 132.3669994, 34.5400692 ], [ 132.36767, 34.544975 ], [ 132.3747586, 34.5480261 ], [ 132.3897725, 34.5621881 ], [ 132.3906772, 34.5710697 ], [ 132.388135299999988, 34.5732689 ], [ 132.387290299999989, 34.5831117 ], [ 132.3917844, 34.5853819 ], [ 132.3901447, 34.5916344 ], [ 132.394665, 34.5991347 ], [ 132.4000531, 34.6038914 ], [ 132.4046775, 34.6023467 ], [ 132.4152939, 34.5991306 ], [ 132.4207222, 34.6031153 ], [ 132.425847799999985, 34.6031761 ], [ 132.4306656, 34.5972847 ], [ 132.4389447, 34.5920044 ], [ 132.4497106, 34.5997622 ], [ 132.4566525, 34.6032425 ], [ 132.4644222, 34.61384 ], [ 132.4724214, 34.6147669 ], [ 132.480345299999982, 34.611755 ], [ 132.4812631, 34.6061119 ], [ 132.4875894, 34.6059708 ], [ 132.498175799999984, 34.5989569 ], [ 132.49934829999998, 34.5937025 ], [ 132.51181889999998, 34.5964303 ], [ 132.51938, 34.6069836 ], [ 132.5248358, 34.6063764 ], [ 132.5326494, 34.5908961 ], [ 132.530742799999985, 34.5881825 ], [ 132.5385219, 34.5832228 ], [ 132.5440064, 34.583652799999989 ], [ 132.5507256, 34.5782892 ], [ 132.5605478, 34.576856899999989 ], [ 132.565661899999981, 34.5721236 ], [ 132.569189400000027, 34.5725622 ], [ 132.573187499999989, 34.5631861 ], [ 132.5781394, 34.5640158 ], [ 132.590812199999988, 34.5752267 ], [ 132.590257799999989, 34.5815756 ], [ 132.59619, 34.5853422 ], [ 132.6082031, 34.5860358 ], [ 132.610368099999988, 34.5922806 ], [ 132.6086372, 34.59629 ], [ 132.613585299999983, 34.6011947 ], [ 132.6195753, 34.5987456 ], [ 132.6244997, 34.6000481 ], [ 132.632482499999981, 34.5971586 ], [ 132.645723299999986, 34.6020311 ], [ 132.653965, 34.5995303 ], [ 132.664829199999986, 34.6069147 ], [ 132.671574199999981, 34.6067519 ], [ 132.6791125, 34.6039806 ], [ 132.6929183, 34.5898486 ], [ 132.6940903, 34.5839033 ], [ 132.6856139, 34.5721075 ], [ 132.6832886, 34.5655192 ], [ 132.689875299999983, 34.5618267 ], [ 132.6876006, 34.5566697 ], [ 132.6920797, 34.5462642 ], [ 132.6868828, 34.5413583 ], [ 132.6960978, 34.5358267 ], [ 132.700228899999985, 34.5363431 ], [ 132.70504889999998, 34.5434481 ], [ 132.7046531, 34.5475897 ], [ 132.7109567, 34.5547175 ], [ 132.715425, 34.5531342 ], [ 132.724191099999985, 34.5545586 ], [ 132.7265267, 34.5582322 ], [ 132.735875599999986, 34.5575036 ], [ 132.74601, 34.565865 ], [ 132.7474494, 34.5710158 ], [ 132.754464700000028, 34.5745881 ], [ 132.763034399999981, 34.5761056 ], [ 132.771997199999987, 34.5758244 ], [ 132.785084400000017, 34.5833111 ], [ 132.7842633, 34.5972122 ], [ 132.79241829999998, 34.6068497 ], [ 132.7931611, 34.6153869 ], [ 132.798093599999987, 34.6216036 ], [ 132.7971144, 34.6297275 ], [ 132.7906547, 34.6330819 ], [ 132.7826411, 34.6407244 ], [ 132.7817947, 34.6527162 ], [ 132.78894, 34.6569617 ], [ 132.7974317, 34.6698831 ], [ 132.8031111, 34.6718814 ], [ 132.7992725, 34.678185 ], [ 132.805605600000035, 34.6832119 ], [ 132.807045599999981, 34.6920433 ], [ 132.787483899999984, 34.6981939 ], [ 132.7763292, 34.6988414 ], [ 132.7697564, 34.7016014 ], [ 132.769108300000028, 34.708735 ], [ 132.7729483, 34.71512 ], [ 132.7733542, 34.7213681 ], [ 132.7828442, 34.7288519 ], [ 132.7848008, 34.73994 ], [ 132.7884133, 34.7426147 ], [ 132.778441099999981, 34.7505022 ], [ 132.7681844, 34.7490086 ], [ 132.764895, 34.755372199999989 ], [ 132.770656699999989, 34.7581511 ], [ 132.766168599999986, 34.7615944 ], [ 132.7712842, 34.7697386 ], [ 132.7779031, 34.7735447 ], [ 132.776191399999988, 34.7768869 ], [ 132.7787367, 34.7825986 ], [ 132.7779994, 34.7932169 ], [ 132.7814942, 34.8059672 ], [ 132.767451099999988, 34.8085611 ], [ 132.761890599999987, 34.8077878 ], [ 132.7481708, 34.8111642 ], [ 132.728533299999981, 34.8138569 ], [ 132.712764199999981, 34.8177986 ], [ 132.7037633, 34.8148275 ], [ 132.6953044, 34.8184981 ], [ 132.6997175, 34.827385 ], [ 132.7127011, 34.8278825 ], [ 132.7210394, 34.8300789 ], [ 132.7232386, 34.8336886 ], [ 132.7213544, 34.8423594 ], [ 132.7143156, 34.8450489 ], [ 132.710597799999988, 34.8498603 ], [ 132.702510599999982, 34.8473011 ], [ 132.6986575, 34.8429475 ], [ 132.693964199999982, 34.8435447 ], [ 132.6896189, 34.8502864 ], [ 132.6838597, 34.8513511 ], [ 132.6751631, 34.8475944 ], [ 132.6711225, 34.8421356 ], [ 132.6674447, 34.8322767 ], [ 132.659760799999987, 34.8323353 ], [ 132.6475069, 34.8400742 ], [ 132.6430369, 34.8376497 ], [ 132.633128299999981, 34.8398678 ], [ 132.631180300000011, 34.8431322 ], [ 132.6196433, 34.8435011 ], [ 132.610948899999983, 34.8378092 ], [ 132.612494699999985, 34.8334642 ], [ 132.605436699999984, 34.8306994 ], [ 132.600276399999984, 34.8318603 ], [ 132.5858456, 34.8230072 ], [ 132.5801764, 34.8158772 ], [ 132.568451399999987, 34.8107378 ], [ 132.5679958, 34.8065392 ], [ 132.5540847, 34.8082839 ], [ 132.546525299999985, 34.8026436 ], [ 132.543648599999983, 34.7965525 ], [ 132.5380597, 34.7949917 ], [ 132.5272417, 34.7988731 ], [ 132.5205014, 34.8036461 ], [ 132.5051478, 34.7960153 ], [ 132.4950164, 34.8014347 ], [ 132.4835444, 34.7971536 ], [ 132.471987499999983, 34.8022503 ], [ 132.4657939, 34.8016592 ], [ 132.456686099999985, 34.8043431 ], [ 132.4566817, 34.8074061 ], [ 132.445178299999981, 34.8133153 ], [ 132.445985799999988, 34.8151964 ], [ 132.436620600000026, 34.8209525 ], [ 132.429917499999988, 34.8142219 ], [ 132.4211575, 34.8117769 ], [ 132.424414399999989, 34.8069142 ], [ 132.4247125, 34.7990831 ], [ 132.4144906, 34.7971703 ], [ 132.398620599999987, 34.7833392 ], [ 132.387441699999982, 34.7827436 ], [ 132.3813969, 34.7858378 ], [ 132.383048299999984, 34.7947967 ], [ 132.373078599999985, 34.8012292 ], [ 132.3523475, 34.7980664 ], [ 132.346786399999985, 34.7934439 ], [ 132.3338008, 34.7900422 ], [ 132.3248956, 34.7925597 ], [ 132.3158214, 34.8014169 ], [ 132.3129558, 34.7969961 ], [ 132.3058839, 34.7933456 ], [ 132.3067175, 34.7899911 ], [ 132.302203099999986, 34.7852814 ], [ 132.2986536, 34.7770094 ], [ 132.2895633, 34.7783875 ], [ 132.2795567, 34.7843808 ], [ 132.279246100000023, 34.7899803 ], [ 132.274706399999985, 34.7916019 ], [ 132.278569399999981, 34.79752 ], [ 132.267910299999983, 34.8017594 ], [ 132.259633899999983, 34.806825 ], [ 132.242792799999989, 34.8066892 ], [ 132.238379399999985, 34.8018589 ], [ 132.243047499999989, 34.79801 ], [ 132.241240299999987, 34.7875375 ], [ 132.2428622, 34.7837339 ], [ 132.2327783, 34.7731103 ], [ 132.2251867, 34.7699847 ], [ 132.2267814, 34.7645958 ], [ 132.2225003, 34.7497175 ], [ 132.2098858, 34.7448806 ], [ 132.203361699999988, 34.7488342 ], [ 132.1956869, 34.7444464 ], [ 132.1965281, 34.7385725 ], [ 132.184671899999984, 34.7337972 ], [ 132.1778472, 34.7366272 ], [ 132.1712503, 34.7297142 ], [ 132.1557847, 34.7231275 ], [ 132.1541622, 34.7199942 ], [ 132.143086899999986, 34.7160531 ], [ 132.141504699999984, 34.7100483 ], [ 132.1304619, 34.7061847 ], [ 132.1295897, 34.700034699999989 ], [ 132.142221899999981, 34.6915939 ], [ 132.1445522, 34.6939642 ], [ 132.157510299999984, 34.69272 ], [ 132.1610819, 34.6881192 ], [ 132.15543169999998, 34.6769914 ], [ 132.1477942, 34.6675536 ], [ 132.146085, 34.6620914 ], [ 132.14028829999998, 34.6542219 ], [ 132.133503599999983, 34.6479961 ], [ 132.1344425, 34.6451375 ], [ 132.126759199999981, 34.6392519 ], [ 132.1308708, 34.6336506 ], [ 132.1170697, 34.6115336 ], [ 132.1165456, 34.6067189 ], [ 132.1206422, 34.6006433 ], [ 132.129684199999986, 34.5954786 ], [ 132.1242806, 34.5878411 ], [ 132.125528299999985, 34.5831514 ], [ 132.1178803, 34.5782981 ], [ 132.119035, 34.5726339 ], [ 132.1137406, 34.5626133 ], [ 132.1070986, 34.5573333 ], [ 132.100189199999988, 34.5550989 ], [ 132.0950669, 34.5479283 ], [ 132.0887667, 34.5440833 ], [ 132.08395059999998, 34.53753 ], [ 132.0760922, 34.5369253 ], [ 132.0588031, 34.5310775 ], [ 132.0527122, 34.5302658 ], [ 132.047836099999984, 34.5214897 ], [ 132.047124699999983, 34.5124742 ], [ 132.0364481, 34.5012619 ], [ 132.039358099999987, 34.4994942 ], [ 132.0475314, 34.5003922 ], [ 132.0522039, 34.4989156 ], [ 132.059742799999981, 34.4922703 ], [ 132.0574492, 34.4866161 ], [ 132.0580708, 34.480325 ], [ 132.061486699999989, 34.4793769 ], [ 132.067179399999986, 34.4720069 ], [ 132.0714575, 34.4582639 ], [ 132.0754239, 34.4539183 ], [ 132.08099439999998, 34.44354 ], [ 132.076985, 34.4376894 ], [ 132.0735247, 34.4195314 ], [ 132.068894200000017, 34.4162564 ], [ 132.070320800000019, 34.4099433 ], [ 132.074574399999989, 34.4019644 ], [ 132.0699692, 34.3920053 ], [ 132.0773883, 34.3892378 ], [ 132.0768075, 34.3838008 ], [ 132.0704336, 34.3709633 ], [ 132.071900299999982, 34.3671086 ], [ 132.0713417, 34.3554 ], [ 132.08526329999998, 34.3578817 ], [ 132.0859528, 34.3540439 ], [ 132.0928714, 34.3514008 ], [ 132.101280799999984, 34.3453097 ], [ 132.101245799999987, 34.3362314 ], [ 132.105521399999986, 34.3296164 ], [ 132.11932059999998, 34.3305778 ], [ 132.1250694, 34.3338122 ], [ 132.1294842, 34.3270069 ], [ 132.1287544, 34.3219514 ], [ 132.1238775, 34.3187614 ], [ 132.1227381, 34.3116414 ], [ 132.125362199999984, 34.3057789 ], [ 132.1284311, 34.2956814 ], [ 132.1381811, 34.2878889 ], [ 132.1397111, 34.2819406 ], [ 132.135509399999989, 34.2779553 ], [ 132.1335689, 34.27236 ], [ 132.1353278, 34.2671136 ], [ 132.141174399999983, 34.2599622 ], [ 132.146354699999989, 34.2567847 ], [ 132.147359199999983, 34.2504042 ], [ 132.1447489, 34.2364197 ], [ 132.1499742, 34.23724 ], [ 132.1565369, 34.2293519 ], [ 132.1618317, 34.2338694 ], [ 132.17009969999998, 34.2337603 ], [ 132.171148099999982, 34.2253397 ], [ 132.1803294, 34.2298789 ], [ 132.18419609999998, 34.2276144 ], [ 132.1934994, 34.2264822 ], [ 132.2021914, 34.2230303 ], [ 132.1933297, 34.2070122 ], [ 132.201319399999988, 34.2077631 ], [ 132.2065711, 34.2036164 ], [ 132.2143122, 34.2035633 ], [ 132.2222672, 34.2083942 ], [ 132.245598299999983, 34.2106729 ], [ 132.2474892, 34.2150117 ], [ 132.2388901, 34.2271395 ], [ 132.2356354, 34.2266648 ], [ 132.2206597, 34.23276 ], [ 132.2273798, 34.2354264 ] ] ], [ [ [ 132.3397888, 34.298044 ], [ 132.3411487, 34.302373 ], [ 132.334612, 34.3050187 ], [ 132.333644099999987, 34.3112663 ], [ 132.3216112, 34.3020321 ], [ 132.3153419, 34.2956968 ], [ 132.309839399999987, 34.2964041 ], [ 132.301831099999987, 34.2938767 ], [ 132.2989212, 34.2902641 ], [ 132.290200699999986, 34.287471 ], [ 132.2834631, 34.2780325 ], [ 132.2834564, 34.2722369 ], [ 132.277033099999983, 34.2627969 ], [ 132.262397199999981, 34.2516325 ], [ 132.2670975, 34.2503442 ], [ 132.2726989, 34.2337606 ], [ 132.2765622, 34.2327781 ], [ 132.284727799999985, 34.2351011 ], [ 132.304090799999983, 34.2447497 ], [ 132.311451399999982, 34.2522053 ], [ 132.3141372, 34.2577272 ], [ 132.3303742, 34.2673264 ], [ 132.3354311, 34.2724756 ], [ 132.341035300000016, 34.2750503 ], [ 132.3480978, 34.2824833 ], [ 132.348599399999983, 34.2918442 ], [ 132.3397888, 34.298044 ] ] ], [ [ [ 132.3705847, 34.2755061 ], [ 132.377231099999989, 34.2735525 ], [ 132.3776442, 34.2780753 ], [ 132.3705967, 34.2798422 ], [ 132.3705847, 34.2755061 ] ] ], [ [ [ 132.431315, 34.1553642 ], [ 132.429879699999987, 34.1486217 ], [ 132.441227199999986, 34.1514836 ], [ 132.439263899999986, 34.1605003 ], [ 132.431315, 34.1553642 ] ] ], [ [ [ 132.498523299999988, 34.2684837 ], [ 132.493695799999983, 34.2773733 ], [ 132.4823251, 34.2879003 ], [ 132.4796919, 34.2962685 ], [ 132.481077299999981, 34.2868209 ], [ 132.4737711, 34.283639 ], [ 132.4718145, 34.2866733 ], [ 132.460264699999982, 34.2877594 ], [ 132.4459661, 34.2855061 ], [ 132.442167499999982, 34.2887108 ], [ 132.4353094, 34.2848244 ], [ 132.4341839, 34.2792986 ], [ 132.436849699999982, 34.2743867 ], [ 132.445252400000015, 34.2690756 ], [ 132.443023399999987, 34.261234699999989 ], [ 132.432663100000013, 34.2537376 ], [ 132.4355134, 34.2474413 ], [ 132.444622, 34.245606099999989 ], [ 132.4512446, 34.2482195 ], [ 132.4517646, 34.2550541 ], [ 132.4560946, 34.2567418 ], [ 132.4597827, 34.2518162 ], [ 132.468811599999981, 34.246549 ], [ 132.479216899999983, 34.2324889 ], [ 132.4793708, 34.2269721 ], [ 132.4765721, 34.2206234 ], [ 132.4744174, 34.2086335 ], [ 132.4659155, 34.2153533 ], [ 132.4586586, 34.2286244 ], [ 132.4449986, 34.222745599999989 ], [ 132.439391799999981, 34.2247803 ], [ 132.4380588, 34.2321705 ], [ 132.4290829, 34.2451521 ], [ 132.425458599999985, 34.254461 ], [ 132.419811399999986, 34.2579908 ], [ 132.389698, 34.2608687 ], [ 132.3838285, 34.257093499999989 ], [ 132.377136399999983, 34.2620169 ], [ 132.372082799999987, 34.2583044 ], [ 132.3850492, 34.2481892 ], [ 132.388517799999988, 34.2414858 ], [ 132.389364299999983, 34.2306008 ], [ 132.3878172, 34.2241031 ], [ 132.4074439, 34.2044576 ], [ 132.4207078, 34.1972683 ], [ 132.423065799999989, 34.1924367 ], [ 132.4222911, 34.1806383 ], [ 132.433563599999985, 34.1794458 ], [ 132.436565299999984, 34.1952239 ], [ 132.442611699999986, 34.1953022 ], [ 132.443078400000019, 34.1908137 ], [ 132.4475481, 34.1842988 ], [ 132.4541944, 34.1818834 ], [ 132.4551169, 34.1784015 ], [ 132.445755099999985, 34.1788588 ], [ 132.4435736, 34.169607 ], [ 132.4491519, 34.1687154 ], [ 132.4431309, 34.1570516 ], [ 132.444862199999989, 34.1516647 ], [ 132.4367661, 34.1430358 ], [ 132.4377222, 34.1397422 ], [ 132.431065, 34.1320678 ], [ 132.4379817, 34.1322683 ], [ 132.4417875, 34.1359333 ], [ 132.451733099999984, 34.1357011 ], [ 132.45415, 34.133836699999989 ], [ 132.4623822, 34.135036899999989 ], [ 132.482796899999983, 34.1445542 ], [ 132.4873275, 34.1483072 ], [ 132.49018, 34.154651 ], [ 132.4878559, 34.1606072 ], [ 132.481461, 34.1687647 ], [ 132.4798367, 34.1746014 ], [ 132.4719044, 34.1827574 ], [ 132.474057, 34.19537 ], [ 132.480145599999986, 34.1958285 ], [ 132.4822361, 34.1993257 ], [ 132.4896488, 34.202214 ], [ 132.489796399999989, 34.2199004 ], [ 132.4916705, 34.2286959 ], [ 132.4956922, 34.2319756 ], [ 132.4925278, 34.2477005 ], [ 132.4955443, 34.2525069 ], [ 132.4959014, 34.261898 ], [ 132.498523299999988, 34.2684837 ] ] ], [ [ [ 132.5300853, 34.333678299999988 ], [ 132.5229194, 34.3418522 ], [ 132.519174199999981, 34.3565569 ], [ 132.5103139, 34.3535319 ], [ 132.507667699999985, 34.3488705 ], [ 132.496351, 34.3481495 ], [ 132.491892899999982, 34.3361775 ], [ 132.498974299999986, 34.337815 ], [ 132.504973, 34.3340654 ], [ 132.502992, 34.3254509 ], [ 132.5005727, 34.3249219 ], [ 132.494315799999981, 34.316243799999988 ], [ 132.4964694, 34.3104022 ], [ 132.504808699999984, 34.3029428 ], [ 132.507772499999987, 34.2967401 ], [ 132.5125467, 34.2995792 ], [ 132.5191881, 34.2971183 ], [ 132.53016359999998, 34.3046406 ], [ 132.530895, 34.3134658 ], [ 132.5364358, 34.3147492 ], [ 132.5336083, 34.3164428 ], [ 132.5300853, 34.333678299999988 ] ] ], [ [ [ 132.598255599999987, 34.3784567 ], [ 132.5915228, 34.3804478 ], [ 132.5811956, 34.3807622 ], [ 132.578736700000036, 34.3744872 ], [ 132.5660636, 34.376075 ], [ 132.5669144, 34.3816567 ], [ 132.5580031, 34.385148099999988 ], [ 132.5461714, 34.3860519 ], [ 132.531054399999988, 34.37605 ], [ 132.5273958, 34.3684869 ], [ 132.51816, 34.3622136 ], [ 132.518244, 34.3617399 ], [ 132.5189607, 34.3578218 ], [ 132.519174199999981, 34.3565569 ], [ 132.5281339, 34.3601272 ], [ 132.5380281, 34.3581306 ], [ 132.539154599999989, 34.361507 ], [ 132.5489208, 34.3568083 ], [ 132.5543547, 34.3441261 ], [ 132.5513847, 34.3397986 ], [ 132.5517317, 34.3315703 ], [ 132.556664399999988, 34.3228556 ], [ 132.5646853, 34.3254519 ], [ 132.567987499999987, 34.3193192 ], [ 132.571394199999986, 34.3199561 ], [ 132.58058280000003, 34.3156911 ], [ 132.5869825, 34.3154792 ], [ 132.5929094, 34.3072622 ], [ 132.597406399999983, 34.3049225 ], [ 132.606826399999989, 34.3167056 ], [ 132.6056008, 34.3220325 ], [ 132.612328599999984, 34.3250775 ], [ 132.613187499999981, 34.3289086 ], [ 132.608233899999988, 34.3421356 ], [ 132.623973899999982, 34.3541892 ], [ 132.627506399999987, 34.3531578 ], [ 132.6314008, 34.3615878 ], [ 132.62289389999998, 34.3731339 ], [ 132.6144933, 34.3748972 ], [ 132.6013092, 34.3802617 ], [ 132.598255599999987, 34.3784567 ] ] ], [ [ [ 132.506896899999987, 34.4031906 ], [ 132.504142, 34.4043541 ], [ 132.4958408, 34.3953244 ], [ 132.4997208, 34.38931 ], [ 132.5014008, 34.3760303 ], [ 132.5162178, 34.3750322 ], [ 132.5148997, 34.3780219 ], [ 132.5235156, 34.3868247 ], [ 132.5277494, 34.3884131 ], [ 132.5283442, 34.3934933 ], [ 132.5355583, 34.4104933 ], [ 132.5407169, 34.4176683 ], [ 132.5311844, 34.4214914 ], [ 132.5172336, 34.4135275 ], [ 132.514342199999987, 34.4066822 ], [ 132.506896899999987, 34.4031906 ] ] ] ] } },
{ "type": "Feature", "properties": { "hokenjo": "西部東" }, "geometry": { "type": "MultiPolygon", "coordinates": [ [ [ [ 132.938718199999983, 34.2803086 ], [ 132.930939699999982, 34.2845964 ], [ 132.9260356, 34.2820183 ], [ 132.9194249, 34.2748257 ], [ 132.9079936, 34.2646669 ], [ 132.9036681, 34.2500406 ], [ 132.8987253, 34.2480008 ], [ 132.8918008, 34.2547178 ], [ 132.891291699999982, 34.26169 ], [ 132.886721699999981, 34.2616169 ], [ 132.8722278, 34.2478883 ], [ 132.864902500000028, 34.2483111 ], [ 132.857319599999983, 34.2401116 ], [ 132.8472778, 34.2442621 ], [ 132.8404889, 34.2401886 ], [ 132.8464375, 34.2349242 ], [ 132.8463937, 34.230053 ], [ 132.8405128, 34.2280453 ], [ 132.841973599999989, 34.2232769 ], [ 132.84897, 34.2143706 ], [ 132.8559664, 34.2081639 ], [ 132.8641675, 34.2064128 ], [ 132.8799764, 34.2060269 ], [ 132.893208499999986, 34.2123967 ], [ 132.906565799999981, 34.21426 ], [ 132.914068499999985, 34.2115102 ], [ 132.9180284, 34.2169049 ], [ 132.916403699999989, 34.2240404 ], [ 132.9167233, 34.2339419 ], [ 132.929249699999986, 34.2472772 ], [ 132.9327083, 34.2542853 ], [ 132.9384411, 34.2727753 ], [ 132.938718199999983, 34.2803086 ] ] ], [ [ [ 132.803251, 34.2685554 ], [ 132.81121779999998, 34.275779 ], [ 132.806088599999981, 34.281467299999989 ], [ 132.79250159999998, 34.2765856 ], [ 132.791582299999988, 34.2716739 ], [ 132.803251, 34.2685554 ] ] ], [ [ [ 132.917841399999986, 34.2905317 ], [ 132.9141367, 34.2942833 ], [ 132.9156725, 34.3001947 ], [ 132.9074331, 34.2947172 ], [ 132.907290599999982, 34.2875847 ], [ 132.9137522, 34.2844772 ], [ 132.9151525, 34.2801858 ], [ 132.9251119, 34.2854533 ], [ 132.9262831, 34.2946211 ], [ 132.917841399999986, 34.2905317 ] ] ], [ [ [ 132.998915899999986, 34.3078276 ], [ 132.9949867, 34.312931 ], [ 132.989102299999985, 34.315911799999988 ], [ 132.9901433, 34.3068477 ], [ 132.994429200000013, 34.3050075 ], [ 132.998915899999986, 34.3078276 ] ] ], [ [ [ 132.9488278, 34.3159741 ], [ 132.9428494, 34.3236835 ], [ 132.937151699999987, 34.3245327 ], [ 132.946527, 34.3104382 ], [ 132.9488278, 34.3159741 ] ] ], [ [ [ 132.907465799999983, 34.4158361 ], [ 132.9040383, 34.4293297 ], [ 132.897027799999989, 34.4282175 ], [ 132.893761399999988, 34.4346453 ], [ 132.8956633, 34.4384969 ], [ 132.9028711, 34.4430425 ], [ 132.9021381, 34.4480447 ], [ 132.8896878, 34.4626381 ], [ 132.8987622, 34.4653419 ], [ 132.9047133, 34.4597603 ], [ 132.9124539, 34.4600475 ], [ 132.9159261, 34.4577919 ], [ 132.920870799999989, 34.4674006 ], [ 132.919263299999983, 34.4708731 ], [ 132.9120892, 34.474955 ], [ 132.9115356, 34.4851325 ], [ 132.905606399999982, 34.4834383 ], [ 132.8940283, 34.5023028 ], [ 132.894440299999985, 34.5070317 ], [ 132.8860947, 34.5184331 ], [ 132.867705299999983, 34.5200772 ], [ 132.8564103, 34.5243339 ], [ 132.8511719, 34.5448392 ], [ 132.8534311, 34.5500233 ], [ 132.859814199999988, 34.5469136 ], [ 132.8645861, 34.5501644 ], [ 132.8724369, 34.5507831 ], [ 132.879220799999985, 34.5538517 ], [ 132.88430169999998, 34.5590406 ], [ 132.880709699999983, 34.565250299999988 ], [ 132.8790922, 34.5746328 ], [ 132.886443899999989, 34.5750353 ], [ 132.8960131, 34.5830992 ], [ 132.893633599999987, 34.5951456 ], [ 132.8870886, 34.5979981 ], [ 132.881252499999988, 34.6056492 ], [ 132.8848658, 34.6107908 ], [ 132.876297500000021, 34.6140478 ], [ 132.8706369, 34.6139028 ], [ 132.8636764, 34.6105739 ], [ 132.8588264, 34.6136258 ], [ 132.85168, 34.6102683 ], [ 132.8452878, 34.6106417 ], [ 132.845443099999983, 34.6062969 ], [ 132.834996099999984, 34.6063006 ], [ 132.827705, 34.6100511 ], [ 132.8215586, 34.6160061 ], [ 132.8154094, 34.6172792 ], [ 132.8091947, 34.6225758 ], [ 132.798093599999987, 34.6216036 ], [ 132.7931611, 34.6153869 ], [ 132.79241829999998, 34.6068497 ], [ 132.7842633, 34.5972122 ], [ 132.785084400000017, 34.5833111 ], [ 132.771997199999987, 34.5758244 ], [ 132.763034399999981, 34.5761056 ], [ 132.754464700000028, 34.5745881 ], [ 132.7474494, 34.5710158 ], [ 132.74601, 34.565865 ], [ 132.735875599999986, 34.5575036 ], [ 132.7265267, 34.5582322 ], [ 132.724191099999985, 34.5545586 ], [ 132.715425, 34.5531342 ], [ 132.7109567, 34.5547175 ], [ 132.7046531, 34.5475897 ], [ 132.70504889999998, 34.5434481 ], [ 132.700228899999985, 34.5363431 ], [ 132.6960978, 34.5358267 ], [ 132.6931325, 34.5293842 ], [ 132.6842206, 34.5268067 ], [ 132.673694399999988, 34.5304308 ], [ 132.665376399999985, 34.5315467 ], [ 132.6629431, 34.5265433 ], [ 132.6559556, 34.5233711 ], [ 132.649133299999988, 34.5146119 ], [ 132.6443928, 34.5052869 ], [ 132.633428, 34.5070394 ], [ 132.6283048, 34.4982991 ], [ 132.6186597, 34.4907833 ], [ 132.609162, 34.4902925 ], [ 132.6030312, 34.4871667 ], [ 132.601036599999986, 34.4834472 ], [ 132.6068467, 34.4810481 ], [ 132.6060039, 34.4717458 ], [ 132.6025208, 34.46806 ], [ 132.60052109999998, 34.4572828 ], [ 132.607919399999986, 34.4565472 ], [ 132.6139628, 34.4512453 ], [ 132.6154425, 34.4465181 ], [ 132.6240233, 34.4462689 ], [ 132.633246899999989, 34.450025 ], [ 132.6357281, 34.4433558 ], [ 132.6415108, 34.4419683 ], [ 132.647496099999984, 34.4375994 ], [ 132.654622499999988, 34.4434758 ], [ 132.663511699999987, 34.437469199999988 ], [ 132.666071099999982, 34.4276156 ], [ 132.6597844, 34.4232808 ], [ 132.6521567, 34.4223422 ], [ 132.644342199999983, 34.4130986 ], [ 132.640365299999985, 34.3990561 ], [ 132.646455799999984, 34.3959267 ], [ 132.6443078, 34.3887622 ], [ 132.64933, 34.3835861 ], [ 132.6501106, 34.3765183 ], [ 132.6536233, 34.3687444 ], [ 132.651041099999986, 34.3647117 ], [ 132.6442008, 34.3617242 ], [ 132.6427764, 34.3532869 ], [ 132.627506399999987, 34.3531578 ], [ 132.623973899999982, 34.3541892 ], [ 132.608233899999988, 34.3421356 ], [ 132.613187499999981, 34.3289086 ], [ 132.612328599999984, 34.3250775 ], [ 132.6056008, 34.3220325 ], [ 132.606826399999989, 34.3167056 ], [ 132.6215086, 34.3125897 ], [ 132.6295964, 34.3113781 ], [ 132.639496899999983, 34.3150469 ], [ 132.6450211, 34.3098986 ], [ 132.649654699999985, 34.3113125 ], [ 132.6601128, 34.2931378 ], [ 132.6640414, 34.2883933 ], [ 132.6778361, 34.2983792 ], [ 132.6906792, 34.3028017 ], [ 132.703841399999988, 34.3132178 ], [ 132.7144697, 34.3080394 ], [ 132.7268167, 34.322105 ], [ 132.7399078, 34.3267775 ], [ 132.742599399999989, 34.3306075 ], [ 132.752088900000018, 34.3332022 ], [ 132.7546958, 34.3293078 ], [ 132.7561672, 34.32 ], [ 132.755797200000018, 34.3077633 ], [ 132.7618108, 34.299575 ], [ 132.7593094, 34.29608 ], [ 132.7706331, 34.2868272 ], [ 132.775055, 34.2882036 ], [ 132.7810153, 34.2860875 ], [ 132.7808781, 34.2813369 ], [ 132.7851995, 34.276986799999989 ], [ 132.7886494, 34.2794797 ], [ 132.7872582, 34.2861675 ], [ 132.7908478, 34.2927243 ], [ 132.7951792, 34.2960185 ], [ 132.7967502, 34.3044161 ], [ 132.8019324, 34.3089104 ], [ 132.812613100000021, 34.3124131 ], [ 132.819591299999985, 34.3170701 ], [ 132.8276349, 34.316276 ], [ 132.8364628, 34.3118543 ], [ 132.8347657, 34.3047349 ], [ 132.8468001, 34.2971171 ], [ 132.850730199999987, 34.2921909 ], [ 132.8545828, 34.2965544 ], [ 132.8621795, 34.2977142 ], [ 132.8682612, 34.3051054 ], [ 132.875047199999983, 34.3074976 ], [ 132.868884399999985, 34.3117747 ], [ 132.874180599999988, 34.3147829 ], [ 132.8839557, 34.3156345 ], [ 132.8871485, 34.3223495 ], [ 132.893612, 34.326515 ], [ 132.899995499999989, 34.3259291 ], [ 132.9112323, 34.3278287 ], [ 132.9161667, 34.3325409 ], [ 132.919931599999984, 34.3256729 ], [ 132.9307646, 34.3263442 ], [ 132.9447932, 34.3361813 ], [ 132.953364099999988, 34.336954 ], [ 132.9627318, 34.3347292 ], [ 132.9646363, 34.3369741 ], [ 132.983115, 34.3312043 ], [ 132.98990569999998, 34.3327713 ], [ 132.994483299999985, 34.3375025 ], [ 133.001628899999986, 34.3348545 ], [ 133.0058167, 34.3301245 ], [ 133.0106395, 34.3291421 ], [ 133.0086442, 34.3337717 ], [ 133.0114503, 34.3395308 ], [ 133.009829199999984, 34.3441203 ], [ 133.0024506, 34.3494683 ], [ 132.99398560000003, 34.3492083 ], [ 132.9899489, 34.3518539 ], [ 132.9853819, 34.3467697 ], [ 132.979479699999985, 34.3480514 ], [ 132.9607906, 34.3567506 ], [ 132.950265799999983, 34.3520114 ], [ 132.9462044, 34.3564356 ], [ 132.940221399999984, 34.3574247 ], [ 132.940492799999987, 34.3735822 ], [ 132.93197, 34.3819542 ], [ 132.927134199999983, 34.3819431 ], [ 132.9226261, 34.3867736 ], [ 132.916913599999987, 34.384895 ], [ 132.9112969, 34.3866925 ], [ 132.9130558, 34.3918131 ], [ 132.904817799999989, 34.3987825 ], [ 132.908247499999987, 34.4054697 ], [ 132.907465799999983, 34.4158361 ] ] ] ] } },
{ "type": "Feature", "properties": { "hokenjo": "東部" }, "geometry": { "type": "MultiPolygon", "coordinates": [ [ [ [ 133.146400699999987, 34.2874213 ], [ 133.149071100000015, 34.3010938 ], [ 133.1408954, 34.3146535 ], [ 133.133440399999984, 34.3168918 ], [ 133.1257441, 34.3150964 ], [ 133.117914399999989, 34.3104392 ], [ 133.1082472, 34.3105713 ], [ 133.1019222, 34.3074407 ], [ 133.0959982, 34.3070381 ], [ 133.0953347, 34.3130939 ], [ 133.089074899999986, 34.312939 ], [ 133.084161, 34.3083518 ], [ 133.0838431, 34.3032113 ], [ 133.073653799999988, 34.2864221 ], [ 133.072072, 34.2787754 ], [ 133.068200599999983, 34.2735907 ], [ 133.0673636, 34.2662447 ], [ 133.072655, 34.2599367 ], [ 133.0824536, 34.2559951 ], [ 133.1018512, 34.2606531 ], [ 133.103577699999988, 34.263811499999989 ], [ 133.112401899999981, 34.2664846 ], [ 133.1138521, 34.2721278 ], [ 133.125133399999982, 34.2786997 ], [ 133.1340677, 34.280028 ], [ 133.134977599999985, 34.2826339 ], [ 133.146400699999987, 34.2874213 ] ] ], [ [ [ 133.0871457, 34.3132617 ], [ 133.0829774, 34.3217848 ], [ 133.082471, 34.3280001 ], [ 133.0786804, 34.3330899 ], [ 133.0719846, 34.3310581 ], [ 133.0662376, 34.3258575 ], [ 133.0619135, 34.3146553 ], [ 133.0628073, 34.3078412 ], [ 133.069235599999985, 34.3026001 ], [ 133.076544899999988, 34.301388599999989 ], [ 133.0817949, 34.3034838 ], [ 133.0828127, 34.3098115 ], [ 133.0871457, 34.3132617 ] ] ], [ [ [ 133.1248156, 34.3309537 ], [ 133.1265477, 34.3376471 ], [ 133.1224818, 34.353247 ], [ 133.112213199999985, 34.3601618 ], [ 133.1045627, 34.3572379 ], [ 133.1044914, 34.3472211 ], [ 133.098949, 34.3386533 ], [ 133.099222199999986, 34.3280525 ], [ 133.0960078, 34.3236436 ], [ 133.1039907, 34.3222937 ], [ 133.1100839, 34.3172017 ], [ 133.1158247, 34.3193378 ], [ 133.1248156, 34.3309537 ] ] ], [ [ [ 133.1071502, 34.3682136 ], [ 133.098973199999989, 34.3627727 ], [ 133.1064486, 34.36187 ], [ 133.1071502, 34.3682136 ] ] ], [ [ [ 133.137707399999982, 34.3673462 ], [ 133.138746199999986, 34.3626486 ], [ 133.1449548, 34.3632291 ], [ 133.1455846, 34.3708652 ], [ 133.137707399999982, 34.3673462 ] ] ], [ [ [ 133.009829199999984, 34.3441203 ], [ 133.0114503, 34.3395308 ], [ 133.0086442, 34.3337717 ], [ 133.0106395, 34.3291421 ], [ 133.0304176, 34.332749899999989 ], [ 133.0402382, 34.3316701 ], [ 133.045209199999988, 34.3340885 ], [ 133.051686, 34.3422907 ], [ 133.0598238, 34.3451526 ], [ 133.07348349999998, 34.3431464 ], [ 133.078941499999985, 34.3453808 ], [ 133.081212599999986, 34.3493502 ], [ 133.0837314, 34.365541 ], [ 133.093040699999989, 34.388961 ], [ 133.0986359, 34.3902026 ], [ 133.106924599999985, 34.3892259 ], [ 133.117332600000026, 34.3831193 ], [ 133.1275177, 34.382567 ], [ 133.139297199999987, 34.389062 ], [ 133.15386, 34.3946809 ], [ 133.1687282, 34.3961897 ], [ 133.187907199999984, 34.4010306 ], [ 133.2095153, 34.4106273 ], [ 133.2204591, 34.4090425 ], [ 133.2325765, 34.4116098 ], [ 133.2382466, 34.4213068 ], [ 133.244580899999988, 34.423404 ], [ 133.2390306, 34.4408467 ], [ 133.2351878, 34.4437125 ], [ 133.2288461, 34.4434228 ], [ 133.22642, 34.4477111 ], [ 133.2371875, 34.4470983 ], [ 133.2400556, 34.4550044 ], [ 133.2352522, 34.4594906 ], [ 133.2293311, 34.4554439 ], [ 133.2164181, 34.4632006 ], [ 133.2106842, 34.4704181 ], [ 133.217644399999983, 34.475690799999988 ], [ 133.2205864, 34.4737419 ], [ 133.228229699999986, 34.4766756 ], [ 133.227398099999988, 34.4834372 ], [ 133.2313033, 34.4898664 ], [ 133.2353156, 34.4923403 ], [ 133.2329289, 34.4972333 ], [ 133.2390781, 34.5049911 ], [ 133.2394294, 34.5108025 ], [ 133.235073299999982, 34.5141322 ], [ 133.2279781, 34.5143769 ], [ 133.2189464, 34.5086278 ], [ 133.213982499999986, 34.5088792 ], [ 133.2114597, 34.5185378 ], [ 133.2190381, 34.5243922 ], [ 133.221316699999988, 34.5316717 ], [ 133.2272389, 34.5271831 ], [ 133.234929699999981, 34.5290672 ], [ 133.2397442, 34.5362189 ], [ 133.2463664, 34.5384389 ], [ 133.2509267, 34.5457833 ], [ 133.263191399999982, 34.5480772 ], [ 133.2699206, 34.5560094 ], [ 133.2627556, 34.5672064 ], [ 133.266580299999987, 34.569855 ], [ 133.2662556, 34.5760144 ], [ 133.2559231, 34.5842314 ], [ 133.247045, 34.5948694 ], [ 133.2391078, 34.5993953 ], [ 133.236550599999987, 34.6080256 ], [ 133.232384699999983, 34.6143136 ], [ 133.2355853, 34.6181003 ], [ 133.2359386, 34.6242178 ], [ 133.229701899999981, 34.6314261 ], [ 133.2358064, 34.6366125 ], [ 133.2358778, 34.6415269 ], [ 133.2404142, 34.6410486 ], [ 133.2465669, 34.6472292 ], [ 133.2514047, 34.6463997 ], [ 133.2548497, 34.6520658 ], [ 133.25936249999998, 34.6488117 ], [ 133.2644061, 34.6580444 ], [ 133.265017199999988, 34.66327 ], [ 133.2698411, 34.6659969 ], [ 133.276018599999986, 34.6660361 ], [ 133.285642199999984, 34.6634781 ], [ 133.291841399999981, 34.6569489 ], [ 133.2895489, 34.6479731 ], [ 133.295413900000028, 34.6440467 ], [ 133.29893389999998, 34.6466267 ], [ 133.304602499999987, 34.6442942 ], [ 133.3091492, 34.6379258 ], [ 133.313791899999984, 34.6365011 ], [ 133.318460300000027, 34.640145 ], [ 133.3171458, 34.6452806 ], [ 133.3195303, 34.6525831 ], [ 133.3287833, 34.6603858 ], [ 133.3336531, 34.6617053 ], [ 133.3397453, 34.669368299999988 ], [ 133.3363369, 34.6763039 ], [ 133.3384086, 34.6796128 ], [ 133.3456206, 34.6782219 ], [ 133.346404399999983, 34.6817681 ], [ 133.352441699999986, 34.6840928 ], [ 133.3567333, 34.6896986 ], [ 133.367901099999983, 34.6903175 ], [ 133.3667039, 34.7002578 ], [ 133.3602886, 34.7082272 ], [ 133.37058829999998, 34.7118186 ], [ 133.369131899999985, 34.7235536 ], [ 133.3614567, 34.7271286 ], [ 133.3608664, 34.7345267 ], [ 133.369357799999989, 34.7440767 ], [ 133.3659781, 34.75455 ], [ 133.36717969999998, 34.7611956 ], [ 133.36466, 34.7671142 ], [ 133.367375, 34.7743311 ], [ 133.3723836, 34.7800186 ], [ 133.3697967, 34.7897739 ], [ 133.377592199999981, 34.7970828 ], [ 133.3780858, 34.8083597 ], [ 133.3745075, 34.8139117 ], [ 133.368556399999989, 34.8148828 ], [ 133.367897199999987, 34.8190061 ], [ 133.358879699999989, 34.8196442 ], [ 133.3529864, 34.8306428 ], [ 133.3422297, 34.8302767 ], [ 133.3360911, 34.8347453 ], [ 133.3325906, 34.8407422 ], [ 133.3354233, 34.8445178 ], [ 133.3288636, 34.8530456 ], [ 133.3200386, 34.8527717 ], [ 133.3141861, 34.847671399999989 ], [ 133.299632799999983, 34.8478253 ], [ 133.289111099999985, 34.8537714 ], [ 133.2842939, 34.8517711 ], [ 133.277792799999986, 34.8539142 ], [ 133.273089699999986, 34.8513378 ], [ 133.2773147, 34.8472425 ], [ 133.2727453, 34.8384181 ], [ 133.2742508, 34.8353192 ], [ 133.2701267, 34.8308325 ], [ 133.2537767, 34.8250419 ], [ 133.2535944, 34.8221525 ], [ 133.245931100000035, 34.8196328 ], [ 133.2434714, 34.8138494 ], [ 133.23047, 34.8243806 ], [ 133.235386399999982, 34.8276378 ], [ 133.2346011, 34.8334567 ], [ 133.2296944, 34.8365358 ], [ 133.2249444, 34.8472553 ], [ 133.216503599999982, 34.8577081 ], [ 133.2102631, 34.86113 ], [ 133.1988208, 34.8523397 ], [ 133.1864625, 34.8519722 ], [ 133.1760864, 34.8488744 ], [ 133.1667692, 34.853755 ], [ 133.1626994, 34.8537028 ], [ 133.15696, 34.8452908 ], [ 133.1489378, 34.8406933 ], [ 133.14233, 34.8390592 ], [ 133.1422703, 34.8293544 ], [ 133.1349617, 34.8239486 ], [ 133.1395522, 34.8146914 ], [ 133.1450097, 34.8098953 ], [ 133.1413408, 34.8039953 ], [ 133.138028100000014, 34.7864386 ], [ 133.148318099999983, 34.7827964 ], [ 133.160552199999984, 34.7743244 ], [ 133.1680092, 34.7660958 ], [ 133.1657753, 34.7547617 ], [ 133.1598817, 34.7574444 ], [ 133.149385599999988, 34.7540694 ], [ 133.135673300000036, 34.7556625 ], [ 133.1197656, 34.7404144 ], [ 133.1179419, 34.7349781 ], [ 133.1051553, 34.7347947 ], [ 133.1000525, 34.7289492 ], [ 133.0981486, 34.7194169 ], [ 133.1020078, 34.7110289 ], [ 133.096769199999983, 34.7035478 ], [ 133.0980372, 34.6976236 ], [ 133.1016069, 34.69324 ], [ 133.096640799999989, 34.6899869 ], [ 133.0913592, 34.6825819 ], [ 133.0917739, 34.6786461 ], [ 133.0859878, 34.6761389 ], [ 133.08353169999998, 34.6681761 ], [ 133.0858542, 34.6626708 ], [ 133.0776914, 34.6571428 ], [ 133.0728603, 34.657665 ], [ 133.0621525, 34.6521367 ], [ 133.0602106, 34.6589803 ], [ 133.048465599999986, 34.6575353 ], [ 133.04634919999998, 34.6609747 ], [ 133.0316067, 34.6697492 ], [ 133.020711399999982, 34.6732556 ], [ 133.0184219, 34.6786269 ], [ 132.9998075, 34.67763 ], [ 132.9963794, 34.6754719 ], [ 132.985204399999986, 34.6771153 ], [ 132.982475, 34.669105 ], [ 132.9766617, 34.6694042 ], [ 132.9694678, 34.6649228 ], [ 132.970810799999981, 34.6609078 ], [ 132.966889399999985, 34.6572839 ], [ 132.958986899999985, 34.6593711 ], [ 132.9535356, 34.6549742 ], [ 132.94507, 34.6572439 ], [ 132.9475072, 34.6603369 ], [ 132.9405408, 34.6641244 ], [ 132.9433517, 34.66948 ], [ 132.9403797, 34.6725869 ], [ 132.9383997, 34.6823939 ], [ 132.934304699999984, 34.6821406 ], [ 132.923557499999987, 34.6777133 ], [ 132.8963281, 34.6842553 ], [ 132.890734399999985, 34.6835392 ], [ 132.8894781, 34.6748858 ], [ 132.883823899999982, 34.6675261 ], [ 132.87825, 34.6640831 ], [ 132.8791233, 34.6498469 ], [ 132.872518899999989, 34.6465514 ], [ 132.872095, 34.637095 ], [ 132.8772769, 34.6338708 ], [ 132.8710008, 34.620333599999988 ], [ 132.876297500000021, 34.6140478 ], [ 132.8848658, 34.6107908 ], [ 132.881252499999988, 34.6056492 ], [ 132.8870886, 34.5979981 ], [ 132.893633599999987, 34.5951456 ], [ 132.8960131, 34.5830992 ], [ 132.886443899999989, 34.5750353 ], [ 132.8790922, 34.5746328 ], [ 132.880709699999983, 34.565250299999988 ], [ 132.88430169999998, 34.5590406 ], [ 132.879220799999985, 34.5538517 ], [ 132.8724369, 34.5507831 ], [ 132.8645861, 34.5501644 ], [ 132.859814199999988, 34.5469136 ], [ 132.8534311, 34.5500233 ], [ 132.8511719, 34.5448392 ], [ 132.8564103, 34.5243339 ], [ 132.867705299999983, 34.5200772 ], [ 132.8860947, 34.5184331 ], [ 132.894440299999985, 34.5070317 ], [ 132.8940283, 34.5023028 ], [ 132.905606399999982, 34.4834383 ], [ 132.9115356, 34.4851325 ], [ 132.9120892, 34.474955 ], [ 132.919263299999983, 34.4708731 ], [ 132.920870799999989, 34.4674006 ], [ 132.9159261, 34.4577919 ], [ 132.9124539, 34.4600475 ], [ 132.9047133, 34.4597603 ], [ 132.8987622, 34.4653419 ], [ 132.8896878, 34.4626381 ], [ 132.9021381, 34.4480447 ], [ 132.9028711, 34.4430425 ], [ 132.8956633, 34.4384969 ], [ 132.893761399999988, 34.4346453 ], [ 132.897027799999989, 34.4282175 ], [ 132.9040383, 34.4293297 ], [ 132.907465799999983, 34.4158361 ], [ 132.908247499999987, 34.4054697 ], [ 132.904817799999989, 34.3987825 ], [ 132.9130558, 34.3918131 ], [ 132.9112969, 34.3866925 ], [ 132.916913599999987, 34.384895 ], [ 132.9226261, 34.3867736 ], [ 132.927134199999983, 34.3819431 ], [ 132.93197, 34.3819542 ], [ 132.940492799999987, 34.3735822 ], [ 132.940221399999984, 34.3574247 ], [ 132.9462044, 34.3564356 ], [ 132.950265799999983, 34.3520114 ], [ 132.9607906, 34.3567506 ], [ 132.979479699999985, 34.3480514 ], [ 132.9853819, 34.3467697 ], [ 132.9899489, 34.3518539 ], [ 132.99398560000003, 34.3492083 ], [ 133.0024506, 34.3494683 ], [ 133.009829199999984, 34.3441203 ] ] ], [ [ [ 133.173398099999986, 34.3576666 ], [ 133.1627981, 34.358093 ], [ 133.1559229, 34.3567547 ], [ 133.151711899999981, 34.3585906 ], [ 133.147605, 34.3578621 ], [ 133.148265, 34.3492603 ], [ 133.1378906, 34.3436523 ], [ 133.134009099999986, 34.3331337 ], [ 133.134513699999985, 34.3288754 ], [ 133.1412809, 34.326239 ], [ 133.1489483, 34.3146275 ], [ 133.151974599999988, 34.3056883 ], [ 133.155952499999984, 34.2991029 ], [ 133.174022899999983, 34.2923368 ], [ 133.1806061, 34.2806567 ], [ 133.191488199999981, 34.2749334 ], [ 133.1993823, 34.2794603 ], [ 133.196256399999982, 34.2859848 ], [ 133.204867899999982, 34.2915091 ], [ 133.2034492, 34.2959186 ], [ 133.194558199999989, 34.2975582 ], [ 133.1933765, 34.2998887 ], [ 133.1986771, 34.3077316 ], [ 133.2108639, 34.3139114 ], [ 133.21050409999998, 34.3186527 ], [ 133.203497699999986, 34.3192307 ], [ 133.20369359999998, 34.3231263 ], [ 133.1981444, 34.3302949 ], [ 133.1961058, 34.3382354 ], [ 133.188903399999987, 34.3357647 ], [ 133.176599, 34.3437641 ], [ 133.173398099999986, 34.3576666 ] ] ], [ [ [ 133.276830599999982, 34.3699981 ], [ 133.2794314, 34.3802422 ], [ 133.273053799999985, 34.3784067 ], [ 133.2609591, 34.3844336 ], [ 133.2574469, 34.3787669 ], [ 133.2640075, 34.3654447 ], [ 133.271514199999984, 34.3652031 ], [ 133.276830599999982, 34.3699981 ] ] ], [ [ [ 133.238072499999987, 34.37486 ], [ 133.244331099999982, 34.3708839 ], [ 133.2464775, 34.3750025 ], [ 133.2416667, 34.3796702 ], [ 133.238072499999987, 34.37486 ] ] ], [ [ [ 133.1726569, 34.3739258 ], [ 133.172246299999983, 34.3807034 ], [ 133.1677386, 34.3871909 ], [ 133.1623189, 34.3915045 ], [ 133.153245199999986, 34.385941 ], [ 133.1560505, 34.3743383 ], [ 133.1629857, 34.3758271 ], [ 133.1726569, 34.3739258 ] ] ], [ [ [ 133.2375802, 34.3994944 ], [ 133.235261899999983, 34.406590099999988 ], [ 133.2216242, 34.4065348 ], [ 133.2154806, 34.409089 ], [ 133.2003073, 34.4046569 ], [ 133.189959099999982, 34.3967424 ], [ 133.1775996, 34.3957149 ], [ 133.1722723, 34.3927631 ], [ 133.16997809999998, 34.3871982 ], [ 133.1740735, 34.3807336 ], [ 133.1765055, 34.3709246 ], [ 133.174377099999987, 34.3664974 ], [ 133.181852, 34.3638467 ], [ 133.1836697, 34.3585433 ], [ 133.189373, 34.3570347 ], [ 133.194203499999986, 34.3595716 ], [ 133.2000062, 34.3586679 ], [ 133.2125984, 34.3632234 ], [ 133.2178352, 34.3702206 ], [ 133.217854, 34.376636 ], [ 133.221315800000013, 34.3825016 ], [ 133.2369468, 34.3913525 ], [ 133.2375802, 34.3994944 ] ] ], [ [ [ 133.285517199999987, 34.3897714 ], [ 133.2844897, 34.3865992 ], [ 133.284798099999989, 34.3871081 ], [ 133.285322799999989, 34.3879436 ], [ 133.296568899999983, 34.3984764 ], [ 133.2891608, 34.4119072 ], [ 133.2729467, 34.4135386 ], [ 133.2720558, 34.4066133 ], [ 133.2670133, 34.4035906 ], [ 133.260195, 34.4038569 ], [ 133.2555786, 34.4004078 ], [ 133.2452456, 34.3981697 ], [ 133.244507199999987, 34.3910939 ], [ 133.2553744, 34.3888792 ], [ 133.2627537, 34.394604 ], [ 133.2708231, 34.3917817 ], [ 133.2762626, 34.3947275 ], [ 133.285517199999987, 34.3897714 ] ] ] ] } },
{ "type": "Feature", "properties": { "hokenjo": "福山市" }, "geometry": { "type": "MultiPolygon", "coordinates": [ [ [ [ 133.4418131, 34.3478199 ], [ 133.4362516, 34.3511552 ], [ 133.430717099999981, 34.349167 ], [ 133.427715, 34.3445271 ], [ 133.430383899999981, 34.3391569 ], [ 133.4367411, 34.3389174 ], [ 133.4463711, 34.3358358 ], [ 133.4487311, 34.3396687 ], [ 133.4418131, 34.3478199 ] ] ], [ [ [ 133.2851102, 34.3378805 ], [ 133.2866103, 34.3576616 ], [ 133.2722958, 34.3527245 ], [ 133.2636578, 34.3475599 ], [ 133.268780199999981, 34.3337947 ], [ 133.279055199999988, 34.335169 ], [ 133.2851102, 34.3378805 ] ] ], [ [ [ 133.323735199999987, 34.3614007 ], [ 133.318693199999984, 34.3727521 ], [ 133.30161529999998, 34.3679297 ], [ 133.296378799999985, 34.3644546 ], [ 133.288817599999987, 34.3559876 ], [ 133.292380899999984, 34.3532835 ], [ 133.2963581, 34.3446621 ], [ 133.3019266, 34.3423998 ], [ 133.321223, 34.3536697 ], [ 133.3349079, 34.3550724 ], [ 133.342501699999985, 34.3696657 ], [ 133.3335501, 34.3685324 ], [ 133.323735199999987, 34.3614007 ] ] ], [ [ [ 133.3979508, 34.3777867 ], [ 133.403432399999986, 34.3816041 ], [ 133.39922439999998, 34.3885453 ], [ 133.391, 34.3878108 ], [ 133.3904905, 34.3845636 ], [ 133.3979508, 34.3777867 ] ] ], [ [ [ 133.2891608, 34.4119072 ], [ 133.296568899999983, 34.3984764 ], [ 133.285322799999989, 34.3879436 ], [ 133.292477100000013, 34.382733 ], [ 133.3057197, 34.3875359 ], [ 133.3146854, 34.380967 ], [ 133.324219699999986, 34.3795139 ], [ 133.33487850000003, 34.3810178 ], [ 133.3470558, 34.3758325 ], [ 133.3515793, 34.3660094 ], [ 133.3584496, 34.3694035 ], [ 133.3668085, 34.368987 ], [ 133.3710385, 34.3742884 ], [ 133.3778695, 34.3774869 ], [ 133.3781581, 34.3821273 ], [ 133.3845682, 34.3842171 ], [ 133.3804896, 34.3916752 ], [ 133.3820648, 34.4078044 ], [ 133.3854374, 34.4204622 ], [ 133.391339499999987, 34.4219266 ], [ 133.3964044, 34.4269797 ], [ 133.4076839, 34.4285158 ], [ 133.4046358, 34.4354328 ], [ 133.413037799999984, 34.4362774 ], [ 133.4313003, 34.4241019 ], [ 133.440508699999981, 34.4362559 ], [ 133.432958899999988, 34.4398436 ], [ 133.4351427, 34.4429767 ], [ 133.4213045, 34.4495814 ], [ 133.4081924, 34.4572468 ], [ 133.4064986, 34.4603658 ], [ 133.4113654, 34.4704971 ], [ 133.4085371, 34.4784606 ], [ 133.414745399999987, 34.4768466 ], [ 133.4144851, 34.4592652 ], [ 133.4179408, 34.4569524 ], [ 133.442712, 34.4451493 ], [ 133.445136599999984, 34.4465308 ], [ 133.445858800000025, 34.4719838 ], [ 133.4428341, 34.4795224 ], [ 133.449036399999983, 34.4858717 ], [ 133.4488006, 34.48855 ], [ 133.4554389, 34.4949014 ], [ 133.456389699999988, 34.5001042 ], [ 133.453374699999983, 34.506735 ], [ 133.4449433, 34.5058861 ], [ 133.4491611, 34.5132019 ], [ 133.447272199999986, 34.519398599999988 ], [ 133.4503714, 34.5267436 ], [ 133.4539297, 34.5301664 ], [ 133.4496653, 34.5386036 ], [ 133.4460297, 34.5564336 ], [ 133.4403494, 34.5593408 ], [ 133.4350772, 34.5657728 ], [ 133.4267328, 34.5691447 ], [ 133.4275539, 34.5716933 ], [ 133.42313249999998, 34.5786597 ], [ 133.4231692, 34.5855439 ], [ 133.412720299999989, 34.5869153 ], [ 133.40578, 34.589285 ], [ 133.3970061, 34.594884199999989 ], [ 133.39586079999998, 34.6053458 ], [ 133.3847728, 34.6167578 ], [ 133.3849764, 34.6253686 ], [ 133.3919156, 34.6311339 ], [ 133.387190299999986, 34.6363819 ], [ 133.388483899999983, 34.6434311 ], [ 133.3917658, 34.6492878 ], [ 133.396489699999989, 34.6520789 ], [ 133.3964272, 34.655873899999989 ], [ 133.4027869, 34.6670656 ], [ 133.4014106, 34.6740453 ], [ 133.385486899999989, 34.6775381 ], [ 133.3864106, 34.6853792 ], [ 133.382761099999982, 34.6901294 ], [ 133.3741747, 34.6953567 ], [ 133.3730831, 34.7079867 ], [ 133.37058829999998, 34.7118186 ], [ 133.3602886, 34.7082272 ], [ 133.3667039, 34.7002578 ], [ 133.367901099999983, 34.6903175 ], [ 133.3567333, 34.6896986 ], [ 133.352441699999986, 34.6840928 ], [ 133.346404399999983, 34.6817681 ], [ 133.3456206, 34.6782219 ], [ 133.3384086, 34.6796128 ], [ 133.3363369, 34.6763039 ], [ 133.3397453, 34.669368299999988 ], [ 133.3336531, 34.6617053 ], [ 133.3287833, 34.6603858 ], [ 133.3195303, 34.6525831 ], [ 133.3171458, 34.6452806 ], [ 133.318460300000027, 34.640145 ], [ 133.313791899999984, 34.6365011 ], [ 133.3091492, 34.6379258 ], [ 133.304602499999987, 34.6442942 ], [ 133.29893389999998, 34.6466267 ], [ 133.295413900000028, 34.6440467 ], [ 133.2895489, 34.6479731 ], [ 133.291841399999981, 34.6569489 ], [ 133.285642199999984, 34.6634781 ], [ 133.276018599999986, 34.6660361 ], [ 133.2698411, 34.6659969 ], [ 133.265017199999988, 34.66327 ], [ 133.2644061, 34.6580444 ], [ 133.25936249999998, 34.6488117 ], [ 133.2548497, 34.6520658 ], [ 133.2514047, 34.6463997 ], [ 133.2465669, 34.6472292 ], [ 133.2404142, 34.6410486 ], [ 133.2358778, 34.6415269 ], [ 133.2358064, 34.6366125 ], [ 133.229701899999981, 34.6314261 ], [ 133.2359386, 34.6242178 ], [ 133.2355853, 34.6181003 ], [ 133.232384699999983, 34.6143136 ], [ 133.236550599999987, 34.6080256 ], [ 133.2391078, 34.5993953 ], [ 133.247045, 34.5948694 ], [ 133.2559231, 34.5842314 ], [ 133.2662556, 34.5760144 ], [ 133.266580299999987, 34.569855 ], [ 133.2627556, 34.5672064 ], [ 133.2699206, 34.5560094 ], [ 133.263191399999982, 34.5480772 ], [ 133.2509267, 34.5457833 ], [ 133.2463664, 34.5384389 ], [ 133.2397442, 34.5362189 ], [ 133.234929699999981, 34.5290672 ], [ 133.2272389, 34.5271831 ], [ 133.221316699999988, 34.5316717 ], [ 133.2190381, 34.5243922 ], [ 133.2114597, 34.5185378 ], [ 133.213982499999986, 34.5088792 ], [ 133.2189464, 34.5086278 ], [ 133.2279781, 34.5143769 ], [ 133.235073299999982, 34.5141322 ], [ 133.2394294, 34.5108025 ], [ 133.2390781, 34.5049911 ], [ 133.2329289, 34.4972333 ], [ 133.2353156, 34.4923403 ], [ 133.2313033, 34.4898664 ], [ 133.227398099999988, 34.4834372 ], [ 133.228229699999986, 34.4766756 ], [ 133.2205864, 34.4737419 ], [ 133.217644399999983, 34.475690799999988 ], [ 133.2106842, 34.4704181 ], [ 133.2164181, 34.4632006 ], [ 133.2293311, 34.4554439 ], [ 133.2352522, 34.4594906 ], [ 133.2400556, 34.4550044 ], [ 133.2371875, 34.4470983 ], [ 133.22642, 34.4477111 ], [ 133.2288461, 34.4434228 ], [ 133.2351878, 34.4437125 ], [ 133.2390306, 34.4408467 ], [ 133.244580899999988, 34.423404 ], [ 133.2421194, 34.4358898 ], [ 133.247197699999987, 34.4362934 ], [ 133.251436399999989, 34.4226884 ], [ 133.2555897, 34.4269249 ], [ 133.2516377, 34.4410965 ], [ 133.255837499999984, 34.4411159 ], [ 133.2574319, 34.4359688 ], [ 133.2703613, 34.4327116 ], [ 133.2695532, 34.4254276 ], [ 133.2738641, 34.4190015 ], [ 133.2729467, 34.4135386 ], [ 133.2891608, 34.4119072 ] ] ] ] } },
{ "type": "Feature", "properties": { "hokenjo": "北部" }, "geometry": { "type": "MultiPolygon", "coordinates": [ [ [ [ 133.1051553, 34.7347947 ], [ 133.1179419, 34.7349781 ], [ 133.1197656, 34.7404144 ], [ 133.135673300000036, 34.7556625 ], [ 133.149385599999988, 34.7540694 ], [ 133.1598817, 34.7574444 ], [ 133.1657753, 34.7547617 ], [ 133.1680092, 34.7660958 ], [ 133.160552199999984, 34.7743244 ], [ 133.148318099999983, 34.7827964 ], [ 133.138028100000014, 34.7864386 ], [ 133.1413408, 34.8039953 ], [ 133.1450097, 34.8098953 ], [ 133.1395522, 34.8146914 ], [ 133.1349617, 34.8239486 ], [ 133.1422703, 34.8293544 ], [ 133.14233, 34.8390592 ], [ 133.1489378, 34.8406933 ], [ 133.15696, 34.8452908 ], [ 133.1626994, 34.8537028 ], [ 133.1667692, 34.853755 ], [ 133.1760864, 34.8488744 ], [ 133.1864625, 34.8519722 ], [ 133.1988208, 34.8523397 ], [ 133.2102631, 34.86113 ], [ 133.216503599999982, 34.8577081 ], [ 133.2249444, 34.8472553 ], [ 133.2296944, 34.8365358 ], [ 133.2346011, 34.8334567 ], [ 133.235386399999982, 34.8276378 ], [ 133.23047, 34.8243806 ], [ 133.2434714, 34.8138494 ], [ 133.245931100000035, 34.8196328 ], [ 133.2535944, 34.8221525 ], [ 133.2537767, 34.8250419 ], [ 133.2701267, 34.8308325 ], [ 133.2742508, 34.8353192 ], [ 133.2727453, 34.8384181 ], [ 133.2773147, 34.8472425 ], [ 133.273089699999986, 34.8513378 ], [ 133.277792799999986, 34.8539142 ], [ 133.2842939, 34.8517711 ], [ 133.289111099999985, 34.8537714 ], [ 133.299632799999983, 34.8478253 ], [ 133.3141861, 34.847671399999989 ], [ 133.3200386, 34.8527717 ], [ 133.3288636, 34.8530456 ], [ 133.3311631, 34.8557708 ], [ 133.3231147, 34.8592725 ], [ 133.3240286, 34.8643558 ], [ 133.3168111, 34.8671781 ], [ 133.3143236, 34.8728208 ], [ 133.3094058, 34.8740428 ], [ 133.3056992, 34.8820619 ], [ 133.2980106, 34.8893394 ], [ 133.2957939, 34.9040083 ], [ 133.2975528, 34.9094744 ], [ 133.3029694, 34.9130844 ], [ 133.304631699999987, 34.9217169 ], [ 133.301873299999983, 34.9289136 ], [ 133.3094456, 34.937045 ], [ 133.3080258, 34.9410878 ], [ 133.298114699999985, 34.9529844 ], [ 133.2972617, 34.9560039 ], [ 133.3048925, 34.9649619 ], [ 133.303079199999985, 34.9720444 ], [ 133.310838099999984, 34.9746442 ], [ 133.3132769, 34.98007 ], [ 133.3195, 34.9831803 ], [ 133.3217258, 34.9879256 ], [ 133.3192225, 34.9983128 ], [ 133.3212111, 35.0036286 ], [ 133.315703899999988, 35.0124314 ], [ 133.3049983, 35.0151933 ], [ 133.3029981, 35.0206506 ], [ 133.296878099999986, 35.0247289 ], [ 133.2958425, 35.0294933 ], [ 133.2852361, 35.0406586 ], [ 133.2744667, 35.0449767 ], [ 133.26692749999998, 35.0524306 ], [ 133.2673203, 35.0600739 ], [ 133.2608136, 35.0634394 ], [ 133.2537853, 35.0752181 ], [ 133.2487822, 35.0786911 ], [ 133.2399347, 35.0790381 ], [ 133.2331931, 35.0751247 ], [ 133.2316022, 35.0694411 ], [ 133.2272289, 35.0681925 ], [ 133.2149042, 35.0738717 ], [ 133.1993872, 35.0725369 ], [ 133.186451399999982, 35.069920599999989 ], [ 133.179533599999985, 35.0672967 ], [ 133.1734461, 35.0691947 ], [ 133.16846, 35.0674378 ], [ 133.161259199999989, 35.0741358 ], [ 133.1582703, 35.0716464 ], [ 133.14201, 35.0647478 ], [ 133.136283099999986, 35.0695722 ], [ 133.1341506, 35.0762319 ], [ 133.1265722, 35.0768808 ], [ 133.1221694, 35.0839867 ], [ 133.111308899999983, 35.0855786 ], [ 133.1067803, 35.0823603 ], [ 133.096201899999983, 35.08539 ], [ 133.085388599999987, 35.0781844 ], [ 133.081338599999981, 35.0805978 ], [ 133.071485800000033, 35.0822386 ], [ 133.0599828, 35.0810964 ], [ 133.0523608, 35.0702289 ], [ 133.043425, 35.0676042 ], [ 133.033105799999987, 35.0682444 ], [ 133.0313764, 35.0728653 ], [ 133.0239133, 35.0777567 ], [ 133.016414199999986, 35.0784094 ], [ 133.0146244, 35.0876467 ], [ 133.003264699999988, 35.0929642 ], [ 133.0001119, 35.0971911 ], [ 132.9923086, 35.0983581 ], [ 132.9906964, 35.1013044 ], [ 132.982398099999983, 35.0975586 ], [ 132.9749567, 35.0831764 ], [ 132.9658069, 35.0797353 ], [ 132.947591099999983, 35.0757622 ], [ 132.933589399999988, 35.0839214 ], [ 132.9266136, 35.0811081 ], [ 132.9203972, 35.0838511 ], [ 132.9094778, 35.0862169 ], [ 132.897355, 35.1040606 ], [ 132.8885606, 35.1056831 ], [ 132.861297799999988, 35.0957589 ], [ 132.8583673, 35.0889433 ], [ 132.8459064, 35.0807742 ], [ 132.8392572, 35.0705428 ], [ 132.8314892, 35.0659708 ], [ 132.8278478, 35.061219699999988 ], [ 132.8379386, 35.0509317 ], [ 132.836770299999984, 35.0471022 ], [ 132.827434399999987, 35.0470853 ], [ 132.81371919999998, 35.0405517 ], [ 132.813320799999985, 35.0359364 ], [ 132.8088344, 35.0285603 ], [ 132.799026400000031, 35.0213725 ], [ 132.7931261, 35.0197422 ], [ 132.7870264, 35.013300799999989 ], [ 132.787850599999985, 35.0048958 ], [ 132.7813236, 35.00318 ], [ 132.7773244, 34.9988608 ], [ 132.7697958, 34.9975831 ], [ 132.7669933, 34.9911967 ], [ 132.7687033, 34.9839486 ], [ 132.755944199999988, 34.977275 ], [ 132.7532328, 34.9788694 ], [ 132.74513, 34.9768264 ], [ 132.751353099999989, 34.9698158 ], [ 132.7497219, 34.9602589 ], [ 132.7405994, 34.9567381 ], [ 132.7405378, 34.9610358 ], [ 132.7276817, 34.956445 ], [ 132.7274381, 34.9533525 ], [ 132.7203932, 34.9479937 ], [ 132.7144156, 34.9533753 ], [ 132.7064622, 34.9548731 ], [ 132.6850944, 34.9505575 ], [ 132.6759281, 34.9327742 ], [ 132.6670425, 34.9307975 ], [ 132.6608119, 34.9232619 ], [ 132.651158899999984, 34.9198558 ], [ 132.6471067, 34.9104442 ], [ 132.6428411, 34.9090072 ], [ 132.6412494, 34.9037744 ], [ 132.634029199999986, 34.9048042 ], [ 132.6373811, 34.8985764 ], [ 132.6512483, 34.9007039 ], [ 132.6578786, 34.8972417 ], [ 132.6593264, 34.8922167 ], [ 132.6640286, 34.8897483 ], [ 132.6745575, 34.8944275 ], [ 132.6787294, 34.8907125 ], [ 132.6815197, 34.8843497 ], [ 132.687725, 34.8846544 ], [ 132.699832499999985, 34.8822339 ], [ 132.7020908, 34.8798669 ], [ 132.706351399999988, 34.8622783 ], [ 132.7101353, 34.8582808 ], [ 132.710597799999988, 34.8498603 ], [ 132.7143156, 34.8450489 ], [ 132.7213544, 34.8423594 ], [ 132.7232386, 34.8336886 ], [ 132.7210394, 34.8300789 ], [ 132.7127011, 34.8278825 ], [ 132.6997175, 34.827385 ], [ 132.6953044, 34.8184981 ], [ 132.7037633, 34.8148275 ], [ 132.712764199999981, 34.8177986 ], [ 132.728533299999981, 34.8138569 ], [ 132.7481708, 34.8111642 ], [ 132.761890599999987, 34.8077878 ], [ 132.767451099999988, 34.8085611 ], [ 132.7814942, 34.8059672 ], [ 132.7779994, 34.7932169 ], [ 132.7787367, 34.7825986 ], [ 132.776191399999988, 34.7768869 ], [ 132.7779031, 34.7735447 ], [ 132.7712842, 34.7697386 ], [ 132.766168599999986, 34.7615944 ], [ 132.770656699999989, 34.7581511 ], [ 132.764895, 34.755372199999989 ], [ 132.7681844, 34.7490086 ], [ 132.778441099999981, 34.7505022 ], [ 132.7884133, 34.7426147 ], [ 132.7848008, 34.73994 ], [ 132.7828442, 34.7288519 ], [ 132.7733542, 34.7213681 ], [ 132.7729483, 34.71512 ], [ 132.769108300000028, 34.708735 ], [ 132.7697564, 34.7016014 ], [ 132.7763292, 34.6988414 ], [ 132.787483899999984, 34.6981939 ], [ 132.807045599999981, 34.6920433 ], [ 132.805605600000035, 34.6832119 ], [ 132.7992725, 34.678185 ], [ 132.8031111, 34.6718814 ], [ 132.7974317, 34.6698831 ], [ 132.78894, 34.6569617 ], [ 132.7817947, 34.6527162 ], [ 132.7826411, 34.6407244 ], [ 132.7906547, 34.6330819 ], [ 132.7971144, 34.6297275 ], [ 132.798093599999987, 34.6216036 ], [ 132.8091947, 34.6225758 ], [ 132.8154094, 34.6172792 ], [ 132.8215586, 34.6160061 ], [ 132.827705, 34.6100511 ], [ 132.834996099999984, 34.6063006 ], [ 132.845443099999983, 34.6062969 ], [ 132.8452878, 34.6106417 ], [ 132.85168, 34.6102683 ], [ 132.8588264, 34.6136258 ], [ 132.8636764, 34.6105739 ], [ 132.8706369, 34.6139028 ], [ 132.876297500000021, 34.6140478 ], [ 132.8710008, 34.620333599999988 ], [ 132.8772769, 34.6338708 ], [ 132.872095, 34.637095 ], [ 132.872518899999989, 34.6465514 ], [ 132.8791233, 34.6498469 ], [ 132.87825, 34.6640831 ], [ 132.883823899999982, 34.6675261 ], [ 132.8894781, 34.6748858 ], [ 132.890734399999985, 34.6835392 ], [ 132.8963281, 34.6842553 ], [ 132.923557499999987, 34.6777133 ], [ 132.934304699999984, 34.6821406 ], [ 132.9383997, 34.6823939 ], [ 132.9403797, 34.6725869 ], [ 132.9433517, 34.66948 ], [ 132.9405408, 34.6641244 ], [ 132.9475072, 34.6603369 ], [ 132.94507, 34.6572439 ], [ 132.9535356, 34.6549742 ], [ 132.958986899999985, 34.6593711 ], [ 132.966889399999985, 34.6572839 ], [ 132.970810799999981, 34.6609078 ], [ 132.9694678, 34.6649228 ], [ 132.9766617, 34.6694042 ], [ 132.982475, 34.669105 ], [ 132.985204399999986, 34.6771153 ], [ 132.9963794, 34.6754719 ], [ 132.9998075, 34.67763 ], [ 133.0184219, 34.6786269 ], [ 133.020711399999982, 34.6732556 ], [ 133.0316067, 34.6697492 ], [ 133.04634919999998, 34.6609747 ], [ 133.048465599999986, 34.6575353 ], [ 133.0602106, 34.6589803 ], [ 133.0621525, 34.6521367 ], [ 133.0728603, 34.657665 ], [ 133.0776914, 34.6571428 ], [ 133.0858542, 34.6626708 ], [ 133.08353169999998, 34.6681761 ], [ 133.0859878, 34.6761389 ], [ 133.0917739, 34.6786461 ], [ 133.0913592, 34.6825819 ], [ 133.096640799999989, 34.6899869 ], [ 133.1016069, 34.69324 ], [ 133.0980372, 34.6976236 ], [ 133.096769199999983, 34.7035478 ], [ 133.1020078, 34.7110289 ], [ 133.0981486, 34.7194169 ], [ 133.1000525, 34.7289492 ], [ 133.1051553, 34.7347947 ] ] ] ] } }
]
}
