{
"type": "FeatureCollection",
"name": "ishikawa",
"crs": { "type": "name", "properties": { "name": "urn:ogc:def:crs:OGC:1.3:CRS84" } },
"features": [
{ "type": "Feature", "properties": { "hokenjo": "金沢市" }, "geometry": { "type": "MultiPolygon", "coordinates": [ [ [ [ 136.786133899999982, 36.6296104 ], [ 136.779783, 36.6298723 ], [ 136.778362499999986, 36.6335723 ], [ 136.7730564, 36.6347473 ], [ 136.767921699999988, 36.6332356 ], [ 136.7552311, 36.6390792 ], [ 136.752771699999983, 36.6354642 ], [ 136.7430039, 36.6385956 ], [ 136.735030599999988, 36.6424728 ], [ 136.726340599999986, 36.643861099999988 ], [ 136.7153655, 36.6472414 ], [ 136.7104247, 36.6467176 ], [ 136.7033427, 36.6522867 ], [ 136.6897271, 36.6600423 ], [ 136.696636399999988, 36.6681064 ], [ 136.6859902, 36.67416 ], [ 136.6665892, 36.6520523 ], [ 136.653570299999984, 36.6440274 ], [ 136.632840499999986, 36.6255788 ], [ 136.6316185, 36.6281724 ], [ 136.624436, 36.6331977 ], [ 136.6182412, 36.6390467 ], [ 136.6133461, 36.639042599999989 ], [ 136.6035582, 36.628056199999989 ], [ 136.608508, 36.6249275 ], [ 136.606817299999989, 36.621677 ], [ 136.6004946, 36.6205434 ], [ 136.594321, 36.6140989 ], [ 136.5921955, 36.6154181 ], [ 136.586472200000031, 36.6092923 ], [ 136.588118899999984, 36.606258499999988 ], [ 136.585059799999982, 36.5982512 ], [ 136.5645393, 36.577202799999988 ], [ 136.5570644, 36.5677451 ], [ 136.569611399999985, 36.5619594 ], [ 136.5767397, 36.5628608 ], [ 136.580048, 36.5524655 ], [ 136.5908747, 36.5483505 ], [ 136.59225859999998, 36.5451491 ], [ 136.5945255, 36.5456319 ], [ 136.5945481, 36.5528441 ], [ 136.6007244, 36.5548747 ], [ 136.605136099999982, 36.5401819 ], [ 136.611280599999986, 36.5410404 ], [ 136.6119142, 36.5460541 ], [ 136.6171431, 36.5471266 ], [ 136.6220478, 36.5445583 ], [ 136.62483469999998, 36.5374664 ], [ 136.622044400000021, 36.5338197 ], [ 136.6295345, 36.5332955 ], [ 136.6308292, 36.5313719 ], [ 136.6283848, 36.5246481 ], [ 136.619926600000014, 36.5256694 ], [ 136.61534, 36.5232553 ], [ 136.6151063, 36.5100467 ], [ 136.6129621, 36.5043614 ], [ 136.613487099999986, 36.4966973 ], [ 136.619913800000035, 36.4961111 ], [ 136.629941299999984, 36.4896581 ], [ 136.6334077, 36.4851709 ], [ 136.643503, 36.48444 ], [ 136.6361579, 36.4753086 ], [ 136.640571199999982, 36.4699856 ], [ 136.6465526, 36.4681447 ], [ 136.645329, 36.4629661 ], [ 136.6480076, 36.4610667 ], [ 136.6503448, 36.4554853 ], [ 136.654413399999981, 36.4516403 ], [ 136.650140599999986, 36.4488803 ], [ 136.6486064, 36.4452876 ], [ 136.6500576, 36.4397403 ], [ 136.657061699999986, 36.440367 ], [ 136.6581301, 36.4355295 ], [ 136.6566339, 36.4264753 ], [ 136.6606272, 36.4182481 ], [ 136.665492199999989, 36.4167636 ], [ 136.6654833, 36.4116175 ], [ 136.662113, 36.4058997 ], [ 136.665708, 36.4034823 ], [ 136.6733578, 36.4028297 ], [ 136.6761572, 36.3992303 ], [ 136.6828166, 36.3968506 ], [ 136.689985799999988, 36.3895897 ], [ 136.7055564, 36.3921991 ], [ 136.71030159999998, 36.3913505 ], [ 136.7100136, 36.3808161 ], [ 136.710960199999988, 36.3781147 ], [ 136.7159302, 36.3768383 ], [ 136.7158808, 36.3715272 ], [ 136.720734099999987, 36.3687669 ], [ 136.7276904, 36.3686794 ], [ 136.741935399999988, 36.3624094 ], [ 136.747874, 36.3551327 ], [ 136.755554499999988, 36.3487796 ], [ 136.7590851, 36.3499624 ], [ 136.7700556, 36.3461254 ], [ 136.770795599999985, 36.339601 ], [ 136.7776086, 36.3382207 ], [ 136.7844691, 36.3422794 ], [ 136.7871869, 36.348263 ], [ 136.7952894, 36.3495405 ], [ 136.7966739, 36.3520472 ], [ 136.805971699999986, 36.3553999 ], [ 136.80819, 36.3586886 ], [ 136.80665639999998, 36.3632814 ], [ 136.8005937, 36.3693889 ], [ 136.8004846, 36.3806466 ], [ 136.798196499999989, 36.3841822 ], [ 136.795143, 36.4012639 ], [ 136.7788567, 36.4143714 ], [ 136.7712417, 36.4140339 ], [ 136.771647299999984, 36.4202494 ], [ 136.768527800000015, 36.4233261 ], [ 136.7694598, 36.4307117 ], [ 136.774378399999989, 36.4327267 ], [ 136.7781765, 36.4308825 ], [ 136.7863171, 36.4384167 ], [ 136.7952057, 36.4433992 ], [ 136.788994299999985, 36.449412 ], [ 136.789145400000024, 36.4545206 ], [ 136.7982819, 36.4618189 ], [ 136.795044099999984, 36.4640609 ], [ 136.7981849, 36.4688636 ], [ 136.7955505, 36.4748856 ], [ 136.799881699999986, 36.4830359 ], [ 136.802634399999988, 36.4847317 ], [ 136.8025161, 36.4903473 ], [ 136.798933399999981, 36.4903342 ], [ 136.794930599999986, 36.4963342 ], [ 136.7970906, 36.5019942 ], [ 136.7951062, 36.5108078 ], [ 136.8039626, 36.5225017 ], [ 136.8076509, 36.530538899999989 ], [ 136.812855399999989, 36.5380993 ], [ 136.8127065, 36.5408929 ], [ 136.81678789999998, 36.5484884 ], [ 136.8171146, 36.5527904 ], [ 136.811776, 36.560597 ], [ 136.8078424, 36.5620509 ], [ 136.8024441, 36.5687717 ], [ 136.7995291, 36.5699359 ], [ 136.792599599999988, 36.5683006 ], [ 136.7909338, 36.5698089 ], [ 136.7940044, 36.5766328 ], [ 136.7952908, 36.5833839 ], [ 136.7941658, 36.5898839 ], [ 136.788312499999989, 36.5930236 ], [ 136.7884539, 36.601983 ], [ 136.790665599999983, 36.604378 ], [ 136.7861006, 36.6088102 ], [ 136.7834646, 36.6151318 ], [ 136.7842297, 36.6270534 ], [ 136.786133899999982, 36.6296104 ] ] ] ] } },
{ "type": "Feature", "properties": { "hokenjo": "石川中央" }, "geometry": { "type": "MultiPolygon", "coordinates": [ [ [ [ 136.619913800000035, 36.4961111 ], [ 136.613487099999986, 36.4966973 ], [ 136.6129621, 36.5043614 ], [ 136.6151063, 36.5100467 ], [ 136.61534, 36.5232553 ], [ 136.619926600000014, 36.5256694 ], [ 136.6283848, 36.5246481 ], [ 136.6308292, 36.5313719 ], [ 136.6295345, 36.5332955 ], [ 136.622044400000021, 36.5338197 ], [ 136.62483469999998, 36.5374664 ], [ 136.6220478, 36.5445583 ], [ 136.6171431, 36.5471266 ], [ 136.6119142, 36.5460541 ], [ 136.611280599999986, 36.5410404 ], [ 136.605136099999982, 36.5401819 ], [ 136.6007244, 36.5548747 ], [ 136.5945481, 36.5528441 ], [ 136.5945255, 36.5456319 ], [ 136.59225859999998, 36.5451491 ], [ 136.5908747, 36.5483505 ], [ 136.580048, 36.5524655 ], [ 136.5767397, 36.5628608 ], [ 136.569611399999985, 36.5619594 ], [ 136.5570644, 36.5677451 ], [ 136.5519678, 36.5633265 ], [ 136.5321126, 36.5416481 ], [ 136.524498699999981, 36.5362777 ], [ 136.5259475, 36.5347236 ], [ 136.51366729999998, 36.5215008 ], [ 136.5110301, 36.5198764 ], [ 136.4925556, 36.5009969 ], [ 136.4873436, 36.4975479 ], [ 136.479461, 36.4901189 ], [ 136.4804015, 36.4882339 ], [ 136.472168, 36.4812109 ], [ 136.465102, 36.4717999 ], [ 136.4754553, 36.4657737 ], [ 136.4807222, 36.4682117 ], [ 136.4892236, 36.4795645 ], [ 136.4931617, 36.4820064 ], [ 136.5067709, 36.4776403 ], [ 136.518882, 36.4776798 ], [ 136.5249011, 36.4737728 ], [ 136.5321246, 36.4720483 ], [ 136.53761129999998, 36.475622 ], [ 136.5411781, 36.4757846 ], [ 136.5429801, 36.4818392 ], [ 136.5541939, 36.4794212 ], [ 136.5651231, 36.474132 ], [ 136.579945, 36.4679492 ], [ 136.5899078, 36.469237 ], [ 136.593800099999982, 36.4667478 ], [ 136.6012495, 36.458197 ], [ 136.6121092, 36.4556042 ], [ 136.619839499999983, 36.4496431 ], [ 136.622336499999989, 36.4428095 ], [ 136.631941899999987, 36.4375556 ], [ 136.6300072, 36.430539 ], [ 136.6262908, 36.4304051 ], [ 136.6228219, 36.4260115 ], [ 136.6208366, 36.4165487 ], [ 136.611595099999988, 36.4055265 ], [ 136.6055671, 36.4054029 ], [ 136.6027818, 36.4022201 ], [ 136.6012246, 36.3948151 ], [ 136.593173399999984, 36.3923749 ], [ 136.5906851, 36.3885804 ], [ 136.5826257, 36.3945776 ], [ 136.5784271, 36.3938754 ], [ 136.587628099999989, 36.3757966 ], [ 136.5868537, 36.3728713 ], [ 136.580792799999983, 36.3704343 ], [ 136.5803684, 36.3655501 ], [ 136.5767056, 36.3608396 ], [ 136.5807106, 36.3573259 ], [ 136.5793601, 36.3417509 ], [ 136.5694674, 36.3339917 ], [ 136.564691, 36.332787 ], [ 136.560090699999989, 36.33442 ], [ 136.558238499999987, 36.3310106 ], [ 136.559463199999982, 36.3272786 ], [ 136.5489618, 36.3210625 ], [ 136.5505693, 36.3188766 ], [ 136.552231899999981, 36.3092591 ], [ 136.555292399999985, 36.3073013 ], [ 136.5494291, 36.3008863 ], [ 136.5546958, 36.2963285 ], [ 136.554611599999987, 36.2937824 ], [ 136.549345499999987, 36.2874791 ], [ 136.550095699999986, 36.2834241 ], [ 136.555538, 36.2829832 ], [ 136.5572833, 36.2802757 ], [ 136.56343, 36.2837846 ], [ 136.5724089, 36.2843751 ], [ 136.5812573, 36.2805995 ], [ 136.5877104, 36.2791589 ], [ 136.5891723, 36.2764142 ], [ 136.5944312, 36.2740794 ], [ 136.5994068, 36.2640939 ], [ 136.603194299999984, 36.2621375 ], [ 136.6088911, 36.2628213 ], [ 136.612067699999983, 36.2600763 ], [ 136.606479899999982, 36.2565366 ], [ 136.6023314, 36.2488967 ], [ 136.603616099999982, 36.2459509 ], [ 136.599985, 36.2420289 ], [ 136.5979994, 36.2366001 ], [ 136.5992154, 36.2300643 ], [ 136.593698599999982, 36.2161371 ], [ 136.587220299999984, 36.2141191 ], [ 136.582871399999988, 36.2150416 ], [ 136.5674108, 36.2040521 ], [ 136.565666, 36.1964102 ], [ 136.5622246, 36.1932386 ], [ 136.557471199999981, 36.1841641 ], [ 136.5559189, 36.1779603 ], [ 136.5574134, 36.175703 ], [ 136.5499566, 36.1625483 ], [ 136.5518313, 36.1549081 ], [ 136.5600921, 36.1530148 ], [ 136.562851, 36.1463654 ], [ 136.5763246, 36.1422262 ], [ 136.581714299999987, 36.1363335 ], [ 136.584863399999989, 36.1359454 ], [ 136.590484799999984, 36.1312171 ], [ 136.595372, 36.1320711 ], [ 136.603408699999989, 36.1279447 ], [ 136.604429499999981, 36.1221817 ], [ 136.6122747, 36.1168197 ], [ 136.61143, 36.1127642 ], [ 136.614730899999984, 36.1083078 ], [ 136.6221703, 36.1064631 ], [ 136.6322634, 36.0994109 ], [ 136.642073399999987, 36.0980721 ], [ 136.6455075, 36.0947551 ], [ 136.651344699999981, 36.0922324 ], [ 136.6533545, 36.0864476 ], [ 136.6568184, 36.0845724 ], [ 136.654965299999986, 36.0777546 ], [ 136.6577456, 36.0744174 ], [ 136.6590211, 36.0689129 ], [ 136.662290499999983, 36.0676291 ], [ 136.674238299999985, 36.067228199999988 ], [ 136.6785175, 36.0705401 ], [ 136.695598599999983, 36.074444 ], [ 136.6990453, 36.0738784 ], [ 136.707105, 36.0795559 ], [ 136.7153256, 36.082065 ], [ 136.7247597, 36.0823484 ], [ 136.7324808, 36.0803756 ], [ 136.7388166, 36.0803886 ], [ 136.745298599999984, 36.0851453 ], [ 136.7547836, 36.0869447 ], [ 136.7539692, 36.090198 ], [ 136.7564059, 36.0949386 ], [ 136.7561781, 36.0991119 ], [ 136.765440899999987, 36.1059974 ], [ 136.770549599999981, 36.1157458 ], [ 136.769576299999983, 36.1177775 ], [ 136.772496099999984, 36.1261647 ], [ 136.7786197, 36.1295872 ], [ 136.780734699999982, 36.1413777 ], [ 136.775831399999987, 36.1439139 ], [ 136.775497600000023, 36.1477292 ], [ 136.7718279, 36.1550222 ], [ 136.773507099999989, 36.1572061 ], [ 136.765992, 36.1608761 ], [ 136.7684188, 36.16418 ], [ 136.7738751, 36.164243 ], [ 136.7773071, 36.1664194 ], [ 136.786442, 36.1661897 ], [ 136.7925995, 36.1705402 ], [ 136.7984073, 36.1725641 ], [ 136.800165099999987, 36.1770969 ], [ 136.7994364, 36.1813066 ], [ 136.802876199999986, 36.1879041 ], [ 136.8055492, 36.189031299999989 ], [ 136.810679199999981, 36.1961896 ], [ 136.8186689, 36.2010935 ], [ 136.82099359999998, 36.2107418 ], [ 136.831680799999987, 36.2176651 ], [ 136.832291699999985, 36.2236074 ], [ 136.8358783, 36.2265024 ], [ 136.843850799999984, 36.2367976 ], [ 136.847764399999988, 36.2461701 ], [ 136.851720299999982, 36.248069 ], [ 136.8504017, 36.2519207 ], [ 136.8452519, 36.2533726 ], [ 136.844022199999984, 36.2576196 ], [ 136.8335478, 36.2648556 ], [ 136.8145787, 36.266402 ], [ 136.814402299999983, 36.2703145 ], [ 136.806002899999982, 36.2758061 ], [ 136.8061151, 36.2836436 ], [ 136.8008596, 36.2903439 ], [ 136.7954607, 36.2924947 ], [ 136.7923001, 36.2985033 ], [ 136.788357599999983, 36.3123335 ], [ 136.7906288, 36.3159343 ], [ 136.7891224, 36.3248671 ], [ 136.783746899999983, 36.3292441 ], [ 136.7868588, 36.3332702 ], [ 136.7844691, 36.3422794 ], [ 136.7776086, 36.3382207 ], [ 136.770795599999985, 36.339601 ], [ 136.7700556, 36.3461254 ], [ 136.7590851, 36.3499624 ], [ 136.755554499999988, 36.3487796 ], [ 136.747874, 36.3551327 ], [ 136.741935399999988, 36.3624094 ], [ 136.7276904, 36.3686794 ], [ 136.720734099999987, 36.3687669 ], [ 136.7158808, 36.3715272 ], [ 136.7159302, 36.3768383 ], [ 136.710960199999988, 36.3781147 ], [ 136.7100136, 36.3808161 ], [ 136.71030159999998, 36.3913505 ], [ 136.7055564, 36.3921991 ], [ 136.689985799999988, 36.3895897 ], [ 136.6828166, 36.3968506 ], [ 136.6761572, 36.3992303 ], [ 136.6733578, 36.4028297 ], [ 136.665708, 36.4034823 ], [ 136.662113, 36.4058997 ], [ 136.6654833, 36.4116175 ], [ 136.665492199999989, 36.4167636 ], [ 136.6606272, 36.4182481 ], [ 136.6566339, 36.4264753 ], [ 136.6581301, 36.4355295 ], [ 136.657061699999986, 36.440367 ], [ 136.6500576, 36.4397403 ], [ 136.6486064, 36.4452876 ], [ 136.650140599999986, 36.4488803 ], [ 136.654413399999981, 36.4516403 ], [ 136.6503448, 36.4554853 ], [ 136.6480076, 36.4610667 ], [ 136.645329, 36.4629661 ], [ 136.6465526, 36.4681447 ], [ 136.640571199999982, 36.4699856 ], [ 136.6361579, 36.4753086 ], [ 136.643503, 36.48444 ], [ 136.6334077, 36.4851709 ], [ 136.629941299999984, 36.4896581 ], [ 136.619913800000035, 36.4961111 ] ] ], [ [ [ 136.6665892, 36.6520523 ], [ 136.6859902, 36.67416 ], [ 136.696636399999988, 36.6681064 ], [ 136.6897271, 36.6600423 ], [ 136.7033427, 36.6522867 ], [ 136.7104247, 36.6467176 ], [ 136.7153655, 36.6472414 ], [ 136.726340599999986, 36.643861099999988 ], [ 136.735030599999988, 36.6424728 ], [ 136.7430039, 36.6385956 ], [ 136.752771699999983, 36.6354642 ], [ 136.7552311, 36.6390792 ], [ 136.767921699999988, 36.6332356 ], [ 136.7730564, 36.6347473 ], [ 136.778362499999986, 36.6335723 ], [ 136.779783, 36.6298723 ], [ 136.786133899999982, 36.6296104 ], [ 136.7938753, 36.6310543 ], [ 136.7999034, 36.6364045 ], [ 136.799762, 36.6445751 ], [ 136.8012837, 36.6471184 ], [ 136.8075532, 36.6480092 ], [ 136.8072291, 36.6531164 ], [ 136.8110872, 36.65873 ], [ 136.814039399999984, 36.659243 ], [ 136.8186292, 36.6676022 ], [ 136.823783599999985, 36.6697116 ], [ 136.820557899999983, 36.6749613 ], [ 136.8225496, 36.6806129 ], [ 136.817588799999982, 36.6854321 ], [ 136.811096, 36.6849632 ], [ 136.8113663, 36.6931765 ], [ 136.8138911, 36.6987684 ], [ 136.8131716, 36.7030023 ], [ 136.8075519, 36.7046493 ], [ 136.8039461, 36.7085465 ], [ 136.7988781, 36.709792 ], [ 136.793466199999983, 36.7155531 ], [ 136.78985430000003, 36.7174564 ], [ 136.7938834, 36.722212 ], [ 136.7937734, 36.7269656 ], [ 136.7995415, 36.7300462 ], [ 136.8068514, 36.728232 ], [ 136.8079937, 36.7300165 ], [ 136.8198614, 36.7306498 ], [ 136.821722199999982, 36.7399843 ], [ 136.824858899999981, 36.7419481 ], [ 136.833098399999983, 36.7422026 ], [ 136.8390914, 36.7450962 ], [ 136.8451212, 36.7556781 ], [ 136.8340331, 36.762684899999989 ], [ 136.8334108, 36.7734465 ], [ 136.8309869, 36.779916 ], [ 136.8281316, 36.7792313 ], [ 136.8244714, 36.7727052 ], [ 136.816615499999983, 36.767496 ], [ 136.8097005, 36.7728077 ], [ 136.8033685, 36.772838 ], [ 136.7903302, 36.7746588 ], [ 136.789638199999985, 36.7794655 ], [ 136.7848416, 36.7781372 ], [ 136.781123799999989, 36.7796399 ], [ 136.7794549, 36.7854766 ], [ 136.776783699999982, 36.7868097 ], [ 136.762115099999988, 36.7864694 ], [ 136.7545715, 36.783896 ], [ 136.7498507, 36.7848636 ], [ 136.7487592, 36.7916111 ], [ 136.7419142, 36.7921394 ], [ 136.7339428, 36.7893383 ], [ 136.7242841, 36.7898593 ], [ 136.6994003, 36.7467114 ], [ 136.6826667, 36.7211247 ], [ 136.6749039, 36.7085106 ], [ 136.6694186, 36.7010291 ], [ 136.663677399999983, 36.6923636 ], [ 136.637522599999983, 36.6581141 ], [ 136.626018, 36.6452028 ], [ 136.6182412, 36.6390467 ], [ 136.624436, 36.6331977 ], [ 136.6316185, 36.6281724 ], [ 136.632840499999986, 36.6255788 ], [ 136.653570299999984, 36.6440274 ], [ 136.6665892, 36.6520523 ] ] ] ] } },
{ "type": "Feature", "properties": { "hokenjo": "南加賀" }, "geometry": { "type": "MultiPolygon", "coordinates": [ [ [ [ 136.488045699999986, 36.1591407 ], [ 136.491694599999988, 36.1582896 ], [ 136.497068, 36.1496682 ], [ 136.5030391, 36.1496624 ], [ 136.5057021, 36.1466291 ], [ 136.511944299999982, 36.1462733 ], [ 136.5215277, 36.1513772 ], [ 136.5266782, 36.1481239 ], [ 136.537688799999984, 36.1503814 ], [ 136.541427699999986, 36.1536544 ], [ 136.545294899999988, 36.1528203 ], [ 136.5518313, 36.1549081 ], [ 136.5499566, 36.1625483 ], [ 136.5574134, 36.175703 ], [ 136.5559189, 36.1779603 ], [ 136.557471199999981, 36.1841641 ], [ 136.5622246, 36.1932386 ], [ 136.565666, 36.1964102 ], [ 136.5674108, 36.2040521 ], [ 136.582871399999988, 36.2150416 ], [ 136.587220299999984, 36.2141191 ], [ 136.593698599999982, 36.2161371 ], [ 136.5992154, 36.2300643 ], [ 136.5979994, 36.2366001 ], [ 136.599985, 36.2420289 ], [ 136.603616099999982, 36.2459509 ], [ 136.6023314, 36.2488967 ], [ 136.606479899999982, 36.2565366 ], [ 136.612067699999983, 36.2600763 ], [ 136.6088911, 36.2628213 ], [ 136.603194299999984, 36.2621375 ], [ 136.5994068, 36.2640939 ], [ 136.5944312, 36.2740794 ], [ 136.5891723, 36.2764142 ], [ 136.5877104, 36.2791589 ], [ 136.5812573, 36.2805995 ], [ 136.5724089, 36.2843751 ], [ 136.56343, 36.2837846 ], [ 136.5572833, 36.2802757 ], [ 136.555538, 36.2829832 ], [ 136.550095699999986, 36.2834241 ], [ 136.549345499999987, 36.2874791 ], [ 136.554611599999987, 36.2937824 ], [ 136.5546958, 36.2963285 ], [ 136.5494291, 36.3008863 ], [ 136.555292399999985, 36.3073013 ], [ 136.552231899999981, 36.3092591 ], [ 136.5505693, 36.3188766 ], [ 136.5489618, 36.3210625 ], [ 136.559463199999982, 36.3272786 ], [ 136.558238499999987, 36.3310106 ], [ 136.560090699999989, 36.33442 ], [ 136.564691, 36.332787 ], [ 136.5694674, 36.3339917 ], [ 136.5793601, 36.3417509 ], [ 136.5807106, 36.3573259 ], [ 136.5767056, 36.3608396 ], [ 136.5803684, 36.3655501 ], [ 136.580792799999983, 36.3704343 ], [ 136.5868537, 36.3728713 ], [ 136.587628099999989, 36.3757966 ], [ 136.5784271, 36.3938754 ], [ 136.5826257, 36.3945776 ], [ 136.5906851, 36.3885804 ], [ 136.593173399999984, 36.3923749 ], [ 136.6012246, 36.3948151 ], [ 136.6027818, 36.4022201 ], [ 136.6055671, 36.4054029 ], [ 136.611595099999988, 36.4055265 ], [ 136.6208366, 36.4165487 ], [ 136.6228219, 36.4260115 ], [ 136.6262908, 36.4304051 ], [ 136.6300072, 36.430539 ], [ 136.631941899999987, 36.4375556 ], [ 136.622336499999989, 36.4428095 ], [ 136.619839499999983, 36.4496431 ], [ 136.6121092, 36.4556042 ], [ 136.6012495, 36.458197 ], [ 136.593800099999982, 36.4667478 ], [ 136.5899078, 36.469237 ], [ 136.579945, 36.4679492 ], [ 136.5651231, 36.474132 ], [ 136.5541939, 36.4794212 ], [ 136.5429801, 36.4818392 ], [ 136.5411781, 36.4757846 ], [ 136.53761129999998, 36.475622 ], [ 136.5321246, 36.4720483 ], [ 136.5249011, 36.4737728 ], [ 136.518882, 36.4776798 ], [ 136.5067709, 36.4776403 ], [ 136.4931617, 36.4820064 ], [ 136.4892236, 36.4795645 ], [ 136.4807222, 36.4682117 ], [ 136.4754553, 36.4657737 ], [ 136.465102, 36.4717999 ], [ 136.4492179, 36.4539228 ], [ 136.443738699999983, 36.4490791 ], [ 136.436416399999985, 36.4401537 ], [ 136.4262229, 36.4303111 ], [ 136.418237299999987, 36.4227882 ], [ 136.4139391, 36.4171902 ], [ 136.4041014, 36.4093711 ], [ 136.389137200000022, 36.3963716 ], [ 136.372330800000015, 36.3834138 ], [ 136.345427699999988, 36.3647537 ], [ 136.336559599999987, 36.3602212 ], [ 136.3216397, 36.3544947 ], [ 136.3137039, 36.3526126 ], [ 136.307773600000019, 36.353016 ], [ 136.299638499999986, 36.3517033 ], [ 136.2917506, 36.3455306 ], [ 136.288654399999984, 36.3373444 ], [ 136.281512099999986, 36.3319763 ], [ 136.278129, 36.325828 ], [ 136.2790233, 36.3233749 ], [ 136.2679997, 36.312145 ], [ 136.2575395, 36.3040525 ], [ 136.249281599999989, 36.2995876 ], [ 136.2438603, 36.2952993 ], [ 136.2492475, 36.2917617 ], [ 136.2585944, 36.2893209 ], [ 136.2567708, 36.2866959 ], [ 136.2561997, 36.2799109 ], [ 136.259847399999984, 36.2778984 ], [ 136.2615305, 36.2733553 ], [ 136.2682677, 36.2692706 ], [ 136.2691891, 36.2663817 ], [ 136.2750668, 36.2661776 ], [ 136.2894871, 36.2604095 ], [ 136.294646299999982, 36.2607484 ], [ 136.302114, 36.2575156 ], [ 136.3049446, 36.2504704 ], [ 136.308420399999989, 36.2468179 ], [ 136.31529759999998, 36.2458848 ], [ 136.3176181, 36.2407779 ], [ 136.316677, 36.2350806 ], [ 136.323255599999982, 36.2316668 ], [ 136.3269803, 36.2322084 ], [ 136.3324034, 36.2295862 ], [ 136.329007499999989, 36.2242971 ], [ 136.3311789, 36.2183776 ], [ 136.3278675, 36.2099048 ], [ 136.3296355, 36.2016701 ], [ 136.336961299999984, 36.1907934 ], [ 136.3356666, 36.1848703 ], [ 136.337608599999982, 36.1837267 ], [ 136.344118200000025, 36.1729797 ], [ 136.3550988, 36.1688364 ], [ 136.357969699999984, 36.1651405 ], [ 136.365917200000013, 36.1661639 ], [ 136.3688955, 36.1698347 ], [ 136.374020200000018, 36.1700427 ], [ 136.379668, 36.1682699 ], [ 136.3907144, 36.1675269 ], [ 136.397697, 36.1705288 ], [ 136.404815, 36.170276799999989 ], [ 136.4093062, 36.1722268 ], [ 136.413267, 36.1669537 ], [ 136.411636099999981, 36.1600796 ], [ 136.414285300000017, 36.1566237 ], [ 136.424193699999989, 36.1545787 ], [ 136.4268089, 36.148897 ], [ 136.431763099999984, 36.1434726 ], [ 136.437835899999982, 36.1423242 ], [ 136.440605299999987, 36.1372551 ], [ 136.44881479999998, 36.1406897 ], [ 136.4565117, 36.1362931 ], [ 136.4644514, 36.1379339 ], [ 136.470058699999981, 36.1454253 ], [ 136.474129299999987, 36.1466227 ], [ 136.477067399999981, 36.151443 ], [ 136.4833419, 36.1568605 ], [ 136.488045699999986, 36.1591407 ] ] ] ] } },
{ "type": "Feature", "properties": { "hokenjo": "能登中部" }, "geometry": { "type": "MultiPolygon", "coordinates": [ [ [ [ 136.8712434, 36.8626778 ], [ 136.8733967, 36.8676506 ], [ 136.876110899999986, 36.8677195 ], [ 136.8830317, 36.8768243 ], [ 136.8820897, 36.8808637 ], [ 136.8856094, 36.8851926 ], [ 136.8813686, 36.8883304 ], [ 136.8790105, 36.8927349 ], [ 136.8778738, 36.8994993 ], [ 136.8789763, 36.906271 ], [ 136.8827421, 36.9089483 ], [ 136.8856682, 36.9137861 ], [ 136.891562599999986, 36.9180253 ], [ 136.8955815, 36.9247197 ], [ 136.9058373, 36.9264761 ], [ 136.9083623, 36.9292078 ], [ 136.9149873, 36.9304761 ], [ 136.9224298, 36.9374906 ], [ 136.927335, 36.9441831 ], [ 136.9276233, 36.9476173 ], [ 136.9319036, 36.9504073 ], [ 136.937651099999982, 36.951422 ], [ 136.948761099999984, 36.9555201 ], [ 136.9539914, 36.9559593 ], [ 136.963321899999983, 36.9487209 ], [ 136.971125500000028, 36.9474335 ], [ 136.973746899999981, 36.9443118 ], [ 136.9814896, 36.9514241 ], [ 136.9858821, 36.965159 ], [ 136.9866477, 36.9671993 ], [ 136.996996599999989, 36.9665543 ], [ 137.0042671, 36.9614449 ], [ 137.02147549999998, 36.9638572 ], [ 137.0272386, 36.962425 ], [ 137.0376708, 36.9671192 ], [ 137.045449400000024, 36.9636453 ], [ 137.051976699999983, 36.9622581 ], [ 137.056618600000036, 36.967745099999988 ], [ 137.0503076, 36.9762293 ], [ 137.0511904, 36.9797881 ], [ 137.0487388, 36.9870943 ], [ 137.0525983, 36.9904838 ], [ 137.0532835, 36.9948339 ], [ 137.047252499999985, 37.0032777 ], [ 137.0462719, 37.0109759 ], [ 137.051111599999984, 37.0201189 ], [ 137.0508214, 37.0239881 ], [ 137.0475384, 37.0294068 ], [ 137.0455871, 37.0377003 ], [ 137.048901299999983, 37.0425848 ], [ 137.0474944, 37.0479047 ], [ 137.050074599999988, 37.053306 ], [ 137.0491581, 37.0599696 ], [ 137.0525218, 37.0633983 ], [ 137.054451299999982, 37.0750033 ], [ 137.050415499999986, 37.0821877 ], [ 137.050646299999983, 37.0880649 ], [ 137.0528457, 37.0915989 ], [ 137.0494857, 37.1011538 ], [ 137.054048099999989, 37.1064736 ], [ 137.041949, 37.1072045 ], [ 137.0343483, 37.1034482 ], [ 137.028598800000026, 37.103409 ], [ 137.021441899999985, 37.1010399 ], [ 137.0202263, 37.0968796 ], [ 137.0129671, 37.0899249 ], [ 137.0103637, 37.0811432 ], [ 137.0115274, 37.0771731 ], [ 137.00701920000003, 37.0765975 ], [ 137.002408799999984, 37.0661836 ], [ 137.0074406, 37.0628669 ], [ 137.0051546, 37.057095 ], [ 137.000129099999981, 37.0551383 ], [ 136.9963531, 37.0598053 ], [ 136.9884827, 37.0563713 ], [ 136.9904019, 37.0515353 ], [ 136.9841739, 37.0482067 ], [ 136.976191799999981, 37.0531589 ], [ 136.9756073, 37.0477207 ], [ 136.9726719, 37.0469366 ], [ 136.966763499999985, 37.0512055 ], [ 136.9556694, 37.0572161 ], [ 136.9584159, 37.0588409 ], [ 136.9625038, 37.0672687 ], [ 136.940407, 37.0679623 ], [ 136.9362693, 37.0718745 ], [ 136.9352683, 37.0788672 ], [ 136.9407315, 37.0806887 ], [ 136.9377768, 37.0860417 ], [ 136.9315603, 37.0874591 ], [ 136.9282633, 37.0858792 ], [ 136.91669, 37.0906859 ], [ 136.906501599999984, 37.0888623 ], [ 136.903571200000016, 37.0834307 ], [ 136.906087899999989, 37.0793343 ], [ 136.9017335, 37.0737174 ], [ 136.89740759999998, 37.0715738 ], [ 136.890021499999989, 37.0743583 ], [ 136.887849099999983, 37.0683248 ], [ 136.873731599999985, 37.0702854 ], [ 136.866142199999985, 37.0740394 ], [ 136.8604583, 37.0754811 ], [ 136.859508, 37.0800136 ], [ 136.8634827, 37.0839435 ], [ 136.872014899999982, 37.0877565 ], [ 136.8689717, 37.0896853 ], [ 136.865650099999982, 37.0970177 ], [ 136.8676232, 37.1110285 ], [ 136.8738708, 37.114003 ], [ 136.880044, 37.1096089 ], [ 136.883554299999986, 37.1143157 ], [ 136.8898413, 37.1104546 ], [ 136.8924743, 37.112446899999988 ], [ 136.8959753, 37.1284969 ], [ 136.8990023, 37.1313989 ], [ 136.9003916, 37.1371246 ], [ 136.893201399999981, 37.1388947 ], [ 136.8914757, 37.1435368 ], [ 136.8865457, 37.1443143 ], [ 136.8854824, 37.1398754 ], [ 136.8748622, 37.140596 ], [ 136.878125499999982, 37.1505424 ], [ 136.8829728, 37.1588959 ], [ 136.884770299999985, 37.1647987 ], [ 136.8897825, 37.1657853 ], [ 136.889108199999981, 37.1689303 ], [ 136.8839658, 37.1698668 ], [ 136.882526100000035, 37.173822699999988 ], [ 136.8719994, 37.1793016 ], [ 136.863476599999984, 37.1758535 ], [ 136.8555499, 37.1750607 ], [ 136.85100989999998, 37.1838338 ], [ 136.8509441, 37.1957579 ], [ 136.8473663, 37.1983799 ], [ 136.8373949, 37.1993838 ], [ 136.8313619, 37.2010057 ], [ 136.8216783, 37.1983146 ], [ 136.82309859999998, 37.2013752 ], [ 136.8188447, 37.2081104 ], [ 136.8245605, 37.2123354 ], [ 136.8256974, 37.216526 ], [ 136.821133, 37.2185552 ], [ 136.8214294, 37.2257207 ], [ 136.8146394, 37.2273999 ], [ 136.8083727, 37.2248891 ], [ 136.801138, 37.2193341 ], [ 136.792285199999981, 37.2201993 ], [ 136.786251599999986, 37.2175566 ], [ 136.7803733, 37.2132168 ], [ 136.772460699999982, 37.2037699 ], [ 136.7657418, 37.2007718 ], [ 136.7636152, 37.1975443 ], [ 136.754303199999981, 37.1973204 ], [ 136.7464788, 37.191578199999988 ], [ 136.735644, 37.1981946 ], [ 136.731625399999984, 37.2042096 ], [ 136.7248246, 37.2067254 ], [ 136.7188482, 37.2062615 ], [ 136.7105946, 37.2088024 ], [ 136.7141698, 37.2128363 ], [ 136.716122399999989, 37.2179696 ], [ 136.712103499999984, 37.2224249 ], [ 136.7087032, 37.2232274 ], [ 136.704942599999981, 37.2200715 ], [ 136.6962231, 37.2196408 ], [ 136.693999099999985, 37.2150942 ], [ 136.68846, 37.2138747 ], [ 136.6802181, 37.2072138 ], [ 136.6777999, 37.1997192 ], [ 136.682324199999982, 37.1957707 ], [ 136.678640799999982, 37.1916027 ], [ 136.6753536, 37.184417 ], [ 136.676758399999983, 37.1758842 ], [ 136.672947199999982, 37.1697651 ], [ 136.6765455, 37.1663964 ], [ 136.673319099999986, 37.1552099 ], [ 136.6694616, 37.1472183 ], [ 136.674179899999984, 37.1391854 ], [ 136.6781576, 37.1378092 ], [ 136.6845772, 37.1409935 ], [ 136.6869298, 37.1378559 ], [ 136.695367299999987, 37.1393808 ], [ 136.6982458, 37.1459867 ], [ 136.7019047, 37.1486214 ], [ 136.7110514, 37.1483788 ], [ 136.7186879, 37.1444153 ], [ 136.7274304, 37.13515 ], [ 136.7268536, 37.1203907 ], [ 136.725523, 37.1156285 ], [ 136.7274732, 37.1060769 ], [ 136.7294312, 37.1031319 ], [ 136.7293771, 37.0972663 ], [ 136.7273798, 37.0931435 ], [ 136.7213181, 37.0863311 ], [ 136.7262887, 37.0856571 ], [ 136.7183642, 37.0795441 ], [ 136.7187466, 37.0715803 ], [ 136.721707399999985, 37.0680033 ], [ 136.7218264, 37.057808 ], [ 136.726577099999986, 37.050553 ], [ 136.7337918, 37.0495215 ], [ 136.73358589999998, 37.0422538 ], [ 136.738748499999986, 37.0392046 ], [ 136.7389144, 37.0325316 ], [ 136.740844399999986, 37.0300636 ], [ 136.746608399999985, 37.0292633 ], [ 136.7423345, 37.0173366 ], [ 136.7434163, 37.0120389 ], [ 136.7509451, 37.0107834 ], [ 136.753164699999985, 37.0066502 ], [ 136.7624715, 37.0048808 ], [ 136.769311099999982, 36.9990837 ], [ 136.77018289999998, 36.9930752 ], [ 136.7669708, 36.9864687 ], [ 136.7704118, 36.9813348 ], [ 136.768448299999989, 36.9636763 ], [ 136.7662358, 36.9568713 ], [ 136.758870799999983, 36.9504166 ], [ 136.7620628, 36.9448577 ], [ 136.7582309, 36.9402227 ], [ 136.7514945, 36.9347151 ], [ 136.749964399999982, 36.9272197 ], [ 136.753572599999984, 36.9237625 ], [ 136.7570092, 36.9241329 ], [ 136.7638603, 36.9209247 ], [ 136.7673509, 36.9136226 ], [ 136.7674613, 36.902582 ], [ 136.7629312, 36.8827478 ], [ 136.757932399999987, 36.8661073 ], [ 136.7525695, 36.8488939 ], [ 136.7435944, 36.8270795 ], [ 136.735254699999984, 36.8101064 ], [ 136.7242841, 36.7898593 ], [ 136.7339428, 36.7893383 ], [ 136.7419142, 36.7921394 ], [ 136.7487592, 36.7916111 ], [ 136.7498507, 36.7848636 ], [ 136.7545715, 36.783896 ], [ 136.762115099999988, 36.7864694 ], [ 136.776783699999982, 36.7868097 ], [ 136.7794549, 36.7854766 ], [ 136.781123799999989, 36.7796399 ], [ 136.7848416, 36.7781372 ], [ 136.789638199999985, 36.7794655 ], [ 136.7903302, 36.7746588 ], [ 136.8033685, 36.772838 ], [ 136.8097005, 36.7728077 ], [ 136.816615499999983, 36.767496 ], [ 136.8244714, 36.7727052 ], [ 136.8281316, 36.7792313 ], [ 136.8309869, 36.779916 ], [ 136.8334108, 36.7734465 ], [ 136.8340331, 36.762684899999989 ], [ 136.8451212, 36.7556781 ], [ 136.849029800000011, 36.7590073 ], [ 136.851064799999989, 36.7684823 ], [ 136.8487398, 36.776267 ], [ 136.843251399999986, 36.7813129 ], [ 136.850436699999989, 36.7866253 ], [ 136.8539954, 36.795177 ], [ 136.850424, 36.8018064 ], [ 136.8487466, 36.8128841 ], [ 136.8600181, 36.8290768 ], [ 136.856441700000033, 36.8397915 ], [ 136.8632845, 36.8428428 ], [ 136.861997, 36.8478522 ], [ 136.8669482, 36.8506039 ], [ 136.861124499999988, 36.8548192 ], [ 136.8623887, 36.8603267 ], [ 136.8712434, 36.8626778 ] ] ], [ [ [ 137.048634, 37.1582351 ], [ 137.040795, 37.1679165 ], [ 137.0377493, 37.1681043 ], [ 137.033189599999986, 37.166356 ], [ 137.025558, 37.1584563 ], [ 137.0242551, 37.1450345 ], [ 137.020268499999986, 37.1424084 ], [ 137.0173719, 37.1442863 ], [ 137.013752, 37.1407682 ], [ 137.0084942, 37.1414043 ], [ 137.008067899999986, 37.1372155 ], [ 137.000794899999988, 37.1348522 ], [ 137.0006304, 37.1379331 ], [ 136.9940081, 37.1389184 ], [ 136.9889308, 37.1423196 ], [ 136.9887497, 37.147139 ], [ 136.9863016, 37.1510523 ], [ 136.979867399999989, 37.1470167 ], [ 136.973419299999989, 37.1528546 ], [ 136.968853400000029, 37.1545552 ], [ 136.9674173, 37.1476026 ], [ 136.962909699999983, 37.14668 ], [ 136.9623095, 37.1428394 ], [ 136.955246499999987, 37.143186799999988 ], [ 136.9441789, 37.1406946 ], [ 136.944964299999981, 37.1446593 ], [ 136.9401397, 37.1461416 ], [ 136.939645, 37.1407805 ], [ 136.93094929999998, 37.1378831 ], [ 136.9316639, 37.1335839 ], [ 136.9233537, 37.1303447 ], [ 136.9229924, 37.1416202 ], [ 136.9248878, 37.1446957 ], [ 136.91717079999998, 37.1488416 ], [ 136.9165609, 37.1529274 ], [ 136.906773499999986, 37.1506973 ], [ 136.9017958, 37.1522673 ], [ 136.9037808, 37.1445102 ], [ 136.9019458, 37.1414279 ], [ 136.906611199999986, 37.1384857 ], [ 136.906218699999982, 37.1335551 ], [ 136.910077699999988, 37.1321552 ], [ 136.9149636, 37.1335486 ], [ 136.917986600000035, 37.1315554 ], [ 136.9186411, 37.1264879 ], [ 136.9227668, 37.1235861 ], [ 136.9312506, 37.1226323 ], [ 136.9349411, 37.1197643 ], [ 136.9437948, 37.1064341 ], [ 136.946492899999981, 37.0989256 ], [ 136.951043, 37.0971205 ], [ 136.9572038, 37.1014826 ], [ 136.9656574, 37.1045576 ], [ 136.96854159999998, 37.0986169 ], [ 136.9763288, 37.0974991 ], [ 136.978458500000016, 37.104332 ], [ 136.9876832, 37.1131945 ], [ 136.993940399999985, 37.1177786 ], [ 137.0053273, 37.1173887 ], [ 137.014321099999989, 37.1119278 ], [ 137.0184586, 37.1131151 ], [ 137.023176399999983, 37.1115328 ], [ 137.0261514, 37.1162065 ], [ 137.0384762, 37.1179648 ], [ 137.041077799999982, 37.1171347 ], [ 137.0500304, 37.1230791 ], [ 137.050271399999986, 37.1292638 ], [ 137.045075, 37.1309957 ], [ 137.040645899999987, 37.1378472 ], [ 137.0431428, 37.1444261 ], [ 137.0533542, 37.1509298 ], [ 137.0495952, 37.1530803 ], [ 137.048634, 37.1582351 ] ] ] ] } },
{ "type": "Feature", "properties": { "hokenjo": "能登北部" }, "geometry": { "type": "MultiPolygon", "coordinates": [ [ [ [ 137.0778177, 37.245559 ], [ 137.0832805, 37.2481481 ], [ 137.091297199999985, 37.2585259 ], [ 137.0941561, 37.2638017 ], [ 137.095358299999987, 37.2714487 ], [ 137.0989214, 37.2789787 ], [ 137.1073606, 37.2808203 ], [ 137.116446700000012, 37.2885256 ], [ 137.1266573, 37.2905183 ], [ 137.137156799999985, 37.2945211 ], [ 137.144472799999988, 37.2989473 ], [ 137.150094, 37.2962441 ], [ 137.1532249, 37.2982045 ], [ 137.152777, 37.3031747 ], [ 137.163112600000034, 37.3011628 ], [ 137.1690836, 37.3024184 ], [ 137.1716157, 37.2996332 ], [ 137.1760105, 37.30108 ], [ 137.1841705, 37.298891399999988 ], [ 137.186492, 37.3007446 ], [ 137.195147099999986, 37.2979017 ], [ 137.198400099999986, 37.2997858 ], [ 137.2087491, 37.301537 ], [ 137.206295499999982, 37.2961954 ], [ 137.2135822, 37.2956731 ], [ 137.221772, 37.2971244 ], [ 137.2279378, 37.2955711 ], [ 137.2291071, 37.299411 ], [ 137.2334634, 37.299659 ], [ 137.2346442, 37.3032454 ], [ 137.230589399999985, 37.3085869 ], [ 137.23479039999998, 37.3094029 ], [ 137.2387569, 37.3039701 ], [ 137.2469712, 37.3074944 ], [ 137.2511504, 37.3175844 ], [ 137.2588137, 37.3214362 ], [ 137.263980799999985, 37.3253825 ], [ 137.262019399999986, 37.3313825 ], [ 137.267695299999986, 37.3368171 ], [ 137.2656681, 37.3408525 ], [ 137.258990399999988, 37.338046 ], [ 137.252778299999989, 37.3398574 ], [ 137.254646, 37.3438296 ], [ 137.260347599999989, 37.34428 ], [ 137.262202, 37.3498877 ], [ 137.266624899999982, 37.3534016 ], [ 137.26116159999998, 37.3549003 ], [ 137.253585, 37.3526433 ], [ 137.2488578, 37.354065 ], [ 137.242927899999984, 37.3627283 ], [ 137.2427226, 37.3659546 ], [ 137.23902769999998, 37.3732294 ], [ 137.23699449999998, 37.3846421 ], [ 137.2376098, 37.389966 ], [ 137.240252199999986, 37.3940632 ], [ 137.2448812, 37.397241 ], [ 137.24398069999998, 37.4074855 ], [ 137.2515438, 37.4256124 ], [ 137.256807899999984, 37.4313602 ], [ 137.2741211, 37.4394571 ], [ 137.2872562, 37.4423471 ], [ 137.298818499999982, 37.4428986 ], [ 137.311485399999981, 37.4377206 ], [ 137.331712899999985, 37.439278 ], [ 137.3489859, 37.4433336 ], [ 137.3604799, 37.4507792 ], [ 137.3574845, 37.4648399 ], [ 137.3471849, 37.4731972 ], [ 137.340302399999985, 37.483091 ], [ 137.3401967, 37.4868252 ], [ 137.343959, 37.4944011 ], [ 137.3464476, 37.4944684 ], [ 137.3510796, 37.5019821 ], [ 137.3433978, 37.5107249 ], [ 137.3460436, 37.5146077 ], [ 137.3419692, 37.5167219 ], [ 137.328751899999986, 37.5193777 ], [ 137.3263925, 37.5294966 ], [ 137.31306, 37.5273652 ], [ 137.304473299999984, 37.5282783 ], [ 137.298838099999983, 37.526168 ], [ 137.288353, 37.5298658 ], [ 137.282418299999989, 37.5270355 ], [ 137.2780505, 37.5289583 ], [ 137.2753021, 37.5334252 ], [ 137.2657491, 37.528238 ], [ 137.263513499999988, 37.5312069 ], [ 137.2573366, 37.5289939 ], [ 137.2508944, 37.5249344 ], [ 137.2460586, 37.5255077 ], [ 137.2454238, 37.5200524 ], [ 137.236323, 37.5201544 ], [ 137.2334697, 37.5165057 ], [ 137.2265108, 37.5171708 ], [ 137.216219699999982, 37.5087696 ], [ 137.210278599999981, 37.5061474 ], [ 137.202324799999985, 37.5064337 ], [ 137.180287, 37.4995677 ], [ 137.1726913, 37.5027947 ], [ 137.1637852, 37.5022844 ], [ 137.1498919, 37.4989977 ], [ 137.1444597, 37.4989994 ], [ 137.1314327, 37.4935638 ], [ 137.12297719999998, 37.4916983 ], [ 137.1174222, 37.487043299999989 ], [ 137.1115183, 37.4869102 ], [ 137.107283, 37.484383 ], [ 137.1054747, 37.4800044 ], [ 137.099377799999985, 37.478228 ], [ 137.0948914, 37.4786552 ], [ 137.091622199999989, 37.4754396 ], [ 137.085901899999982, 37.4659605 ], [ 137.0815844, 37.4641699 ], [ 137.073088399999989, 37.4556761 ], [ 137.058049, 37.4496163 ], [ 137.0482409, 37.4492582 ], [ 137.0453895, 37.4443571 ], [ 137.0293448, 37.4327438 ], [ 137.024368399999986, 37.4319034 ], [ 137.0168392, 37.4328444 ], [ 137.004341899999986, 37.428668 ], [ 137.0019658, 37.4267375 ], [ 136.985586499999982, 37.4211 ], [ 136.9770623, 37.4166099 ], [ 136.974387, 37.413105 ], [ 136.9670023, 37.4128086 ], [ 136.9552334, 37.4084567 ], [ 136.9414339, 37.40123 ], [ 136.924269399999986, 37.3949909 ], [ 136.914006699999987, 37.3949809 ], [ 136.9068725, 37.3979944 ], [ 136.9032972, 37.3974739 ], [ 136.8991466, 37.4009842 ], [ 136.9016029, 37.4054887 ], [ 136.896031600000015, 37.4067241 ], [ 136.8944045, 37.4018191 ], [ 136.889710899999983, 37.4014309 ], [ 136.8796222, 37.4062811 ], [ 136.868383599999987, 37.4070534 ], [ 136.8666719, 37.4051795 ], [ 136.847664899999984, 37.4016873 ], [ 136.8304527, 37.3899295 ], [ 136.8115224, 37.3866006 ], [ 136.8060126, 37.3822459 ], [ 136.802938399999988, 37.3769457 ], [ 136.793937100000022, 37.3769504 ], [ 136.7764334, 37.368325399999989 ], [ 136.773069199999981, 37.365904 ], [ 136.756451699999985, 37.3647996 ], [ 136.7526436, 37.3541899 ], [ 136.7563686, 37.3503926 ], [ 136.753392599999984, 37.346001 ], [ 136.7454837, 37.3425693 ], [ 136.7433911, 37.3455113 ], [ 136.737304199999983, 37.3443285 ], [ 136.739828100000011, 37.3408376 ], [ 136.7346083, 37.335476 ], [ 136.7253926, 37.3281572 ], [ 136.721701300000035, 37.3204429 ], [ 136.7245552, 37.3172665 ], [ 136.7240903, 37.3097333 ], [ 136.7276269, 37.3050124 ], [ 136.7248619, 37.2947739 ], [ 136.731785799999983, 37.2928341 ], [ 136.7350141, 37.2883585 ], [ 136.7338791, 37.2794996 ], [ 136.7266621, 37.2650818 ], [ 136.7208752, 37.255896 ], [ 136.7119798, 37.2481803 ], [ 136.707145699999984, 37.2489137 ], [ 136.7030915, 37.2456757 ], [ 136.7003799, 37.2379001 ], [ 136.705064599999986, 37.2310855 ], [ 136.7013437, 37.2232746 ], [ 136.6962231, 37.2196408 ], [ 136.704942599999981, 37.2200715 ], [ 136.7087032, 37.2232274 ], [ 136.712103499999984, 37.2224249 ], [ 136.716122399999989, 37.2179696 ], [ 136.7141698, 37.2128363 ], [ 136.7105946, 37.2088024 ], [ 136.7188482, 37.2062615 ], [ 136.7248246, 37.2067254 ], [ 136.731625399999984, 37.2042096 ], [ 136.735644, 37.1981946 ], [ 136.7464788, 37.191578199999988 ], [ 136.754303199999981, 37.1973204 ], [ 136.7636152, 37.1975443 ], [ 136.7657418, 37.2007718 ], [ 136.772460699999982, 37.2037699 ], [ 136.7803733, 37.2132168 ], [ 136.786251599999986, 37.2175566 ], [ 136.792285199999981, 37.2201993 ], [ 136.801138, 37.2193341 ], [ 136.8083727, 37.2248891 ], [ 136.8146394, 37.2273999 ], [ 136.8214294, 37.2257207 ], [ 136.821133, 37.2185552 ], [ 136.8256974, 37.216526 ], [ 136.8245605, 37.2123354 ], [ 136.8188447, 37.2081104 ], [ 136.82309859999998, 37.2013752 ], [ 136.8216783, 37.1983146 ], [ 136.8313619, 37.2010057 ], [ 136.8373949, 37.1993838 ], [ 136.8473663, 37.1983799 ], [ 136.8509441, 37.1957579 ], [ 136.85100989999998, 37.1838338 ], [ 136.8555499, 37.1750607 ], [ 136.863476599999984, 37.1758535 ], [ 136.8719994, 37.1793016 ], [ 136.882526100000035, 37.173822699999988 ], [ 136.8839658, 37.1698668 ], [ 136.889108199999981, 37.1689303 ], [ 136.8956427, 37.1748302 ], [ 136.8967494, 37.1780179 ], [ 136.9043311, 37.1851377 ], [ 136.905858599999988, 37.1912034 ], [ 136.9123578, 37.1936915 ], [ 136.9099875, 37.1989985 ], [ 136.9142636, 37.2004432 ], [ 136.920511800000014, 37.2049868 ], [ 136.925851199999983, 37.201796 ], [ 136.9301259, 37.2062037 ], [ 136.923321099999981, 37.2098162 ], [ 136.9203473, 37.2150171 ], [ 136.908105299999988, 37.2204943 ], [ 136.917161099999987, 37.2266992 ], [ 136.9170001, 37.2227657 ], [ 136.9233863, 37.2195825 ], [ 136.927121, 37.2219532 ], [ 136.934128499999986, 37.2228964 ], [ 136.9243913, 37.2284186 ], [ 136.927201100000019, 37.2298041 ], [ 136.9374703, 37.2298579 ], [ 136.9378581, 37.2258399 ], [ 136.945321399999983, 37.2273382 ], [ 136.954160299999984, 37.2350776 ], [ 136.9604262, 37.2365473 ], [ 136.965506299999987, 37.2322457 ], [ 136.958624499999985, 37.2301851 ], [ 136.9509981, 37.2216963 ], [ 136.9589086, 37.2129287 ], [ 136.9597425, 37.2083474 ], [ 136.963269199999985, 37.2045982 ], [ 136.9710859, 37.200983699999988 ], [ 136.98083029999998, 37.2036684 ], [ 136.9912267, 37.1997143 ], [ 136.99806479999998, 37.1934404 ], [ 136.999540599999989, 37.1897234 ], [ 137.0033684, 37.1887532 ], [ 137.0059081, 37.1836657 ], [ 137.012137, 37.1852418 ], [ 137.0185622, 37.1887751 ], [ 137.0262581, 37.1880173 ], [ 137.0290712, 37.1950012 ], [ 137.0294657, 37.201887 ], [ 137.0254292, 37.2043976 ], [ 137.0347887, 37.206559 ], [ 137.043273700000015, 37.2070984 ], [ 137.0447873, 37.2091965 ], [ 137.0520104, 37.2108381 ], [ 137.05652569999998, 37.208219299999989 ], [ 137.0602324, 37.2129148 ], [ 137.069430399999987, 37.2181129 ], [ 137.066727899999989, 37.2230054 ], [ 137.0679649, 37.2315337 ], [ 137.0708185, 37.2331529 ], [ 137.0736221, 37.2407704 ], [ 137.0778177, 37.245559 ] ] ], [ [ [ 136.9187316, 37.849658 ], [ 136.9244354, 37.8522763 ], [ 136.921957599999985, 37.8553251 ], [ 136.9158027, 37.8525358 ], [ 136.9187316, 37.849658 ] ] ] ] } }
]
}
