{
"type": "FeatureCollection",
"name": "kagawa",
"crs": { "type": "name", "properties": { "name": "urn:ogc:def:crs:OGC:1.3:CRS84" } },
"features": [
{ "type": "Feature", "properties": { "hokenjo": "高松市" }, "geometry": { "type": "MultiPolygon", "coordinates": [ [ [ [ 134.1647872, 34.3222583 ], [ 134.165722, 34.3260585 ], [ 134.160054299999985, 34.3306568 ], [ 134.15899, 34.334925 ], [ 134.1562161, 34.3371181 ], [ 134.155728499999981, 34.3427162 ], [ 134.1578053, 34.3475525 ], [ 134.1578359, 34.3506769 ], [ 134.159923599999985, 34.3543659 ], [ 134.158138900000012, 34.357221 ], [ 134.1587849, 34.3593157 ], [ 134.157223499999986, 34.3636976 ], [ 134.158201, 34.3679227 ], [ 134.1608306, 34.3694051 ], [ 134.160517, 34.3728954 ], [ 134.1634384, 34.3778397 ], [ 134.1636867, 34.3825501 ], [ 134.1595496, 34.3890792 ], [ 134.1518247, 34.3919476 ], [ 134.1458585, 34.3950571 ], [ 134.1429331, 34.3976237 ], [ 134.1363408, 34.4003272 ], [ 134.1266156, 34.3959833 ], [ 134.121127699999988, 34.3983538 ], [ 134.11973949999998, 34.3948177 ], [ 134.121847, 34.3926085 ], [ 134.122403099999985, 34.3895294 ], [ 134.1260978, 34.3917752 ], [ 134.1282525, 34.3890853 ], [ 134.128806700000013, 34.386063 ], [ 134.124939399999988, 34.3850326 ], [ 134.1228663, 34.3790809 ], [ 134.120004099999989, 34.376581 ], [ 134.116423699999984, 34.3762687 ], [ 134.1164317, 34.3723104 ], [ 134.120574399999981, 34.3594686 ], [ 134.115287699999982, 34.3589015 ], [ 134.1130052, 34.3642736 ], [ 134.1078244, 34.3720253 ], [ 134.099234, 34.3800942 ], [ 134.0955893, 34.3817096 ], [ 134.09230119999998, 34.3845785 ], [ 134.0911331, 34.3722442 ], [ 134.092133499999989, 34.3690299 ], [ 134.090718, 34.3626534 ], [ 134.0852856, 34.353093 ], [ 134.085660599999983, 34.3517378 ], [ 134.0786718, 34.35 ], [ 134.079561399999989, 34.359247 ], [ 134.077606400000036, 34.3615541 ], [ 134.0749985, 34.3617816 ], [ 134.0746589, 34.3512638 ], [ 134.06951220000002, 34.3520431 ], [ 134.069311199999987, 34.3621642 ], [ 134.0633417, 34.3625768 ], [ 134.064166199999988, 34.3576256 ], [ 134.0551725, 34.3562447 ], [ 134.0558667, 34.3546389 ], [ 134.0601677, 34.3540628 ], [ 134.0603213, 34.3508644 ], [ 134.0498426, 34.3524595 ], [ 134.0472928, 34.3555096 ], [ 134.037892199999987, 34.3523232 ], [ 134.0282043, 34.3537662 ], [ 134.0250407, 34.3549789 ], [ 134.019446099999982, 34.35468 ], [ 134.019182799999982, 34.3529281 ], [ 134.0092434, 34.3546492 ], [ 134.009579, 34.3561329 ], [ 134.015616099999988, 34.3550501 ], [ 134.015909099999988, 34.3563871 ], [ 134.007319500000023, 34.357753 ], [ 134.0031956, 34.3592301 ], [ 134.0023176, 34.3552085 ], [ 133.9988136, 34.3546142 ], [ 133.9927629, 34.3566087 ], [ 133.989629, 34.359588 ], [ 133.9909372, 34.3607362 ], [ 133.982544099999984, 34.3651987 ], [ 133.9805029, 34.3669449 ], [ 133.9781059, 34.3724568 ], [ 133.975670899999983, 34.373101 ], [ 133.9702575, 34.3694253 ], [ 133.971343599999983, 34.3681047 ], [ 133.963612399999988, 34.3649706 ], [ 133.9604994, 34.3687626 ], [ 133.963166900000033, 34.3702673 ], [ 133.9591854, 34.3776391 ], [ 133.947449399999982, 34.3808904 ], [ 133.9431983, 34.3755365 ], [ 133.9384571, 34.3756788 ], [ 133.9388274, 34.3806844 ], [ 133.9338032, 34.3845476 ], [ 133.9318168, 34.3883222 ], [ 133.927607199999983, 34.3896538 ], [ 133.9297244, 34.3859081 ], [ 133.928825599999982, 34.3773606 ], [ 133.932378300000011, 34.3766589 ], [ 133.9335553, 34.3725497 ], [ 133.9355342, 34.3705094 ], [ 133.935741899999982, 34.3637606 ], [ 133.9366675, 34.3609456 ], [ 133.934899699999988, 34.3553308 ], [ 133.9377772, 34.3532403 ], [ 133.9374856, 34.3482394 ], [ 133.9433867, 34.3464117 ], [ 133.945409399999988, 34.3438308 ], [ 133.9464228, 34.3383767 ], [ 133.9523317, 34.3351911 ], [ 133.9535669, 34.3320444 ], [ 133.951300299999986, 34.3271508 ], [ 133.9538494, 34.3253428 ], [ 133.951352499999985, 34.3233089 ], [ 133.9492903, 34.3247342 ], [ 133.94224, 34.3250994 ], [ 133.9414811, 34.3222397 ], [ 133.9305311, 34.32071 ], [ 133.9295836, 34.3184064 ], [ 133.9253597, 34.3157989 ], [ 133.928918899999985, 34.3124958 ], [ 133.9320333, 34.306385 ], [ 133.934975, 34.3051856 ], [ 133.9386078, 34.3006744 ], [ 133.9394978, 34.2974494 ], [ 133.9385819, 34.2946589 ], [ 133.941848099999987, 34.2921642 ], [ 133.942780299999981, 34.2879833 ], [ 133.940948599999984, 34.2826894 ], [ 133.9439803, 34.2784878 ], [ 133.9439492, 34.2719825 ], [ 133.94515, 34.2702518 ], [ 133.950145599999985, 34.2712303 ], [ 133.9533947, 34.26902 ], [ 133.962258599999984, 34.2661689 ], [ 133.9657817, 34.2657417 ], [ 133.9704625, 34.263225 ], [ 133.9789264, 34.2639883 ], [ 133.9838617, 34.2661317 ], [ 133.9877258, 34.2619708 ], [ 133.9886773, 34.2668101 ], [ 133.9923369, 34.2632769 ], [ 133.9934381, 34.2602472 ], [ 133.990141699999981, 34.2540283 ], [ 133.988356899999985, 34.2529986 ], [ 133.986315, 34.2476639 ], [ 133.9851514, 34.2420347 ], [ 133.9885022, 34.2383678 ], [ 133.9891447, 34.2358272 ], [ 133.993003099999981, 34.2354644 ], [ 133.993958599999985, 34.2301903 ], [ 134.004374399999989, 34.2185558 ], [ 134.0088944, 34.2168542 ], [ 134.0101556, 34.2127828 ], [ 134.012943299999989, 34.2115856 ], [ 134.013413899999989, 34.2065539 ], [ 134.015387799999985, 34.2046553 ], [ 134.015200599999986, 34.2014811 ], [ 134.0170925, 34.1898603 ], [ 134.0234308, 34.1898936 ], [ 134.0253914, 34.1877764 ], [ 134.02500329999998, 34.1829894 ], [ 134.0233078, 34.1802531 ], [ 134.0241586, 34.1743944 ], [ 134.0277275, 34.1718914 ], [ 134.02823189999998, 34.1679386 ], [ 134.0255544, 34.1657272 ], [ 134.025633299999981, 34.1610636 ], [ 134.021925, 34.1600403 ], [ 134.020884199999983, 34.1581239 ], [ 134.0233108, 34.1552364 ], [ 134.022405, 34.1521692 ], [ 134.024584399999981, 34.1396625 ], [ 134.029615299999989, 34.1398225 ], [ 134.0342986, 34.1347481 ], [ 134.036072499999989, 34.1289458 ], [ 134.049885, 34.1174156 ], [ 134.053404699999987, 34.118005 ], [ 134.058333299999987, 34.1151986 ], [ 134.061352199999988, 34.1110308 ], [ 134.0668844, 34.1127911 ], [ 134.0709175, 34.1127133 ], [ 134.0719317, 34.1154794 ], [ 134.0795564, 34.1211369 ], [ 134.0815681, 34.1212864 ], [ 134.0944844, 34.1145906 ], [ 134.102976899999987, 34.115009199999989 ], [ 134.1059742, 34.1171278 ], [ 134.1161217, 34.1181494 ], [ 134.11926219999998, 34.1202739 ], [ 134.122330799999986, 34.1187864 ], [ 134.127057799999989, 34.1231567 ], [ 134.131173099999984, 34.1253678 ], [ 134.1326817, 34.1295628 ], [ 134.1380197, 34.1324225 ], [ 134.1393139, 34.1340822 ], [ 134.1377094, 34.1380256 ], [ 134.1385147, 34.1414997 ], [ 134.137512499999985, 34.1472764 ], [ 134.1352569, 34.1515383 ], [ 134.1309575, 34.1509092 ], [ 134.128206899999981, 34.1526894 ], [ 134.125445, 34.1602525 ], [ 134.12367, 34.1619228 ], [ 134.1223297, 34.1674511 ], [ 134.1181461, 34.1732122 ], [ 134.112349699999982, 34.1781428 ], [ 134.1142839, 34.1807672 ], [ 134.1096925, 34.1833781 ], [ 134.1104183, 34.1930325 ], [ 134.10932, 34.19827 ], [ 134.1052292, 34.2016417 ], [ 134.1054011, 34.2094681 ], [ 134.1069297, 34.2105058 ], [ 134.1056078, 34.2146008 ], [ 134.1086736, 34.2197194 ], [ 134.112079699999981, 34.2217533 ], [ 134.112144199999989, 34.2251458 ], [ 134.114383300000014, 34.2264947 ], [ 134.113086899999985, 34.2301039 ], [ 134.1111319, 34.2318264 ], [ 134.111200599999989, 34.2348275 ], [ 134.113370799999984, 34.2354075 ], [ 134.1146197, 34.2382519 ], [ 134.1122383, 34.2400333 ], [ 134.110438099999982, 34.2447153 ], [ 134.1114667, 34.2489672 ], [ 134.1094728, 34.2521572 ], [ 134.1116203, 34.2544372 ], [ 134.112458299999986, 34.2622653 ], [ 134.11452749999998, 34.2685028 ], [ 134.1192097, 34.2876428 ], [ 134.119142499999981, 34.2903208 ], [ 134.1222256, 34.2918447 ], [ 134.1210925, 34.2940819 ], [ 134.1219719, 34.2974483 ], [ 134.1254767, 34.2986236 ], [ 134.126520299999981, 34.3039889 ], [ 134.1249853, 34.3099653 ], [ 134.130212199999988, 34.3173086 ], [ 134.133530799999988, 34.3143431 ], [ 134.1371106, 34.3131131 ], [ 134.1397619, 34.3142297 ], [ 134.1493269, 34.3134856 ], [ 134.1554347, 34.3106217 ], [ 134.1591156, 34.3140847 ], [ 134.160564199999982, 34.3175292 ], [ 134.1647872, 34.3222583 ] ] ], [ [ [ 133.992995399999984, 34.3580664 ], [ 133.996112899999986, 34.3562296 ], [ 133.999914599999983, 34.3583333 ], [ 134.0002311, 34.3597901 ], [ 133.994513899999987, 34.3632234 ], [ 133.993097399999982, 34.3627699 ], [ 133.992995399999984, 34.3580664 ] ] ], [ [ [ 134.1724202, 34.3929219 ], [ 134.176156, 34.3904006 ], [ 134.175450899999987, 34.3957449 ], [ 134.1724202, 34.3929219 ] ] ], [ [ [ 134.0555556, 34.4044289 ], [ 134.056473899999986, 34.4058315 ], [ 134.0538383, 34.4092232 ], [ 134.0511314, 34.4082566 ], [ 134.0503214, 34.4047562 ], [ 134.044087099999985, 34.3960703 ], [ 134.042748099999983, 34.3926573 ], [ 134.0372951, 34.3869201 ], [ 134.0356282, 34.3832087 ], [ 134.0381688, 34.3793363 ], [ 134.042474199999987, 34.3810924 ], [ 134.0487479, 34.3895502 ], [ 134.051993899999985, 34.3889915 ], [ 134.054173, 34.3904281 ], [ 134.0569476, 34.397473 ], [ 134.0555556, 34.4044289 ] ] ], [ [ [ 134.1116776, 34.4045552 ], [ 134.107420499999989, 34.4097376 ], [ 134.105399500000033, 34.4146045 ], [ 134.1037073, 34.4134044 ], [ 134.1060266, 34.4073674 ], [ 134.1049736, 34.4047484 ], [ 134.1008311, 34.4037863 ], [ 134.1009522, 34.400550699999989 ], [ 134.107790199999982, 34.4013437 ], [ 134.1116776, 34.4045552 ] ] ], [ [ [ 134.1268442, 34.4165084 ], [ 134.1278618, 34.4192279 ], [ 134.126240199999984, 34.421154 ], [ 134.1228717, 34.4189763 ], [ 134.12257169999998, 34.4162708 ], [ 134.1268442, 34.4165084 ] ] ], [ [ [ 134.0647323, 34.4222709 ], [ 134.0657747, 34.4291906 ], [ 134.062604099999987, 34.4332239 ], [ 134.0576565, 34.4317666 ], [ 134.0542379, 34.4241633 ], [ 134.0551601, 34.4171627 ], [ 134.059094499999986, 34.419892499999989 ], [ 134.0626231, 34.4201464 ], [ 134.0647323, 34.4222709 ] ] ] ] } },
{ "type": "Feature", "properties": { "hokenjo": "小豆" }, "geometry": { "type": "MultiPolygon", "coordinates": [ [ [ [ 134.1903944, 34.4707817 ], [ 134.189467799999989, 34.4728222 ], [ 134.1845864, 34.4701278 ], [ 134.185535, 34.4676669 ], [ 134.1903944, 34.4707817 ] ] ], [ [ [ 134.298994099999987, 34.4778676 ], [ 134.2975836, 34.4753568 ], [ 134.3010333, 34.474171 ], [ 134.3025807, 34.4758777 ], [ 134.3009045, 34.4765241 ], [ 134.298994099999987, 34.4778676 ] ] ], [ [ [ 134.1254897, 34.4761369 ], [ 134.127905800000036, 34.4794267 ], [ 134.127075, 34.4822206 ], [ 134.1224972, 34.4797781 ], [ 134.120074400000021, 34.4809983 ], [ 134.115751099999983, 34.4803986 ], [ 134.11367690000003, 34.4786596 ], [ 134.110435500000023, 34.4795583 ], [ 134.1081317, 34.4750561 ], [ 134.1134992, 34.4730272 ], [ 134.1178119, 34.4729556 ], [ 134.1254897, 34.4761369 ] ] ], [ [ [ 134.087059399999987, 34.4947243 ], [ 134.0877611, 34.4973267 ], [ 134.0855403, 34.4994447 ], [ 134.080194399999982, 34.4992192 ], [ 134.076926400000019, 34.4968225 ], [ 134.0694675, 34.4970244 ], [ 134.0664797, 34.4941178 ], [ 134.06341, 34.4932436 ], [ 134.0630897, 34.4909247 ], [ 134.0587937, 34.4880852 ], [ 134.052321399999983, 34.4873531 ], [ 134.0418511, 34.48839 ], [ 134.041302799999983, 34.4832728 ], [ 134.0361261, 34.4814453 ], [ 134.0382472, 34.4789878 ], [ 134.0436872, 34.4786614 ], [ 134.0450681, 34.4765203 ], [ 134.0517925, 34.4722575 ], [ 134.0623406, 34.4700603 ], [ 134.065562799999981, 34.470535 ], [ 134.07052, 34.4674531 ], [ 134.075740599999989, 34.4621836 ], [ 134.0813197, 34.4591664 ], [ 134.0843561, 34.4604147 ], [ 134.089329300000031, 34.4657467 ], [ 134.0900111, 34.4693967 ], [ 134.0935494, 34.4729539 ], [ 134.1027008, 34.47909 ], [ 134.1037617, 34.4817342 ], [ 134.1029464, 34.4845564 ], [ 134.1045772, 34.4870131 ], [ 134.102603, 34.4897414 ], [ 134.0935251, 34.4904519 ], [ 134.087059399999987, 34.4947243 ] ] ], [ [ [ 134.336834899999985, 34.5623691 ], [ 134.332459199999988, 34.5631964 ], [ 134.329093299999982, 34.563925 ], [ 134.3234742, 34.5621469 ], [ 134.3194428, 34.5598047 ], [ 134.3147731, 34.5590939 ], [ 134.308400799999987, 34.5545669 ], [ 134.3047144, 34.5491728 ], [ 134.2952211, 34.5467156 ], [ 134.2802419, 34.5473347 ], [ 134.2776561, 34.5488394 ], [ 134.2729311, 34.5475883 ], [ 134.2687919, 34.5494761 ], [ 134.2699217, 34.552345 ], [ 134.2680125, 34.5535222 ], [ 134.262657499999989, 34.5520911 ], [ 134.2618067, 34.5487544 ], [ 134.2589572, 34.5499308 ], [ 134.2569856, 34.5479992 ], [ 134.2564286, 34.5431803 ], [ 134.2546489, 34.5430383 ], [ 134.2486839, 34.5397397 ], [ 134.2419777, 34.5351311 ], [ 134.239609699999988, 34.5300793 ], [ 134.2331681, 34.5285036 ], [ 134.229946400000017, 34.5269872 ], [ 134.2240783, 34.5294704 ], [ 134.2175174, 34.5259215 ], [ 134.2137708, 34.5229403 ], [ 134.202986899999985, 34.5200372 ], [ 134.198339399999981, 34.5197589 ], [ 134.191844299999985, 34.5206811 ], [ 134.1854612, 34.5157631 ], [ 134.178649, 34.5176562 ], [ 134.170483599999983, 34.5262883 ], [ 134.1651436, 34.5187935 ], [ 134.1668239, 34.5166443 ], [ 134.164487799999989, 34.5116911 ], [ 134.1608453, 34.5098506 ], [ 134.1581572, 34.5049936 ], [ 134.1639606, 34.5077031 ], [ 134.1665489, 34.5053906 ], [ 134.165465, 34.5000114 ], [ 134.168185599999987, 34.4989011 ], [ 134.1713623, 34.4944129 ], [ 134.1764535, 34.4915447 ], [ 134.17284859999998, 34.4890257 ], [ 134.167035199999987, 34.4934499 ], [ 134.1625544, 34.492245 ], [ 134.156436700000029, 34.492043 ], [ 134.1506219, 34.485010599999988 ], [ 134.1480247, 34.4835006 ], [ 134.1446928, 34.4787986 ], [ 134.1437139, 34.4728117 ], [ 134.1413225, 34.4702083 ], [ 134.144526899999988, 34.4679781 ], [ 134.1474706, 34.4683597 ], [ 134.1517264, 34.4613003 ], [ 134.156059700000014, 34.4614017 ], [ 134.1594033, 34.4635653 ], [ 134.1628136, 34.462335 ], [ 134.1682681, 34.4647531 ], [ 134.169920599999983, 34.4694986 ], [ 134.1718383, 34.4712175 ], [ 134.171064699999988, 34.4736133 ], [ 134.1757786, 34.4766309 ], [ 134.181466799999981, 34.4756125 ], [ 134.1847783, 34.4793975 ], [ 134.187238399999984, 34.4793978 ], [ 134.192198599999983, 34.4813855 ], [ 134.1944432, 34.4847573 ], [ 134.199798, 34.4827088 ], [ 134.2041553, 34.4809005 ], [ 134.207324299999982, 34.4831822 ], [ 134.212077, 34.4815159 ], [ 134.2153931, 34.4782723 ], [ 134.214212799999984, 34.4768643 ], [ 134.2181237, 34.4742809 ], [ 134.2218178, 34.4786186 ], [ 134.2283864, 34.4806497 ], [ 134.2334562, 34.4764514 ], [ 134.2325371, 34.4742603 ], [ 134.2294752, 34.4724209 ], [ 134.2295757, 34.468887 ], [ 134.2361228, 34.4705478 ], [ 134.238356899999985, 34.4671298 ], [ 134.2384092, 34.4637067 ], [ 134.2407867, 34.4632677 ], [ 134.241994800000015, 34.458358 ], [ 134.238132899999982, 34.4561479 ], [ 134.238901400000032, 34.4506086 ], [ 134.2358238, 34.4474331 ], [ 134.2344927, 34.4439553 ], [ 134.2277374, 34.4426287 ], [ 134.2234848, 34.438358099999988 ], [ 134.2268531, 34.4365913 ], [ 134.236194499999982, 34.4383607 ], [ 134.2386507, 34.4325147 ], [ 134.2378248, 34.4306767 ], [ 134.232870099999985, 34.428261 ], [ 134.2263379, 34.4269411 ], [ 134.224558699999989, 34.4250487 ], [ 134.2289755, 34.4210888 ], [ 134.2310741, 34.415596 ], [ 134.2329138, 34.4146975 ], [ 134.239287, 34.4154476 ], [ 134.2456647, 34.4187776 ], [ 134.2471148, 34.4211572 ], [ 134.2512676, 34.4244102 ], [ 134.2467364, 34.427258 ], [ 134.24864119999998, 34.4334579 ], [ 134.251670499999989, 34.436274 ], [ 134.251306699999986, 34.4390113 ], [ 134.2555145, 34.4417176 ], [ 134.2600565, 34.448048799999988 ], [ 134.2626386, 34.4496883 ], [ 134.2595508, 34.454439 ], [ 134.2650042, 34.4603596 ], [ 134.266872399999983, 34.463649599999989 ], [ 134.2676257, 34.4678779 ], [ 134.26947819999998, 34.4687029 ], [ 134.2760385, 34.4689884 ], [ 134.2787759, 34.470936 ], [ 134.2830519, 34.471358 ], [ 134.285291199999989, 34.4732272 ], [ 134.28889, 34.4735874 ], [ 134.2926709, 34.4758258 ], [ 134.296344399999981, 34.4797495 ], [ 134.3009749, 34.4766016 ], [ 134.301952299999982, 34.4782712 ], [ 134.3039125, 34.4768552 ], [ 134.3102116, 34.4774627 ], [ 134.311890799999986, 34.4767955 ], [ 134.31299629999998, 34.4729597 ], [ 134.316003, 34.4710145 ], [ 134.3174708, 34.4647914 ], [ 134.3166611, 34.4596425 ], [ 134.312155599999983, 34.4602425 ], [ 134.3073636, 34.4629543 ], [ 134.3045128, 34.4606408 ], [ 134.3007742, 34.459777699999989 ], [ 134.2972009, 34.4624233 ], [ 134.294990899999988, 34.4608719 ], [ 134.2898653, 34.4623931 ], [ 134.2842324, 34.4607894 ], [ 134.2829616, 34.4591206 ], [ 134.284610099999981, 34.452355 ], [ 134.2871673, 34.4498383 ], [ 134.2843557, 34.4456457 ], [ 134.2811489, 34.4481597 ], [ 134.27821849999998, 34.4480559 ], [ 134.2806481, 34.4439408 ], [ 134.284425299999981, 34.4421553 ], [ 134.286665, 34.4457794 ], [ 134.292256399999985, 34.4467966 ], [ 134.2998423, 34.4526583 ], [ 134.30015659999998, 34.4563036 ], [ 134.3043964, 34.4577784 ], [ 134.3078657, 34.4558986 ], [ 134.3120365, 34.4555596 ], [ 134.319632, 34.4580111 ], [ 134.3253015, 34.4509443 ], [ 134.324826799999983, 34.4495203 ], [ 134.3299551, 34.4458455 ], [ 134.3297679, 34.4407029 ], [ 134.333268299999986, 34.4350697 ], [ 134.3377941, 34.4329015 ], [ 134.3403779, 34.4378232 ], [ 134.3367111, 34.4434275 ], [ 134.335383799999988, 34.4472903 ], [ 134.337214099999983, 34.4509477 ], [ 134.3401461, 34.4509947 ], [ 134.3494216, 34.4612055 ], [ 134.349341, 34.4641897 ], [ 134.3527468, 34.4701286 ], [ 134.351246, 34.4727515 ], [ 134.353596400000015, 34.4776634 ], [ 134.347924799999987, 34.4791213 ], [ 134.343021599999986, 34.4844987 ], [ 134.34280339999998, 34.4879333 ], [ 134.3512576, 34.4927342 ], [ 134.3505959, 34.4982462 ], [ 134.3473032, 34.5003937 ], [ 134.350006899999983, 34.5060997 ], [ 134.35417510000002, 34.5078487 ], [ 134.3563791, 34.5116817 ], [ 134.3564625, 34.5166303 ], [ 134.3553856, 34.5241304 ], [ 134.36005369999998, 34.5290198 ], [ 134.3583631, 34.533674 ], [ 134.3549906, 34.5387696 ], [ 134.351628399999981, 34.5383343 ], [ 134.3452, 34.5408357 ], [ 134.3442727, 34.5439978 ], [ 134.347604800000028, 34.5465393 ], [ 134.3479094, 34.5510641 ], [ 134.3551962, 34.5577512 ], [ 134.357330099999984, 34.556856 ], [ 134.363148199999983, 34.5577312 ], [ 134.3634974, 34.5605176 ], [ 134.3564208, 34.5608491 ], [ 134.353975099999985, 34.5574703 ], [ 134.34609039999998, 34.5577549 ], [ 134.347427399999987, 34.5609953 ], [ 134.3499549, 34.5606821 ], [ 134.3511239, 34.563947 ], [ 134.3447578, 34.5645686 ], [ 134.336834899999985, 34.5623691 ] ] ], [ [ [ 134.149571899999984, 34.5161244 ], [ 134.152628599999986, 34.5182325 ], [ 134.15118529999998, 34.5207067 ], [ 134.144793599999986, 34.5203133 ], [ 134.144828099999984, 34.51745 ], [ 134.149571899999984, 34.5161244 ] ] ] ] } },
{ "type": "Feature", "properties": { "hokenjo": "西讃" }, "geometry": { "type": "MultiPolygon", "coordinates": [ [ [ [ 133.7329906, 34.0448967 ], [ 133.740451399999984, 34.0501919 ], [ 133.7494975, 34.0542703 ], [ 133.7509967, 34.0565872 ], [ 133.7564839, 34.0592897 ], [ 133.7603006, 34.0645508 ], [ 133.7633797, 34.0668097 ], [ 133.763404700000024, 34.0698397 ], [ 133.7677836, 34.0723239 ], [ 133.7750419, 34.0742644 ], [ 133.777955599999984, 34.0789342 ], [ 133.782022499999982, 34.0801361 ], [ 133.7852981, 34.0798103 ], [ 133.788792799999982, 34.0777889 ], [ 133.7904097, 34.0752981 ], [ 133.795848899999982, 34.0703625 ], [ 133.80005079999998, 34.0695461 ], [ 133.8103319, 34.0725872 ], [ 133.815047199999981, 34.0733056 ], [ 133.8176911, 34.0722372 ], [ 133.8190639, 34.0752289 ], [ 133.818533299999984, 34.0797025 ], [ 133.8229878, 34.0848067 ], [ 133.822225299999985, 34.0921881 ], [ 133.82116689999998, 34.0968378 ], [ 133.8183661, 34.1028406 ], [ 133.8201344, 34.1090367 ], [ 133.8171783, 34.1146311 ], [ 133.817475299999984, 34.1185292 ], [ 133.8157386, 34.1222067 ], [ 133.8183072, 34.1282683 ], [ 133.8168489, 34.1317475 ], [ 133.817371400000013, 34.1378789 ], [ 133.816325799999987, 34.1387703 ], [ 133.8160483, 34.1445256 ], [ 133.8170939, 34.1454275 ], [ 133.812382800000023, 34.1499803 ], [ 133.811040599999984, 34.1530728 ], [ 133.812176099999988, 34.1576042 ], [ 133.8084978, 34.1572392 ], [ 133.805858299999983, 34.1541358 ], [ 133.8025417, 34.1529331 ], [ 133.8007217, 34.1561761 ], [ 133.803870599999982, 34.1633061 ], [ 133.8027883, 34.1699553 ], [ 133.803531099999987, 34.1733269 ], [ 133.8062333, 34.1752358 ], [ 133.8070458, 34.1822494 ], [ 133.80013169999998, 34.1879856 ], [ 133.796019199999989, 34.1888669 ], [ 133.7928892, 34.1912339 ], [ 133.788716099999988, 34.196355 ], [ 133.7849267, 34.1985014 ], [ 133.777885, 34.1962039 ], [ 133.773026099999981, 34.1990758 ], [ 133.7559392, 34.1981317 ], [ 133.755406099999988, 34.2037731 ], [ 133.7527197, 34.2049547 ], [ 133.7496497, 34.2094139 ], [ 133.7500183, 34.2114364 ], [ 133.744054399999982, 34.2130919 ], [ 133.7403172, 34.2126636 ], [ 133.7375361, 34.2139267 ], [ 133.7334981, 34.2192794 ], [ 133.7270581, 34.2264939 ], [ 133.7266122, 34.2289278 ], [ 133.72861469999998, 34.2328094 ], [ 133.725105, 34.2332281 ], [ 133.7236239, 34.2310233 ], [ 133.719772799999987, 34.2299731 ], [ 133.7152889, 34.2354797 ], [ 133.7127994, 34.2355839 ], [ 133.708886299999989, 34.2408654 ], [ 133.704195400000032, 34.2392114 ], [ 133.7018894, 34.2360275 ], [ 133.698220599999985, 34.2343052 ], [ 133.694653599999981, 34.2370164 ], [ 133.688116899999983, 34.2371189 ], [ 133.6880198, 34.2333357 ], [ 133.6816043, 34.2339634 ], [ 133.679632400000031, 34.2325941 ], [ 133.6773145, 34.2246442 ], [ 133.674001, 34.2220124 ], [ 133.671577, 34.2238007 ], [ 133.675846799999988, 34.2271868 ], [ 133.678488099999981, 34.2363186 ], [ 133.6752353, 34.2368832 ], [ 133.67237080000001, 34.2269489 ], [ 133.668136299999986, 34.2329781 ], [ 133.6702933, 34.2405651 ], [ 133.674314, 34.2426648 ], [ 133.6742557, 34.2450645 ], [ 133.671630199999981, 34.2465457 ], [ 133.666618, 34.2405482 ], [ 133.6595208, 34.2397816 ], [ 133.6557027, 34.2353478 ], [ 133.6490531, 34.2327627 ], [ 133.633895099999989, 34.2388828 ], [ 133.6271673, 34.2377245 ], [ 133.622905, 34.2355764 ], [ 133.6192364, 34.2368649 ], [ 133.616340799999989, 34.2400476 ], [ 133.6164875, 34.2434464 ], [ 133.6122945, 34.2506111 ], [ 133.6090362, 34.2523645 ], [ 133.6060387, 34.2519871 ], [ 133.6028982, 34.2533127 ], [ 133.591419, 34.2553135 ], [ 133.589276499999983, 34.2569814 ], [ 133.5877835, 34.2608878 ], [ 133.5830995, 34.2604152 ], [ 133.575149, 34.2626607 ], [ 133.574046899999985, 34.2651217 ], [ 133.568376, 34.2650158 ], [ 133.5653399, 34.2635843 ], [ 133.557771799999983, 34.2625363 ], [ 133.560409099999987, 34.2602338 ], [ 133.5694475, 34.2599821 ], [ 133.5756577, 34.2565139 ], [ 133.573592099999985, 34.2520271 ], [ 133.579325, 34.25071 ], [ 133.5782964, 34.2470782 ], [ 133.575107799999984, 34.2442947 ], [ 133.583469399999984, 34.243536399999989 ], [ 133.588796799999983, 34.2405163 ], [ 133.5906541, 34.2380644 ], [ 133.5968059, 34.2359103 ], [ 133.6007768, 34.2337578 ], [ 133.6037928, 34.2344327 ], [ 133.608386, 34.2305962 ], [ 133.610254, 34.2256969 ], [ 133.6094378, 34.2233625 ], [ 133.6142332, 34.2200126 ], [ 133.6171463, 34.2209894 ], [ 133.620809799999989, 34.2179715 ], [ 133.6223114, 34.2147652 ], [ 133.6321046, 34.2118036 ], [ 133.6349089, 34.2099311 ], [ 133.635016399999984, 34.2062252 ], [ 133.6371614, 34.2033914 ], [ 133.637389899999988, 34.2007263 ], [ 133.643518799999981, 34.1914942 ], [ 133.6481631, 34.1917454 ], [ 133.6490043, 34.1856463 ], [ 133.645988499999987, 34.183487 ], [ 133.645105299999983, 34.1806058 ], [ 133.647197899999981, 34.1784149 ], [ 133.647570699999989, 34.1709773 ], [ 133.646006799999981, 34.1643522 ], [ 133.6454167, 34.1589144 ], [ 133.6431264, 34.1555453 ], [ 133.6400413, 34.1540815 ], [ 133.6402865, 34.150513 ], [ 133.6426725, 34.1489157 ], [ 133.6397261, 34.1308381 ], [ 133.63807079999998, 34.1304304 ], [ 133.63915590000002, 34.1247911 ], [ 133.635210299999983, 34.1226964 ], [ 133.6325132, 34.1231066 ], [ 133.6329409, 34.1193469 ], [ 133.6279714, 34.1189535 ], [ 133.6298756, 34.1152015 ], [ 133.6345124, 34.1132879 ], [ 133.636930400000011, 34.113878 ], [ 133.6357645, 34.0950159 ], [ 133.6380551, 34.0923295 ], [ 133.6352029, 34.0840954 ], [ 133.6333119, 34.0836835 ], [ 133.631607699999989, 34.0801874 ], [ 133.632472899999982, 34.0763954 ], [ 133.6314959, 34.0722539 ], [ 133.633783, 34.0701978 ], [ 133.6311963, 34.0601484 ], [ 133.6295254, 34.0585558 ], [ 133.627703199999985, 34.0531798 ], [ 133.6227542, 34.0493948 ], [ 133.61356139999998, 34.0463351 ], [ 133.6112879, 34.0446825 ], [ 133.6012547, 34.043225 ], [ 133.600809199999986, 34.0411144 ], [ 133.604171399999984, 34.0359031 ], [ 133.60751, 34.0367917 ], [ 133.6086594, 34.0343492 ], [ 133.6133103, 34.0323206 ], [ 133.6163072, 34.0328114 ], [ 133.6189086, 34.0350694 ], [ 133.621136899999982, 34.0345978 ], [ 133.626877799999988, 34.0377672 ], [ 133.629554399999989, 34.0358822 ], [ 133.63293969999998, 34.031165 ], [ 133.6362392, 34.0295394 ], [ 133.63946, 34.0259322 ], [ 133.6444372, 34.0277356 ], [ 133.649245799999989, 34.0271408 ], [ 133.6559914, 34.0290756 ], [ 133.658615, 34.0276839 ], [ 133.6654283, 34.0271081 ], [ 133.6703719, 34.0240908 ], [ 133.6718922, 34.0207461 ], [ 133.6782322, 34.0181881 ], [ 133.6774614, 34.0157942 ], [ 133.6795486, 34.01252 ], [ 133.685474699999986, 34.0131528 ], [ 133.6885117, 34.0123786 ], [ 133.69355969999998, 34.0149894 ], [ 133.6974011, 34.0156836 ], [ 133.7002717, 34.0178028 ], [ 133.7087625, 34.0153517 ], [ 133.710659199999981, 34.0169733 ], [ 133.721319699999981, 34.0222925 ], [ 133.72298, 34.0254497 ], [ 133.72181, 34.0298106 ], [ 133.7230719, 34.036462799999988 ], [ 133.7277547, 34.0410639 ], [ 133.728994199999988, 34.0441597 ], [ 133.7329906, 34.0448967 ] ] ], [ [ [ 133.5333087, 34.1326735 ], [ 133.5310146, 34.1363327 ], [ 133.5271655, 34.1366061 ], [ 133.525926199999986, 34.1333468 ], [ 133.528543899999988, 34.1321048 ], [ 133.53083239999998, 34.1275695 ], [ 133.5331357, 34.1259738 ], [ 133.53846009999998, 34.1258303 ], [ 133.541913099999988, 34.1288555 ], [ 133.5396218, 34.1329001 ], [ 133.5368181, 34.1312032 ], [ 133.5333087, 34.1326735 ] ] ], [ [ [ 133.6280703, 34.2007395 ], [ 133.625294599999989, 34.2035273 ], [ 133.622257099999985, 34.2020018 ], [ 133.6239511, 34.1995905 ], [ 133.6277077, 34.1980719 ], [ 133.6280703, 34.2007395 ] ] ], [ [ [ 133.6809419, 34.2673375 ], [ 133.6817385, 34.2728901 ], [ 133.674649, 34.2745504 ], [ 133.6701937, 34.2721663 ], [ 133.6736919, 34.269769 ], [ 133.6809419, 34.2673375 ] ] ], [ [ [ 133.631952, 34.2819959 ], [ 133.6309344, 34.2856219 ], [ 133.6264359, 34.2871142 ], [ 133.623676499999988, 34.2867431 ], [ 133.621756399999981, 34.2840826 ], [ 133.6214536, 34.2809305 ], [ 133.6247416, 34.2781708 ], [ 133.627589700000016, 34.2779903 ], [ 133.6269335, 34.271407599999989 ], [ 133.6225043, 34.2696985 ], [ 133.6176712, 34.2658347 ], [ 133.6194194, 34.2632522 ], [ 133.617192, 34.2590946 ], [ 133.6228362, 34.2561394 ], [ 133.6246837, 34.2607148 ], [ 133.6285839, 34.2612784 ], [ 133.630257199999988, 34.2633727 ], [ 133.6323266, 34.268798499999988 ], [ 133.639168899999987, 34.2697421 ], [ 133.6420946, 34.2716796 ], [ 133.650749, 34.2678808 ], [ 133.654986399999984, 34.2706648 ], [ 133.6524191, 34.2748124 ], [ 133.6563289, 34.2812279 ], [ 133.6496501, 34.2793624 ], [ 133.6474213, 34.2810554 ], [ 133.6443212, 34.2774887 ], [ 133.6444598, 34.2749194 ], [ 133.639219699999984, 34.2723073 ], [ 133.6324792, 34.2741111 ], [ 133.6287596, 34.2779337 ], [ 133.6299905, 34.281167 ], [ 133.631952, 34.2819959 ] ] ] ] } },
{ "type": "Feature", "properties": { "hokenjo": "中讃" }, "geometry": { "type": "MultiPolygon", "coordinates": [ [ [ [ 133.80013169999998, 34.1879856 ], [ 133.8070458, 34.1822494 ], [ 133.8062333, 34.1752358 ], [ 133.803531099999987, 34.1733269 ], [ 133.8027883, 34.1699553 ], [ 133.803870599999982, 34.1633061 ], [ 133.8007217, 34.1561761 ], [ 133.8025417, 34.1529331 ], [ 133.805858299999983, 34.1541358 ], [ 133.8084978, 34.1572392 ], [ 133.812176099999988, 34.1576042 ], [ 133.811040599999984, 34.1530728 ], [ 133.812382800000023, 34.1499803 ], [ 133.8170939, 34.1454275 ], [ 133.8160483, 34.1445256 ], [ 133.816325799999987, 34.1387703 ], [ 133.817371400000013, 34.1378789 ], [ 133.8168489, 34.1317475 ], [ 133.8183072, 34.1282683 ], [ 133.8157386, 34.1222067 ], [ 133.817475299999984, 34.1185292 ], [ 133.8171783, 34.1146311 ], [ 133.8201344, 34.1090367 ], [ 133.8183661, 34.1028406 ], [ 133.82116689999998, 34.0968378 ], [ 133.822225299999985, 34.0921881 ], [ 133.82601889999998, 34.0944292 ], [ 133.830649699999981, 34.095566399999989 ], [ 133.834132499999981, 34.0977408 ], [ 133.838336699999985, 34.0952119 ], [ 133.8421531, 34.0949664 ], [ 133.849490299999985, 34.0991514 ], [ 133.8548375, 34.1041647 ], [ 133.8630169, 34.1053383 ], [ 133.8652203, 34.1039008 ], [ 133.867084399999982, 34.1001528 ], [ 133.870583899999986, 34.1014264 ], [ 133.8739153, 34.1011381 ], [ 133.88012, 34.1040886 ], [ 133.884905, 34.1046306 ], [ 133.892854699999987, 34.1081969 ], [ 133.901339299999989, 34.1000653 ], [ 133.9078003, 34.1023425 ], [ 133.911564199999987, 34.1044097 ], [ 133.919405, 34.1122508 ], [ 133.922296099999983, 34.1144119 ], [ 133.9319667, 34.1160108 ], [ 133.9397672, 34.1148936 ], [ 133.937635799999981, 34.1081764 ], [ 133.93956559999998, 34.1046575 ], [ 133.9444308, 34.1017539 ], [ 133.943421699999988, 34.0999542 ], [ 133.943887499999988, 34.094495 ], [ 133.946079199999986, 34.0919325 ], [ 133.948648599999984, 34.0920061 ], [ 133.9564781, 34.0880992 ], [ 133.9592308, 34.0859164 ], [ 133.9591247, 34.082495 ], [ 133.96277809999998, 34.0811664 ], [ 133.969046099999986, 34.0812522 ], [ 133.97147720000001, 34.0778336 ], [ 133.973048, 34.0730213 ], [ 133.9769431, 34.0757604 ], [ 133.9840217, 34.0744399 ], [ 133.9887455, 34.0748675 ], [ 133.993934199999984, 34.0726175 ], [ 134.0015042, 34.0752253 ], [ 134.0021936, 34.0808681 ], [ 134.0104292, 34.0867683 ], [ 134.0161283, 34.0863756 ], [ 134.0217817, 34.0844717 ], [ 134.026257499999986, 34.0850883 ], [ 134.0277897, 34.0874281 ], [ 134.0256139, 34.0918911 ], [ 134.0282183, 34.0930542 ], [ 134.0312514, 34.0973942 ], [ 134.0370661, 34.0987669 ], [ 134.040040299999987, 34.100865 ], [ 134.0417953, 34.1055978 ], [ 134.0422317, 34.1103242 ], [ 134.0445814, 34.1137561 ], [ 134.0480133, 34.1151225 ], [ 134.049885, 34.1174156 ], [ 134.036072499999989, 34.1289458 ], [ 134.0342986, 34.1347481 ], [ 134.029615299999989, 34.1398225 ], [ 134.024584399999981, 34.1396625 ], [ 134.022405, 34.1521692 ], [ 134.0233108, 34.1552364 ], [ 134.020884199999983, 34.1581239 ], [ 134.021925, 34.1600403 ], [ 134.025633299999981, 34.1610636 ], [ 134.0255544, 34.1657272 ], [ 134.02823189999998, 34.1679386 ], [ 134.0277275, 34.1718914 ], [ 134.0241586, 34.1743944 ], [ 134.0233078, 34.1802531 ], [ 134.02500329999998, 34.1829894 ], [ 134.0253914, 34.1877764 ], [ 134.0234308, 34.1898936 ], [ 134.0170925, 34.1898603 ], [ 134.015200599999986, 34.2014811 ], [ 134.015387799999985, 34.2046553 ], [ 134.013413899999989, 34.2065539 ], [ 134.012943299999989, 34.2115856 ], [ 134.0101556, 34.2127828 ], [ 134.0088944, 34.2168542 ], [ 134.004374399999989, 34.2185558 ], [ 133.993958599999985, 34.2301903 ], [ 133.993003099999981, 34.2354644 ], [ 133.9891447, 34.2358272 ], [ 133.9885022, 34.2383678 ], [ 133.9851514, 34.2420347 ], [ 133.986315, 34.2476639 ], [ 133.988356899999985, 34.2529986 ], [ 133.990141699999981, 34.2540283 ], [ 133.9934381, 34.2602472 ], [ 133.9923369, 34.2632769 ], [ 133.9886773, 34.2668101 ], [ 133.9877258, 34.2619708 ], [ 133.9838617, 34.2661317 ], [ 133.9789264, 34.2639883 ], [ 133.9704625, 34.263225 ], [ 133.9657817, 34.2657417 ], [ 133.962258599999984, 34.2661689 ], [ 133.9533947, 34.26902 ], [ 133.950145599999985, 34.2712303 ], [ 133.94515, 34.2702518 ], [ 133.9439492, 34.2719825 ], [ 133.9439803, 34.2784878 ], [ 133.940948599999984, 34.2826894 ], [ 133.942780299999981, 34.2879833 ], [ 133.941848099999987, 34.2921642 ], [ 133.9385819, 34.2946589 ], [ 133.9394978, 34.2974494 ], [ 133.9386078, 34.3006744 ], [ 133.934975, 34.3051856 ], [ 133.9320333, 34.306385 ], [ 133.928918899999985, 34.3124958 ], [ 133.9253597, 34.3157989 ], [ 133.9295836, 34.3184064 ], [ 133.9305311, 34.32071 ], [ 133.9414811, 34.3222397 ], [ 133.94224, 34.3250994 ], [ 133.9492903, 34.3247342 ], [ 133.951352499999985, 34.3233089 ], [ 133.9538494, 34.3253428 ], [ 133.951300299999986, 34.3271508 ], [ 133.9535669, 34.3320444 ], [ 133.9523317, 34.3351911 ], [ 133.9464228, 34.3383767 ], [ 133.945409399999988, 34.3438308 ], [ 133.9433867, 34.3464117 ], [ 133.9374856, 34.3482394 ], [ 133.9377772, 34.3532403 ], [ 133.934899699999988, 34.3553308 ], [ 133.9366675, 34.3609456 ], [ 133.935741899999982, 34.3637606 ], [ 133.9355342, 34.3705094 ], [ 133.9335553, 34.3725497 ], [ 133.932378300000011, 34.3766589 ], [ 133.928825599999982, 34.3773606 ], [ 133.9297244, 34.3859081 ], [ 133.927607199999983, 34.3896538 ], [ 133.9253247, 34.3839551 ], [ 133.9209041, 34.377725 ], [ 133.9175553, 34.3768544 ], [ 133.909740299999982, 34.3820264 ], [ 133.9074325, 34.3783191 ], [ 133.90045809999998, 34.3776966 ], [ 133.8987196, 34.3813875 ], [ 133.893953399999987, 34.3824221 ], [ 133.889131599999985, 34.3777499 ], [ 133.8880486, 34.3751585 ], [ 133.890099, 34.3689654 ], [ 133.892714899999987, 34.3644703 ], [ 133.8909859, 34.3589243 ], [ 133.8949451, 34.3545869 ], [ 133.890543, 34.3516925 ], [ 133.8820552, 34.3440603 ], [ 133.878380199999981, 34.3447647 ], [ 133.8714123, 34.3397324 ], [ 133.8619905, 34.3318863 ], [ 133.8569621, 34.3306818 ], [ 133.857802199999981, 34.3266696 ], [ 133.8508017, 34.3264005 ], [ 133.850449700000013, 34.3301109 ], [ 133.8464261, 34.3280005 ], [ 133.8372574, 34.3252318 ], [ 133.834325399999983, 34.3248957 ], [ 133.8332174, 34.3296334 ], [ 133.830438, 34.3333127 ], [ 133.839052399999986, 34.3345971 ], [ 133.838445899999982, 34.3386491 ], [ 133.8445915, 34.3395223 ], [ 133.847780600000021, 34.338905 ], [ 133.8576181, 34.3458044 ], [ 133.858983599999988, 34.3530884 ], [ 133.8578847, 34.3574273 ], [ 133.8495547, 34.3599503 ], [ 133.8486419, 34.3562248 ], [ 133.8362019, 34.3457749 ], [ 133.828919, 34.3421462 ], [ 133.8293864, 34.3476382 ], [ 133.832758, 34.3493193 ], [ 133.8406909, 34.3560377 ], [ 133.840540399999981, 34.3606694 ], [ 133.824349399999988, 34.3525958 ], [ 133.820711499999987, 34.3513027 ], [ 133.822167, 34.3459596 ], [ 133.8209374, 34.337945 ], [ 133.8204718, 34.335340599999988 ], [ 133.822701600000016, 34.3255651 ], [ 133.8276764, 34.3261334 ], [ 133.829290499999985, 34.3234738 ], [ 133.8247154, 34.3233623 ], [ 133.8192642, 34.3210208 ], [ 133.8206901, 34.3187525 ], [ 133.8152519, 34.3173249 ], [ 133.8072947, 34.313435399999989 ], [ 133.8062998, 34.310632 ], [ 133.7969709, 34.305995 ], [ 133.7925081, 34.3099608 ], [ 133.7912957, 34.3087337 ], [ 133.79668479999998, 34.3017147 ], [ 133.7920149, 34.2994064 ], [ 133.7934061, 34.2964223 ], [ 133.7888154, 34.2950062 ], [ 133.7874431, 34.2971633 ], [ 133.7897443, 34.2986682 ], [ 133.782742, 34.3106555 ], [ 133.7721415, 34.305976 ], [ 133.7764149, 34.3038999 ], [ 133.77873169999998, 34.300256499999989 ], [ 133.7819108, 34.301675 ], [ 133.783311699999985, 34.3000094 ], [ 133.775337799999988, 34.2964979 ], [ 133.778106399999984, 34.2920522 ], [ 133.776224700000029, 34.2914716 ], [ 133.7683769, 34.3038044 ], [ 133.7618774, 34.299918 ], [ 133.7670516, 34.2920817 ], [ 133.7709408, 34.2882733 ], [ 133.7680988, 34.2877762 ], [ 133.7642284, 34.2843903 ], [ 133.760812099999981, 34.2870664 ], [ 133.756986, 34.2851273 ], [ 133.7582756, 34.2820934 ], [ 133.7517062, 34.27873 ], [ 133.7468022, 34.2853681 ], [ 133.7403994, 34.2819377 ], [ 133.7438096, 34.2774061 ], [ 133.747052, 34.2772503 ], [ 133.743884899999983, 34.2718088 ], [ 133.7411511, 34.2716585 ], [ 133.74008139999998, 34.2755776 ], [ 133.7359071, 34.2810543 ], [ 133.7313141, 34.2786883 ], [ 133.730153799999982, 34.2746579 ], [ 133.731065699999988, 34.2713256 ], [ 133.736994399999986, 34.2651957 ], [ 133.7356194, 34.2614437 ], [ 133.7313284, 34.2599711 ], [ 133.726987, 34.2572693 ], [ 133.7247142, 34.2545838 ], [ 133.720077799999984, 34.2531667 ], [ 133.7159346, 34.2488806 ], [ 133.7131927, 34.2471739 ], [ 133.708886299999989, 34.2408654 ], [ 133.7127994, 34.2355839 ], [ 133.7152889, 34.2354797 ], [ 133.719772799999987, 34.2299731 ], [ 133.7236239, 34.2310233 ], [ 133.725105, 34.2332281 ], [ 133.72861469999998, 34.2328094 ], [ 133.7266122, 34.2289278 ], [ 133.7270581, 34.2264939 ], [ 133.7334981, 34.2192794 ], [ 133.7375361, 34.2139267 ], [ 133.7403172, 34.2126636 ], [ 133.744054399999982, 34.2130919 ], [ 133.7500183, 34.2114364 ], [ 133.7496497, 34.2094139 ], [ 133.7527197, 34.2049547 ], [ 133.755406099999988, 34.2037731 ], [ 133.7559392, 34.1981317 ], [ 133.773026099999981, 34.1990758 ], [ 133.777885, 34.1962039 ], [ 133.7849267, 34.1985014 ], [ 133.788716099999988, 34.196355 ], [ 133.7928892, 34.1912339 ], [ 133.796019199999989, 34.1888669 ], [ 133.80013169999998, 34.1879856 ] ] ], [ [ [ 133.6801256, 34.3171114 ], [ 133.6733319, 34.3204614 ], [ 133.6680967, 34.3244233 ], [ 133.66433, 34.3255392 ], [ 133.661673899999982, 34.3240289 ], [ 133.6644469, 34.3167556 ], [ 133.6705231, 34.3079241 ], [ 133.6732345, 34.3062902 ], [ 133.680134399999986, 34.3058175 ], [ 133.682666399999988, 34.3102272 ], [ 133.6817864, 34.3146622 ], [ 133.6801256, 34.3171114 ] ] ], [ [ [ 133.6452258, 34.3367997 ], [ 133.6401161, 34.3375133 ], [ 133.638375599999989, 34.33511 ], [ 133.640978599999983, 34.3334808 ], [ 133.646585, 34.3342814 ], [ 133.6452258, 34.3367997 ] ] ], [ [ [ 133.6299869, 34.337552099999989 ], [ 133.63172179999998, 34.3389784 ], [ 133.629604699999987, 34.3426456 ], [ 133.6232847, 34.3496614 ], [ 133.621325, 34.3543919 ], [ 133.6192869, 34.3546228 ], [ 133.61736639999998, 34.3510872 ], [ 133.6190167, 34.3451772 ], [ 133.620775, 34.3420008 ], [ 133.619956100000024, 34.3335428 ], [ 133.622595, 34.3309167 ], [ 133.6274067, 34.3313733 ], [ 133.6299869, 34.337552099999989 ] ] ], [ [ [ 133.7869954, 34.3599182 ], [ 133.7854226, 34.3640814 ], [ 133.7823411, 34.3632814 ], [ 133.7796697, 34.3655027 ], [ 133.776067499999982, 34.3642907 ], [ 133.7750629, 34.3619583 ], [ 133.7757947, 34.3565136 ], [ 133.780070599999988, 34.3562087 ], [ 133.7869954, 34.3599182 ] ] ], [ [ [ 133.724900599999984, 34.3844167 ], [ 133.717834399999987, 34.3924303 ], [ 133.718893, 34.3964039 ], [ 133.712433, 34.4005697 ], [ 133.710496899999981, 34.3990967 ], [ 133.7084183, 34.3937544 ], [ 133.7091413, 34.3872587 ], [ 133.705535, 34.3853903 ], [ 133.6994861, 34.3867483 ], [ 133.697931899999986, 34.3837607 ], [ 133.6973377, 34.3786603 ], [ 133.6904428, 34.3777283 ], [ 133.690728299999989, 34.3756883 ], [ 133.688212199999981, 34.3695423 ], [ 133.6887668, 34.365749699999988 ], [ 133.6850737, 34.3636116 ], [ 133.6845247, 34.3612467 ], [ 133.687337, 34.3587122 ], [ 133.6953964, 34.3550628 ], [ 133.698849199999984, 34.3520142 ], [ 133.7088588, 34.3532472 ], [ 133.708751899999982, 34.3573707 ], [ 133.7119253, 34.3633467 ], [ 133.7156211, 34.3644175 ], [ 133.718805799999984, 34.3623652 ], [ 133.7226019, 34.362461 ], [ 133.727584900000011, 34.3680208 ], [ 133.730512799999985, 34.3702855 ], [ 133.7304081, 34.3741961 ], [ 133.7268981, 34.3794072 ], [ 133.724900599999984, 34.3844167 ] ] ], [ [ [ 133.6469228, 34.3773392 ], [ 133.647989199999984, 34.3741444 ], [ 133.6524475, 34.3733919 ], [ 133.6528339, 34.3758805 ], [ 133.6494624, 34.3832841 ], [ 133.6429075, 34.376945 ], [ 133.6469228, 34.3773392 ] ] ], [ [ [ 133.789977199999981, 34.3919447 ], [ 133.7905522, 34.3952975 ], [ 133.7826881, 34.3974161 ], [ 133.7776628, 34.4010031 ], [ 133.774166799999989, 34.3971214 ], [ 133.7676774, 34.3922596 ], [ 133.7614619, 34.3899926 ], [ 133.7584192, 34.3911403 ], [ 133.7567206, 34.3971656 ], [ 133.752707499999985, 34.3986075 ], [ 133.7516381, 34.3946181 ], [ 133.7545359, 34.3931306 ], [ 133.752905299999981, 34.3880058 ], [ 133.7568828, 34.3849118 ], [ 133.760187799999983, 34.3790183 ], [ 133.759420299999988, 34.3762119 ], [ 133.7572269, 34.3751131 ], [ 133.756533599999983, 34.3718986 ], [ 133.7576317, 34.3698003 ], [ 133.7632078, 34.3687175 ], [ 133.769950599999987, 34.3722108 ], [ 133.772004899999985, 34.3772164 ], [ 133.777497899999986, 34.3806666 ], [ 133.7819504, 34.3806977 ], [ 133.78543209999998, 34.383347 ], [ 133.788871900000032, 34.3841233 ], [ 133.7883861, 34.3867271 ], [ 133.7909081, 34.3880903 ], [ 133.7944756, 34.3873478 ], [ 133.7943444, 34.3902239 ], [ 133.789977199999981, 34.3919447 ] ] ], [ [ [ 133.6737781, 34.3984986 ], [ 133.6717591, 34.4008337 ], [ 133.675418, 34.4071534 ], [ 133.675800399999986, 34.4099239 ], [ 133.6717495, 34.4108221 ], [ 133.6679456, 34.4089891 ], [ 133.6588381, 34.4064686 ], [ 133.652741, 34.4091288 ], [ 133.6511817, 34.4067275 ], [ 133.65690189999998, 34.4034986 ], [ 133.6592206, 34.3997217 ], [ 133.662013299999984, 34.3977867 ], [ 133.6612726, 34.3911366 ], [ 133.663356099999987, 34.3909886 ], [ 133.665471599999989, 34.3830111 ], [ 133.6680369, 34.3866828 ], [ 133.672079199999985, 34.3886947 ], [ 133.6737775, 34.3916308 ], [ 133.67695, 34.3928253 ], [ 133.6775576, 34.3989676 ], [ 133.6737781, 34.3984986 ] ] ], [ [ [ 133.7839653, 34.4072342 ], [ 133.7802725, 34.4045972 ], [ 133.7832856, 34.4029269 ], [ 133.789344199999988, 34.4034953 ], [ 133.7839653, 34.4072342 ] ] ], [ [ [ 133.812335499999989, 34.3919204 ], [ 133.8150482, 34.3844963 ], [ 133.822366, 34.3828401 ], [ 133.8245612, 34.3901934 ], [ 133.8204777, 34.3953692 ], [ 133.81509, 34.3942039 ], [ 133.812335499999989, 34.3919204 ] ] ], [ [ [ 133.828017499999987, 34.3903832 ], [ 133.8327897, 34.3891394 ], [ 133.8313431, 34.3941563 ], [ 133.829464, 34.3949573 ], [ 133.827389899999986, 34.3921952 ], [ 133.828017499999987, 34.3903832 ] ] ], [ [ [ 133.8120707, 34.4086844 ], [ 133.8088337, 34.408191 ], [ 133.8075098, 34.4053315 ], [ 133.8112918, 34.4042684 ], [ 133.8120707, 34.4086844 ] ] ], [ [ [ 133.799988, 34.417872 ], [ 133.804424899999987, 34.4150829 ], [ 133.806418399999984, 34.4189771 ], [ 133.809143, 34.420816699999989 ], [ 133.8046004, 34.4273651 ], [ 133.795608, 34.4252661 ], [ 133.8001504, 34.4218306 ], [ 133.799988, 34.417872 ] ] ] ] } },
{ "type": "Feature", "properties": { "hokenjo": "東讃" }, "geometry": { "type": "MultiPolygon", "coordinates": [ [ [ [ 133.9649503, 34.4539986 ], [ 133.966953599999982, 34.4556542 ], [ 133.9654711, 34.4618364 ], [ 133.9609075, 34.4587419 ], [ 133.958848099999983, 34.4608347 ], [ 133.9563833, 34.4605586 ], [ 133.955936399999985, 34.45775 ], [ 133.958672799999988, 34.4544822 ], [ 133.9613292, 34.4551131 ], [ 133.9649503, 34.4539986 ] ] ], [ [ [ 133.982328599999988, 34.4756211 ], [ 133.977848099999989, 34.4753497 ], [ 133.971918099999982, 34.4731181 ], [ 133.969815, 34.4779853 ], [ 133.9657694, 34.4770133 ], [ 133.9662528, 34.4716414 ], [ 133.9676469, 34.4688744 ], [ 133.9668967, 34.466475 ], [ 133.9699219, 34.4603619 ], [ 133.9745424, 34.4573888 ], [ 133.9754342, 34.4542681 ], [ 133.9732864, 34.4531042 ], [ 133.9762819, 34.4490172 ], [ 133.9795675, 34.44941 ], [ 133.9843003, 34.4462781 ], [ 133.9876753, 34.4465539 ], [ 133.991116399999981, 34.443105 ], [ 133.9931297, 34.4462214 ], [ 134.0025517, 34.4451778 ], [ 134.0089614, 34.4475661 ], [ 134.0117353, 34.4542253 ], [ 134.0050517, 34.4528022 ], [ 134.0030411, 34.4506725 ], [ 133.9997353, 34.4548939 ], [ 134.0009475, 34.4565231 ], [ 133.9994053, 34.4610075 ], [ 133.9886407, 34.4676863 ], [ 133.9831256, 34.4719744 ], [ 133.982328599999988, 34.4756211 ] ] ], [ [ [ 133.954886099999982, 34.4682519 ], [ 133.9588406, 34.4685678 ], [ 133.9583911, 34.4716636 ], [ 133.9537025, 34.4778194 ], [ 133.9507064, 34.4754842 ], [ 133.9507333, 34.4734553 ], [ 133.954868299999987, 34.4710944 ], [ 133.954886099999982, 34.4682519 ] ] ], [ [ [ 133.975957199999982, 34.4751639 ], [ 133.9775353, 34.4783114 ], [ 133.9737064, 34.4780714 ], [ 133.9723439, 34.4805119 ], [ 133.9716264, 34.474775 ], [ 133.975957199999982, 34.4751639 ] ] ], [ [ [ 133.989680599999986, 34.4843717 ], [ 133.9901844, 34.4815039 ], [ 133.9940406, 34.4828225 ], [ 133.994083099999983, 34.4868203 ], [ 133.989680599999986, 34.4843717 ] ] ], [ [ [ 133.9835406, 34.4889122 ], [ 133.9843219, 34.4926225 ], [ 133.9810714, 34.4920361 ], [ 133.9790553, 34.4950975 ], [ 133.9771881, 34.4932478 ], [ 133.979983299999986, 34.4881894 ], [ 133.9835406, 34.4889122 ] ] ], [ [ [ 133.970631700000013, 34.5057361 ], [ 133.975601399999988, 34.5052739 ], [ 133.97394, 34.5088075 ], [ 133.9736269, 34.5125161 ], [ 133.9704342, 34.5091233 ], [ 133.970631700000013, 34.5057361 ] ] ], [ [ [ 134.297588, 34.2756431 ], [ 134.2960704, 34.2740224 ], [ 134.288104799999985, 34.2753011 ], [ 134.2822563, 34.2790607 ], [ 134.280505299999987, 34.279003 ], [ 134.2762627, 34.2825252 ], [ 134.2747928, 34.2848614 ], [ 134.2760999, 34.2867331 ], [ 134.2717251, 34.2891477 ], [ 134.2681761, 34.2878938 ], [ 134.2682366, 34.2840263 ], [ 134.2649112, 34.2847503 ], [ 134.2623576, 34.2828316 ], [ 134.2557214, 34.2870647 ], [ 134.250455099999982, 34.2952162 ], [ 134.250213, 34.2976124 ], [ 134.2467026, 34.3039109 ], [ 134.248319399999986, 34.3077643 ], [ 134.251322099999982, 34.3113838 ], [ 134.259146499999986, 34.3142764 ], [ 134.2599854, 34.3179699 ], [ 134.264837799999981, 34.3190923 ], [ 134.261830799999984, 34.3293965 ], [ 134.2627473, 34.3315795 ], [ 134.266389900000036, 34.3327629 ], [ 134.265835399999986, 34.3366058 ], [ 134.2584685, 34.3366119 ], [ 134.256539600000025, 34.3396354 ], [ 134.257425399999988, 34.3452956 ], [ 134.250119899999987, 34.3515859 ], [ 134.246599, 34.3492106 ], [ 134.2445612, 34.3456484 ], [ 134.242392199999983, 34.3442629 ], [ 134.240750099999985, 34.3403712 ], [ 134.2362836, 34.3394737 ], [ 134.2337709, 34.3371731 ], [ 134.2319866, 34.3392287 ], [ 134.2262063, 34.3420207 ], [ 134.2243125, 34.3467026 ], [ 134.22052069999998, 34.347397 ], [ 134.218302199999982, 34.3497392 ], [ 134.218635899999981, 34.353372 ], [ 134.2174263, 34.355721 ], [ 134.216593499999988, 34.3620076 ], [ 134.2152975, 34.3648353 ], [ 134.211678399999983, 34.3656349 ], [ 134.2113163, 34.3691319 ], [ 134.206992, 34.3696252 ], [ 134.2043272, 34.366810199999989 ], [ 134.2063167, 34.3603859 ], [ 134.2098239, 34.3579705 ], [ 134.2100769, 34.3547522 ], [ 134.213362, 34.3498762 ], [ 134.2087757, 34.3452302 ], [ 134.2047074, 34.3432278 ], [ 134.1974914, 34.3454769 ], [ 134.1923198, 34.3438702 ], [ 134.1900661, 34.3497261 ], [ 134.1880702, 34.3513495 ], [ 134.1831092, 34.3516749 ], [ 134.1837464, 34.3465154 ], [ 134.1868983, 34.3460347 ], [ 134.1870161, 34.3394933 ], [ 134.1849834, 34.3335741 ], [ 134.1782304, 34.3322403 ], [ 134.178639, 34.3267098 ], [ 134.1740035, 34.3242541 ], [ 134.165722, 34.3260585 ], [ 134.1647872, 34.3222583 ], [ 134.160564199999982, 34.3175292 ], [ 134.1591156, 34.3140847 ], [ 134.1554347, 34.3106217 ], [ 134.1493269, 34.3134856 ], [ 134.1397619, 34.3142297 ], [ 134.1371106, 34.3131131 ], [ 134.133530799999988, 34.3143431 ], [ 134.130212199999988, 34.3173086 ], [ 134.1249853, 34.3099653 ], [ 134.126520299999981, 34.3039889 ], [ 134.1254767, 34.2986236 ], [ 134.1219719, 34.2974483 ], [ 134.1210925, 34.2940819 ], [ 134.1222256, 34.2918447 ], [ 134.119142499999981, 34.2903208 ], [ 134.1192097, 34.2876428 ], [ 134.11452749999998, 34.2685028 ], [ 134.112458299999986, 34.2622653 ], [ 134.1116203, 34.2544372 ], [ 134.1094728, 34.2521572 ], [ 134.1114667, 34.2489672 ], [ 134.110438099999982, 34.2447153 ], [ 134.1122383, 34.2400333 ], [ 134.1146197, 34.2382519 ], [ 134.113370799999984, 34.2354075 ], [ 134.111200599999989, 34.2348275 ], [ 134.1111319, 34.2318264 ], [ 134.113086899999985, 34.2301039 ], [ 134.114383300000014, 34.2264947 ], [ 134.112144199999989, 34.2251458 ], [ 134.112079699999981, 34.2217533 ], [ 134.1086736, 34.2197194 ], [ 134.1056078, 34.2146008 ], [ 134.1069297, 34.2105058 ], [ 134.1054011, 34.2094681 ], [ 134.1052292, 34.2016417 ], [ 134.10932, 34.19827 ], [ 134.1104183, 34.1930325 ], [ 134.1096925, 34.1833781 ], [ 134.1142839, 34.1807672 ], [ 134.112349699999982, 34.1781428 ], [ 134.1181461, 34.1732122 ], [ 134.1223297, 34.1674511 ], [ 134.12367, 34.1619228 ], [ 134.125445, 34.1602525 ], [ 134.128206899999981, 34.1526894 ], [ 134.1309575, 34.1509092 ], [ 134.1352569, 34.1515383 ], [ 134.1371786, 34.1547275 ], [ 134.140697499999987, 34.1551628 ], [ 134.143799199999989, 34.1586514 ], [ 134.145743300000021, 34.16453 ], [ 134.1506164, 34.1663106 ], [ 134.155439199999989, 34.1667478 ], [ 134.1593131, 34.1696683 ], [ 134.1632433, 34.1697844 ], [ 134.1685061, 34.1744739 ], [ 134.173100299999987, 34.1757894 ], [ 134.1827083, 34.1739689 ], [ 134.185305799999981, 34.1742614 ], [ 134.1950642, 34.1718742 ], [ 134.198291899999987, 34.1753519 ], [ 134.2042975, 34.1726911 ], [ 134.208726399999989, 34.1747256 ], [ 134.216008099999982, 34.1763764 ], [ 134.2206472, 34.17986 ], [ 134.2237025, 34.1798422 ], [ 134.2271331, 34.1778203 ], [ 134.227966100000032, 34.1804814 ], [ 134.237026899999989, 34.1804511 ], [ 134.244488599999983, 34.1796836 ], [ 134.2474278, 34.17873 ], [ 134.2508403, 34.18051 ], [ 134.25657529999998, 34.1809542 ], [ 134.2602636, 34.1835578 ], [ 134.273440599999986, 34.1811339 ], [ 134.2771525, 34.1764811 ], [ 134.287156399999986, 34.1800706 ], [ 134.2922331, 34.1791428 ], [ 134.2960914, 34.1727608 ], [ 134.2975744, 34.1686775 ], [ 134.3002428, 34.1702811 ], [ 134.308067199999982, 34.1707597 ], [ 134.3106119, 34.1747086 ], [ 134.31444639999998, 34.1772172 ], [ 134.328313899999984, 34.1731667 ], [ 134.3340733, 34.1755394 ], [ 134.3441933, 34.1723797 ], [ 134.3464147, 34.1757386 ], [ 134.348064199999982, 34.1838742 ], [ 134.349842199999983, 34.1853217 ], [ 134.3579933, 34.1846536 ], [ 134.3602589, 34.1820931 ], [ 134.363190300000014, 34.1817869 ], [ 134.3686931, 34.178255 ], [ 134.370143899999988, 34.1759617 ], [ 134.374977799999982, 34.1733461 ], [ 134.375658300000026, 34.1717858 ], [ 134.383113899999984, 34.1721369 ], [ 134.3854872, 34.1650967 ], [ 134.388572499999981, 34.1651606 ], [ 134.3936517, 34.1635492 ], [ 134.397095, 34.1647769 ], [ 134.400054399999988, 34.1677642 ], [ 134.4041781, 34.1670461 ], [ 134.407419399999981, 34.1625494 ], [ 134.411442199999982, 34.1614956 ], [ 134.4128, 34.157113099999989 ], [ 134.4195986, 34.1579406 ], [ 134.4251936, 34.165708099999989 ], [ 134.4284639, 34.1674419 ], [ 134.4328142, 34.1680533 ], [ 134.4338717, 34.1695142 ], [ 134.432921099999987, 34.173404399999988 ], [ 134.434163899999987, 34.1747844 ], [ 134.43364, 34.1787806 ], [ 134.430630799999989, 34.1789603 ], [ 134.4292639, 34.1833478 ], [ 134.431619399999988, 34.1862261 ], [ 134.437963599999989, 34.1894497 ], [ 134.438865, 34.1978011 ], [ 134.4406961, 34.1998064 ], [ 134.440242499999982, 34.2072817 ], [ 134.4377792, 34.207036 ], [ 134.4282934, 34.2111716 ], [ 134.415196399999985, 34.2193917 ], [ 134.4144944, 34.2215624 ], [ 134.409902, 34.2230416 ], [ 134.4064182, 34.2264195 ], [ 134.4068231, 34.2311209 ], [ 134.4119399, 34.2324837 ], [ 134.4121169, 34.234964 ], [ 134.4071227, 34.2380089 ], [ 134.402005699999989, 34.2384054 ], [ 134.3992024, 34.2365039 ], [ 134.396386399999983, 34.238781 ], [ 134.398584299999982, 34.2414963 ], [ 134.3974666, 34.2447113 ], [ 134.3937391, 34.2510988 ], [ 134.3900501, 34.2548428 ], [ 134.383079899999984, 34.2573951 ], [ 134.377513599999986, 34.2605536 ], [ 134.3754293, 34.2594674 ], [ 134.3768916, 34.25374 ], [ 134.3747645, 34.2522019 ], [ 134.3684044, 34.2497966 ], [ 134.3622216, 34.2499396 ], [ 134.356811300000032, 34.2535474 ], [ 134.351870099999985, 34.2521086 ], [ 134.346832399999982, 34.2525027 ], [ 134.340528799999987, 34.2550499 ], [ 134.3385441, 34.2587518 ], [ 134.3341651, 34.2586423 ], [ 134.3283127, 34.2620034 ], [ 134.3234888, 34.2655609 ], [ 134.3178198, 34.2710743 ], [ 134.313007299999981, 34.2746849 ], [ 134.308874799999984, 34.2755018 ], [ 134.3059182, 34.2784926 ], [ 134.302024599999982, 34.2757549 ], [ 134.297588, 34.2756431 ] ] ], [ [ [ 134.0071194, 34.4355614 ], [ 134.0103508, 34.4360942 ], [ 134.014271899999983, 34.4399011 ], [ 134.0136336, 34.4422908 ], [ 134.0095722, 34.4411044 ], [ 134.0078086, 34.4421192 ], [ 134.0037667, 34.4401361 ], [ 134.0071194, 34.4355614 ] ] ], [ [ [ 134.009354699999989, 34.4680903 ], [ 134.0087361, 34.4712933 ], [ 134.00415719999998, 34.4691825 ], [ 134.004351899999989, 34.47318 ], [ 134.001375, 34.4725544 ], [ 133.9987739, 34.4700656 ], [ 133.999845099999987, 34.4624668 ], [ 134.004359199999982, 34.4620292 ], [ 134.0067689, 34.4665281 ], [ 134.009354699999989, 34.4680903 ] ] ], [ [ [ 133.995938099999989, 34.4777625 ], [ 133.9926261, 34.4757278 ], [ 133.9965228, 34.472645299999989 ], [ 133.995938099999989, 34.4777625 ] ] ], [ [ [ 134.020709399999987, 34.4863697 ], [ 134.020277199999981, 34.489216399999989 ], [ 134.0219236, 34.4916897 ], [ 134.0238444, 34.5063331 ], [ 134.019445, 34.5033658 ], [ 134.0189892, 34.4982103 ], [ 134.0168483, 34.4965128 ], [ 134.0119556, 34.4961728 ], [ 134.0105475, 34.4941803 ], [ 134.0110628, 34.4871586 ], [ 134.0137308, 34.4866775 ], [ 134.015368599999988, 34.4812833 ], [ 134.019111899999984, 34.4800764 ], [ 134.020709399999987, 34.4863697 ] ] ] ] } }
]
}
