{
"type": "FeatureCollection",
"name": "kanagawa",
"crs": { "type": "name", "properties": { "name": "urn:ogc:def:crs:OGC:1.3:CRS84" } },
"features": [
{ "type": "Feature", "properties": { "hokenjo": "横須賀市" }, "geometry": { "type": "MultiPolygon", "coordinates": [ [ [ [ 139.6358014, 35.3234388 ], [ 139.632144899999986, 35.3221916 ], [ 139.6316027, 35.3252048 ], [ 139.6246054, 35.3187353 ], [ 139.6140663, 35.3165892 ], [ 139.609434, 35.3125017 ], [ 139.6120154, 35.3066846 ], [ 139.618056199999984, 35.3027979 ], [ 139.618602899999985, 35.2996677 ], [ 139.6225145, 35.2932233 ], [ 139.623822, 35.2884549 ], [ 139.6210409, 35.2844925 ], [ 139.6231067, 35.2792692 ], [ 139.6279695, 35.2787369 ], [ 139.631493399999982, 35.274995 ], [ 139.639339799999988, 35.2736383 ], [ 139.637793099999982, 35.2647639 ], [ 139.6360458, 35.2617006 ], [ 139.629653, 35.258499 ], [ 139.6275527, 35.2559865 ], [ 139.621561899999989, 35.2574637 ], [ 139.618332399999986, 35.2614993 ], [ 139.6132438, 35.2577301 ], [ 139.60346210000003, 35.2580951 ], [ 139.5968899, 35.2560446 ], [ 139.5820374, 35.2548712 ], [ 139.578053499999982, 35.2533705 ], [ 139.5859146, 35.2514936 ], [ 139.5998351, 35.2388874 ], [ 139.5996786, 35.2350116 ], [ 139.6040691, 35.2315998 ], [ 139.6026588, 35.2254134 ], [ 139.6085637, 35.2221283 ], [ 139.6129325, 35.2231246 ], [ 139.621463, 35.2200387 ], [ 139.6267004, 35.2167499 ], [ 139.627006099999988, 35.2131921 ], [ 139.623055099999988, 35.2076098 ], [ 139.6171192, 35.208189 ], [ 139.6140949, 35.2099346 ], [ 139.609007099999985, 35.208905 ], [ 139.6050161, 35.2036948 ], [ 139.605194899999987, 35.1994637 ], [ 139.599182399999989, 35.1963897 ], [ 139.601319400000023, 35.1935554 ], [ 139.605815899999982, 35.1940611 ], [ 139.6102771, 35.1901379 ], [ 139.6157167, 35.1899341 ], [ 139.620535499999988, 35.1966281 ], [ 139.626421599999986, 35.1994103 ], [ 139.6292302, 35.1991953 ], [ 139.6328642, 35.2052145 ], [ 139.64075219999998, 35.2065325 ], [ 139.6472498, 35.2063156 ], [ 139.6552184, 35.2097464 ], [ 139.655161099999987, 35.2044503 ], [ 139.658223099999987, 35.202442 ], [ 139.6600861, 35.1983203 ], [ 139.664782699999989, 35.1930602 ], [ 139.6671184, 35.1955562 ], [ 139.6854639, 35.2070883 ], [ 139.692704099999986, 35.2094128 ], [ 139.7147618, 35.2118126 ], [ 139.716812399999981, 35.2106657 ], [ 139.7249774, 35.211912 ], [ 139.7227634, 35.2182786 ], [ 139.715978899999982, 35.2183334 ], [ 139.713408499999986, 35.2239308 ], [ 139.7176609, 35.228347 ], [ 139.7213319, 35.2272385 ], [ 139.722603099999986, 35.2241821 ], [ 139.7267381, 35.2245328 ], [ 139.7292728, 35.2291404 ], [ 139.727715700000033, 35.2331724 ], [ 139.7201598, 35.2403129 ], [ 139.7271801, 35.239647 ], [ 139.7332197, 35.2408399 ], [ 139.7341782, 35.2459633 ], [ 139.737811099999988, 35.2495293 ], [ 139.746417799999989, 35.2533365 ], [ 139.746215799999987, 35.2563128 ], [ 139.7395522, 35.2614067 ], [ 139.7331604, 35.2615555 ], [ 139.7273592, 35.2641455 ], [ 139.7210809, 35.2631716 ], [ 139.7031963, 35.2639561 ], [ 139.6909949, 35.2664842 ], [ 139.6901599, 35.2710901 ], [ 139.6845898, 35.2735914 ], [ 139.685770099999985, 35.2755846 ], [ 139.6773201, 35.2800512 ], [ 139.6741346, 35.2869097 ], [ 139.680015699999984, 35.2893461 ], [ 139.677425699999986, 35.2922111 ], [ 139.679804099999984, 35.295822 ], [ 139.674207199999984, 35.3004608 ], [ 139.668717099999981, 35.3018328 ], [ 139.6617909, 35.3006661 ], [ 139.6654177, 35.2926083 ], [ 139.657514, 35.2909581 ], [ 139.660735499999987, 35.2871918 ], [ 139.6608312, 35.2829044 ], [ 139.655207099999984, 35.2847702 ], [ 139.649652299999985, 35.2880503 ], [ 139.646835899999985, 35.2955352 ], [ 139.6424443, 35.2991895 ], [ 139.6389438, 35.294972 ], [ 139.6353647, 35.2961595 ], [ 139.6324439, 35.3014391 ], [ 139.638956, 35.3006773 ], [ 139.6556924, 35.3215705 ], [ 139.6612246, 35.3222595 ], [ 139.66066859999998, 35.3281744 ], [ 139.648992099999987, 35.3274204 ], [ 139.6407324, 35.3303735 ], [ 139.63773519999998, 35.3256447 ], [ 139.637444, 35.3253096 ], [ 139.6372527, 35.3251224 ], [ 139.6368933, 35.3247012 ], [ 139.636838, 35.3246254 ], [ 139.6358014, 35.3234388 ] ] ], [ [ [ 139.6518424, 35.3074184 ], [ 139.6437033, 35.3003254 ], [ 139.6485328, 35.2947043 ], [ 139.6527738, 35.2967854 ], [ 139.6518453, 35.299118 ], [ 139.656434599999983, 35.3018696 ], [ 139.6518424, 35.3074184 ] ] ] ] } },
{ "type": "Feature", "properties": { "hokenjo": "横浜市" }, "geometry": { "type": "MultiPolygon", "coordinates": [ [ [ [ 139.587858499999982, 35.3365185 ], [ 139.5887099, 35.3300475 ], [ 139.592959, 35.3240275 ], [ 139.593160399999988, 35.3204147 ], [ 139.5962223, 35.3164214 ], [ 139.6021687, 35.316992 ], [ 139.609434, 35.3125017 ], [ 139.6140663, 35.3165892 ], [ 139.6246054, 35.3187353 ], [ 139.6316027, 35.3252048 ], [ 139.623469, 35.3301101 ], [ 139.6297936, 35.3295966 ], [ 139.6349501, 35.3326704 ], [ 139.6338031, 35.3359661 ], [ 139.6390169, 35.3406424 ], [ 139.6457895, 35.3396805 ], [ 139.6569533, 35.3419349 ], [ 139.6569274, 35.3534939 ], [ 139.6548353, 35.3536691 ], [ 139.650978, 35.3598381 ], [ 139.6509361, 35.3664165 ], [ 139.656513599999982, 35.36654 ], [ 139.6565051, 35.3726847 ], [ 139.650475100000023, 35.3732356 ], [ 139.645893199999989, 35.3780933 ], [ 139.6510691, 35.3827681 ], [ 139.6532056, 35.3873873 ], [ 139.645680699999986, 35.3905392 ], [ 139.6396833, 35.3853744 ], [ 139.633812799999987, 35.3828457 ], [ 139.6293009, 35.3839816 ], [ 139.627429299999989, 35.3862071 ], [ 139.63653, 35.3902948 ], [ 139.631302299999987, 35.3945586 ], [ 139.6246195, 35.3916652 ], [ 139.622179099999983, 35.3960855 ], [ 139.626023299999986, 35.4016368 ], [ 139.6321003, 35.4003962 ], [ 139.645364, 35.4028275 ], [ 139.6417614, 35.4069229 ], [ 139.631299, 35.4048074 ], [ 139.6277169, 35.4091407 ], [ 139.6310466, 35.4110274 ], [ 139.6338125, 35.4083851 ], [ 139.642392299999983, 35.4116005 ], [ 139.6525787, 35.4130192 ], [ 139.6631984, 35.4066193 ], [ 139.6688685, 35.4064489 ], [ 139.6695546, 35.4028769 ], [ 139.6794463, 35.4108552 ], [ 139.6812622, 35.414956599999989 ], [ 139.6780058, 35.416191 ], [ 139.6812176, 35.4264219 ], [ 139.685393799999986, 35.4266571 ], [ 139.690613899999988, 35.439224 ], [ 139.6853487, 35.4420041 ], [ 139.67830619999998, 35.4303795 ], [ 139.675346099999985, 35.4315884 ], [ 139.6814995, 35.4415757 ], [ 139.6752811, 35.4457091 ], [ 139.671151, 35.4388428 ], [ 139.6685459, 35.4402253 ], [ 139.674315799999988, 35.4497124 ], [ 139.670357599999988, 35.4513023 ], [ 139.6640669, 35.4428414 ], [ 139.660280799999981, 35.4412588 ], [ 139.6569771, 35.4443398 ], [ 139.663627099999985, 35.4467575 ], [ 139.657144099999982, 35.4513341 ], [ 139.6518558, 35.4451252 ], [ 139.646684599999986, 35.4481174 ], [ 139.6441343, 35.4538506 ], [ 139.6385024, 35.4568015 ], [ 139.6355117, 35.4554326 ], [ 139.638074099999983, 35.4573803 ], [ 139.6383879, 35.463784 ], [ 139.6334745, 35.4649723 ], [ 139.63812249999998, 35.4651786 ], [ 139.6419712, 35.4734379 ], [ 139.6446565, 35.4759786 ], [ 139.651565299999987, 35.4763976 ], [ 139.6483235, 35.4803845 ], [ 139.6514518, 35.4815162 ], [ 139.6538845, 35.4766518 ], [ 139.6691496, 35.4774866 ], [ 139.667249, 35.4835175 ], [ 139.673140099999983, 35.4751321 ], [ 139.66790469999998, 35.4735629 ], [ 139.6684179, 35.4678294 ], [ 139.6817744, 35.4728904 ], [ 139.681772, 35.4783564 ], [ 139.6894891, 35.4789146 ], [ 139.692800799999986, 35.4814064 ], [ 139.6883302, 35.4897619 ], [ 139.6932137, 35.492413 ], [ 139.696301, 35.4840444 ], [ 139.711456699999985, 35.4908009 ], [ 139.7047451, 35.500993 ], [ 139.703402899999986, 35.5044424 ], [ 139.698875099999981, 35.5027555 ], [ 139.696613499999984, 35.5058758 ], [ 139.691645, 35.5194753 ], [ 139.6882411, 35.5226605 ], [ 139.688695, 35.5263919 ], [ 139.6836334, 35.5313977 ], [ 139.6849143, 35.5399861 ], [ 139.6779262, 35.5397219 ], [ 139.674882599999989, 35.5371844 ], [ 139.6664528, 35.5329994 ], [ 139.6555426, 35.5388322 ], [ 139.654437299999984, 35.5428311 ], [ 139.6582535, 35.5547428 ], [ 139.6523154, 35.5568247 ], [ 139.648334899999981, 35.5597933 ], [ 139.6429343, 35.5583614 ], [ 139.6333334, 35.5613986 ], [ 139.626410099999987, 35.5625014 ], [ 139.613520599999987, 35.5609525 ], [ 139.610107299999981, 35.56459 ], [ 139.6007112, 35.565540299999988 ], [ 139.5800784, 35.569223 ], [ 139.57491779999998, 35.5691541 ], [ 139.571792, 35.5716083 ], [ 139.567860599999989, 35.5714406 ], [ 139.565143899999981, 35.5788372 ], [ 139.55588179999998, 35.5873444 ], [ 139.536565599999989, 35.5912986 ], [ 139.5265704, 35.5925044 ], [ 139.5282973, 35.5877627 ], [ 139.5266026, 35.5860072 ], [ 139.529095899999987, 35.5822474 ], [ 139.524882500000018, 35.5789572 ], [ 139.524287499999986, 35.5735699 ], [ 139.5217711, 35.5711022 ], [ 139.512910500000032, 35.5695769 ], [ 139.507013299999983, 35.5758219 ], [ 139.5065749, 35.5717158 ], [ 139.5006019, 35.5704427 ], [ 139.496267099999983, 35.5646402 ], [ 139.491031, 35.5614258 ], [ 139.4864135, 35.5689461 ], [ 139.482868, 35.5713838 ], [ 139.4754113, 35.5713736 ], [ 139.4699263, 35.5698933 ], [ 139.4682918, 35.563296 ], [ 139.4704098, 35.5604052 ], [ 139.4797276, 35.5593886 ], [ 139.4819904, 35.5556294 ], [ 139.4823934, 35.5474163 ], [ 139.4803325, 35.5431463 ], [ 139.4816372, 35.5399458 ], [ 139.486816399999981, 35.5355255 ], [ 139.485773, 35.5313524 ], [ 139.487797700000016, 35.5278825 ], [ 139.486471, 35.5203011 ], [ 139.483283199999988, 35.519153 ], [ 139.4769868, 35.5112141 ], [ 139.481130899999982, 35.5053114 ], [ 139.4848642, 35.5040475 ], [ 139.4763831, 35.5013536 ], [ 139.4677225, 35.5023733 ], [ 139.4649953, 35.4981258 ], [ 139.466229400000032, 35.4953164 ], [ 139.4705755, 35.4926272 ], [ 139.4694996, 35.4853231 ], [ 139.4700876, 35.4780506 ], [ 139.4718746, 35.4721073 ], [ 139.474510399999986, 35.4697698 ], [ 139.472158399999984, 35.4622645 ], [ 139.474199199999987, 35.4569293 ], [ 139.4806652, 35.4486176 ], [ 139.473153699999983, 35.4357721 ], [ 139.4739662, 35.4308085 ], [ 139.4727756, 35.4241471 ], [ 139.4780381, 35.4199346 ], [ 139.4756686, 35.4102741 ], [ 139.4787671, 35.3917803 ], [ 139.4842698, 35.387367 ], [ 139.486014499999982, 35.3822786 ], [ 139.491514199999983, 35.3795978 ], [ 139.493638299999986, 35.3750937 ], [ 139.4899194, 35.3718434 ], [ 139.4886166, 35.3658551 ], [ 139.4858802, 35.3594232 ], [ 139.4953913, 35.3577115 ], [ 139.502591099999989, 35.3675476 ], [ 139.5140113, 35.3624068 ], [ 139.5187238, 35.3615669 ], [ 139.5215532, 35.3614959 ], [ 139.5256163, 35.3568668 ], [ 139.5308598, 35.3569657 ], [ 139.5363204, 35.3549274 ], [ 139.542098399999986, 35.3570129 ], [ 139.544215399999985, 35.3629956 ], [ 139.549005900000026, 35.3596454 ], [ 139.548476699999981, 35.3554365 ], [ 139.5541623, 35.3517704 ], [ 139.557628599999987, 35.3471138 ], [ 139.561167499999982, 35.3461802 ], [ 139.5695936, 35.3475357 ], [ 139.572938, 35.3423582 ], [ 139.57362329999998, 35.3369149 ], [ 139.587858499999982, 35.3365185 ] ] ], [ [ [ 139.6343018, 35.3303931 ], [ 139.6295424, 35.3288019 ], [ 139.633576299999987, 35.323093799999988 ], [ 139.6381005, 35.3270195 ], [ 139.6343018, 35.3303931 ] ] ], [ [ [ 139.6823719, 35.3931591 ], [ 139.6892121, 35.3988324 ], [ 139.685436399999986, 35.4046825 ], [ 139.6921381, 35.4100813 ], [ 139.688877599999984, 35.4127939 ], [ 139.6841728, 35.4089768 ], [ 139.6801889, 35.4101884 ], [ 139.671155400000032, 35.4029134 ], [ 139.676381900000024, 35.3997623 ], [ 139.682250399999987, 35.404502 ], [ 139.6853731, 35.4019094 ], [ 139.679278399999987, 35.395156 ], [ 139.6823719, 35.3931591 ] ] ], [ [ [ 139.688427, 35.4570012 ], [ 139.684692899999988, 35.4588605 ], [ 139.6948679, 35.463766899999989 ], [ 139.6947494, 35.4652813 ], [ 139.692397, 35.4720121 ], [ 139.672585699999985, 35.4652264 ], [ 139.6731093, 35.460617 ], [ 139.6771982, 35.45816 ], [ 139.6954882, 35.4498252 ], [ 139.7022479, 35.4551207 ], [ 139.698073699999981, 35.460917 ], [ 139.688427, 35.4570012 ] ] ], [ [ [ 139.6529155, 35.4636115 ], [ 139.652279, 35.466973 ], [ 139.6559612, 35.4702241 ], [ 139.6503922, 35.4744461 ], [ 139.645700399999981, 35.474711 ], [ 139.6420459, 35.4716906 ], [ 139.6529155, 35.4636115 ] ] ], [ [ [ 139.702187, 35.4805373 ], [ 139.700266299999981, 35.4786851 ], [ 139.7059456, 35.4745353 ], [ 139.7127074, 35.4642539 ], [ 139.7253283, 35.4697964 ], [ 139.7144968, 35.4861918 ], [ 139.702187, 35.4805373 ] ] ] ] } },
{ "type": "Feature", "properties": { "hokenjo": "鎌倉" }, "geometry": { "type": "MultiPolygon", "coordinates": [ [ [ [ 139.62116, 35.1364335 ], [ 139.609771199999983, 35.1378609 ], [ 139.610159899999985, 35.1328251 ], [ 139.6218989, 35.1323448 ], [ 139.62116, 35.1364335 ] ] ], [ [ [ 139.620535499999988, 35.1966281 ], [ 139.6157167, 35.1899341 ], [ 139.617884, 35.1846044 ], [ 139.616167100000013, 35.1808992 ], [ 139.6184605, 35.1790214 ], [ 139.620168799999988, 35.1734789 ], [ 139.616769399999981, 35.1715905 ], [ 139.6168606, 35.1669422 ], [ 139.622577899999982, 35.1655731 ], [ 139.6164374, 35.1616109 ], [ 139.6138887, 35.1557179 ], [ 139.610064099999988, 35.1527826 ], [ 139.6160803, 35.1473393 ], [ 139.611333, 35.1464271 ], [ 139.607621, 35.1427327 ], [ 139.6149734, 35.1390994 ], [ 139.6230459, 35.1390254 ], [ 139.6274986, 35.1372356 ], [ 139.630134699999985, 35.1398928 ], [ 139.6399305, 35.1410682 ], [ 139.6460606, 35.1377404 ], [ 139.652806199999986, 35.1395247 ], [ 139.6569954, 35.1390611 ], [ 139.6642846, 35.1402339 ], [ 139.6633487, 35.1430912 ], [ 139.665390699999989, 35.1464836 ], [ 139.6690992, 35.1419723 ], [ 139.6770201, 35.1393745 ], [ 139.680991399999982, 35.1510412 ], [ 139.679370299999988, 35.1567323 ], [ 139.6769453, 35.1578974 ], [ 139.6683921, 35.1576113 ], [ 139.6633654, 35.1594039 ], [ 139.6604341, 35.1643224 ], [ 139.659990599999986, 35.1712055 ], [ 139.65579649999998, 35.1734336 ], [ 139.654986899999983, 35.1807909 ], [ 139.6594537, 35.1886707 ], [ 139.664782699999989, 35.1930602 ], [ 139.6600861, 35.1983203 ], [ 139.658223099999987, 35.202442 ], [ 139.655161099999987, 35.2044503 ], [ 139.6552184, 35.2097464 ], [ 139.6472498, 35.2063156 ], [ 139.64075219999998, 35.2065325 ], [ 139.6328642, 35.2052145 ], [ 139.6292302, 35.1991953 ], [ 139.626421599999986, 35.1994103 ], [ 139.620535499999988, 35.1966281 ] ] ], [ [ [ 139.6279695, 35.2787369 ], [ 139.6231067, 35.2792692 ], [ 139.6210409, 35.2844925 ], [ 139.623822, 35.2884549 ], [ 139.6225145, 35.2932233 ], [ 139.618602899999985, 35.2996677 ], [ 139.618056199999984, 35.3027979 ], [ 139.6120154, 35.3066846 ], [ 139.609434, 35.3125017 ], [ 139.6021687, 35.316992 ], [ 139.5962223, 35.3164214 ], [ 139.593160399999988, 35.3204147 ], [ 139.592959, 35.3240275 ], [ 139.5887099, 35.3300475 ], [ 139.587858499999982, 35.3365185 ], [ 139.57362329999998, 35.3369149 ], [ 139.572938, 35.3423582 ], [ 139.5695936, 35.3475357 ], [ 139.561167499999982, 35.3461802 ], [ 139.557628599999987, 35.3471138 ], [ 139.5541623, 35.3517704 ], [ 139.548476699999981, 35.3554365 ], [ 139.549005900000026, 35.3596454 ], [ 139.544215399999985, 35.3629956 ], [ 139.542098399999986, 35.3570129 ], [ 139.5363204, 35.3549274 ], [ 139.5308598, 35.3569657 ], [ 139.5256163, 35.3568668 ], [ 139.5215532, 35.3614959 ], [ 139.5187238, 35.3615669 ], [ 139.5140113, 35.3624068 ], [ 139.502591099999989, 35.3675476 ], [ 139.4953913, 35.3577115 ], [ 139.500766299999981, 35.3568221 ], [ 139.5083362, 35.3507563 ], [ 139.509549, 35.3460241 ], [ 139.5168337, 35.3413674 ], [ 139.50978139999998, 35.3336311 ], [ 139.502894199999986, 35.332788 ], [ 139.500566099999986, 35.3279855 ], [ 139.4970544, 35.3244241 ], [ 139.4970952, 35.3195925 ], [ 139.491474899999986, 35.313535 ], [ 139.4886701, 35.3075883 ], [ 139.5096432, 35.3050107 ], [ 139.5258318, 35.3018187 ], [ 139.531666699999988, 35.3037486 ], [ 139.5344084, 35.3086093 ], [ 139.539511799999985, 35.3093847 ], [ 139.546927499999981, 35.306814 ], [ 139.5521077, 35.3028831 ], [ 139.5519055, 35.2994058 ], [ 139.5536804, 35.2943112 ], [ 139.5610594, 35.2928662 ], [ 139.5710465, 35.2932209 ], [ 139.5734234, 35.2872044 ], [ 139.569686099999984, 35.2850221 ], [ 139.568615699999981, 35.2841585 ], [ 139.571056, 35.2753133 ], [ 139.5723626, 35.2661445 ], [ 139.5769645, 35.2627254 ], [ 139.579842899999989, 35.2558417 ], [ 139.5765908, 35.2530818 ], [ 139.5775993, 35.2533045 ], [ 139.578053499999982, 35.2533705 ], [ 139.5820374, 35.2548712 ], [ 139.5968899, 35.2560446 ], [ 139.60346210000003, 35.2580951 ], [ 139.6132438, 35.2577301 ], [ 139.618332399999986, 35.2614993 ], [ 139.621561899999989, 35.2574637 ], [ 139.6275527, 35.2559865 ], [ 139.629653, 35.258499 ], [ 139.6360458, 35.2617006 ], [ 139.637793099999982, 35.2647639 ], [ 139.639339799999988, 35.2736383 ], [ 139.631493399999982, 35.274995 ], [ 139.6279695, 35.2787369 ] ] ] ] } },
{ "type": "Feature", "properties": { "hokenjo": "茅ヶ崎市" }, "geometry": { "type": "MultiPolygon", "coordinates": [ [ [ [ 139.405007, 35.377298599999989 ], [ 139.401772, 35.3799194 ], [ 139.3996426, 35.3845161 ], [ 139.403141, 35.390083 ], [ 139.3954857, 35.3907749 ], [ 139.39590819999998, 35.3951835 ], [ 139.393982699999981, 35.3976424 ], [ 139.3954927, 35.4012846 ], [ 139.3886057, 35.3999124 ], [ 139.3842282, 35.4011077 ], [ 139.371806300000031, 35.4006774 ], [ 139.373469, 35.3945005 ], [ 139.374653699999982, 35.388531 ], [ 139.370896099999982, 35.3678461 ], [ 139.368640299999981, 35.3632316 ], [ 139.371946900000012, 35.3606377 ], [ 139.3721136, 35.3553558 ], [ 139.3704382, 35.3511644 ], [ 139.368766699999981, 35.344308 ], [ 139.369525, 35.3401154 ], [ 139.3748209, 35.339827199999988 ], [ 139.3712582, 35.3352394 ], [ 139.3693523, 35.3297828 ], [ 139.36943789999998, 35.3232656 ], [ 139.3735001, 35.3193345 ], [ 139.374360699999983, 35.3153326 ], [ 139.382929, 35.3151797 ], [ 139.3843185, 35.3162012 ], [ 139.39711269999998, 35.3161013 ], [ 139.403326099999987, 35.3182092 ], [ 139.4147403, 35.3161217 ], [ 139.4234753, 35.3183589 ], [ 139.4380448, 35.3191456 ], [ 139.4435009, 35.3319149 ], [ 139.4439657, 35.341614 ], [ 139.4426124, 35.3472948 ], [ 139.4398405, 35.3525923 ], [ 139.437330799999984, 35.3540781 ], [ 139.4356986, 35.3592242 ], [ 139.4365147, 35.3633756 ], [ 139.4399602, 35.3651731 ], [ 139.4392317, 35.3696284 ], [ 139.431778399999985, 35.3726942 ], [ 139.4324834, 35.3795169 ], [ 139.4282245, 35.3839733 ], [ 139.415926499999983, 35.384688 ], [ 139.4063778, 35.3797011 ], [ 139.405007, 35.377298599999989 ] ] ] ] } },
{ "type": "Feature", "properties": { "hokenjo": "厚木" }, "geometry": { "type": "MultiPolygon", "coordinates": [ [ [ [ 139.4478043, 35.4279713 ], [ 139.4610831, 35.4227471 ], [ 139.465642799999983, 35.4243942 ], [ 139.4727756, 35.4241471 ], [ 139.4739662, 35.4308085 ], [ 139.473153699999983, 35.4357721 ], [ 139.4806652, 35.4486176 ], [ 139.474199199999987, 35.4569293 ], [ 139.472158399999984, 35.4622645 ], [ 139.474510399999986, 35.4697698 ], [ 139.4718746, 35.4721073 ], [ 139.4700876, 35.4780506 ], [ 139.4694996, 35.4853231 ], [ 139.4705755, 35.4926272 ], [ 139.466229400000032, 35.4953164 ], [ 139.4649953, 35.4981258 ], [ 139.4677225, 35.5023733 ], [ 139.4682678, 35.5062055 ], [ 139.464848099999983, 35.5109016 ], [ 139.4632849, 35.5178383 ], [ 139.4557663, 35.5204677 ], [ 139.447183699999982, 35.5168271 ], [ 139.442779, 35.5123377 ], [ 139.4292395, 35.507373 ], [ 139.4276726, 35.5114135 ], [ 139.420501500000029, 35.5154249 ], [ 139.410944699999988, 35.5066566 ], [ 139.409773, 35.5023652 ], [ 139.406847200000016, 35.4993105 ], [ 139.3996266, 35.496651 ], [ 139.3952344, 35.4974988 ], [ 139.387656, 35.4909566 ], [ 139.37396769999998, 35.4918238 ], [ 139.376301400000017, 35.5030432 ], [ 139.3765711, 35.512794899999989 ], [ 139.375303699999989, 35.5172807 ], [ 139.36388789999998, 35.5208759 ], [ 139.355124099999983, 35.5269044 ], [ 139.354505099999983, 35.527467 ], [ 139.343544899999983, 35.5331126 ], [ 139.3253688, 35.5439764 ], [ 139.3172481, 35.5381859 ], [ 139.3128284, 35.5419142 ], [ 139.307365299999987, 35.5446637 ], [ 139.3035548, 35.5483073 ], [ 139.3031618, 35.5515095 ], [ 139.297787299999982, 35.5535523 ], [ 139.2944368, 35.5565123 ], [ 139.2865732, 35.5562298 ], [ 139.2767398, 35.5458507 ], [ 139.2672201, 35.5499896 ], [ 139.2623032, 35.550149 ], [ 139.2498362, 35.5469299 ], [ 139.2481306, 35.542519299999988 ], [ 139.2409222, 35.5384482 ], [ 139.2383278, 35.5341676 ], [ 139.2317908, 35.5319996 ], [ 139.229725799999983, 35.5364382 ], [ 139.220112799999981, 35.5345971 ], [ 139.2175699, 35.5326715 ], [ 139.222769699999986, 35.5286301 ], [ 139.21736439999998, 35.5249626 ], [ 139.2154354, 35.5211671 ], [ 139.2108421, 35.520623199999989 ], [ 139.209372299999984, 35.5154868 ], [ 139.204478099999989, 35.5139585 ], [ 139.1995398, 35.5069332 ], [ 139.192194700000016, 35.5062823 ], [ 139.18129829999998, 35.4972087 ], [ 139.1755971, 35.489969 ], [ 139.1667026, 35.4830862 ], [ 139.165703399999984, 35.4787384 ], [ 139.162833899999981, 35.4745492 ], [ 139.166241499999984, 35.4653493 ], [ 139.1653006, 35.4567905 ], [ 139.1633884, 35.4540255 ], [ 139.173380899999984, 35.4527766 ], [ 139.176673699999981, 35.4514872 ], [ 139.178978, 35.4474306 ], [ 139.1938544, 35.451037 ], [ 139.196979699999986, 35.4496859 ], [ 139.20221189999998, 35.4548673 ], [ 139.203660499999984, 35.4599114 ], [ 139.207495199999983, 35.4592187 ], [ 139.216103299999986, 35.4612309 ], [ 139.221803, 35.4586103 ], [ 139.22873629999998, 35.4570481 ], [ 139.228301, 35.4522264 ], [ 139.2315185, 35.4459717 ], [ 139.2312198, 35.4409823 ], [ 139.24061949999998, 35.441965 ], [ 139.2429367, 35.4469789 ], [ 139.2513495, 35.4467375 ], [ 139.2550751, 35.447913 ], [ 139.264175599999987, 35.4451636 ], [ 139.2771088, 35.4428808 ], [ 139.2792891, 35.4411441 ], [ 139.2883616, 35.4401355 ], [ 139.2996096, 35.4352319 ], [ 139.301977099999988, 35.4331064 ], [ 139.3030623, 35.428325 ], [ 139.3098501, 35.4240222 ], [ 139.31642, 35.4213392 ], [ 139.321781099999981, 35.4243573 ], [ 139.3227748, 35.4285236 ], [ 139.326467, 35.4279881 ], [ 139.3297742, 35.4242459 ], [ 139.3334117, 35.4231206 ], [ 139.3468014, 35.4159098 ], [ 139.3484791, 35.4120423 ], [ 139.3477958, 35.4061515 ], [ 139.3522294, 35.4001554 ], [ 139.3549918, 35.3933174 ], [ 139.3549663, 35.4038068 ], [ 139.3590141, 35.3948049 ], [ 139.373469, 35.3945005 ], [ 139.371806300000031, 35.4006774 ], [ 139.3842282, 35.4011077 ], [ 139.3886057, 35.3999124 ], [ 139.3954927, 35.4012846 ], [ 139.4012646, 35.4006824 ], [ 139.406948299999982, 35.4076791 ], [ 139.4134369, 35.4159499 ], [ 139.4129786, 35.4190571 ], [ 139.4240944, 35.4162654 ], [ 139.424936699999989, 35.4197216 ], [ 139.4300092, 35.4195796 ], [ 139.44252, 35.413138 ], [ 139.442716099999984, 35.407373 ], [ 139.448753, 35.4075058 ], [ 139.456521399999986, 35.4147369 ], [ 139.4566228, 35.4171619 ], [ 139.44364539999998, 35.4276068 ], [ 139.4478043, 35.4279713 ] ] ] ] } },
{ "type": "Feature", "properties": { "hokenjo": "小田原" }, "geometry": { "type": "MultiPolygon", "coordinates": [ [ [ [ 139.1433934, 35.1728347 ], [ 139.1371976, 35.178816 ], [ 139.135955100000018, 35.1824676 ], [ 139.140062299999983, 35.1878893 ], [ 139.137739, 35.1926007 ], [ 139.138304, 35.1995952 ], [ 139.1409736, 35.2027742 ], [ 139.1424063, 35.2088049 ], [ 139.1414378, 35.2152273 ], [ 139.142678599999982, 35.2183357 ], [ 139.141734, 35.225442 ], [ 139.1442085, 35.2339169 ], [ 139.148182099999985, 35.2386475 ], [ 139.157614099999989, 35.2436338 ], [ 139.1711167, 35.2539919 ], [ 139.1864306, 35.2610879 ], [ 139.2078749, 35.2772852 ], [ 139.22145279999998, 35.2812441 ], [ 139.234080799999987, 35.2864429 ], [ 139.236784299999982, 35.2904077 ], [ 139.2374615, 35.2955596 ], [ 139.235438499999987, 35.2981385 ], [ 139.2379946, 35.3006294 ], [ 139.238319600000011, 35.3044552 ], [ 139.236325699999981, 35.3113188 ], [ 139.238092099999989, 35.3147391 ], [ 139.232929899999988, 35.3198207 ], [ 139.236588, 35.3209485 ], [ 139.238978, 35.3241663 ], [ 139.2454727, 35.3289166 ], [ 139.2492713, 35.3298499 ], [ 139.244229099999984, 35.3353727 ], [ 139.2404967, 35.3350524 ], [ 139.238740299999989, 35.3464387 ], [ 139.2511912, 35.3540871 ], [ 139.2443259, 35.3553359 ], [ 139.2407518, 35.3528809 ], [ 139.233625099999983, 35.3512873 ], [ 139.222358499999984, 35.3536648 ], [ 139.2175782, 35.3517112 ], [ 139.2119285, 35.3563648 ], [ 139.2127899, 35.3582393 ], [ 139.205457199999984, 35.3612729 ], [ 139.2001591, 35.3591281 ], [ 139.196150499999987, 35.3555415 ], [ 139.189355, 35.3534534 ], [ 139.188299699999988, 35.3517715 ], [ 139.182144699999981, 35.3489903 ], [ 139.1804574, 35.3459992 ], [ 139.1739572, 35.351207 ], [ 139.170907, 35.3586126 ], [ 139.1603256, 35.3564789 ], [ 139.1574248, 35.3652992 ], [ 139.1491288, 35.3728119 ], [ 139.1441252, 35.3816603 ], [ 139.1445333, 35.3880516 ], [ 139.150278, 35.3919178 ], [ 139.150883599999986, 35.395905 ], [ 139.1491522, 35.4010561 ], [ 139.1500536, 35.404073 ], [ 139.146253299999984, 35.4072353 ], [ 139.1454994, 35.410766599999988 ], [ 139.147862, 35.4139672 ], [ 139.1484664, 35.4201986 ], [ 139.1455487, 35.4295677 ], [ 139.1414484, 35.4351402 ], [ 139.141397499999982, 35.4441521 ], [ 139.1547517, 35.4451602 ], [ 139.1575212, 35.4491016 ], [ 139.1608795, 35.4497755 ], [ 139.1633884, 35.4540255 ], [ 139.1653006, 35.4567905 ], [ 139.166241499999984, 35.4653493 ], [ 139.162833899999981, 35.4745492 ], [ 139.1575178, 35.4784798 ], [ 139.151053099999984, 35.4767636 ], [ 139.1483906, 35.477735599999988 ], [ 139.1466701, 35.4832145 ], [ 139.1401309, 35.4862122 ], [ 139.1301767, 35.4847489 ], [ 139.1265831, 35.4781258 ], [ 139.1170764, 35.4778869 ], [ 139.1145444, 35.4769577 ], [ 139.1083706, 35.4789614 ], [ 139.102376900000024, 35.4789636 ], [ 139.096663899999982, 35.4865611 ], [ 139.091049699999985, 35.4881158 ], [ 139.0866408, 35.4930307 ], [ 139.074343299999981, 35.4961469 ], [ 139.073376600000017, 35.4998021 ], [ 139.0675852, 35.5041471 ], [ 139.06603819999998, 35.5094082 ], [ 139.060081199999985, 35.5074994 ], [ 139.0533384, 35.5088291 ], [ 139.0514023, 35.510578 ], [ 139.046019199999989, 35.5096631 ], [ 139.043933399999986, 35.4994397 ], [ 139.036935, 35.4909486 ], [ 139.030620299999981, 35.488702 ], [ 139.0278744, 35.4845278 ], [ 139.0275494, 35.4809678 ], [ 139.020950299999981, 35.4787931 ], [ 139.014858299999986, 35.4799109 ], [ 139.0081414, 35.4745589 ], [ 138.997796599999987, 35.4749736 ], [ 138.9888216, 35.4736406 ], [ 138.9850352, 35.4685467 ], [ 138.978769299999982, 35.4637417 ], [ 138.97346349999998, 35.466545 ], [ 138.9692301, 35.4635153 ], [ 138.9592523, 35.4622292 ], [ 138.9544826, 35.4598367 ], [ 138.9321096, 35.4428489 ], [ 138.927403699999985, 35.4376447 ], [ 138.9267276, 35.4304872 ], [ 138.9306445, 35.4263292 ], [ 138.930169799999987, 35.4208706 ], [ 138.92672589999998, 35.4200256 ], [ 138.9256636, 35.4153108 ], [ 138.9180663, 35.4113392 ], [ 138.9157679, 35.4043153 ], [ 138.91640289999998, 35.4006136 ], [ 138.9313205, 35.401108 ], [ 138.9377341, 35.3991486 ], [ 138.9457339, 35.3997194 ], [ 138.948036699999989, 35.4012703 ], [ 138.966408799999982, 35.4019013 ], [ 138.9694599, 35.4049027 ], [ 138.980061899999981, 35.4046461 ], [ 138.984070799999984, 35.4017719 ], [ 138.9935954, 35.4034697 ], [ 138.998177299999981, 35.4025707 ], [ 139.0017971, 35.3989352 ], [ 139.000957799999981, 35.3919099 ], [ 138.9986175, 35.3840405 ], [ 138.9992969, 35.3820935 ], [ 139.0059159, 35.3753846 ], [ 139.005265799999989, 35.3740366 ], [ 139.006839100000036, 35.3613857 ], [ 139.0122922, 35.358091 ], [ 139.008114899999981, 35.350303499999988 ], [ 139.010917100000029, 35.3438843 ], [ 139.010821, 35.3381629 ], [ 139.0185285, 35.3298457 ], [ 139.016796, 35.3231769 ], [ 139.009632899999986, 35.3136485 ], [ 139.0106959, 35.3105983 ], [ 139.006041399999987, 35.2979911 ], [ 139.0066578, 35.2955711 ], [ 139.0046122, 35.289898 ], [ 138.997208299999983, 35.2887016 ], [ 138.9859521, 35.2782794 ], [ 138.9822412, 35.2733239 ], [ 138.9815279, 35.2696197 ], [ 138.9754711, 35.2637528 ], [ 138.9743741, 35.2561639 ], [ 138.97558, 35.2519145 ], [ 138.974455799999987, 35.2478284 ], [ 138.9760114, 35.2418784 ], [ 138.9787397, 35.2393934 ], [ 138.9760499, 35.2356931 ], [ 138.9795144, 35.2332173 ], [ 138.9806111, 35.2282151 ], [ 138.9836455, 35.2216756 ], [ 138.9822816, 35.2175848 ], [ 138.987807799999985, 35.2126626 ], [ 138.9864344, 35.205559 ], [ 138.987744599999985, 35.2008243 ], [ 138.9930544, 35.1988129 ], [ 139.0011369, 35.1907095 ], [ 139.0030236, 35.187755599999988 ], [ 139.0106758, 35.1826403 ], [ 139.0216278, 35.1819114 ], [ 139.0216634, 35.1795153 ], [ 139.0265353, 35.1754264 ], [ 139.029124199999984, 35.1702986 ], [ 139.029447799999986, 35.1647773 ], [ 139.026373299999989, 35.1605547 ], [ 139.0305258, 35.1587492 ], [ 139.028411299999988, 35.1548742 ], [ 139.030428, 35.1497528 ], [ 139.0396158, 35.1506681 ], [ 139.048600600000015, 35.1496267 ], [ 139.0514144, 35.1471636 ], [ 139.0603384, 35.1461242 ], [ 139.066132, 35.1441258 ], [ 139.072825300000034, 35.1451844 ], [ 139.0835864, 35.1411119 ], [ 139.090099, 35.1401853 ], [ 139.1012437, 35.1403694 ], [ 139.1085115, 35.1418722 ], [ 139.1121254, 35.1413795 ], [ 139.1200527, 35.1491703 ], [ 139.1318274, 35.1508399 ], [ 139.13735760000003, 35.1485734 ], [ 139.1425634, 35.1450176 ], [ 139.147650699999986, 35.1445323 ], [ 139.1507198, 35.1406481 ], [ 139.155382299999985, 35.1418507 ], [ 139.1618125, 35.1416053 ], [ 139.1575731, 35.1473323 ], [ 139.149235799999985, 35.1476217 ], [ 139.143609699999985, 35.1518761 ], [ 139.1442313, 35.1597463 ], [ 139.140492199999983, 35.163258 ], [ 139.1452104, 35.1673402 ], [ 139.1433934, 35.1728347 ] ] ] ] } },
{ "type": "Feature", "properties": { "hokenjo": "川崎市" }, "geometry": { "type": "MultiPolygon", "coordinates": [ [ [ [ 139.648334899999981, 35.5597933 ], [ 139.6523154, 35.5568247 ], [ 139.6582535, 35.5547428 ], [ 139.654437299999984, 35.5428311 ], [ 139.6555426, 35.5388322 ], [ 139.6664528, 35.5329994 ], [ 139.674882599999989, 35.5371844 ], [ 139.6779262, 35.5397219 ], [ 139.6849143, 35.5399861 ], [ 139.6836334, 35.5313977 ], [ 139.688695, 35.5263919 ], [ 139.6882411, 35.5226605 ], [ 139.691645, 35.5194753 ], [ 139.696613499999984, 35.5058758 ], [ 139.698875099999981, 35.5027555 ], [ 139.703402899999986, 35.5044424 ], [ 139.7047451, 35.500993 ], [ 139.711456699999985, 35.4908009 ], [ 139.7313681, 35.4990636 ], [ 139.7300607, 35.5112223 ], [ 139.7324078, 35.5099242 ], [ 139.7338121, 35.5006038 ], [ 139.7487711, 35.5068442 ], [ 139.7490537, 35.5092755 ], [ 139.7460544, 35.5189809 ], [ 139.7558761, 35.5277865 ], [ 139.7609582, 35.530274 ], [ 139.7701113, 35.5138674 ], [ 139.7762376, 35.5095561 ], [ 139.780189899999982, 35.5133114 ], [ 139.7907457, 35.5078781 ], [ 139.7941979, 35.5117793 ], [ 139.7915602, 35.5133784 ], [ 139.7961118, 35.518582 ], [ 139.790173399999986, 35.5200155 ], [ 139.787611199999986, 35.5244653 ], [ 139.774464, 35.5322243 ], [ 139.776496399999985, 35.53447 ], [ 139.7680791, 35.5393392 ], [ 139.756486900000027, 35.5445531 ], [ 139.7467772, 35.5438284 ], [ 139.7394066, 35.5451246 ], [ 139.734638, 35.5409835 ], [ 139.7261119, 35.5434704 ], [ 139.7173024, 35.538004099999988 ], [ 139.710751499999986, 35.5365435 ], [ 139.703471799999988, 35.5365913 ], [ 139.6979427, 35.5414516 ], [ 139.698446, 35.5454016 ], [ 139.703533599999986, 35.549411 ], [ 139.7030758, 35.5533221 ], [ 139.69778359999998, 35.5561291 ], [ 139.6896178, 35.5572869 ], [ 139.6811419, 35.5613986 ], [ 139.6764067, 35.5660383 ], [ 139.669309199999987, 35.5847188 ], [ 139.663329799999985, 35.5898661 ], [ 139.656837, 35.5896861 ], [ 139.650432500000022, 35.592584099999989 ], [ 139.643243899999987, 35.5981564 ], [ 139.631166399999984, 35.607238 ], [ 139.6248747, 35.6097619 ], [ 139.6179406, 35.6138775 ], [ 139.612191699999983, 35.615853 ], [ 139.604737199999988, 35.6158247 ], [ 139.600068099999987, 35.6183986 ], [ 139.5967129, 35.6183965 ], [ 139.5918897, 35.6177091 ], [ 139.5863864, 35.6204552 ], [ 139.5773456, 35.6218213 ], [ 139.571117499999986, 35.6244107 ], [ 139.5625106, 35.632384 ], [ 139.557425099999989, 35.6339949 ], [ 139.5494282, 35.6343746 ], [ 139.5477209, 35.6366935 ], [ 139.535951, 35.6394823 ], [ 139.5308876, 35.6419584 ], [ 139.5253888, 35.6426476 ], [ 139.5211831, 35.636770399999989 ], [ 139.5232598, 35.6321701 ], [ 139.517455899999987, 35.6306607 ], [ 139.5145803, 35.6247274 ], [ 139.5034191, 35.6228616 ], [ 139.4948813, 35.6173907 ], [ 139.495781, 35.6123585 ], [ 139.5000235, 35.6072805 ], [ 139.4975748, 35.6048688 ], [ 139.489069, 35.6046669 ], [ 139.48655119999998, 35.6084341 ], [ 139.4812684, 35.6100566 ], [ 139.4767118, 35.615328 ], [ 139.4762365, 35.6188874 ], [ 139.4678621, 35.6205216 ], [ 139.4653382, 35.6240625 ], [ 139.4607359, 35.6221611 ], [ 139.4524142, 35.615783 ], [ 139.44928059999998, 35.6117761 ], [ 139.452872, 35.607448 ], [ 139.4573772, 35.6072122 ], [ 139.4637981, 35.6091611 ], [ 139.470275099999981, 35.6034861 ], [ 139.4711922, 35.6010602 ], [ 139.4768836, 35.5995447 ], [ 139.494459399999982, 35.5863072 ], [ 139.49392659999998, 35.5827816 ], [ 139.4992164, 35.5809699 ], [ 139.505457399999983, 35.5747869 ], [ 139.507013299999983, 35.5758219 ], [ 139.512910500000032, 35.5695769 ], [ 139.5217711, 35.5711022 ], [ 139.524287499999986, 35.5735699 ], [ 139.524882500000018, 35.5789572 ], [ 139.529095899999987, 35.5822474 ], [ 139.5266026, 35.5860072 ], [ 139.5282973, 35.5877627 ], [ 139.5265704, 35.5925044 ], [ 139.536565599999989, 35.5912986 ], [ 139.55588179999998, 35.5873444 ], [ 139.565143899999981, 35.5788372 ], [ 139.567860599999989, 35.5714406 ], [ 139.571792, 35.5716083 ], [ 139.57491779999998, 35.5691541 ], [ 139.5800784, 35.569223 ], [ 139.6007112, 35.565540299999988 ], [ 139.610107299999981, 35.56459 ], [ 139.613520599999987, 35.5609525 ], [ 139.626410099999987, 35.5625014 ], [ 139.6333334, 35.5613986 ], [ 139.6429343, 35.5583614 ], [ 139.648334899999981, 35.5597933 ] ] ], [ [ [ 139.4699263, 35.5698933 ], [ 139.4754113, 35.5713736 ], [ 139.482868, 35.5713838 ], [ 139.486297399999984, 35.5785352 ], [ 139.4898694, 35.5835786 ], [ 139.484983, 35.5846088 ], [ 139.482203, 35.5817205 ], [ 139.4760063, 35.5807316 ], [ 139.473251799999986, 35.573851 ], [ 139.4699263, 35.5698933 ] ] ], [ [ [ 139.738956799999983, 35.489063699999988 ], [ 139.7341171, 35.494597899999988 ], [ 139.7144968, 35.4861918 ], [ 139.7253283, 35.4697964 ], [ 139.741843599999982, 35.4770251 ], [ 139.7350662, 35.4873597 ], [ 139.738956799999983, 35.489063699999988 ] ] ], [ [ [ 139.7456106, 35.4850133 ], [ 139.7786764, 35.4995529 ], [ 139.7760912, 35.5034562 ], [ 139.77120309999998, 35.5062183 ], [ 139.761188600000025, 35.5057323 ], [ 139.7362833, 35.4944537 ], [ 139.7404453, 35.4881646 ], [ 139.7456106, 35.4850133 ] ] ], [ [ [ 139.766032699999982, 35.5135636 ], [ 139.7589008, 35.5263956 ], [ 139.7569598, 35.5266589 ], [ 139.748967599999986, 35.5199497 ], [ 139.7485156, 35.5183461 ], [ 139.7517724, 35.5094679 ], [ 139.753828299999981, 35.5085754 ], [ 139.7649592, 35.5116075 ], [ 139.766032699999982, 35.5135636 ] ] ] ] } },
{ "type": "Feature", "properties": { "hokenjo": "相模原市" }, "geometry": { "type": "MultiPolygon", "coordinates": [ [ [ [ 139.418193699999989, 35.5617658 ], [ 139.4134271, 35.5662471 ], [ 139.4089769, 35.57533 ], [ 139.403247599999986, 35.5755653 ], [ 139.4012435, 35.577533699999989 ], [ 139.3991476, 35.5846503 ], [ 139.3910845, 35.5852595 ], [ 139.3886181, 35.5885331 ], [ 139.3853296, 35.5881927 ], [ 139.377045399999986, 35.5917135 ], [ 139.372782199999989, 35.5949778 ], [ 139.3613598, 35.5990505 ], [ 139.356727299999989, 35.5990093 ], [ 139.3378911, 35.6043469 ], [ 139.3294851, 35.6036816 ], [ 139.320563599999986, 35.606516 ], [ 139.31403480000003, 35.6043526 ], [ 139.304772, 35.6046881 ], [ 139.299199900000019, 35.6062286 ], [ 139.2926051, 35.6118083 ], [ 139.282873699999982, 35.6132664 ], [ 139.279879500000021, 35.6114809 ], [ 139.274273699999981, 35.6110473 ], [ 139.265842, 35.6073515 ], [ 139.26477509999998, 35.6024587 ], [ 139.2577053, 35.6042307 ], [ 139.2522237, 35.6016673 ], [ 139.24687, 35.6052205 ], [ 139.2386376, 35.6069767 ], [ 139.2379798, 35.6093501 ], [ 139.229881399999982, 35.6145676 ], [ 139.228874499999989, 35.6202259 ], [ 139.2254498, 35.6237531 ], [ 139.2202323, 35.6255717 ], [ 139.221434, 35.6294664 ], [ 139.2154592, 35.6369434 ], [ 139.2144634, 35.6413967 ], [ 139.2157348, 35.6455597 ], [ 139.2114612, 35.6491167 ], [ 139.2052654, 35.6515781 ], [ 139.198030099999983, 35.652948599999988 ], [ 139.1925589, 35.6503739 ], [ 139.1915339, 35.647398 ], [ 139.1840564, 35.6450886 ], [ 139.1791628, 35.6455677 ], [ 139.175246099999981, 35.6497316 ], [ 139.169337499999983, 35.6514752 ], [ 139.1671689, 35.6618316 ], [ 139.1616037, 35.667906599999988 ], [ 139.1535978, 35.6660216 ], [ 139.1471603, 35.6668171 ], [ 139.1367314, 35.6724121 ], [ 139.1313414, 35.6719946 ], [ 139.1238983, 35.6629185 ], [ 139.119810199999989, 35.6604082 ], [ 139.117263799999989, 35.6548965 ], [ 139.126968800000014, 35.6419004 ], [ 139.1236209, 35.6340799 ], [ 139.1243895, 35.630751 ], [ 139.1234651, 35.6240596 ], [ 139.126038100000017, 35.6230052 ], [ 139.1297945, 35.6179324 ], [ 139.1337148, 35.6158107 ], [ 139.1277853, 35.6126449 ], [ 139.1324075, 35.6089196 ], [ 139.1330161, 35.6064816 ], [ 139.129333300000013, 35.5945963 ], [ 139.1245969, 35.5926474 ], [ 139.12143770000003, 35.5869183 ], [ 139.124012099999987, 35.5821541 ], [ 139.127771, 35.5810002 ], [ 139.1270179, 35.5717116 ], [ 139.1296418, 35.5670383 ], [ 139.1284109, 35.5626477 ], [ 139.1212859, 35.5561733 ], [ 139.115219400000029, 35.5537111 ], [ 139.1119608, 35.5497936 ], [ 139.1117138, 35.5445352 ], [ 139.11392189999998, 35.5384874 ], [ 139.1066357, 35.532174399999988 ], [ 139.1041146, 35.526891 ], [ 139.0943045, 35.5218713 ], [ 139.08579, 35.5120863 ], [ 139.0807605, 35.512736 ], [ 139.074466299999983, 35.5099396 ], [ 139.0685541, 35.5108907 ], [ 139.06603819999998, 35.5094082 ], [ 139.0675852, 35.5041471 ], [ 139.073376600000017, 35.4998021 ], [ 139.074343299999981, 35.4961469 ], [ 139.0866408, 35.4930307 ], [ 139.091049699999985, 35.4881158 ], [ 139.096663899999982, 35.4865611 ], [ 139.102376900000024, 35.4789636 ], [ 139.1083706, 35.4789614 ], [ 139.1145444, 35.4769577 ], [ 139.1170764, 35.4778869 ], [ 139.1265831, 35.4781258 ], [ 139.1301767, 35.4847489 ], [ 139.1401309, 35.4862122 ], [ 139.1466701, 35.4832145 ], [ 139.1483906, 35.477735599999988 ], [ 139.151053099999984, 35.4767636 ], [ 139.1575178, 35.4784798 ], [ 139.162833899999981, 35.4745492 ], [ 139.165703399999984, 35.4787384 ], [ 139.1667026, 35.4830862 ], [ 139.1755971, 35.489969 ], [ 139.18129829999998, 35.4972087 ], [ 139.192194700000016, 35.5062823 ], [ 139.1995398, 35.5069332 ], [ 139.204478099999989, 35.5139585 ], [ 139.209372299999984, 35.5154868 ], [ 139.2108421, 35.520623199999989 ], [ 139.2154354, 35.5211671 ], [ 139.21736439999998, 35.5249626 ], [ 139.222769699999986, 35.5286301 ], [ 139.2175699, 35.5326715 ], [ 139.220112799999981, 35.5345971 ], [ 139.229725799999983, 35.5364382 ], [ 139.2317908, 35.5319996 ], [ 139.2383278, 35.5341676 ], [ 139.2409222, 35.5384482 ], [ 139.2481306, 35.542519299999988 ], [ 139.2498362, 35.5469299 ], [ 139.2623032, 35.550149 ], [ 139.2672201, 35.5499896 ], [ 139.2767398, 35.5458507 ], [ 139.2865732, 35.5562298 ], [ 139.2944368, 35.5565123 ], [ 139.297787299999982, 35.5535523 ], [ 139.3031618, 35.5515095 ], [ 139.3035548, 35.5483073 ], [ 139.307365299999987, 35.5446637 ], [ 139.3128284, 35.5419142 ], [ 139.3172481, 35.5381859 ], [ 139.3253688, 35.5439764 ], [ 139.343544899999983, 35.5331126 ], [ 139.354505099999983, 35.527467 ], [ 139.355124099999983, 35.5269044 ], [ 139.36388789999998, 35.5208759 ], [ 139.375303699999989, 35.5172807 ], [ 139.3765711, 35.512794899999989 ], [ 139.376301400000017, 35.5030432 ], [ 139.37396769999998, 35.4918238 ], [ 139.387656, 35.4909566 ], [ 139.3952344, 35.4974988 ], [ 139.3996266, 35.496651 ], [ 139.406847200000016, 35.4993105 ], [ 139.409773, 35.5023652 ], [ 139.410944699999988, 35.5066566 ], [ 139.420501500000029, 35.5154249 ], [ 139.4276726, 35.5114135 ], [ 139.4292395, 35.507373 ], [ 139.442779, 35.5123377 ], [ 139.447183699999982, 35.5168271 ], [ 139.4557663, 35.5204677 ], [ 139.4548231, 35.5227414 ], [ 139.4582499, 35.5280499 ], [ 139.448650499999985, 35.5352476 ], [ 139.4450975, 35.5411307 ], [ 139.440695, 35.5429693 ], [ 139.4360069, 35.5468296 ], [ 139.428719, 35.5503773 ], [ 139.4239117, 35.5558926 ], [ 139.42244119999998, 35.5594354 ], [ 139.418193699999989, 35.5617658 ] ] ] ] } },
{ "type": "Feature", "properties": { "hokenjo": "藤沢市" }, "geometry": { "type": "MultiPolygon", "coordinates": [ [ [ [ 139.4826665, 35.3027925 ], [ 139.4767353, 35.2974262 ], [ 139.4871738, 35.2985916 ], [ 139.4826665, 35.3027925 ] ] ], [ [ [ 139.4842698, 35.387367 ], [ 139.4787671, 35.3917803 ], [ 139.4756686, 35.4102741 ], [ 139.4780381, 35.4199346 ], [ 139.4727756, 35.4241471 ], [ 139.465642799999983, 35.4243942 ], [ 139.4610831, 35.4227471 ], [ 139.4478043, 35.4279713 ], [ 139.44364539999998, 35.4276068 ], [ 139.4566228, 35.4171619 ], [ 139.456521399999986, 35.4147369 ], [ 139.448753, 35.4075058 ], [ 139.442716099999984, 35.407373 ], [ 139.44252, 35.413138 ], [ 139.4300092, 35.4195796 ], [ 139.424936699999989, 35.4197216 ], [ 139.4240944, 35.4162654 ], [ 139.4129786, 35.4190571 ], [ 139.4134369, 35.4159499 ], [ 139.406948299999982, 35.4076791 ], [ 139.4012646, 35.4006824 ], [ 139.3954927, 35.4012846 ], [ 139.393982699999981, 35.3976424 ], [ 139.39590819999998, 35.3951835 ], [ 139.3954857, 35.3907749 ], [ 139.403141, 35.390083 ], [ 139.3996426, 35.3845161 ], [ 139.401772, 35.3799194 ], [ 139.405007, 35.377298599999989 ], [ 139.4063778, 35.3797011 ], [ 139.415926499999983, 35.384688 ], [ 139.4282245, 35.3839733 ], [ 139.4324834, 35.3795169 ], [ 139.431778399999985, 35.3726942 ], [ 139.4392317, 35.3696284 ], [ 139.4399602, 35.3651731 ], [ 139.4365147, 35.3633756 ], [ 139.4356986, 35.3592242 ], [ 139.437330799999984, 35.3540781 ], [ 139.4398405, 35.3525923 ], [ 139.4426124, 35.3472948 ], [ 139.4439657, 35.341614 ], [ 139.4435009, 35.3319149 ], [ 139.4380448, 35.3191456 ], [ 139.4544612, 35.3178012 ], [ 139.468728699999986, 35.314997 ], [ 139.476616399999983, 35.3113957 ], [ 139.4828885, 35.3047454 ], [ 139.4886701, 35.3075883 ], [ 139.491474899999986, 35.313535 ], [ 139.4970952, 35.3195925 ], [ 139.4970544, 35.3244241 ], [ 139.500566099999986, 35.3279855 ], [ 139.502894199999986, 35.332788 ], [ 139.50978139999998, 35.3336311 ], [ 139.5168337, 35.3413674 ], [ 139.509549, 35.3460241 ], [ 139.5083362, 35.3507563 ], [ 139.500766299999981, 35.3568221 ], [ 139.4953913, 35.3577115 ], [ 139.4858802, 35.3594232 ], [ 139.4886166, 35.3658551 ], [ 139.4899194, 35.3718434 ], [ 139.493638299999986, 35.3750937 ], [ 139.491514199999983, 35.3795978 ], [ 139.486014499999982, 35.3822786 ], [ 139.4842698, 35.387367 ] ] ] ] } },
{ "type": "Feature", "properties": { "hokenjo": "平塚" }, "geometry": { "type": "MultiPolygon", "coordinates": [ [ [ [ 139.29038509999998, 35.381397 ], [ 139.3006168, 35.3811106 ], [ 139.3040926, 35.3830989 ], [ 139.3081937, 35.3817315 ], [ 139.3133906, 35.3779609 ], [ 139.3155964, 35.3723446 ], [ 139.3215956, 35.3694149 ], [ 139.318919199999982, 35.3775401 ], [ 139.3223145, 35.3806048 ], [ 139.3316654, 35.3806963 ], [ 139.3347707, 35.3846113 ], [ 139.3469437, 35.3789704 ], [ 139.35299089999998, 35.3813891 ], [ 139.355520700000028, 35.3839666 ], [ 139.3574476, 35.3906613 ], [ 139.3549918, 35.3933174 ], [ 139.3522294, 35.4001554 ], [ 139.3477958, 35.4061515 ], [ 139.3484791, 35.4120423 ], [ 139.3468014, 35.4159098 ], [ 139.3334117, 35.4231206 ], [ 139.3297742, 35.4242459 ], [ 139.326467, 35.4279881 ], [ 139.3227748, 35.4285236 ], [ 139.321781099999981, 35.4243573 ], [ 139.31642, 35.4213392 ], [ 139.3098501, 35.4240222 ], [ 139.3030623, 35.428325 ], [ 139.301977099999988, 35.4331064 ], [ 139.2996096, 35.4352319 ], [ 139.2883616, 35.4401355 ], [ 139.2792891, 35.4411441 ], [ 139.2771088, 35.4428808 ], [ 139.264175599999987, 35.4451636 ], [ 139.2550751, 35.447913 ], [ 139.2513495, 35.4467375 ], [ 139.2429367, 35.4469789 ], [ 139.24061949999998, 35.441965 ], [ 139.2312198, 35.4409823 ], [ 139.2315185, 35.4459717 ], [ 139.228301, 35.4522264 ], [ 139.22873629999998, 35.4570481 ], [ 139.221803, 35.4586103 ], [ 139.216103299999986, 35.4612309 ], [ 139.207495199999983, 35.4592187 ], [ 139.203660499999984, 35.4599114 ], [ 139.20221189999998, 35.4548673 ], [ 139.196979699999986, 35.4496859 ], [ 139.1938544, 35.451037 ], [ 139.178978, 35.4474306 ], [ 139.176673699999981, 35.4514872 ], [ 139.173380899999984, 35.4527766 ], [ 139.1633884, 35.4540255 ], [ 139.1608795, 35.4497755 ], [ 139.1575212, 35.4491016 ], [ 139.1547517, 35.4451602 ], [ 139.141397499999982, 35.4441521 ], [ 139.1414484, 35.4351402 ], [ 139.1455487, 35.4295677 ], [ 139.1484664, 35.4201986 ], [ 139.147862, 35.4139672 ], [ 139.1454994, 35.410766599999988 ], [ 139.146253299999984, 35.4072353 ], [ 139.1500536, 35.404073 ], [ 139.1491522, 35.4010561 ], [ 139.150883599999986, 35.395905 ], [ 139.150278, 35.3919178 ], [ 139.1445333, 35.3880516 ], [ 139.1441252, 35.3816603 ], [ 139.1491288, 35.3728119 ], [ 139.1574248, 35.3652992 ], [ 139.1603256, 35.3564789 ], [ 139.170907, 35.3586126 ], [ 139.1739572, 35.351207 ], [ 139.1804574, 35.3459992 ], [ 139.182144699999981, 35.3489903 ], [ 139.188299699999988, 35.3517715 ], [ 139.189355, 35.3534534 ], [ 139.196150499999987, 35.3555415 ], [ 139.2001591, 35.3591281 ], [ 139.205457199999984, 35.3612729 ], [ 139.2127899, 35.3582393 ], [ 139.2119285, 35.3563648 ], [ 139.2175782, 35.3517112 ], [ 139.222358499999984, 35.3536648 ], [ 139.233625099999983, 35.3512873 ], [ 139.2407518, 35.3528809 ], [ 139.2443259, 35.3553359 ], [ 139.2511912, 35.3540871 ], [ 139.263045299999987, 35.3570176 ], [ 139.2670934, 35.3562229 ], [ 139.273946199999983, 35.3679795 ], [ 139.275145399999985, 35.372802299999989 ], [ 139.283202, 35.374082799999989 ], [ 139.2916309, 35.3733351 ], [ 139.29038509999998, 35.381397 ] ] ] ] } },
{ "type": "Feature", "properties": { "hokenjo": "平塚" }, "geometry": { "type": "MultiPolygon", "coordinates": [ [ [ [ 139.2692748, 35.297288 ], [ 139.3122632, 35.3059467 ], [ 139.317549899999989, 35.3072207 ], [ 139.3214366, 35.3097456 ], [ 139.3300429, 35.3121189 ], [ 139.3383389, 35.3135893 ], [ 139.358561399999985, 35.3150853 ], [ 139.36786859999998, 35.3141726 ], [ 139.374360699999983, 35.3153326 ], [ 139.3735001, 35.3193345 ], [ 139.36943789999998, 35.3232656 ], [ 139.3693523, 35.3297828 ], [ 139.3712582, 35.3352394 ], [ 139.3748209, 35.339827199999988 ], [ 139.369525, 35.3401154 ], [ 139.368766699999981, 35.344308 ], [ 139.3704382, 35.3511644 ], [ 139.3721136, 35.3553558 ], [ 139.371946900000012, 35.3606377 ], [ 139.368640299999981, 35.3632316 ], [ 139.370896099999982, 35.3678461 ], [ 139.374653699999982, 35.388531 ], [ 139.373469, 35.3945005 ], [ 139.3590141, 35.3948049 ], [ 139.3549663, 35.4038068 ], [ 139.3549918, 35.3933174 ], [ 139.3574476, 35.3906613 ], [ 139.355520700000028, 35.3839666 ], [ 139.35299089999998, 35.3813891 ], [ 139.3469437, 35.3789704 ], [ 139.3347707, 35.3846113 ], [ 139.3316654, 35.3806963 ], [ 139.3223145, 35.3806048 ], [ 139.318919199999982, 35.3775401 ], [ 139.3215956, 35.3694149 ], [ 139.3155964, 35.3723446 ], [ 139.3133906, 35.3779609 ], [ 139.3081937, 35.3817315 ], [ 139.3040926, 35.3830989 ], [ 139.3006168, 35.3811106 ], [ 139.29038509999998, 35.381397 ], [ 139.2916309, 35.3733351 ], [ 139.283202, 35.374082799999989 ], [ 139.275145399999985, 35.372802299999989 ], [ 139.273946199999983, 35.3679795 ], [ 139.2670934, 35.3562229 ], [ 139.263045299999987, 35.3570176 ], [ 139.2511912, 35.3540871 ], [ 139.238740299999989, 35.3464387 ], [ 139.2404967, 35.3350524 ], [ 139.244229099999984, 35.3353727 ], [ 139.2492713, 35.3298499 ], [ 139.2454727, 35.3289166 ], [ 139.238978, 35.3241663 ], [ 139.236588, 35.3209485 ], [ 139.232929899999988, 35.3198207 ], [ 139.238092099999989, 35.3147391 ], [ 139.236325699999981, 35.3113188 ], [ 139.238319600000011, 35.3044552 ], [ 139.2379946, 35.3006294 ], [ 139.235438499999987, 35.2981385 ], [ 139.2374615, 35.2955596 ], [ 139.236784299999982, 35.2904077 ], [ 139.234080799999987, 35.2864429 ], [ 139.2497898, 35.2928007 ], [ 139.2692748, 35.297288 ] ] ] ] } }
]
}
