{
"type": "FeatureCollection",
"name": "kochi",
"crs": { "type": "name", "properties": { "name": "urn:ogc:def:crs:OGC:1.3:CRS84" } },
"features": [
{ "type": "Feature", "properties": { "hokenjo": "安芸" }, "geometry": { "type": "MultiPolygon", "coordinates": [ [ [ [ 134.2353111, 33.4421086 ], [ 134.241605, 33.4507397 ], [ 134.2405456, 33.4593517 ], [ 134.242085, 33.4639175 ], [ 134.247321699999986, 33.4714306 ], [ 134.250175, 33.4738753 ], [ 134.252262799999983, 33.4787422 ], [ 134.2611972, 33.4899761 ], [ 134.267854799999981, 33.4957804 ], [ 134.2703594, 33.5028456 ], [ 134.279041899999982, 33.5117744 ], [ 134.286313899999982, 33.5167136 ], [ 134.2898773, 33.5204173 ], [ 134.2836766, 33.5213893 ], [ 134.2833537, 33.5254249 ], [ 134.285579399999989, 33.5309758 ], [ 134.2906559, 33.5328875 ], [ 134.295724299999989, 33.5417135 ], [ 134.2998394, 33.537760399999989 ], [ 134.3006857, 33.5466987 ], [ 134.3041737, 33.5473585 ], [ 134.3055292, 33.5502103 ], [ 134.303694399999983, 33.5539072 ], [ 134.296997799999986, 33.5534211 ], [ 134.295675599999981, 33.5577283 ], [ 134.2893253, 33.5583231 ], [ 134.2872375, 33.5597964 ], [ 134.278736899999984, 33.5595225 ], [ 134.273745599999984, 33.5606239 ], [ 134.2700092, 33.5548622 ], [ 134.2629047, 33.5564178 ], [ 134.2582061, 33.5532731 ], [ 134.2491786, 33.5528994 ], [ 134.2433508, 33.5559161 ], [ 134.2385075, 33.5529208 ], [ 134.23223059999998, 33.5556522 ], [ 134.2287164, 33.5610125 ], [ 134.2187061, 33.5675375 ], [ 134.2117036, 33.5669589 ], [ 134.2022706, 33.5624767 ], [ 134.1957883, 33.5608175 ], [ 134.19317, 33.5616272 ], [ 134.1953556, 33.5687308 ], [ 134.1924708, 33.5739817 ], [ 134.1877675, 33.5757683 ], [ 134.1885369, 33.5810628 ], [ 134.184719199999989, 33.5886858 ], [ 134.1787792, 33.5941475 ], [ 134.176015299999989, 33.59406 ], [ 134.1705772, 33.5969725 ], [ 134.17024, 33.602115 ], [ 134.1759553, 33.607100599999988 ], [ 134.1725247, 33.6096031 ], [ 134.1647944, 33.6104858 ], [ 134.160614399999986, 33.6128128 ], [ 134.1561386, 33.6117006 ], [ 134.1521428, 33.6181808 ], [ 134.1548917, 33.6229853 ], [ 134.1492514, 33.6271408 ], [ 134.150225, 33.6305517 ], [ 134.15621, 33.6334267 ], [ 134.1584125, 33.6326467 ], [ 134.1639853, 33.6354467 ], [ 134.1705475, 33.6419581 ], [ 134.174824699999988, 33.6432919 ], [ 134.1841733, 33.6490233 ], [ 134.178165799999988, 33.6536456 ], [ 134.1763681, 33.6534767 ], [ 134.1713344, 33.6576856 ], [ 134.1753497, 33.6615939 ], [ 134.171589399999988, 33.6652958 ], [ 134.1689647, 33.6707683 ], [ 134.1726414, 33.6750839 ], [ 134.1754647, 33.6759306 ], [ 134.174782199999981, 33.6839911 ], [ 134.1638453, 33.6881239 ], [ 134.1609661, 33.6868353 ], [ 134.148550799999981, 33.6857061 ], [ 134.1425869, 33.687475 ], [ 134.135784199999989, 33.6909333 ], [ 134.1333828, 33.6939611 ], [ 134.126263099999989, 33.6958853 ], [ 134.119912199999987, 33.6949525 ], [ 134.1119908, 33.6956594 ], [ 134.10602, 33.6935875 ], [ 134.099899199999982, 33.694621399999988 ], [ 134.0950925, 33.69242 ], [ 134.090440799999982, 33.69307 ], [ 134.081400299999984, 33.6904692 ], [ 134.0763983, 33.6906136 ], [ 134.066335, 33.688625 ], [ 134.05805669999998, 33.6910333 ], [ 134.0565997, 33.6939117 ], [ 134.0647736, 33.6985381 ], [ 134.0635236, 33.7001425 ], [ 134.064715, 33.7065544 ], [ 134.066422499999987, 33.709513099999988 ], [ 134.070101699999981, 33.7111958 ], [ 134.065037499999988, 33.7194522 ], [ 134.0616269, 33.7203003 ], [ 134.0525692, 33.7152333 ], [ 134.0418381, 33.7141233 ], [ 134.0352786, 33.7119892 ], [ 134.0271919, 33.718776399999989 ], [ 134.0195486, 33.7124069 ], [ 134.014736699999986, 33.7138683 ], [ 134.0074036, 33.7123644 ], [ 134.0018433, 33.71248 ], [ 133.996048299999984, 33.708452199999989 ], [ 133.9946014, 33.6991842 ], [ 133.9905872, 33.6935328 ], [ 133.9810075, 33.6881478 ], [ 133.977623599999987, 33.6886428 ], [ 133.9737211, 33.6822517 ], [ 133.9679936, 33.67909 ], [ 133.970580300000023, 33.6771811 ], [ 133.9681225, 33.6737825 ], [ 133.963799699999981, 33.6735411 ], [ 133.96016, 33.6660922 ], [ 133.944647799999984, 33.6601936 ], [ 133.944455799999986, 33.6558147 ], [ 133.941994199999982, 33.6553956 ], [ 133.9347656, 33.6507575 ], [ 133.9319256, 33.6519019 ], [ 133.9257742, 33.6477939 ], [ 133.9162119, 33.6441725 ], [ 133.909142799999984, 33.648711399999989 ], [ 133.905369399999984, 33.6470831 ], [ 133.900969400000037, 33.6472408 ], [ 133.9008125, 33.6527117 ], [ 133.8982878, 33.6581567 ], [ 133.8938775, 33.6542197 ], [ 133.886446899999981, 33.6530094 ], [ 133.8847422, 33.64895 ], [ 133.88205, 33.6475381 ], [ 133.880709199999984, 33.6433997 ], [ 133.8764869, 33.641565 ], [ 133.879766099999983, 33.6342197 ], [ 133.8782369, 33.6317822 ], [ 133.8799444, 33.6279858 ], [ 133.874413299999986, 33.6240667 ], [ 133.8725906, 33.617999399999988 ], [ 133.8760359, 33.6162074 ], [ 133.8759744, 33.6121781 ], [ 133.8708164, 33.6078478 ], [ 133.865715, 33.60602 ], [ 133.861168099999986, 33.6065408 ], [ 133.8569239, 33.6038031 ], [ 133.8565031, 33.6008675 ], [ 133.864577199999985, 33.5934147 ], [ 133.85943469999998, 33.5907203 ], [ 133.8481442, 33.5817547 ], [ 133.8434614, 33.576783299999988 ], [ 133.835016699999983, 33.5799519 ], [ 133.8294258, 33.5835172 ], [ 133.8270164, 33.5804947 ], [ 133.8205428, 33.5799914 ], [ 133.8172578, 33.5747933 ], [ 133.821813099999986, 33.5673494 ], [ 133.8201914, 33.5669336 ], [ 133.8131822, 33.5570886 ], [ 133.80822, 33.5555481 ], [ 133.80188, 33.5501689 ], [ 133.7940764, 33.5494492 ], [ 133.7868542, 33.541215799999989 ], [ 133.781886899999989, 33.5346047 ], [ 133.78094, 33.529095 ], [ 133.7783436, 33.5247294 ], [ 133.770378099999988, 33.5181872 ], [ 133.7699989, 33.5157718 ], [ 133.7798344, 33.5169753 ], [ 133.8145356, 33.5158297 ], [ 133.8200608, 33.5152994 ], [ 133.829844399999985, 33.5140627 ], [ 133.8356504, 33.5124554 ], [ 133.8379818, 33.5079999 ], [ 133.843576499999983, 33.5061921 ], [ 133.8568171, 33.505842 ], [ 133.8806438, 33.5026221 ], [ 133.891469, 33.4990924 ], [ 133.9047382, 33.4965868 ], [ 133.9225462, 33.4919131 ], [ 133.9318989, 33.48862 ], [ 133.9366705, 33.4856371 ], [ 133.944298, 33.4752508 ], [ 133.944272899999987, 33.471054 ], [ 133.9422451, 33.4688449 ], [ 133.941628799999989, 33.4634117 ], [ 133.946772899999985, 33.4562939 ], [ 133.949694300000033, 33.4503113 ], [ 133.9558667, 33.4462047 ], [ 133.95859, 33.4425461 ], [ 133.962774199999984, 33.4421169 ], [ 133.9731576, 33.4388761 ], [ 133.9765669, 33.4365839 ], [ 133.982801099999989, 33.4346908 ], [ 133.986538599999989, 33.4309653 ], [ 133.9929761, 33.4279345 ], [ 133.9974814, 33.4272087 ], [ 134.0111628, 33.422407 ], [ 134.0152814, 33.4239499 ], [ 134.019584399999985, 33.4220607 ], [ 134.0170675, 33.4191314 ], [ 134.021954300000033, 33.4177353 ], [ 134.0286739, 33.41436 ], [ 134.0318772, 33.4110569 ], [ 134.0319242, 33.4083681 ], [ 134.0378264, 33.3925061 ], [ 134.035847, 33.3860321 ], [ 134.037264100000016, 33.3840319 ], [ 134.033767499999982, 33.3784111 ], [ 134.0390425, 33.3706098 ], [ 134.041344600000031, 33.3720989 ], [ 134.0489299, 33.3706928 ], [ 134.053658, 33.3684471 ], [ 134.0590994, 33.3634259 ], [ 134.061736, 33.3624936 ], [ 134.0666872, 33.3576481 ], [ 134.070613899999984, 33.3510317 ], [ 134.0734894, 33.3480036 ], [ 134.0757906, 33.3426483 ], [ 134.080833899999988, 33.3371319 ], [ 134.083266399999985, 33.336735 ], [ 134.0994522, 33.3297269 ], [ 134.1054919, 33.3229103 ], [ 134.1073456, 33.3131228 ], [ 134.10911729999998, 33.3096219 ], [ 134.109326, 33.3034665 ], [ 134.107277399999987, 33.2986473 ], [ 134.1115876, 33.2939255 ], [ 134.118530199999981, 33.295952 ], [ 134.120583499999981, 33.2990603 ], [ 134.1295763, 33.2989827 ], [ 134.136054, 33.2971699 ], [ 134.138286599999986, 33.2930565 ], [ 134.143411499999985, 33.2906624 ], [ 134.1447858, 33.2868446 ], [ 134.150097599999981, 33.2840026 ], [ 134.1544662, 33.2768715 ], [ 134.161374599999988, 33.268229 ], [ 134.1644191, 33.266134 ], [ 134.1675936, 33.2603906 ], [ 134.172723099999985, 33.2462918 ], [ 134.1763521, 33.2431543 ], [ 134.181456, 33.2492187 ], [ 134.1850168, 33.2640653 ], [ 134.185599, 33.2742478 ], [ 134.187439800000021, 33.2821621 ], [ 134.1865331, 33.2923534 ], [ 134.188814799999989, 33.2982933 ], [ 134.188686, 33.3012221 ], [ 134.1924487, 33.307149 ], [ 134.192385299999984, 33.3125606 ], [ 134.194059399999986, 33.3203653 ], [ 134.195755, 33.3216119 ], [ 134.198503, 33.3296852 ], [ 134.198656699999987, 33.3433783 ], [ 134.200112499999989, 33.3501839 ], [ 134.203265, 33.3529961 ], [ 134.2016544, 33.3555864 ], [ 134.2052506, 33.3621203 ], [ 134.205416899999989, 33.3679636 ], [ 134.211907199999985, 33.3773269 ], [ 134.214065, 33.3885197 ], [ 134.210797899999989, 33.3927663 ], [ 134.2118984, 33.4005998 ], [ 134.2174025, 33.4100965 ], [ 134.223602799999981, 33.4221786 ], [ 134.2346464, 33.4376864 ], [ 134.2353111, 33.4421086 ] ] ] ] } },
{ "type": "Feature", "properties": { "hokenjo": "高知市" }, "geometry": { "type": "MultiPolygon", "coordinates": [ [ [ [ 133.563395, 33.6660081 ], [ 133.554737499999987, 33.6663139 ], [ 133.5502539, 33.6631803 ], [ 133.5404378, 33.6649247 ], [ 133.53857, 33.6734933 ], [ 133.5356147, 33.6779208 ], [ 133.5305122, 33.6780386 ], [ 133.5155253, 33.6818858 ], [ 133.51538, 33.6791669 ], [ 133.505801900000023, 33.6698164 ], [ 133.4992981, 33.6688589 ], [ 133.494588099999987, 33.671025 ], [ 133.4878, 33.6696539 ], [ 133.480837799999989, 33.6709072 ], [ 133.473425, 33.6711939 ], [ 133.4696233, 33.6659275 ], [ 133.4646878, 33.6616444 ], [ 133.4604539, 33.6629081 ], [ 133.4557739, 33.6663231 ], [ 133.453337799999986, 33.6704297 ], [ 133.4494344, 33.6722708 ], [ 133.4364869, 33.6705139 ], [ 133.4338467, 33.6679356 ], [ 133.4276592, 33.6649078 ], [ 133.4126822, 33.6605261 ], [ 133.4006411, 33.6506939 ], [ 133.399545599999982, 33.6430281 ], [ 133.3950097, 33.6398897 ], [ 133.395745799999986, 33.6291342 ], [ 133.3989808, 33.6196633 ], [ 133.4061956, 33.6174767 ], [ 133.4092767, 33.61874 ], [ 133.4128025, 33.6147411 ], [ 133.415738299999987, 33.6082628 ], [ 133.4090028, 33.6049228 ], [ 133.406127199999986, 33.5993608 ], [ 133.4013689, 33.5953614 ], [ 133.401959399999981, 33.5920911 ], [ 133.4131539, 33.5870294 ], [ 133.412908300000026, 33.5817347 ], [ 133.4182367, 33.5761606 ], [ 133.4291403, 33.5747019 ], [ 133.433456399999983, 33.57582 ], [ 133.43847359999998, 33.5721106 ], [ 133.4426339, 33.571433899999988 ], [ 133.4465897, 33.5672567 ], [ 133.45247329999998, 33.5720672 ], [ 133.458138099999985, 33.5739836 ], [ 133.463108299999988, 33.5732611 ], [ 133.469023099999987, 33.56601 ], [ 133.47205169999998, 33.5661633 ], [ 133.474502200000018, 33.5627339 ], [ 133.471471400000013, 33.5568728 ], [ 133.4678592, 33.5539208 ], [ 133.465745, 33.5452747 ], [ 133.4631439, 33.5443319 ], [ 133.4648472, 33.5385281 ], [ 133.4631114, 33.5356067 ], [ 133.45829329999998, 33.5350144 ], [ 133.4559789, 33.5326411 ], [ 133.4582714, 33.5269081 ], [ 133.458008299999989, 33.5237022 ], [ 133.4490697, 33.5143931 ], [ 133.441668099999987, 33.5135789 ], [ 133.4365742, 33.5100564 ], [ 133.442160799999982, 33.4993825 ], [ 133.4447269, 33.4965536 ], [ 133.4567222, 33.4908297 ], [ 133.4616033, 33.4835561 ], [ 133.4609539, 33.4756256 ], [ 133.470761899999985, 33.46796 ], [ 133.479513, 33.4579341 ], [ 133.4845401, 33.4612658 ], [ 133.4987021, 33.4667138 ], [ 133.504742199999981, 33.4679657 ], [ 133.510419, 33.473599299999989 ], [ 133.514334, 33.475567 ], [ 133.544615599999986, 33.4870759 ], [ 133.5541706, 33.4901143 ], [ 133.5657081, 33.4930607 ], [ 133.5727525, 33.4954589 ], [ 133.576558399999982, 33.4982836 ], [ 133.5772354, 33.5008416 ], [ 133.567964499999988, 33.4991469 ], [ 133.5629959, 33.4965093 ], [ 133.5569744, 33.5051732 ], [ 133.5596664, 33.5084763 ], [ 133.55355, 33.5100064 ], [ 133.5476191, 33.5175567 ], [ 133.548473699999988, 33.5205168 ], [ 133.546193, 33.5229449 ], [ 133.5482035, 33.525229 ], [ 133.5610058, 33.5301767 ], [ 133.5611849, 33.5354461 ], [ 133.559008, 33.5387549 ], [ 133.5605285, 33.5421295 ], [ 133.566037, 33.54342 ], [ 133.5694009, 33.5427278 ], [ 133.5714396, 33.5390587 ], [ 133.5668504, 33.5355939 ], [ 133.565377899999987, 33.5311476 ], [ 133.5647849, 33.514626799999988 ], [ 133.569483900000023, 33.5153523 ], [ 133.5691907, 33.5118184 ], [ 133.562599399999982, 33.504111 ], [ 133.564327099999986, 33.5011705 ], [ 133.570523899999984, 33.5018594 ], [ 133.5772239, 33.5101481 ], [ 133.584133899999983, 33.5129622 ], [ 133.5857609, 33.5086836 ], [ 133.588230899999985, 33.5088669 ], [ 133.592356599999988, 33.5133691 ], [ 133.5908028, 33.5159523 ], [ 133.601431099999985, 33.5195655 ], [ 133.602635, 33.5325553 ], [ 133.6068764, 33.5359775 ], [ 133.6064725, 33.5418908 ], [ 133.6093967, 33.5459069 ], [ 133.6167322, 33.5480831 ], [ 133.615845799999988, 33.5523175 ], [ 133.6232867, 33.5580972 ], [ 133.625351400000028, 33.5679153 ], [ 133.619495299999983, 33.5696783 ], [ 133.6145386, 33.5679931 ], [ 133.612029399999983, 33.5730358 ], [ 133.618532499999986, 33.5743978 ], [ 133.6232853, 33.5730075 ], [ 133.6243714, 33.5767736 ], [ 133.6084064, 33.5804758 ], [ 133.61004939999998, 33.5887019 ], [ 133.608288099999982, 33.5909544 ], [ 133.60444, 33.5891142 ], [ 133.6025764, 33.5908994 ], [ 133.5959403, 33.5904528 ], [ 133.592323599999986, 33.5935064 ], [ 133.5885744, 33.5938522 ], [ 133.58629030000003, 33.5962417 ], [ 133.585461399999986, 33.6004422 ], [ 133.5822181, 33.6018758 ], [ 133.5760272, 33.6096447 ], [ 133.5774683, 33.6152025 ], [ 133.5719919, 33.6253025 ], [ 133.5738714, 33.6303831 ], [ 133.578260799999981, 33.6303025 ], [ 133.584924199999989, 33.6353772 ], [ 133.5819153, 33.6423206 ], [ 133.5794297, 33.6447158 ], [ 133.581322199999988, 33.6473056 ], [ 133.57836, 33.6529717 ], [ 133.5729183, 33.6583394 ], [ 133.568435599999987, 33.6604461 ], [ 133.563395, 33.6660081 ] ] ] ] } },
{ "type": "Feature", "properties": { "hokenjo": "須崎" }, "geometry": { "type": "MultiPolygon", "coordinates": [ [ [ [ 133.2507986, 33.2351706 ], [ 133.2560939, 33.2378097 ], [ 133.2530997, 33.2409636 ], [ 133.2477317, 33.2439608 ], [ 133.2477319, 33.2496497 ], [ 133.2495303, 33.2508314 ], [ 133.255478899999986, 33.2497425 ], [ 133.2562208, 33.2534061 ], [ 133.2642169, 33.2573142 ], [ 133.258361399999984, 33.2611544 ], [ 133.257937199999986, 33.2649619 ], [ 133.255633599999982, 33.2666561 ], [ 133.255482799999982, 33.2704208 ], [ 133.2575425, 33.2751358 ], [ 133.2602489, 33.2773081 ], [ 133.2576297, 33.2807086 ], [ 133.25161079999998, 33.2799129 ], [ 133.24967, 33.2752733 ], [ 133.2452869, 33.2744533 ], [ 133.2421272, 33.2763389 ], [ 133.2416208, 33.2802522 ], [ 133.2438622, 33.2823525 ], [ 133.242895, 33.2897469 ], [ 133.2459, 33.2920417 ], [ 133.2393875, 33.2944314 ], [ 133.238515299999989, 33.29708 ], [ 133.2414464, 33.3003261 ], [ 133.2445739, 33.3013069 ], [ 133.248458299999982, 33.2999392 ], [ 133.2486111, 33.3053197 ], [ 133.2531947, 33.3080617 ], [ 133.260485499999987, 33.30989 ], [ 133.257456099999985, 33.3132704 ], [ 133.255039, 33.3130299 ], [ 133.24423059999998, 33.3184354 ], [ 133.2412625, 33.3186373 ], [ 133.2371588, 33.3225573 ], [ 133.2315654, 33.3240942 ], [ 133.232215, 33.328315499999988 ], [ 133.237611, 33.3295994 ], [ 133.238143, 33.3324022 ], [ 133.2428501, 33.333489199999988 ], [ 133.2482263, 33.331049299999989 ], [ 133.249636899999985, 33.3338451 ], [ 133.2560762, 33.3328351 ], [ 133.2568671, 33.3374009 ], [ 133.260000599999984, 33.3414361 ], [ 133.263827, 33.3405693 ], [ 133.260224699999981, 33.3476403 ], [ 133.2636894, 33.350755 ], [ 133.2620178, 33.3528417 ], [ 133.2646919, 33.3591375 ], [ 133.2588266, 33.3632918 ], [ 133.2615883, 33.3691817 ], [ 133.2656048, 33.3698272 ], [ 133.2738764, 33.375209 ], [ 133.281040099999984, 33.3766378 ], [ 133.279312799999985, 33.3835006 ], [ 133.282673, 33.3862634 ], [ 133.29245419999998, 33.3873321 ], [ 133.2956346, 33.3896017 ], [ 133.2956716, 33.3931147 ], [ 133.288204399999984, 33.4024799 ], [ 133.291075799999987, 33.4051205 ], [ 133.2941389, 33.4033187 ], [ 133.2985003, 33.3963882 ], [ 133.303798699999987, 33.3904643 ], [ 133.300463399999984, 33.3903652 ], [ 133.2957695, 33.3855638 ], [ 133.2900162, 33.3831339 ], [ 133.291498, 33.3810344 ], [ 133.2961424, 33.3808552 ], [ 133.299494, 33.3788238 ], [ 133.299094, 33.3749745 ], [ 133.3037041, 33.3754512 ], [ 133.30414589999998, 33.3799079 ], [ 133.3091686, 33.3800653 ], [ 133.3104166, 33.3760096 ], [ 133.3157933, 33.3785001 ], [ 133.314579, 33.3808496 ], [ 133.3202263, 33.3830168 ], [ 133.324466, 33.3791741 ], [ 133.3215372, 33.368645 ], [ 133.3242439, 33.3655644 ], [ 133.3201517, 33.3627728 ], [ 133.3158789, 33.3649606 ], [ 133.318460300000027, 33.3557758 ], [ 133.3221417, 33.3620572 ], [ 133.327889699999986, 33.3653297 ], [ 133.3280297, 33.3715194 ], [ 133.33208, 33.3716056 ], [ 133.330169, 33.3807338 ], [ 133.329597799999988, 33.3873603 ], [ 133.3316145, 33.390364 ], [ 133.338591399999984, 33.392403 ], [ 133.340387900000025, 33.3963188 ], [ 133.3457072, 33.4009091 ], [ 133.3539486, 33.4000081 ], [ 133.35888079999998, 33.4026344 ], [ 133.3655614, 33.4006308 ], [ 133.3763028, 33.4013831 ], [ 133.3799436, 33.4036631 ], [ 133.383545, 33.4026672 ], [ 133.389002799999986, 33.4056194 ], [ 133.3933867, 33.4018994 ], [ 133.3973919, 33.4041675 ], [ 133.4014828, 33.4045706 ], [ 133.407992799999988, 33.398451099999988 ], [ 133.4079492, 33.4048586 ], [ 133.412483900000012, 33.4060589 ], [ 133.410957199999984, 33.4096422 ], [ 133.414864699999981, 33.4099486 ], [ 133.4210161, 33.4127453 ], [ 133.434295599999984, 33.4153494 ], [ 133.4414933, 33.4138881 ], [ 133.4429361, 33.4195856 ], [ 133.4374908, 33.4237308 ], [ 133.434393199999988, 33.4282077 ], [ 133.4302936, 33.4297317 ], [ 133.4242547, 33.4289917 ], [ 133.421397499999983, 33.4363133 ], [ 133.4163983, 33.4390794 ], [ 133.4130317, 33.4334381 ], [ 133.4085392, 33.4279458 ], [ 133.40750749999998, 33.4236964 ], [ 133.4041306, 33.4255872 ], [ 133.399720799999983, 33.419445 ], [ 133.398213299999981, 33.4235781 ], [ 133.3946278, 33.4211939 ], [ 133.391805799999986, 33.4173061 ], [ 133.38614, 33.4214222 ], [ 133.384820599999983, 33.4130269 ], [ 133.3794775, 33.4135517 ], [ 133.380266899999981, 33.4176744 ], [ 133.3692917, 33.4233464 ], [ 133.368688599999984, 33.4199558 ], [ 133.370699699999989, 33.41679 ], [ 133.368658399999987, 33.4144285 ], [ 133.368944199999987, 33.4096072 ], [ 133.3663278, 33.4071409 ], [ 133.3596954, 33.4077245 ], [ 133.359398900000031, 33.4094506 ], [ 133.364769199999984, 33.4113983 ], [ 133.3619692, 33.415298299999989 ], [ 133.3510842, 33.416062 ], [ 133.3555036, 33.4202278 ], [ 133.360611399999982, 33.4212592 ], [ 133.3640958, 33.4260058 ], [ 133.3698511, 33.4304808 ], [ 133.3768512, 33.4286194 ], [ 133.387463600000018, 33.4318006 ], [ 133.3872289, 33.4276072 ], [ 133.396976699999982, 33.4296281 ], [ 133.39739, 33.4314031 ], [ 133.4068119, 33.4336097 ], [ 133.4061331, 33.4367039 ], [ 133.3978519, 33.4452833 ], [ 133.401804699999985, 33.4450953 ], [ 133.4057344, 33.4475769 ], [ 133.41089420000003, 33.4431078 ], [ 133.4151444, 33.4442872 ], [ 133.4214394, 33.4499914 ], [ 133.424180300000017, 33.4477853 ], [ 133.422983099999982, 33.4437813 ], [ 133.4238197, 33.4399933 ], [ 133.4322352, 33.4372108 ], [ 133.429055299999987, 33.4422625 ], [ 133.4293256, 33.4455264 ], [ 133.4318886, 33.4483103 ], [ 133.4289058, 33.4546572 ], [ 133.431214399999988, 33.4580553 ], [ 133.429481399999986, 33.4637264 ], [ 133.4228128, 33.4633906 ], [ 133.4146269, 33.4668217 ], [ 133.408222199999983, 33.468055 ], [ 133.4041772, 33.4675 ], [ 133.4007139, 33.4651753 ], [ 133.3992289, 33.4595506 ], [ 133.392665599999987, 33.4564308 ], [ 133.3862703, 33.4568436 ], [ 133.3840794, 33.4537267 ], [ 133.377783099999988, 33.4495314 ], [ 133.37612, 33.4458331 ], [ 133.3731467, 33.4451467 ], [ 133.3651825, 33.4523428 ], [ 133.360160799999989, 33.4530825 ], [ 133.354685, 33.4504178 ], [ 133.3548422, 33.4458808 ], [ 133.349895299999986, 33.4412083 ], [ 133.345126099999987, 33.4403936 ], [ 133.330555, 33.4399706 ], [ 133.3247442, 33.4351961 ], [ 133.3241825, 33.4333489 ], [ 133.3143589, 33.4321392 ], [ 133.3103492, 33.435585 ], [ 133.3116844, 33.4381067 ], [ 133.3081858, 33.4498658 ], [ 133.3061272, 33.4518431 ], [ 133.3055903, 33.4591489 ], [ 133.293813299999982, 33.4520333 ], [ 133.287080799999984, 33.4466144 ], [ 133.283165, 33.4467072 ], [ 133.280401399999988, 33.443542199999989 ], [ 133.27502, 33.4406911 ], [ 133.271416099999982, 33.4402906 ], [ 133.2582394, 33.4414014 ], [ 133.251866899999982, 33.4453775 ], [ 133.251285, 33.4520331 ], [ 133.2496703, 33.4544547 ], [ 133.245855299999988, 33.4551414 ], [ 133.2333333, 33.4614547 ], [ 133.2209197, 33.4620061 ], [ 133.214553099999989, 33.4668242 ], [ 133.2050547, 33.4671333 ], [ 133.202494699999988, 33.4721519 ], [ 133.196819399999981, 33.4742828 ], [ 133.189389399999982, 33.4707972 ], [ 133.1832928, 33.4725547 ], [ 133.1784064, 33.4652194 ], [ 133.1669786, 33.4639186 ], [ 133.1594322, 33.4669919 ], [ 133.155408599999987, 33.4651581 ], [ 133.15123939999998, 33.4610083 ], [ 133.140330799999987, 33.458465 ], [ 133.1374806, 33.4567369 ], [ 133.125795, 33.4563183 ], [ 133.119273099999987, 33.4532236 ], [ 133.116766399999989, 33.4502536 ], [ 133.111686099999986, 33.4503964 ], [ 133.10232, 33.4430347 ], [ 133.092752499999989, 33.4477936 ], [ 133.0906392, 33.4517089 ], [ 133.0733792, 33.4525942 ], [ 133.0736411, 33.4556578 ], [ 133.0691311, 33.4591961 ], [ 133.0682833, 33.4657808 ], [ 133.0611389, 33.4690194 ], [ 133.058968599999986, 33.4755956 ], [ 133.0588019, 33.4797381 ], [ 133.0555717, 33.4797203 ], [ 133.051905799999986, 33.4765761 ], [ 133.0447361, 33.4745967 ], [ 133.03443249999998, 33.4793169 ], [ 133.027153299999981, 33.4802056 ], [ 133.024068299999982, 33.4815544 ], [ 133.0153642, 33.4810058 ], [ 132.9990297, 33.4757536 ], [ 132.992728299999982, 33.4758292 ], [ 132.989258299999989, 33.4738658 ], [ 132.9868725, 33.4729061 ], [ 132.9788381, 33.472918299999989 ], [ 132.9726736, 33.4697864 ], [ 132.9596381, 33.4663122 ], [ 132.951665599999984, 33.4665783 ], [ 132.946839399999988, 33.4685858 ], [ 132.9442242, 33.4719489 ], [ 132.9385206, 33.4720789 ], [ 132.9309972, 33.4700739 ], [ 132.929001199999988, 33.4685745 ], [ 132.915213099999988, 33.4676539 ], [ 132.8996333, 33.4700717 ], [ 132.8938733, 33.4724764 ], [ 132.884128900000036, 33.4730178 ], [ 132.8810564, 33.4709531 ], [ 132.8736858, 33.4709844 ], [ 132.8645286, 33.4723394 ], [ 132.8624183, 33.4745297 ], [ 132.8523272, 33.4781506 ], [ 132.8475344, 33.4791897 ], [ 132.840419199999985, 33.4747261 ], [ 132.8341264, 33.4742031 ], [ 132.8317122, 33.4759119 ], [ 132.827157199999988, 33.4724058 ], [ 132.822973099999984, 33.4729442 ], [ 132.8189317, 33.4665525 ], [ 132.8148233, 33.4643347 ], [ 132.811056399999984, 33.4660617 ], [ 132.8069903, 33.4607778 ], [ 132.8081311, 33.453855 ], [ 132.8132731, 33.4511464 ], [ 132.8219456, 33.4486214 ], [ 132.826562199999984, 33.4456044 ], [ 132.82777249999998, 33.4383244 ], [ 132.8245167, 33.4346733 ], [ 132.823385299999984, 33.4298428 ], [ 132.824915299999986, 33.4229344 ], [ 132.834013299999981, 33.4201525 ], [ 132.833299399999987, 33.4119508 ], [ 132.8316189, 33.4088517 ], [ 132.835435, 33.4006436 ], [ 132.8410539, 33.397895 ], [ 132.854508899999985, 33.3983019 ], [ 132.855938899999984, 33.3949436 ], [ 132.8555556, 33.3900558 ], [ 132.853063099999986, 33.3884819 ], [ 132.856502799999987, 33.3825864 ], [ 132.856585, 33.3781144 ], [ 132.8590706, 33.3739075 ], [ 132.86002, 33.3684553 ], [ 132.8667431, 33.3680972 ], [ 132.874133100000023, 33.3639614 ], [ 132.883797499999986, 33.3623492 ], [ 132.8870617, 33.3587133 ], [ 132.8901339, 33.3575092 ], [ 132.8947339, 33.3495256 ], [ 132.9004358, 33.343736899999989 ], [ 132.902885, 33.3380408 ], [ 132.9017667, 33.3357631 ], [ 132.903501399999982, 33.3310467 ], [ 132.9017467, 33.3273064 ], [ 132.898984399999989, 33.32445 ], [ 132.900666699999988, 33.3206225 ], [ 132.898545800000022, 33.3147028 ], [ 132.8849492, 33.3071033 ], [ 132.8724617, 33.3049264 ], [ 132.8716475, 33.3031014 ], [ 132.863057199999986, 33.2977719 ], [ 132.8577033, 33.2931861 ], [ 132.8513653, 33.2915544 ], [ 132.849717199999986, 33.2896422 ], [ 132.8395514, 33.2878617 ], [ 132.8376336, 33.289405 ], [ 132.832629699999984, 33.2853981 ], [ 132.8243975, 33.2822306 ], [ 132.8175625, 33.2838311 ], [ 132.814535299999989, 33.2806586 ], [ 132.8099408, 33.2801681 ], [ 132.8005097, 33.2754975 ], [ 132.793117199999983, 33.2748414 ], [ 132.7891358, 33.27047 ], [ 132.7868925, 33.2622403 ], [ 132.7912967, 33.2569708 ], [ 132.7938906, 33.2559306 ], [ 132.7948228, 33.2517439 ], [ 132.7999514, 33.2475725 ], [ 132.8003125, 33.2438369 ], [ 132.8046683, 33.2357894 ], [ 132.8150503, 33.2384681 ], [ 132.8224064, 33.2396039 ], [ 132.827456899999987, 33.2377558 ], [ 132.8257628, 33.2293192 ], [ 132.8229981, 33.2227064 ], [ 132.819071899999983, 33.2229444 ], [ 132.8176475, 33.2138925 ], [ 132.8245119, 33.2065822 ], [ 132.8245303, 33.20193 ], [ 132.818798099999981, 33.19205 ], [ 132.8264467, 33.1908933 ], [ 132.8337028, 33.1874353 ], [ 132.8388914, 33.1886678 ], [ 132.8455203, 33.1845264 ], [ 132.8611981, 33.1772569 ], [ 132.8677839, 33.1799933 ], [ 132.877623600000021, 33.17956 ], [ 132.8782689, 33.1737283 ], [ 132.8808553, 33.1708514 ], [ 132.880083899999988, 33.1670089 ], [ 132.876025299999981, 33.1609239 ], [ 132.8797425, 33.1586717 ], [ 132.884146099999981, 33.1535928 ], [ 132.890508899999986, 33.1527069 ], [ 132.893154399999986, 33.1485725 ], [ 132.8991758, 33.1441772 ], [ 132.901689399999981, 33.1451589 ], [ 132.9116431, 33.1438192 ], [ 132.918070799999981, 33.1419033 ], [ 132.9238492, 33.1389733 ], [ 132.9354525, 33.1375483 ], [ 132.9402814, 33.1452914 ], [ 132.9463528, 33.1462928 ], [ 132.9514394, 33.1492564 ], [ 132.9585394, 33.1465839 ], [ 132.963179699999984, 33.1479692 ], [ 132.9657039, 33.1546814 ], [ 132.969233299999985, 33.1558842 ], [ 132.9727517, 33.160905 ], [ 132.9789711, 33.1601208 ], [ 132.9846747, 33.1573361 ], [ 132.989377499999989, 33.1574158 ], [ 132.9940372, 33.1601356 ], [ 133.002525599999984, 33.1559069 ], [ 133.0003983, 33.1510725 ], [ 133.0034408, 33.1472425 ], [ 133.0108908, 33.1460789 ], [ 133.0169517, 33.1499306 ], [ 133.0221861, 33.1501978 ], [ 133.0273458, 33.1450939 ], [ 133.0305775, 33.1447711 ], [ 133.0344581, 33.1404794 ], [ 133.0429789, 33.1381575 ], [ 133.04781330000003, 33.135610299999989 ], [ 133.0568381, 33.1334442 ], [ 133.0568528, 33.1297672 ], [ 133.053415, 33.1233406 ], [ 133.051344699999987, 33.1226664 ], [ 133.058909699999987, 33.1178019 ], [ 133.064886699999988, 33.1220558 ], [ 133.071046100000018, 33.1231956 ], [ 133.071920299999988, 33.1296225 ], [ 133.0745628, 33.1322903 ], [ 133.0727872, 33.1359111 ], [ 133.0731039, 33.1419075 ], [ 133.0757625, 33.1473986 ], [ 133.0787397, 33.1480156 ], [ 133.088676099999986, 33.1457731 ], [ 133.0923872, 33.1432547 ], [ 133.0954931, 33.1441364 ], [ 133.093869399999988, 33.1509892 ], [ 133.0894106, 33.154085 ], [ 133.0908461, 33.1583711 ], [ 133.09859609999998, 33.1648572 ], [ 133.104728599999987, 33.1631636 ], [ 133.111400299999985, 33.1635706 ], [ 133.114467499999989, 33.1588611 ], [ 133.120831399999986, 33.1617731 ], [ 133.1248033, 33.1619194 ], [ 133.1307636, 33.1697208 ], [ 133.1320753, 33.1679919 ], [ 133.1387258, 33.167214199999989 ], [ 133.1461708, 33.1719092 ], [ 133.1515458, 33.1788108 ], [ 133.156191399999983, 33.1821397 ], [ 133.160357799999986, 33.183499399999988 ], [ 133.1644675, 33.1882642 ], [ 133.173225, 33.1897425 ], [ 133.1771875, 33.1885614 ], [ 133.1832111, 33.1823669 ], [ 133.1825897, 33.1778428 ], [ 133.1757475, 33.1730611 ], [ 133.1737861, 33.1686325 ], [ 133.1710683, 33.1666814 ], [ 133.166103099999987, 33.1600119 ], [ 133.160839399999986, 33.1549164 ], [ 133.156146899999982, 33.1520903 ], [ 133.1531783, 33.1466703 ], [ 133.1580089, 33.1381492 ], [ 133.1639964, 33.1352942 ], [ 133.1659206, 33.1384853 ], [ 133.167426899999981, 33.1458956 ], [ 133.17062420000002, 33.1504156 ], [ 133.182900599999982, 33.1602564 ], [ 133.184623099999982, 33.1635106 ], [ 133.1919192, 33.1674164 ], [ 133.1987067, 33.1674747 ], [ 133.206995, 33.1650161 ], [ 133.2084557, 33.1629656 ], [ 133.205420299999986, 33.159265 ], [ 133.2081225, 33.1571781 ], [ 133.212077199999982, 33.148115 ], [ 133.2145572, 33.15139 ], [ 133.223005, 33.1532967 ], [ 133.2202658, 33.1565386 ], [ 133.2189928, 33.1669281 ], [ 133.221601100000015, 33.1739386 ], [ 133.2156444, 33.1761042 ], [ 133.2147943, 33.1798709 ], [ 133.2110831, 33.1806247 ], [ 133.210534699999982, 33.1836911 ], [ 133.215252199999981, 33.1923186 ], [ 133.2194031, 33.1942317 ], [ 133.2269928, 33.1955978 ], [ 133.231446399999982, 33.1978719 ], [ 133.235806699999983, 33.1981564 ], [ 133.2396531, 33.2005306 ], [ 133.2353081, 33.2023047 ], [ 133.2349825, 33.20518 ], [ 133.2387306, 33.2091522 ], [ 133.2391628, 33.2166556 ], [ 133.2444336, 33.2185203 ], [ 133.247765, 33.2216081 ], [ 133.2560669, 33.2251856 ], [ 133.2550981, 33.2293292 ], [ 133.2494917, 33.2329283 ], [ 133.2507986, 33.2351706 ] ] ], [ [ [ 133.299861099999987, 33.3588422 ], [ 133.3037211, 33.3623922 ], [ 133.301753099999985, 33.3642203 ], [ 133.2981303, 33.3620517 ], [ 133.299861099999987, 33.3588422 ] ] ] ] } },
{ "type": "Feature", "properties": { "hokenjo": "中央西" }, "geometry": { "type": "MultiPolygon", "coordinates": [ [ [ [ 133.4374908, 33.4237308 ], [ 133.4429361, 33.4195856 ], [ 133.445645, 33.4212211 ], [ 133.4569833, 33.4198436 ], [ 133.4582552, 33.4276617 ], [ 133.4623892, 33.4294437 ], [ 133.457535399999983, 33.4333672 ], [ 133.4549773, 33.431491799999989 ], [ 133.448744299999987, 33.4346551 ], [ 133.444830199999984, 33.4392379 ], [ 133.441637499999985, 33.4393552 ], [ 133.4394557, 33.4331794 ], [ 133.435435, 33.4333981 ], [ 133.434393199999988, 33.4282077 ], [ 133.4374908, 33.4237308 ] ] ], [ [ [ 133.4365742, 33.5100564 ], [ 133.441668099999987, 33.5135789 ], [ 133.4490697, 33.5143931 ], [ 133.458008299999989, 33.5237022 ], [ 133.4582714, 33.5269081 ], [ 133.4559789, 33.5326411 ], [ 133.45829329999998, 33.5350144 ], [ 133.4631114, 33.5356067 ], [ 133.4648472, 33.5385281 ], [ 133.4631439, 33.5443319 ], [ 133.465745, 33.5452747 ], [ 133.4678592, 33.5539208 ], [ 133.471471400000013, 33.5568728 ], [ 133.474502200000018, 33.5627339 ], [ 133.47205169999998, 33.5661633 ], [ 133.469023099999987, 33.56601 ], [ 133.463108299999988, 33.5732611 ], [ 133.458138099999985, 33.5739836 ], [ 133.45247329999998, 33.5720672 ], [ 133.4465897, 33.5672567 ], [ 133.4426339, 33.571433899999988 ], [ 133.43847359999998, 33.5721106 ], [ 133.433456399999983, 33.57582 ], [ 133.4291403, 33.5747019 ], [ 133.4182367, 33.5761606 ], [ 133.412908300000026, 33.5817347 ], [ 133.4131539, 33.5870294 ], [ 133.401959399999981, 33.5920911 ], [ 133.4013689, 33.5953614 ], [ 133.406127199999986, 33.5993608 ], [ 133.4090028, 33.6049228 ], [ 133.415738299999987, 33.6082628 ], [ 133.4128025, 33.6147411 ], [ 133.4092767, 33.61874 ], [ 133.4061956, 33.6174767 ], [ 133.3989808, 33.6196633 ], [ 133.395745799999986, 33.6291342 ], [ 133.3950097, 33.6398897 ], [ 133.399545599999982, 33.6430281 ], [ 133.4006411, 33.6506939 ], [ 133.4126822, 33.6605261 ], [ 133.4276592, 33.6649078 ], [ 133.4338467, 33.6679356 ], [ 133.4364869, 33.6705139 ], [ 133.4494344, 33.6722708 ], [ 133.449519700000025, 33.6782611 ], [ 133.4457822, 33.68486 ], [ 133.435221700000028, 33.6938958 ], [ 133.4302269, 33.6912586 ], [ 133.426614699999988, 33.6913222 ], [ 133.4140758, 33.6856625 ], [ 133.406852499999985, 33.6838606 ], [ 133.404746099999983, 33.6847325 ], [ 133.398507199999983, 33.6802061 ], [ 133.396120599999989, 33.6806803 ], [ 133.399081699999982, 33.6910281 ], [ 133.4008011, 33.6943961 ], [ 133.3964761, 33.7000969 ], [ 133.3828478, 33.7031831 ], [ 133.38546359999998, 33.7075628 ], [ 133.3816675, 33.7093619 ], [ 133.380585, 33.7137917 ], [ 133.3689331, 33.7190539 ], [ 133.369090299999982, 33.7263411 ], [ 133.3619008, 33.7281261 ], [ 133.3598925, 33.7339528 ], [ 133.3634247, 33.7419361 ], [ 133.3628928, 33.7457769 ], [ 133.35953139999998, 33.74691 ], [ 133.362880599999983, 33.7519378 ], [ 133.3683058, 33.7550392 ], [ 133.3637783, 33.7686736 ], [ 133.3645644, 33.7733817 ], [ 133.360599399999984, 33.7770525 ], [ 133.3530681, 33.7802883 ], [ 133.3509486, 33.7827561 ], [ 133.3530408, 33.7859236 ], [ 133.3590692, 33.7895075 ], [ 133.353808099999981, 33.7931467 ], [ 133.349450599999983, 33.7981317 ], [ 133.3459894, 33.7979444 ], [ 133.3400686, 33.8027514 ], [ 133.335516399999989, 33.8036306 ], [ 133.328485799999982, 33.80954 ], [ 133.326331399999987, 33.8147636 ], [ 133.3191531, 33.8160575 ], [ 133.310275300000029, 33.81588 ], [ 133.3022919, 33.8231289 ], [ 133.2937689, 33.8286956 ], [ 133.28865, 33.8293697 ], [ 133.2842497, 33.8317922 ], [ 133.2771803, 33.8308128 ], [ 133.274505799999986, 33.8280569 ], [ 133.2692133, 33.8256183 ], [ 133.267543599999982, 33.8208306 ], [ 133.2607722, 33.8110839 ], [ 133.262455, 33.8048253 ], [ 133.2586258, 33.7983758 ], [ 133.257180299999987, 33.7938633 ], [ 133.249881099999982, 33.7883292 ], [ 133.2459369, 33.7889472 ], [ 133.2369206, 33.782725 ], [ 133.2316089, 33.7839622 ], [ 133.2198444, 33.7804306 ], [ 133.2155378, 33.7856122 ], [ 133.2037044, 33.794735 ], [ 133.1927442, 33.7937819 ], [ 133.1902278, 33.7868406 ], [ 133.1904697, 33.7836256 ], [ 133.1872583, 33.7773711 ], [ 133.1823722, 33.7714783 ], [ 133.1837425, 33.7681417 ], [ 133.179973099999984, 33.764055 ], [ 133.1767869, 33.7637958 ], [ 133.175740600000012, 33.7607503 ], [ 133.170920599999988, 33.7575428 ], [ 133.1646456, 33.7563606 ], [ 133.1635533, 33.7542103 ], [ 133.157837199999989, 33.750295 ], [ 133.1589914, 33.7432311 ], [ 133.1592967, 33.7339372 ], [ 133.1612097, 33.7315258 ], [ 133.151712799999984, 33.7246964 ], [ 133.1458375, 33.7219394 ], [ 133.1458261, 33.7195206 ], [ 133.139817199999982, 33.7156911 ], [ 133.1412928, 33.7103731 ], [ 133.1446719, 33.7073897 ], [ 133.144580599999983, 33.7046517 ], [ 133.1341717, 33.6998517 ], [ 133.1253222, 33.6983258 ], [ 133.1224311, 33.6925242 ], [ 133.1192269, 33.6886025 ], [ 133.121477199999987, 33.6862839 ], [ 133.119484199999988, 33.6794611 ], [ 133.1215003, 33.6740369 ], [ 133.1184261, 33.6678206 ], [ 133.1165325, 33.6601461 ], [ 133.106661699999989, 33.6566511 ], [ 133.0974086, 33.6582428 ], [ 133.0907556, 33.6578128 ], [ 133.08478, 33.6549225 ], [ 133.0775089, 33.6535531 ], [ 133.075019699999984, 33.6506186 ], [ 133.0723578, 33.6383872 ], [ 133.070172499999984, 33.6359281 ], [ 133.070061899999985, 33.6309036 ], [ 133.0672303, 33.6225525 ], [ 133.0732025, 33.6143603 ], [ 133.078982199999984, 33.6116694 ], [ 133.07962, 33.6086997 ], [ 133.069950799999987, 33.6011425 ], [ 133.0640192, 33.5994808 ], [ 133.0629692, 33.5973075 ], [ 133.057415599999985, 33.59636 ], [ 133.0546192, 33.5935178 ], [ 133.0551983, 33.5899511 ], [ 133.049214399999983, 33.5849622 ], [ 133.0475717, 33.5818519 ], [ 133.0467567, 33.5752175 ], [ 133.053996899999987, 33.5704244 ], [ 133.0554756, 33.5674481 ], [ 133.0623086, 33.5614503 ], [ 133.0602522, 33.5540903 ], [ 133.0619558, 33.5508322 ], [ 133.0626192, 33.5453678 ], [ 133.0591633, 33.5387133 ], [ 133.0462892, 33.5302867 ], [ 133.0379419, 33.5264064 ], [ 133.0382525, 33.5193225 ], [ 133.034255299999984, 33.5118339 ], [ 133.030616899999984, 33.5078353 ], [ 133.0261633, 33.5051892 ], [ 133.025439399999982, 33.5022028 ], [ 133.0207, 33.4961083 ], [ 133.0134008, 33.490582499999988 ], [ 133.0153642, 33.4810058 ], [ 133.024068299999982, 33.4815544 ], [ 133.027153299999981, 33.4802056 ], [ 133.03443249999998, 33.4793169 ], [ 133.0447361, 33.4745967 ], [ 133.051905799999986, 33.4765761 ], [ 133.0555717, 33.4797203 ], [ 133.0588019, 33.4797381 ], [ 133.058968599999986, 33.4755956 ], [ 133.0611389, 33.4690194 ], [ 133.0682833, 33.4657808 ], [ 133.0691311, 33.4591961 ], [ 133.0736411, 33.4556578 ], [ 133.0733792, 33.4525942 ], [ 133.0906392, 33.4517089 ], [ 133.092752499999989, 33.4477936 ], [ 133.10232, 33.4430347 ], [ 133.111686099999986, 33.4503964 ], [ 133.116766399999989, 33.4502536 ], [ 133.119273099999987, 33.4532236 ], [ 133.125795, 33.4563183 ], [ 133.1374806, 33.4567369 ], [ 133.140330799999987, 33.458465 ], [ 133.15123939999998, 33.4610083 ], [ 133.155408599999987, 33.4651581 ], [ 133.1594322, 33.4669919 ], [ 133.1669786, 33.4639186 ], [ 133.1784064, 33.4652194 ], [ 133.1832928, 33.4725547 ], [ 133.189389399999982, 33.4707972 ], [ 133.196819399999981, 33.4742828 ], [ 133.202494699999988, 33.4721519 ], [ 133.2050547, 33.4671333 ], [ 133.214553099999989, 33.4668242 ], [ 133.2209197, 33.4620061 ], [ 133.2333333, 33.4614547 ], [ 133.245855299999988, 33.4551414 ], [ 133.2496703, 33.4544547 ], [ 133.251285, 33.4520331 ], [ 133.251866899999982, 33.4453775 ], [ 133.2582394, 33.4414014 ], [ 133.271416099999982, 33.4402906 ], [ 133.27502, 33.4406911 ], [ 133.280401399999988, 33.443542199999989 ], [ 133.283165, 33.4467072 ], [ 133.287080799999984, 33.4466144 ], [ 133.293813299999982, 33.4520333 ], [ 133.3055903, 33.4591489 ], [ 133.3061272, 33.4518431 ], [ 133.3081858, 33.4498658 ], [ 133.3116844, 33.4381067 ], [ 133.3103492, 33.435585 ], [ 133.3143589, 33.4321392 ], [ 133.3241825, 33.4333489 ], [ 133.3247442, 33.4351961 ], [ 133.330555, 33.4399706 ], [ 133.345126099999987, 33.4403936 ], [ 133.349895299999986, 33.4412083 ], [ 133.3548422, 33.4458808 ], [ 133.354685, 33.4504178 ], [ 133.360160799999989, 33.4530825 ], [ 133.3651825, 33.4523428 ], [ 133.3731467, 33.4451467 ], [ 133.37612, 33.4458331 ], [ 133.377783099999988, 33.4495314 ], [ 133.3840794, 33.4537267 ], [ 133.3862703, 33.4568436 ], [ 133.392665599999987, 33.4564308 ], [ 133.3992289, 33.4595506 ], [ 133.4007139, 33.4651753 ], [ 133.4041772, 33.4675 ], [ 133.408222199999983, 33.468055 ], [ 133.4146269, 33.4668217 ], [ 133.4228128, 33.4633906 ], [ 133.429481399999986, 33.4637264 ], [ 133.431214399999988, 33.4580553 ], [ 133.4289058, 33.4546572 ], [ 133.4318886, 33.4483103 ], [ 133.4293256, 33.4455264 ], [ 133.429055299999987, 33.4422625 ], [ 133.4322352, 33.4372108 ], [ 133.4372875, 33.4392917 ], [ 133.438595700000036, 33.445499 ], [ 133.4412078, 33.4491544 ], [ 133.4472001, 33.4517216 ], [ 133.451276799999988, 33.4492798 ], [ 133.4592168, 33.4485526 ], [ 133.4670856, 33.4537058 ], [ 133.478155, 33.4585917 ], [ 133.479513, 33.4579341 ], [ 133.470761899999985, 33.46796 ], [ 133.4609539, 33.4756256 ], [ 133.4616033, 33.4835561 ], [ 133.4567222, 33.4908297 ], [ 133.4447269, 33.4965536 ], [ 133.442160799999982, 33.4993825 ], [ 133.4365742, 33.5100564 ] ] ] ] } },
{ "type": "Feature", "properties": { "hokenjo": "中央東" }, "geometry": { "type": "MultiPolygon", "coordinates": [ [ [ [ 133.8847422, 33.64895 ], [ 133.886446899999981, 33.6530094 ], [ 133.8938775, 33.6542197 ], [ 133.8982878, 33.6581567 ], [ 133.9008125, 33.6527117 ], [ 133.900969400000037, 33.6472408 ], [ 133.905369399999984, 33.6470831 ], [ 133.909142799999984, 33.648711399999989 ], [ 133.9162119, 33.6441725 ], [ 133.9257742, 33.6477939 ], [ 133.9319256, 33.6519019 ], [ 133.9347656, 33.6507575 ], [ 133.941994199999982, 33.6553956 ], [ 133.944455799999986, 33.6558147 ], [ 133.944647799999984, 33.6601936 ], [ 133.96016, 33.6660922 ], [ 133.963799699999981, 33.6735411 ], [ 133.9681225, 33.6737825 ], [ 133.970580300000023, 33.6771811 ], [ 133.9679936, 33.67909 ], [ 133.9737211, 33.6822517 ], [ 133.977623599999987, 33.6886428 ], [ 133.9810075, 33.6881478 ], [ 133.9905872, 33.6935328 ], [ 133.9946014, 33.6991842 ], [ 133.996048299999984, 33.708452199999989 ], [ 134.0018433, 33.71248 ], [ 134.0074036, 33.7123644 ], [ 134.014736699999986, 33.7138683 ], [ 134.0195486, 33.7124069 ], [ 134.0271919, 33.718776399999989 ], [ 134.0352786, 33.7119892 ], [ 134.0418381, 33.7141233 ], [ 134.0525692, 33.7152333 ], [ 134.0616269, 33.7203003 ], [ 134.065037499999988, 33.7194522 ], [ 134.06841750000001, 33.7283519 ], [ 134.066193299999981, 33.7340669 ], [ 134.0617811, 33.7352153 ], [ 134.0614936, 33.74044 ], [ 134.059046699999982, 33.7432214 ], [ 134.0594869, 33.7459247 ], [ 134.0560956, 33.7519492 ], [ 134.05689719999998, 33.7578456 ], [ 134.058954199999988, 33.7610003 ], [ 134.0587883, 33.7766669 ], [ 134.0553222, 33.7846906 ], [ 134.050271899999984, 33.7856367 ], [ 134.045868899999988, 33.7899972 ], [ 134.04658, 33.7990706 ], [ 134.0407381, 33.801887199999989 ], [ 134.0392047, 33.8045761 ], [ 134.0333114, 33.8092781 ], [ 134.0369781, 33.8149797 ], [ 134.036879699999986, 33.8203394 ], [ 134.032676899999984, 33.8284381 ], [ 134.0267069, 33.8274353 ], [ 134.02340719999998, 33.8246931 ], [ 134.0123314, 33.8217872 ], [ 134.005625, 33.8214139 ], [ 133.9959317, 33.8219303 ], [ 133.9899486, 33.8285828 ], [ 133.99021639999998, 33.8310156 ], [ 133.987147199999981, 33.8366686 ], [ 133.987494699999985, 33.8394597 ], [ 133.9831164, 33.8407983 ], [ 133.979093899999981, 33.8374931 ], [ 133.974254699999989, 33.8363672 ], [ 133.9597833, 33.8346603 ], [ 133.951105, 33.828685799999988 ], [ 133.9530742, 33.8236608 ], [ 133.95273, 33.8154933 ], [ 133.951162499999981, 33.8105403 ], [ 133.9474736, 33.8037442 ], [ 133.941260799999981, 33.7991581 ], [ 133.9360614, 33.7990061 ], [ 133.924878299999989, 33.8006092 ], [ 133.924305, 33.7987189 ], [ 133.919296400000036, 33.7976342 ], [ 133.9127781, 33.7914047 ], [ 133.9079989, 33.7952253 ], [ 133.90106, 33.79438 ], [ 133.895975, 33.80238 ], [ 133.891138899999987, 33.8035603 ], [ 133.8849358, 33.8034125 ], [ 133.882670599999983, 33.805354699999988 ], [ 133.8735144, 33.8059228 ], [ 133.8724956, 33.810158099999988 ], [ 133.866367199999985, 33.8192169 ], [ 133.859685, 33.8261336 ], [ 133.8568689, 33.8279072 ], [ 133.853523100000018, 33.8346019 ], [ 133.848155599999984, 33.8354172 ], [ 133.8439122, 33.8381325 ], [ 133.838695, 33.8451669 ], [ 133.832596699999982, 33.8440581 ], [ 133.828488099999987, 33.8447489 ], [ 133.8177728, 33.8373214 ], [ 133.809024199999982, 33.8380311 ], [ 133.807207799999986, 33.8367533 ], [ 133.7992658, 33.8374925 ], [ 133.7969489, 33.8363475 ], [ 133.78858, 33.8362439 ], [ 133.7867133, 33.840843299999989 ], [ 133.775772499999988, 33.8422967 ], [ 133.7732811, 33.8398833 ], [ 133.7668433, 33.8402825 ], [ 133.7562264, 33.8364303 ], [ 133.748235599999987, 33.8367708 ], [ 133.740817199999981, 33.8428725 ], [ 133.740184199999987, 33.8477789 ], [ 133.7289514, 33.8510797 ], [ 133.71946939999998, 33.8492786 ], [ 133.7152844, 33.8509444 ], [ 133.707598099999984, 33.8516817 ], [ 133.7017361, 33.8497911 ], [ 133.6976211, 33.8520486 ], [ 133.6948586, 33.8562767 ], [ 133.6873017, 33.8565278 ], [ 133.6808111, 33.8595117 ], [ 133.677695, 33.8585392 ], [ 133.6743444, 33.8608497 ], [ 133.6717739, 33.8649894 ], [ 133.666411399999987, 33.8660114 ], [ 133.6629103, 33.8703453 ], [ 133.661289399999987, 33.8767544 ], [ 133.661388100000011, 33.8812506 ], [ 133.6540047, 33.8815964 ], [ 133.651723299999986, 33.8827736 ], [ 133.6440694, 33.8830258 ], [ 133.6352517, 33.8801994 ], [ 133.6295433, 33.8727375 ], [ 133.627308299999982, 33.8720308 ], [ 133.617363899999987, 33.8766003 ], [ 133.6110919, 33.8807511 ], [ 133.6069503, 33.8815139 ], [ 133.6032161, 33.8799306 ], [ 133.596226699999988, 33.8798208 ], [ 133.592888099999982, 33.8753617 ], [ 133.585494399999988, 33.8709778 ], [ 133.5830344, 33.8676503 ], [ 133.5781381, 33.8680917 ], [ 133.5711114, 33.8702797 ], [ 133.571529699999985, 33.8718228 ], [ 133.5656986, 33.8750294 ], [ 133.5621831, 33.875335 ], [ 133.5571142, 33.8821556 ], [ 133.549906099999987, 33.8819897 ], [ 133.543925799999982, 33.8788242 ], [ 133.540196399999985, 33.8786844 ], [ 133.539555, 33.8745494 ], [ 133.5359183, 33.8714825 ], [ 133.536239699999982, 33.8660953 ], [ 133.526391099999984, 33.8621114 ], [ 133.526354199999986, 33.8536608 ], [ 133.522518099999985, 33.852235 ], [ 133.5181053, 33.8473347 ], [ 133.5096886, 33.8482589 ], [ 133.506531699999982, 33.8399028 ], [ 133.50793059999998, 33.8358719 ], [ 133.499502799999988, 33.8292422 ], [ 133.4933881, 33.8321572 ], [ 133.486620599999981, 33.8297067 ], [ 133.4832136, 33.8329908 ], [ 133.473465299999987, 33.8336997 ], [ 133.4704992, 33.8367897 ], [ 133.464297499999986, 33.8345181 ], [ 133.4536522, 33.83666 ], [ 133.4480614, 33.8340533 ], [ 133.4411514, 33.8337439 ], [ 133.4324856, 33.8349361 ], [ 133.427596099999988, 33.8366594 ], [ 133.4248936, 33.8392631 ], [ 133.4120528, 33.8391397 ], [ 133.40595829999998, 33.8362594 ], [ 133.400833299999988, 33.836236899999989 ], [ 133.396813899999984, 33.8306203 ], [ 133.392968599999989, 33.8276747 ], [ 133.3916733, 33.8244344 ], [ 133.3757067, 33.8286761 ], [ 133.3690169, 33.8293333 ], [ 133.361854199999982, 33.8331667 ], [ 133.3558003, 33.8343581 ], [ 133.3524544, 33.8326269 ], [ 133.3504931, 33.828724199999989 ], [ 133.3456136, 33.8248194 ], [ 133.341011399999985, 33.8241489 ], [ 133.3333097, 33.821295299999989 ], [ 133.326331399999987, 33.8147636 ], [ 133.328485799999982, 33.80954 ], [ 133.335516399999989, 33.8036306 ], [ 133.3400686, 33.8027514 ], [ 133.3459894, 33.7979444 ], [ 133.349450599999983, 33.7981317 ], [ 133.353808099999981, 33.7931467 ], [ 133.3590692, 33.7895075 ], [ 133.3530408, 33.7859236 ], [ 133.3509486, 33.7827561 ], [ 133.3530681, 33.7802883 ], [ 133.360599399999984, 33.7770525 ], [ 133.3645644, 33.7733817 ], [ 133.3637783, 33.7686736 ], [ 133.3683058, 33.7550392 ], [ 133.362880599999983, 33.7519378 ], [ 133.35953139999998, 33.74691 ], [ 133.3628928, 33.7457769 ], [ 133.3634247, 33.7419361 ], [ 133.3598925, 33.7339528 ], [ 133.3619008, 33.7281261 ], [ 133.369090299999982, 33.7263411 ], [ 133.3689331, 33.7190539 ], [ 133.380585, 33.7137917 ], [ 133.3816675, 33.7093619 ], [ 133.38546359999998, 33.7075628 ], [ 133.3828478, 33.7031831 ], [ 133.3964761, 33.7000969 ], [ 133.4008011, 33.6943961 ], [ 133.399081699999982, 33.6910281 ], [ 133.396120599999989, 33.6806803 ], [ 133.398507199999983, 33.6802061 ], [ 133.404746099999983, 33.6847325 ], [ 133.406852499999985, 33.6838606 ], [ 133.4140758, 33.6856625 ], [ 133.426614699999988, 33.6913222 ], [ 133.4302269, 33.6912586 ], [ 133.435221700000028, 33.6938958 ], [ 133.4457822, 33.68486 ], [ 133.449519700000025, 33.6782611 ], [ 133.4494344, 33.6722708 ], [ 133.453337799999986, 33.6704297 ], [ 133.4557739, 33.6663231 ], [ 133.4604539, 33.6629081 ], [ 133.4646878, 33.6616444 ], [ 133.4696233, 33.6659275 ], [ 133.473425, 33.6711939 ], [ 133.480837799999989, 33.6709072 ], [ 133.4878, 33.6696539 ], [ 133.494588099999987, 33.671025 ], [ 133.4992981, 33.6688589 ], [ 133.505801900000023, 33.6698164 ], [ 133.51538, 33.6791669 ], [ 133.5155253, 33.6818858 ], [ 133.5305122, 33.6780386 ], [ 133.5356147, 33.6779208 ], [ 133.53857, 33.6734933 ], [ 133.5404378, 33.6649247 ], [ 133.5502539, 33.6631803 ], [ 133.554737499999987, 33.6663139 ], [ 133.563395, 33.6660081 ], [ 133.568435599999987, 33.6604461 ], [ 133.5729183, 33.6583394 ], [ 133.57836, 33.6529717 ], [ 133.581322199999988, 33.6473056 ], [ 133.5794297, 33.6447158 ], [ 133.5819153, 33.6423206 ], [ 133.584924199999989, 33.6353772 ], [ 133.578260799999981, 33.6303025 ], [ 133.5738714, 33.6303831 ], [ 133.5719919, 33.6253025 ], [ 133.5774683, 33.6152025 ], [ 133.5760272, 33.6096447 ], [ 133.5822181, 33.6018758 ], [ 133.585461399999986, 33.6004422 ], [ 133.58629030000003, 33.5962417 ], [ 133.5885744, 33.5938522 ], [ 133.592323599999986, 33.5935064 ], [ 133.5959403, 33.5904528 ], [ 133.6025764, 33.5908994 ], [ 133.60444, 33.5891142 ], [ 133.608288099999982, 33.5909544 ], [ 133.61004939999998, 33.5887019 ], [ 133.6084064, 33.5804758 ], [ 133.6243714, 33.5767736 ], [ 133.6232853, 33.5730075 ], [ 133.618532499999986, 33.5743978 ], [ 133.612029399999983, 33.5730358 ], [ 133.6145386, 33.5679931 ], [ 133.619495299999983, 33.5696783 ], [ 133.625351400000028, 33.5679153 ], [ 133.6232867, 33.5580972 ], [ 133.615845799999988, 33.5523175 ], [ 133.6167322, 33.5480831 ], [ 133.6093967, 33.5459069 ], [ 133.6064725, 33.5418908 ], [ 133.6068764, 33.5359775 ], [ 133.602635, 33.5325553 ], [ 133.601431099999985, 33.5195655 ], [ 133.609215799999987, 33.5213858 ], [ 133.631935299999981, 33.5257596 ], [ 133.6422289, 33.5272846 ], [ 133.657664600000032, 33.5307453 ], [ 133.681881299999986, 33.5339999 ], [ 133.6995992, 33.5367061 ], [ 133.7134384, 33.5379254 ], [ 133.725090699999981, 33.5383351 ], [ 133.7381878, 33.5381313 ], [ 133.7490415, 33.5360867 ], [ 133.749368, 33.534671 ], [ 133.755912, 33.5314956 ], [ 133.756413899999984, 33.528315 ], [ 133.753865, 33.5261564 ], [ 133.754356199999989, 33.5204995 ], [ 133.7585966, 33.5203143 ], [ 133.7699989, 33.5157718 ], [ 133.770378099999988, 33.5181872 ], [ 133.7783436, 33.5247294 ], [ 133.78094, 33.529095 ], [ 133.781886899999989, 33.5346047 ], [ 133.7868542, 33.541215799999989 ], [ 133.7940764, 33.5494492 ], [ 133.80188, 33.5501689 ], [ 133.80822, 33.5555481 ], [ 133.8131822, 33.5570886 ], [ 133.8201914, 33.5669336 ], [ 133.821813099999986, 33.5673494 ], [ 133.8172578, 33.5747933 ], [ 133.8205428, 33.5799914 ], [ 133.8270164, 33.5804947 ], [ 133.8294258, 33.5835172 ], [ 133.835016699999983, 33.5799519 ], [ 133.8434614, 33.576783299999988 ], [ 133.8481442, 33.5817547 ], [ 133.85943469999998, 33.5907203 ], [ 133.864577199999985, 33.5934147 ], [ 133.8565031, 33.6008675 ], [ 133.8569239, 33.6038031 ], [ 133.861168099999986, 33.6065408 ], [ 133.865715, 33.60602 ], [ 133.8708164, 33.6078478 ], [ 133.8759744, 33.6121781 ], [ 133.8760359, 33.6162074 ], [ 133.8725906, 33.617999399999988 ], [ 133.874413299999986, 33.6240667 ], [ 133.8799444, 33.6279858 ], [ 133.8782369, 33.6317822 ], [ 133.879766099999983, 33.6342197 ], [ 133.8764869, 33.641565 ], [ 133.880709199999984, 33.6433997 ], [ 133.88205, 33.6475381 ], [ 133.8847422, 33.64895 ] ] ] ] } },
{ "type": "Feature", "properties": { "hokenjo": "幡多" }, "geometry": { "type": "MultiPolygon", "coordinates": [ [ [ [ 132.5527033, 32.7471425 ], [ 132.550306399999982, 32.7523278 ], [ 132.5456422, 32.7551481 ], [ 132.544216399999982, 32.7500483 ], [ 132.547240599999981, 32.7466661 ], [ 132.544063099999988, 32.742641399999989 ], [ 132.5453178, 32.7400998 ], [ 132.542495799999983, 32.7355844 ], [ 132.5431164, 32.7324778 ], [ 132.538299699999982, 32.7275403 ], [ 132.5432108, 32.7223697 ], [ 132.548500599999983, 32.7193181 ], [ 132.5505842, 32.7138242 ], [ 132.545025800000019, 32.7113561 ], [ 132.540183899999988, 32.7057719 ], [ 132.5430936, 32.7025083 ], [ 132.5539597, 32.7076689 ], [ 132.570113099999986, 32.7137014 ], [ 132.5718775, 32.7174297 ], [ 132.5670108, 32.7251956 ], [ 132.5671308, 32.7296858 ], [ 132.5701286, 32.7362836 ], [ 132.567603099999985, 32.7403908 ], [ 132.5575417, 32.7435736 ], [ 132.5583356, 32.7480033 ], [ 132.5527033, 32.7471425 ] ] ], [ [ [ 132.4864019, 32.7374028 ], [ 132.4927731, 32.7374289 ], [ 132.494146699999988, 32.7397664 ], [ 132.48982, 32.7435483 ], [ 132.4864019, 32.7374028 ] ] ], [ [ [ 132.6179908, 32.7678592 ], [ 132.61983440000003, 32.7659242 ], [ 132.625259699999987, 32.7672878 ], [ 132.6293583, 32.7724586 ], [ 132.6205214, 32.7714628 ], [ 132.6179908, 32.7678592 ] ] ], [ [ [ 132.493866699999984, 32.7977372 ], [ 132.494920799999989, 32.8051886 ], [ 132.487470299999984, 32.8076253 ], [ 132.485690300000016, 32.8032189 ], [ 132.480031699999984, 32.7999 ], [ 132.480805299999986, 32.7965644 ], [ 132.493866699999984, 32.7977372 ] ] ], [ [ [ 132.695180599999986, 32.9103039 ], [ 132.7014742, 32.911933 ], [ 132.7051516, 32.9163092 ], [ 132.6958491, 32.9187296 ], [ 132.6879922, 32.9185121 ], [ 132.6892961, 32.9127924 ], [ 132.692770699999983, 32.9129237 ], [ 132.695180599999986, 32.9103039 ] ] ], [ [ [ 132.65460969999998, 32.9171117 ], [ 132.6562758, 32.9136128 ], [ 132.6605194, 32.9163511 ], [ 132.657560599999982, 32.9186403 ], [ 132.65460969999998, 32.9171117 ] ] ], [ [ [ 132.7726178, 32.7610497 ], [ 132.7792269, 32.7542258 ], [ 132.786385, 32.7569744 ], [ 132.7886403, 32.754655 ], [ 132.7893092, 32.7496478 ], [ 132.8018883, 32.7478872 ], [ 132.8037186, 32.7525653 ], [ 132.8084053, 32.7537489 ], [ 132.8155456, 32.7533392 ], [ 132.8164744, 32.7619256 ], [ 132.823767799999985, 32.7607408 ], [ 132.8354436, 32.7689858 ], [ 132.836812800000018, 32.7765508 ], [ 132.839720799999981, 32.7814783 ], [ 132.8447756, 32.7805669 ], [ 132.849403099999989, 32.7833292 ], [ 132.8526836, 32.7867711 ], [ 132.856095899999985, 32.7865529 ], [ 132.864533599999987, 32.789465 ], [ 132.871497799999986, 32.7857147 ], [ 132.8712128, 32.7764964 ], [ 132.8660064, 32.7734239 ], [ 132.868855599999989, 32.7710672 ], [ 132.8695789, 32.7676472 ], [ 132.8782042, 32.7690856 ], [ 132.8792153, 32.7705222 ], [ 132.875924199999986, 32.7750808 ], [ 132.8803628, 32.7829931 ], [ 132.8750398, 32.7875339 ], [ 132.879456399999981, 32.7896669 ], [ 132.8837006, 32.7878314 ], [ 132.887374699999981, 32.7907533 ], [ 132.896101099999981, 32.7891467 ], [ 132.8979319, 32.7870761 ], [ 132.9120553, 32.7879022 ], [ 132.919898099999983, 32.7854019 ], [ 132.9204939, 32.7811556 ], [ 132.9260531, 32.7829606 ], [ 132.930914299999984, 32.781469099999988 ], [ 132.9346002, 32.7867138 ], [ 132.9384631, 32.7865281 ], [ 132.942747199999985, 32.7811211 ], [ 132.9394465, 32.7759771 ], [ 132.941677199999987, 32.7709681 ], [ 132.9454992, 32.7659267 ], [ 132.9479914, 32.7655958 ], [ 132.9517611, 32.7707789 ], [ 132.9547398, 32.7719806 ], [ 132.9588994, 32.7781773 ], [ 132.9655544, 32.775077 ], [ 132.9597183, 32.7735014 ], [ 132.9572966, 32.7683676 ], [ 132.95296, 32.76565 ], [ 132.953915, 32.7592328 ], [ 132.958055799999983, 32.75716 ], [ 132.9639187, 32.7579368 ], [ 132.9629142, 32.7533508 ], [ 132.969188, 32.7514723 ], [ 132.9712992, 32.7449033 ], [ 132.9656606, 32.7383703 ], [ 132.964686699999987, 32.7315992 ], [ 132.965997200000032, 32.7292825 ], [ 132.973440399999987, 32.7326206 ], [ 132.979732, 32.7307937 ], [ 132.988756699999982, 32.7316553 ], [ 132.9935333, 32.7312947 ], [ 133.000439199999988, 32.7227142 ], [ 133.0052229, 32.7217068 ], [ 133.0082842, 32.7238557 ], [ 133.0195674, 32.7235681 ], [ 133.0221125, 32.7289954 ], [ 133.018150599999984, 32.7417254 ], [ 133.019088899999986, 32.7445972 ], [ 133.015013100000033, 32.7500717 ], [ 133.0142075, 32.7548172 ], [ 133.015447599999987, 32.7593253 ], [ 133.0179178, 32.7615175 ], [ 133.015857499999981, 32.7643803 ], [ 133.010251899999986, 32.767478 ], [ 133.0076986, 32.7739834 ], [ 133.0020394, 32.781885 ], [ 133.002705, 32.7871458 ], [ 132.9959418, 32.7873127 ], [ 132.9942072, 32.7901472 ], [ 132.979728599999987, 32.7936919 ], [ 132.975331399999988, 32.798115599999988 ], [ 132.9654971, 32.7990349 ], [ 132.9629428, 32.8035956 ], [ 132.9573446, 32.8058006 ], [ 132.9535644, 32.812812199999989 ], [ 132.9518654, 32.8129591 ], [ 132.9503609, 32.8206033 ], [ 132.9518395, 32.825334399999988 ], [ 132.9589781, 32.8265039 ], [ 132.9606825, 32.8288178 ], [ 132.9579933, 32.8333878 ], [ 132.9543405, 32.83427 ], [ 132.9572556, 32.8402928 ], [ 132.9547658, 32.8453861 ], [ 132.95604609999998, 32.8500097 ], [ 132.949373899999983, 32.8574789 ], [ 132.9517969, 32.8605164 ], [ 132.959232499999985, 32.8600683 ], [ 132.9610006, 32.8647117 ], [ 132.967572499999989, 32.8656781 ], [ 132.9762364, 32.8643731 ], [ 132.9832672, 32.8646719 ], [ 132.987179199999986, 32.8680403 ], [ 132.9933661, 32.8623322 ], [ 132.996715599999987, 32.8643139 ], [ 132.994114699999983, 32.8686236 ], [ 132.9968475, 32.8707464 ], [ 133.002005, 32.8797522 ], [ 133.0055492, 32.879425 ], [ 133.0093742, 32.8812064 ], [ 133.008631899999983, 32.8898661 ], [ 133.0062972, 32.8958961 ], [ 133.0062242, 32.9054586 ], [ 133.0088356, 32.9119542 ], [ 133.0025733, 32.9207181 ], [ 132.9978806, 32.9225358 ], [ 132.997219199999989, 32.9286519 ], [ 132.994693899999987, 32.9316972 ], [ 132.99585159999998, 32.9396543 ], [ 132.999963399999984, 32.9460789 ], [ 132.994654699999984, 32.9487192 ], [ 132.9930066, 32.9523317 ], [ 132.9952738, 32.9624191 ], [ 132.9977188, 32.9651705 ], [ 132.9997158, 32.97162 ], [ 133.0039102, 32.9764356 ], [ 132.999296099999981, 32.9803007 ], [ 133.002924400000012, 32.992729499999989 ], [ 133.006928099999982, 32.9953561 ], [ 133.0056218, 33.0013402 ], [ 133.0084171, 33.0061605 ], [ 133.008333599999986, 33.009332 ], [ 133.0112814, 33.0141537 ], [ 133.0186224, 33.0232206 ], [ 133.027942599999989, 33.0314797 ], [ 133.034898199999986, 33.0363913 ], [ 133.040740199999988, 33.0370239 ], [ 133.0444561, 33.038896 ], [ 133.05034569999998, 33.0379505 ], [ 133.056214499999982, 33.0390981 ], [ 133.0604238, 33.0369411 ], [ 133.064901599999985, 33.037966 ], [ 133.072521099999989, 33.0374721 ], [ 133.0755676, 33.0331274 ], [ 133.079817599999984, 33.0315987 ], [ 133.081182499999983, 33.0276056 ], [ 133.0851725, 33.0255678 ], [ 133.089281799999981, 33.0262354 ], [ 133.094468399999982, 33.0235669 ], [ 133.0972186, 33.0259242 ], [ 133.097096099999987, 33.0289772 ], [ 133.093053699999984, 33.0340491 ], [ 133.0961432, 33.0417763 ], [ 133.0961375, 33.0488966 ], [ 133.0993202, 33.0581269 ], [ 133.108851, 33.0626439 ], [ 133.1079971, 33.0696364 ], [ 133.105154299999981, 33.0730655 ], [ 133.108022299999988, 33.0757661 ], [ 133.110946499999983, 33.0756254 ], [ 133.112525, 33.0794695 ], [ 133.1181128, 33.0863938 ], [ 133.120316, 33.0866732 ], [ 133.1284839, 33.0913358 ], [ 133.1306836, 33.0900811 ], [ 133.1383636, 33.0940781 ], [ 133.139949699999988, 33.0973283 ], [ 133.1483194, 33.1083247 ], [ 133.1474561, 33.1104267 ], [ 133.153857499999987, 33.1185669 ], [ 133.1531156, 33.1208942 ], [ 133.1548363, 33.1254332 ], [ 133.158209199999988, 33.1262928 ], [ 133.15928169999998, 33.1303042 ], [ 133.1639964, 33.1352942 ], [ 133.1580089, 33.1381492 ], [ 133.1531783, 33.1466703 ], [ 133.156146899999982, 33.1520903 ], [ 133.160839399999986, 33.1549164 ], [ 133.166103099999987, 33.1600119 ], [ 133.1710683, 33.1666814 ], [ 133.1737861, 33.1686325 ], [ 133.1757475, 33.1730611 ], [ 133.1825897, 33.1778428 ], [ 133.1832111, 33.1823669 ], [ 133.1771875, 33.1885614 ], [ 133.173225, 33.1897425 ], [ 133.1644675, 33.1882642 ], [ 133.160357799999986, 33.183499399999988 ], [ 133.156191399999983, 33.1821397 ], [ 133.1515458, 33.1788108 ], [ 133.1461708, 33.1719092 ], [ 133.1387258, 33.167214199999989 ], [ 133.1320753, 33.1679919 ], [ 133.1307636, 33.1697208 ], [ 133.1248033, 33.1619194 ], [ 133.120831399999986, 33.1617731 ], [ 133.114467499999989, 33.1588611 ], [ 133.111400299999985, 33.1635706 ], [ 133.104728599999987, 33.1631636 ], [ 133.09859609999998, 33.1648572 ], [ 133.0908461, 33.1583711 ], [ 133.0894106, 33.154085 ], [ 133.093869399999988, 33.1509892 ], [ 133.0954931, 33.1441364 ], [ 133.0923872, 33.1432547 ], [ 133.088676099999986, 33.1457731 ], [ 133.0787397, 33.1480156 ], [ 133.0757625, 33.1473986 ], [ 133.0731039, 33.1419075 ], [ 133.0727872, 33.1359111 ], [ 133.0745628, 33.1322903 ], [ 133.071920299999988, 33.1296225 ], [ 133.071046100000018, 33.1231956 ], [ 133.064886699999988, 33.1220558 ], [ 133.058909699999987, 33.1178019 ], [ 133.051344699999987, 33.1226664 ], [ 133.053415, 33.1233406 ], [ 133.0568528, 33.1297672 ], [ 133.0568381, 33.1334442 ], [ 133.04781330000003, 33.135610299999989 ], [ 133.0429789, 33.1381575 ], [ 133.0344581, 33.1404794 ], [ 133.0305775, 33.1447711 ], [ 133.0273458, 33.1450939 ], [ 133.0221861, 33.1501978 ], [ 133.0169517, 33.1499306 ], [ 133.0108908, 33.1460789 ], [ 133.0034408, 33.1472425 ], [ 133.0003983, 33.1510725 ], [ 133.002525599999984, 33.1559069 ], [ 132.9940372, 33.1601356 ], [ 132.989377499999989, 33.1574158 ], [ 132.9846747, 33.1573361 ], [ 132.9789711, 33.1601208 ], [ 132.9727517, 33.160905 ], [ 132.969233299999985, 33.1558842 ], [ 132.9657039, 33.1546814 ], [ 132.963179699999984, 33.1479692 ], [ 132.9585394, 33.1465839 ], [ 132.9514394, 33.1492564 ], [ 132.9463528, 33.1462928 ], [ 132.9402814, 33.1452914 ], [ 132.9354525, 33.1375483 ], [ 132.9238492, 33.1389733 ], [ 132.918070799999981, 33.1419033 ], [ 132.9116431, 33.1438192 ], [ 132.901689399999981, 33.1451589 ], [ 132.8991758, 33.1441772 ], [ 132.893154399999986, 33.1485725 ], [ 132.890508899999986, 33.1527069 ], [ 132.884146099999981, 33.1535928 ], [ 132.8797425, 33.1586717 ], [ 132.876025299999981, 33.1609239 ], [ 132.880083899999988, 33.1670089 ], [ 132.8808553, 33.1708514 ], [ 132.8782689, 33.1737283 ], [ 132.877623600000021, 33.17956 ], [ 132.8677839, 33.1799933 ], [ 132.8611981, 33.1772569 ], [ 132.8455203, 33.1845264 ], [ 132.8388914, 33.1886678 ], [ 132.8337028, 33.1874353 ], [ 132.8264467, 33.1908933 ], [ 132.818798099999981, 33.19205 ], [ 132.8245303, 33.20193 ], [ 132.8245119, 33.2065822 ], [ 132.8176475, 33.2138925 ], [ 132.819071899999983, 33.2229444 ], [ 132.8229981, 33.2227064 ], [ 132.8257628, 33.2293192 ], [ 132.827456899999987, 33.2377558 ], [ 132.8224064, 33.2396039 ], [ 132.8150503, 33.2384681 ], [ 132.8046683, 33.2357894 ], [ 132.8003125, 33.2438369 ], [ 132.7999514, 33.2475725 ], [ 132.7948228, 33.2517439 ], [ 132.7938906, 33.2559306 ], [ 132.7912967, 33.2569708 ], [ 132.7868925, 33.2622403 ], [ 132.782167499999986, 33.2569644 ], [ 132.7796081, 33.2561656 ], [ 132.7777322, 33.2515253 ], [ 132.777605599999987, 33.2461397 ], [ 132.7719217, 33.2410631 ], [ 132.774909399999984, 33.2339942 ], [ 132.774597799999981, 33.2283539 ], [ 132.771143099999989, 33.2263078 ], [ 132.7708592, 33.2210425 ], [ 132.7735875, 33.2179689 ], [ 132.7731608, 33.2124367 ], [ 132.7759433, 33.2084094 ], [ 132.767957199999984, 33.2032836 ], [ 132.7654603, 33.2042331 ], [ 132.75944, 33.2017036 ], [ 132.750748099999981, 33.2024761 ], [ 132.74848, 33.2034867 ], [ 132.740642500000035, 33.2012836 ], [ 132.738415799999984, 33.1958444 ], [ 132.741911099999982, 33.1897433 ], [ 132.7372164, 33.1863306 ], [ 132.737837499999983, 33.1821581 ], [ 132.7315894, 33.1764028 ], [ 132.731308899999988, 33.17395 ], [ 132.725812499999989, 33.1682761 ], [ 132.7195508, 33.1667875 ], [ 132.7171778, 33.1598772 ], [ 132.7105606, 33.1531569 ], [ 132.698601699999983, 33.1464125 ], [ 132.695852799999983, 33.1426117 ], [ 132.6958353, 33.1375872 ], [ 132.6868881, 33.1348478 ], [ 132.6803578, 33.1441981 ], [ 132.67356, 33.1499822 ], [ 132.667772499999984, 33.1516592 ], [ 132.66238, 33.1544189 ], [ 132.6596647, 33.1600081 ], [ 132.6511669, 33.1670706 ], [ 132.6466786, 33.1718642 ], [ 132.6387325, 33.1736103 ], [ 132.63442, 33.1787925 ], [ 132.6372467, 33.1846019 ], [ 132.63565939999998, 33.1863997 ], [ 132.6260039, 33.1838642 ], [ 132.6194442, 33.1808794 ], [ 132.6194853, 33.1734658 ], [ 132.614865, 33.1692894 ], [ 132.6193342, 33.1626836 ], [ 132.6247894, 33.1593497 ], [ 132.627574399999986, 33.1534458 ], [ 132.632295, 33.1492444 ], [ 132.6282161, 33.1347567 ], [ 132.6298161, 33.1322944 ], [ 132.637475599999988, 33.1323917 ], [ 132.638281399999983, 33.12791 ], [ 132.6444031, 33.1221875 ], [ 132.6466364, 33.1155656 ], [ 132.653890599999983, 33.1104108 ], [ 132.6632708, 33.1091419 ], [ 132.6659497, 33.0994781 ], [ 132.6693114, 33.092391899999988 ], [ 132.6700511, 33.0855069 ], [ 132.6666769, 33.0804797 ], [ 132.669502199999982, 33.0711831 ], [ 132.6666381, 33.0662264 ], [ 132.662331099999989, 33.0634678 ], [ 132.6576739, 33.0570575 ], [ 132.6610689, 33.0553394 ], [ 132.6661911, 33.0487125 ], [ 132.671220799999986, 33.0459086 ], [ 132.6745958, 33.0406808 ], [ 132.677958599999982, 33.0379953 ], [ 132.6786731, 33.0293989 ], [ 132.6755167, 33.022395 ], [ 132.675697499999984, 33.0167389 ], [ 132.6786122, 33.0135511 ], [ 132.6770053, 33.0110581 ], [ 132.6839022, 33.0040461 ], [ 132.6867167, 32.9973483 ], [ 132.681381099999982, 32.9938161 ], [ 132.6841531, 32.9894281 ], [ 132.6841814, 32.9862233 ], [ 132.6870653, 32.9822022 ], [ 132.68744, 32.9758111 ], [ 132.691516399999983, 32.9735711 ], [ 132.6862083, 32.9678631 ], [ 132.6869375, 32.9645883 ], [ 132.6834672, 32.9631358 ], [ 132.6820483, 32.9558622 ], [ 132.6845119, 32.9495686 ], [ 132.683391699999987, 32.9468322 ], [ 132.678250599999984, 32.9429639 ], [ 132.6758767, 32.9439431 ], [ 132.6656736, 32.9417603 ], [ 132.6606667, 32.942485 ], [ 132.658684199999982, 32.9401328 ], [ 132.655284699999982, 32.9409611 ], [ 132.6524733, 32.9391536 ], [ 132.6562711, 32.9323067 ], [ 132.6551031, 32.9268703 ], [ 132.656787, 32.924114 ], [ 132.6639198, 32.9221061 ], [ 132.666676699999982, 32.9191405 ], [ 132.6785286, 32.9199014 ], [ 132.6837022, 32.9230399 ], [ 132.686147399999982, 32.9197512 ], [ 132.6907943, 32.9227668 ], [ 132.6894467, 32.9265773 ], [ 132.6968114, 32.9266174 ], [ 132.694266699999986, 32.9214684 ], [ 132.698226799999986, 32.9183751 ], [ 132.702492899999982, 32.9186087 ], [ 132.7017646, 32.9222375 ], [ 132.708256899999981, 32.9259596 ], [ 132.710885599999983, 32.9239594 ], [ 132.7116172, 32.9182028 ], [ 132.715631699999989, 32.9134053 ], [ 132.7171003, 32.908614 ], [ 132.7129367, 32.907592199999989 ], [ 132.7140011, 32.9028756 ], [ 132.716512199999983, 32.9006525 ], [ 132.721914699999985, 32.8990639 ], [ 132.719665, 32.8940278 ], [ 132.711928299999983, 32.8930039 ], [ 132.7063183, 32.8969064 ], [ 132.7058811, 32.8934717 ], [ 132.7114219, 32.8904453 ], [ 132.71243, 32.88845 ], [ 132.718187799999981, 32.8843908 ], [ 132.7189233, 32.8799853 ], [ 132.7209747, 32.8775794 ], [ 132.713642, 32.8752931 ], [ 132.715921900000012, 32.8797014 ], [ 132.7134675, 32.8821003 ], [ 132.709428299999985, 32.8821972 ], [ 132.704804199999984, 32.8881311 ], [ 132.6992606, 32.8848225 ], [ 132.692426899999987, 32.8840211 ], [ 132.6904978, 32.8749044 ], [ 132.681455, 32.8712989 ], [ 132.67458, 32.8650689 ], [ 132.6648236, 32.8600919 ], [ 132.6650847, 32.8583819 ], [ 132.6608822, 32.8533631 ], [ 132.663075599999985, 32.8492944 ], [ 132.668048299999981, 32.8454433 ], [ 132.6685625, 32.8414536 ], [ 132.662551399999984, 32.8410283 ], [ 132.658775599999984, 32.8379825 ], [ 132.664623899999981, 32.8326047 ], [ 132.6592042, 32.829185 ], [ 132.659975, 32.8268331 ], [ 132.6562717, 32.8237844 ], [ 132.6533972, 32.8283247 ], [ 132.6503811, 32.8259617 ], [ 132.650533599999989, 32.820455 ], [ 132.6440261, 32.819775 ], [ 132.64443559999998, 32.8140017 ], [ 132.6524655, 32.8063865 ], [ 132.649520599999988, 32.8009317 ], [ 132.646611899999982, 32.8004756 ], [ 132.6395714, 32.8018222 ], [ 132.6380019, 32.7989483 ], [ 132.632018099999982, 32.80153 ], [ 132.6292206, 32.8010267 ], [ 132.6297219, 32.7970086 ], [ 132.6347053, 32.7899597 ], [ 132.6396317, 32.7879319 ], [ 132.6439356, 32.7878183 ], [ 132.6433725, 32.7838861 ], [ 132.6340456, 32.7837369 ], [ 132.638835, 32.7754736 ], [ 132.640393599999982, 32.7694817 ], [ 132.6325822, 32.7683886 ], [ 132.6287594, 32.76605 ], [ 132.6303656, 32.7618747 ], [ 132.6379892, 32.7668728 ], [ 132.64758, 32.7653003 ], [ 132.651399199999986, 32.7683022 ], [ 132.648485599999987, 32.77026 ], [ 132.6477472, 32.7738783 ], [ 132.6491725, 32.7774125 ], [ 132.6544456, 32.7783914 ], [ 132.65456469999998, 32.7811342 ], [ 132.65824, 32.7818394 ], [ 132.66305939999998, 32.7805353 ], [ 132.6679222, 32.7842911 ], [ 132.676695300000034, 32.7834114 ], [ 132.681986900000027, 32.7812711 ], [ 132.687475, 32.7865931 ], [ 132.6907789, 32.7882683 ], [ 132.6949067, 32.7853169 ], [ 132.696546899999987, 32.7893061 ], [ 132.687218299999984, 32.7915353 ], [ 132.691916099999986, 32.7939006 ], [ 132.7073344, 32.7952214 ], [ 132.710451899999981, 32.798993599999989 ], [ 132.714091699999983, 32.7942456 ], [ 132.718713399999984, 32.7971188 ], [ 132.722025799999983, 32.7931678 ], [ 132.7229706, 32.7888136 ], [ 132.726472199999989, 32.7859025 ], [ 132.726448299999987, 32.7828564 ], [ 132.729293899999988, 32.7788436 ], [ 132.732830299999989, 32.7790794 ], [ 132.7384189, 32.7729372 ], [ 132.7434447, 32.7728925 ], [ 132.7477547, 32.7672458 ], [ 132.7496644, 32.7607361 ], [ 132.757986099999982, 32.7530019 ], [ 132.767000599999989, 32.7612019 ], [ 132.7726178, 32.7610497 ] ] ] ] } }
]
}
