{
"type": "FeatureCollection",
"name": "kumamoto",
"crs": { "type": "name", "properties": { "name": "urn:ogc:def:crs:OGC:1.3:CRS84" } },
"features": [
{ "type": "Feature", "properties": { "hokenjo": "阿蘇" }, "geometry": { "type": "MultiPolygon", "coordinates": [ [ [ [ 130.9909039, 32.8038263 ], [ 130.9959179, 32.804668 ], [ 130.994992199999984, 32.7988703 ], [ 130.9987138, 32.7917017 ], [ 131.00286, 32.7887876 ], [ 131.0143596, 32.7857572 ], [ 131.0240604, 32.786756 ], [ 131.030361299999981, 32.7892953 ], [ 131.0384588, 32.7836533 ], [ 131.0456217, 32.78508 ], [ 131.0500285, 32.7892967 ], [ 131.06688459999998, 32.7928578 ], [ 131.0733812, 32.7918426 ], [ 131.081494, 32.7949519 ], [ 131.085237799999987, 32.7911308 ], [ 131.093772299999983, 32.7951345 ], [ 131.096475699999985, 32.7924653 ], [ 131.1082595, 32.7918981 ], [ 131.1152195, 32.7955534 ], [ 131.12716290000003, 32.7948104 ], [ 131.1361618, 32.7988565 ], [ 131.141932199999985, 32.8049271 ], [ 131.1431915, 32.815589 ], [ 131.1486937, 32.8196557 ], [ 131.1590502, 32.8191625 ], [ 131.161568099999982, 32.81623 ], [ 131.169920099999985, 32.8144448 ], [ 131.178218099999981, 32.8045693 ], [ 131.192241699999983, 32.8027536 ], [ 131.1996107, 32.7957322 ], [ 131.2049997, 32.7873491 ], [ 131.2038772, 32.7805194 ], [ 131.2004509, 32.7747325 ], [ 131.201646, 32.7684114 ], [ 131.2081485, 32.7658639 ], [ 131.212521399999986, 32.7580945 ], [ 131.2342237, 32.753437 ], [ 131.237149, 32.7584481 ], [ 131.2415873, 32.7599653 ], [ 131.2464645, 32.7693961 ], [ 131.2372116, 32.7770478 ], [ 131.237352099999981, 32.7844877 ], [ 131.245369899999986, 32.7865514 ], [ 131.24661279999998, 32.7989927 ], [ 131.2552561, 32.8046683 ], [ 131.2549042, 32.809293 ], [ 131.2578188, 32.818104399999989 ], [ 131.2625563, 32.8184849 ], [ 131.2654263, 32.8264752 ], [ 131.272639699999985, 32.824153 ], [ 131.2760738, 32.8287463 ], [ 131.286083, 32.8314016 ], [ 131.2915514, 32.8277991 ], [ 131.3015417, 32.8295711 ], [ 131.3089053, 32.8281725 ], [ 131.322897899999987, 32.8286525 ], [ 131.327483799999982, 32.8367155 ], [ 131.322454, 32.8441553 ], [ 131.3101565, 32.8528339 ], [ 131.2945056, 32.8569964 ], [ 131.279451099999989, 32.8699655 ], [ 131.2734369, 32.8709963 ], [ 131.2716227, 32.8769276 ], [ 131.263838199999981, 32.879396199999988 ], [ 131.257385600000021, 32.8874309 ], [ 131.253220299999981, 32.89804 ], [ 131.2537959, 32.9086519 ], [ 131.2529796, 32.9245116 ], [ 131.2482048, 32.931481 ], [ 131.245992699999988, 32.9403143 ], [ 131.2526291, 32.9464577 ], [ 131.2484081, 32.9479255 ], [ 131.2471923, 32.9532503 ], [ 131.2517717, 32.9568992 ], [ 131.2462712, 32.960762 ], [ 131.247365699999989, 32.9633128 ], [ 131.2560004, 32.9634414 ], [ 131.2609074, 32.9694625 ], [ 131.263213799999988, 32.977152 ], [ 131.256708, 32.9803584 ], [ 131.247226899999987, 32.982438699999989 ], [ 131.2461625, 32.9885893 ], [ 131.2477112, 32.9952385 ], [ 131.240505399999989, 33.000391 ], [ 131.2353233, 33.0085242 ], [ 131.2284287, 33.011812 ], [ 131.2236249, 33.0171643 ], [ 131.225569399999983, 33.0237088 ], [ 131.2211859, 33.0299473 ], [ 131.2159945, 33.0510627 ], [ 131.1966151, 33.071055699999988 ], [ 131.1933012, 33.0775463 ], [ 131.1860418, 33.0738333 ], [ 131.174548499999986, 33.0830847 ], [ 131.1722524, 33.0897105 ], [ 131.174797399999989, 33.0967894 ], [ 131.173167799999987, 33.1046398 ], [ 131.1662638, 33.1110638 ], [ 131.1635861, 33.11649 ], [ 131.1659338, 33.1196314 ], [ 131.1669288, 33.1287383 ], [ 131.1612174, 33.1407676 ], [ 131.1576547, 33.1417845 ], [ 131.1479539, 33.1497846 ], [ 131.147841299999982, 33.155029 ], [ 131.1338714, 33.1600607 ], [ 131.128940799999981, 33.166959 ], [ 131.12117360000002, 33.1677479 ], [ 131.1183849, 33.170307 ], [ 131.115545, 33.1802712 ], [ 131.10558469999998, 33.186354 ], [ 131.0994953, 33.1878921 ], [ 131.095403299999987, 33.1851666 ], [ 131.08199639999998, 33.188794699999988 ], [ 131.0674606, 33.1914322 ], [ 131.0603476, 33.1951227 ], [ 131.038846299999989, 33.1941338 ], [ 131.035941, 33.1883278 ], [ 131.0282482, 33.1864173 ], [ 131.016565900000018, 33.1779268 ], [ 131.0057459, 33.1777405 ], [ 131.0031132, 33.180591 ], [ 130.9942431, 33.1838351 ], [ 130.9929364, 33.1773977 ], [ 130.9889509, 33.1760153 ], [ 130.9854881, 33.1683918 ], [ 130.98513029999998, 33.1610741 ], [ 130.9819339, 33.1561158 ], [ 130.9842602, 33.1523431 ], [ 130.978520799999984, 33.1422351 ], [ 130.9845494, 33.1346133 ], [ 130.9915986, 33.1297703 ], [ 130.9940489, 33.1194159 ], [ 131.0003087, 33.1163346 ], [ 131.0046106, 33.1101937 ], [ 131.008981799999987, 33.1085879 ], [ 131.0182888, 33.0940761 ], [ 131.0240507, 33.0875445 ], [ 131.0189991, 33.080756799999989 ], [ 131.014453299999985, 33.0796797 ], [ 131.0107195, 33.0698549 ], [ 131.017744, 33.0636938 ], [ 131.0126735, 33.0524525 ], [ 131.0145421, 33.0476924 ], [ 131.011791099999982, 33.0431151 ], [ 131.004864699999985, 33.0398055 ], [ 131.0032947, 33.0328243 ], [ 130.9982048, 33.0282984 ], [ 130.990852099999984, 33.0238244 ], [ 130.977051, 33.0249881 ], [ 130.970273, 33.023766 ], [ 130.955683, 33.0042424 ], [ 130.9569943, 32.9887449 ], [ 130.9533855, 32.9756663 ], [ 130.9427244, 32.9636901 ], [ 130.9561961, 32.9536655 ], [ 130.958912699999985, 32.9491024 ], [ 130.9645511, 32.9468399 ], [ 130.958175399999988, 32.9417057 ], [ 130.959902199999988, 32.9351257 ], [ 130.9663549, 32.9242985 ], [ 130.957293199999981, 32.9137774 ], [ 130.966752899999989, 32.9032711 ], [ 130.9488125, 32.8775385 ], [ 130.9574314, 32.8730343 ], [ 130.9724948, 32.875519 ], [ 130.977996700000034, 32.8720593 ], [ 130.988471299999986, 32.8747508 ], [ 130.984792299999981, 32.867757 ], [ 130.9780887, 32.8625301 ], [ 130.9741314, 32.862643 ], [ 130.961887499999989, 32.8674568 ], [ 130.9456194, 32.8668644 ], [ 130.9426177, 32.8650035 ], [ 130.926180099999982, 32.861162 ], [ 130.9217118, 32.8614704 ], [ 130.9110173, 32.8584284 ], [ 130.9024187, 32.8575145 ], [ 130.898262, 32.8541808 ], [ 130.90089039999998, 32.8484586 ], [ 130.893312900000012, 32.8482815 ], [ 130.8863355, 32.8448166 ], [ 130.8817511, 32.8377357 ], [ 130.8749804, 32.8368103 ], [ 130.8804815, 32.8201726 ], [ 130.8762797, 32.8167658 ], [ 130.8761341, 32.8113615 ], [ 130.871834, 32.8069432 ], [ 130.874465, 32.8005625 ], [ 130.8799161, 32.798625 ], [ 130.8899671, 32.7856837 ], [ 130.896634799999987, 32.7827576 ], [ 130.912152, 32.7860659 ], [ 130.9261615, 32.7838024 ], [ 130.9331956, 32.7795217 ], [ 130.942141599999985, 32.7845875 ], [ 130.948496500000033, 32.7908334 ], [ 130.954997599999984, 32.7894895 ], [ 130.9602634, 32.7843671 ], [ 130.982717799999989, 32.7967897 ], [ 130.9909039, 32.8038263 ] ] ] ] } },
{ "type": "Feature", "properties": { "hokenjo": "宇城" }, "geometry": { "type": "MultiPolygon", "coordinates": [ [ [ [ 130.5091409, 32.607171 ], [ 130.4934686, 32.609731 ], [ 130.4865872, 32.6086094 ], [ 130.4740214, 32.603231 ], [ 130.4810063, 32.5967901 ], [ 130.4801142, 32.5904408 ], [ 130.486498399999988, 32.5921033 ], [ 130.4925776, 32.589618 ], [ 130.4864561, 32.582611 ], [ 130.492124099999984, 32.5762024 ], [ 130.5013826, 32.5863657 ], [ 130.509328499999981, 32.5917377 ], [ 130.5103733, 32.598953 ], [ 130.5091409, 32.607171 ] ] ], [ [ [ 130.9469187, 32.5766351 ], [ 130.9505696, 32.579463 ], [ 130.948413499999987, 32.5850003 ], [ 130.9577765, 32.5949551 ], [ 130.9662337, 32.5992557 ], [ 130.9641227, 32.6139453 ], [ 130.9567561, 32.6294803 ], [ 130.949227, 32.6345336 ], [ 130.953364199999982, 32.6385636 ], [ 130.9672122, 32.6382766 ], [ 130.977207099999987, 32.642702 ], [ 130.9727254, 32.6465463 ], [ 130.962011, 32.6466189 ], [ 130.958984099999981, 32.6489605 ], [ 130.947705, 32.6479437 ], [ 130.942846, 32.6505452 ], [ 130.9391871, 32.6574592 ], [ 130.92081, 32.6568302 ], [ 130.9032454, 32.6648762 ], [ 130.8918798, 32.6619288 ], [ 130.876119200000034, 32.6641739 ], [ 130.872343300000011, 32.662088 ], [ 130.8737767, 32.6549734 ], [ 130.8670383, 32.6465854 ], [ 130.8616753, 32.6468094 ], [ 130.8418141, 32.6380439 ], [ 130.8425766, 32.6353015 ], [ 130.837589899999983, 32.628165 ], [ 130.825276299999985, 32.6279063 ], [ 130.8202455, 32.6262752 ], [ 130.8156242, 32.6294048 ], [ 130.807320399999981, 32.6389784 ], [ 130.8080809, 32.6431331 ], [ 130.800360899999987, 32.6525857 ], [ 130.8002629, 32.6589336 ], [ 130.7929389, 32.6577202 ], [ 130.78492319999998, 32.6623503 ], [ 130.776342299999982, 32.6633267 ], [ 130.776856399999986, 32.6661354 ], [ 130.763621199999989, 32.6679927 ], [ 130.752723799999984, 32.6661669 ], [ 130.751549, 32.6727365 ], [ 130.742041, 32.6640278 ], [ 130.7343048, 32.6610645 ], [ 130.733743299999986, 32.6671223 ], [ 130.7283899, 32.6706439 ], [ 130.725268299999982, 32.6758224 ], [ 130.716766799999988, 32.6811349 ], [ 130.7159988, 32.6846054 ], [ 130.7100151, 32.6884117 ], [ 130.6988887, 32.6897631 ], [ 130.697022799999985, 32.6929542 ], [ 130.689943, 32.6910676 ], [ 130.6815875, 32.6941786 ], [ 130.6712124, 32.6956369 ], [ 130.668801799999983, 32.7025779 ], [ 130.663868399999984, 32.7070739 ], [ 130.6593819, 32.7062816 ], [ 130.6548693, 32.7107105 ], [ 130.643980199999987, 32.7173096 ], [ 130.6369616, 32.7112108 ], [ 130.627333099999987, 32.7093432 ], [ 130.6159974, 32.7141975 ], [ 130.6075578, 32.715787 ], [ 130.6070464, 32.7129873 ], [ 130.5968953, 32.7113413 ], [ 130.5884517, 32.7043569 ], [ 130.5747053, 32.7019477 ], [ 130.567923, 32.6992992 ], [ 130.564459199999988, 32.6939433 ], [ 130.5530463, 32.6867048 ], [ 130.5415423, 32.6685699 ], [ 130.537926699999986, 32.6650016 ], [ 130.523914599999983, 32.6635206 ], [ 130.5101376, 32.6552979 ], [ 130.499474099999986, 32.6539996 ], [ 130.488586199999986, 32.6465799 ], [ 130.482467500000013, 32.6446857 ], [ 130.4775546, 32.6392805 ], [ 130.461608899999987, 32.6341669 ], [ 130.452728, 32.6266977 ], [ 130.4613702, 32.6172952 ], [ 130.459346899999986, 32.6078755 ], [ 130.466974199999981, 32.6046422 ], [ 130.473075599999987, 32.608806 ], [ 130.4791142, 32.6084624 ], [ 130.486011599999983, 32.6126621 ], [ 130.5096734, 32.6115566 ], [ 130.519001, 32.6131521 ], [ 130.5214441, 32.6172502 ], [ 130.5325822, 32.6214105 ], [ 130.5361844, 32.6190547 ], [ 130.5410453, 32.6244924 ], [ 130.5447925, 32.6225436 ], [ 130.5600983, 32.6246459 ], [ 130.578887, 32.6215459 ], [ 130.5902252, 32.6258015 ], [ 130.5980619, 32.6249054 ], [ 130.6155728, 32.6317489 ], [ 130.6270046, 32.6325011 ], [ 130.636685, 32.6352125 ], [ 130.651747699999987, 32.6424974 ], [ 130.654745599999984, 32.6353416 ], [ 130.6614368, 32.6319292 ], [ 130.6533992, 32.6271079 ], [ 130.6566908, 32.6183567 ], [ 130.6537162, 32.6128815 ], [ 130.641052699999989, 32.6234156 ], [ 130.6304699, 32.622688 ], [ 130.6413613, 32.614163 ], [ 130.645000499999981, 32.6160449 ], [ 130.6521112, 32.6098965 ], [ 130.6790442, 32.597647 ], [ 130.678205500000018, 32.5924601 ], [ 130.698348899999985, 32.5804831 ], [ 130.7055073, 32.5846357 ], [ 130.7139584, 32.5782802 ], [ 130.7068889, 32.572067 ], [ 130.7156637, 32.5634143 ], [ 130.723774, 32.558579099999989 ], [ 130.7361937, 32.561583899999988 ], [ 130.742174899999981, 32.5588894 ], [ 130.753681299999982, 32.5637501 ], [ 130.753635799999984, 32.5674798 ], [ 130.7592392, 32.5741579 ], [ 130.7653929, 32.5740264 ], [ 130.76929149999998, 32.5807195 ], [ 130.775509, 32.5846676 ], [ 130.782714400000032, 32.595357 ], [ 130.7887627, 32.5943766 ], [ 130.793027599999988, 32.5785884 ], [ 130.8038606, 32.5682647 ], [ 130.815083099999981, 32.5669217 ], [ 130.821019799999988, 32.5607718 ], [ 130.8278798, 32.5618435 ], [ 130.842211599999985, 32.5708238 ], [ 130.846281399999981, 32.569458 ], [ 130.8522527, 32.5726604 ], [ 130.8614574, 32.5742267 ], [ 130.8705424, 32.5721607 ], [ 130.883757799999984, 32.5741061 ], [ 130.8922325, 32.5707482 ], [ 130.90897769999998, 32.5759326 ], [ 130.9072913, 32.5837631 ], [ 130.913563499999981, 32.5847757 ], [ 130.9221183, 32.5793928 ], [ 130.923315799999983, 32.5745725 ], [ 130.938972299999989, 32.5779418 ], [ 130.9469187, 32.5766351 ] ] ] ] } },
{ "type": "Feature", "properties": { "hokenjo": "菊池" }, "geometry": { "type": "MultiPolygon", "coordinates": [ [ [ [ 130.8744011, 32.8400713 ], [ 130.8749804, 32.8368103 ], [ 130.8817511, 32.8377357 ], [ 130.8863355, 32.8448166 ], [ 130.893312900000012, 32.8482815 ], [ 130.90089039999998, 32.8484586 ], [ 130.898262, 32.8541808 ], [ 130.9024187, 32.8575145 ], [ 130.9110173, 32.8584284 ], [ 130.9217118, 32.8614704 ], [ 130.926180099999982, 32.861162 ], [ 130.9426177, 32.8650035 ], [ 130.9456194, 32.8668644 ], [ 130.961887499999989, 32.8674568 ], [ 130.9741314, 32.862643 ], [ 130.9780887, 32.8625301 ], [ 130.984792299999981, 32.867757 ], [ 130.988471299999986, 32.8747508 ], [ 130.977996700000034, 32.8720593 ], [ 130.9724948, 32.875519 ], [ 130.9574314, 32.8730343 ], [ 130.9488125, 32.8775385 ], [ 130.966752899999989, 32.9032711 ], [ 130.957293199999981, 32.9137774 ], [ 130.9663549, 32.9242985 ], [ 130.959902199999988, 32.9351257 ], [ 130.958175399999988, 32.9417057 ], [ 130.9645511, 32.9468399 ], [ 130.958912699999985, 32.9491024 ], [ 130.9561961, 32.9536655 ], [ 130.9427244, 32.9636901 ], [ 130.9533855, 32.9756663 ], [ 130.9569943, 32.9887449 ], [ 130.955683, 33.0042424 ], [ 130.970273, 33.023766 ], [ 130.959210899999988, 33.0372166 ], [ 130.9569822, 33.0471365 ], [ 130.9468202, 33.0528374 ], [ 130.936985099999987, 33.0524387 ], [ 130.935151700000034, 33.0551106 ], [ 130.923442599999987, 33.0519442 ], [ 130.9165365, 33.0555879 ], [ 130.906765899999982, 33.064929 ], [ 130.900016099999988, 33.0640593 ], [ 130.896794199999988, 33.072921 ], [ 130.8906422, 33.0757749 ], [ 130.889733399999983, 33.0835863 ], [ 130.886196499999983, 33.0874575 ], [ 130.8767354, 33.0919278 ], [ 130.8670045, 33.0906603 ], [ 130.8639406, 33.0949862 ], [ 130.847586399999983, 33.0937572 ], [ 130.845744699999983, 33.0921792 ], [ 130.8450364, 33.0880412 ], [ 130.8378189, 33.0845887 ], [ 130.8361625, 33.0714691 ], [ 130.82822969999998, 33.0727298 ], [ 130.8159536, 33.0644366 ], [ 130.8230806, 33.0540227 ], [ 130.8148295, 33.0486035 ], [ 130.8077626, 33.0349385 ], [ 130.8066124, 33.0264661 ], [ 130.8083308, 33.01491 ], [ 130.805975, 33.01159 ], [ 130.7978933, 33.008974 ], [ 130.7949649, 33.000496 ], [ 130.785257799999982, 32.9983505 ], [ 130.7808609, 32.9924902 ], [ 130.7656093, 32.995944 ], [ 130.7545639, 32.9839118 ], [ 130.7430053, 32.974867 ], [ 130.737071899999989, 32.9756297 ], [ 130.733612500000021, 32.9719694 ], [ 130.728285699999986, 32.9658646 ], [ 130.7299389, 32.9589527 ], [ 130.7284048, 32.9442352 ], [ 130.7307568, 32.9390636 ], [ 130.7297515, 32.9275322 ], [ 130.7250405, 32.917698799999989 ], [ 130.722090899999984, 32.9069461 ], [ 130.722948799999983, 32.9004772 ], [ 130.719977799999981, 32.896953 ], [ 130.7242355, 32.8878912 ], [ 130.7301142, 32.888156 ], [ 130.730931699999985, 32.8620272 ], [ 130.7256146, 32.8536923 ], [ 130.7317529, 32.8516391 ], [ 130.740956499999982, 32.853847 ], [ 130.7485608, 32.857830799999988 ], [ 130.752157499999981, 32.855419 ], [ 130.760099699999984, 32.8573313 ], [ 130.776326, 32.8579395 ], [ 130.7796525, 32.8563799 ], [ 130.7873941, 32.8583127 ], [ 130.790514, 32.853328499999989 ], [ 130.804809299999988, 32.8522172 ], [ 130.8076614, 32.8374299 ], [ 130.820658399999985, 32.8385018 ], [ 130.8280973, 32.8311726 ], [ 130.8277832, 32.8253689 ], [ 130.833702499999987, 32.8220106 ], [ 130.837572599999987, 32.8266296 ], [ 130.8464229, 32.8319042 ], [ 130.8601691, 32.8354485 ], [ 130.864391, 32.8352618 ], [ 130.8744011, 32.8400713 ] ] ] ] } },
{ "type": "Feature", "properties": { "hokenjo": "熊本市" }, "geometry": { "type": "MultiPolygon", "coordinates": [ [ [ [ 130.7289463, 32.7502847 ], [ 130.7465311, 32.7537818 ], [ 130.754439599999984, 32.7622121 ], [ 130.7612009, 32.7644416 ], [ 130.7646647, 32.7602868 ], [ 130.770818599999984, 32.762975 ], [ 130.7783428, 32.763387 ], [ 130.7955129, 32.7698978 ], [ 130.79155, 32.777886599999988 ], [ 130.787598, 32.7787008 ], [ 130.7846352, 32.7845352 ], [ 130.783463400000016, 32.7964116 ], [ 130.778122, 32.8045371 ], [ 130.783008, 32.8051719 ], [ 130.7872557, 32.7996404 ], [ 130.806174, 32.8058402 ], [ 130.8087409, 32.8123183 ], [ 130.81569589999998, 32.8154201 ], [ 130.8290537, 32.815386 ], [ 130.8277832, 32.8253689 ], [ 130.8280973, 32.8311726 ], [ 130.820658399999985, 32.8385018 ], [ 130.8076614, 32.8374299 ], [ 130.804809299999988, 32.8522172 ], [ 130.790514, 32.853328499999989 ], [ 130.7873941, 32.8583127 ], [ 130.7796525, 32.8563799 ], [ 130.776326, 32.8579395 ], [ 130.760099699999984, 32.8573313 ], [ 130.752157499999981, 32.855419 ], [ 130.7485608, 32.857830799999988 ], [ 130.740956499999982, 32.853847 ], [ 130.7317529, 32.8516391 ], [ 130.7256146, 32.8536923 ], [ 130.730931699999985, 32.8620272 ], [ 130.7301142, 32.888156 ], [ 130.7242355, 32.8878912 ], [ 130.719977799999981, 32.896953 ], [ 130.722948799999983, 32.9004772 ], [ 130.722090899999984, 32.9069461 ], [ 130.7250405, 32.917698799999989 ], [ 130.7297515, 32.9275322 ], [ 130.7307568, 32.9390636 ], [ 130.7284048, 32.9442352 ], [ 130.7299389, 32.9589527 ], [ 130.728285699999986, 32.9658646 ], [ 130.733612500000021, 32.9719694 ], [ 130.724705799999981, 32.9769774 ], [ 130.718588899999986, 32.9745743 ], [ 130.709260299999983, 32.9770189 ], [ 130.709346100000033, 32.9732662 ], [ 130.7039815, 32.9680739 ], [ 130.701170499999989, 32.9595964 ], [ 130.6964195, 32.9548874 ], [ 130.691547, 32.9595524 ], [ 130.6736402, 32.9522975 ], [ 130.6707605, 32.949715 ], [ 130.6670508, 32.9369364 ], [ 130.6619557, 32.934257 ], [ 130.6549258, 32.935255399999988 ], [ 130.6516112, 32.9322098 ], [ 130.6462368, 32.931553799999989 ], [ 130.637204, 32.9162346 ], [ 130.6465598, 32.9080223 ], [ 130.6493707, 32.8925222 ], [ 130.6519635, 32.8879367 ], [ 130.6448548, 32.8849422 ], [ 130.63980429999998, 32.8733775 ], [ 130.6384631, 32.8650319 ], [ 130.634774600000014, 32.8609423 ], [ 130.6262385, 32.8619765 ], [ 130.630816399999986, 32.8537962 ], [ 130.6251964, 32.8525359 ], [ 130.6220413, 32.8447208 ], [ 130.6131679, 32.8430854 ], [ 130.600440100000014, 32.8474869 ], [ 130.596290499999981, 32.8465208 ], [ 130.5731846, 32.8527245 ], [ 130.571539799999982, 32.8487824 ], [ 130.5788891, 32.8414809 ], [ 130.581793399999981, 32.8322877 ], [ 130.581846399999989, 32.8265731 ], [ 130.5877711, 32.8270093 ], [ 130.5923377, 32.823951 ], [ 130.5957733, 32.8105849 ], [ 130.6003072, 32.8111511 ], [ 130.6049218, 32.8057484 ], [ 130.6041112, 32.8011726 ], [ 130.6143835, 32.792658 ], [ 130.6074745, 32.7900004 ], [ 130.6034118, 32.7844847 ], [ 130.6031844, 32.7786881 ], [ 130.5984523, 32.7781625 ], [ 130.5994116, 32.7668654 ], [ 130.603528, 32.7566781 ], [ 130.6060891, 32.754289 ], [ 130.6042142, 32.7529056 ], [ 130.6073342, 32.7425593 ], [ 130.6036813, 32.7312053 ], [ 130.6075578, 32.715787 ], [ 130.6159974, 32.7141975 ], [ 130.627333099999987, 32.7093432 ], [ 130.6369616, 32.7112108 ], [ 130.643980199999987, 32.7173096 ], [ 130.6548693, 32.7107105 ], [ 130.6593819, 32.7062816 ], [ 130.663868399999984, 32.7070739 ], [ 130.668801799999983, 32.7025779 ], [ 130.6712124, 32.6956369 ], [ 130.6815875, 32.6941786 ], [ 130.689943, 32.6910676 ], [ 130.697022799999985, 32.6929542 ], [ 130.6988887, 32.6897631 ], [ 130.7100151, 32.6884117 ], [ 130.7159988, 32.6846054 ], [ 130.716766799999988, 32.6811349 ], [ 130.725268299999982, 32.6758224 ], [ 130.7283899, 32.6706439 ], [ 130.733743299999986, 32.6671223 ], [ 130.7343048, 32.6610645 ], [ 130.742041, 32.6640278 ], [ 130.751549, 32.6727365 ], [ 130.752723799999984, 32.6661669 ], [ 130.763621199999989, 32.6679927 ], [ 130.776856399999986, 32.6661354 ], [ 130.7705346, 32.6831136 ], [ 130.7643062, 32.6864973 ], [ 130.764766399999985, 32.6926472 ], [ 130.7537666, 32.6997216 ], [ 130.7534078, 32.7086758 ], [ 130.7618371, 32.7116503 ], [ 130.759721, 32.7203323 ], [ 130.7570475, 32.7283318 ], [ 130.7472247, 32.7349341 ], [ 130.7382242, 32.7350743 ], [ 130.7247896, 32.7371442 ], [ 130.7139549, 32.7354108 ], [ 130.699496399999987, 32.7358552 ], [ 130.706772299999983, 32.7407378 ], [ 130.712523399999981, 32.7382745 ], [ 130.7197506, 32.7453738 ], [ 130.725806899999981, 32.7434499 ], [ 130.7289463, 32.7502847 ] ] ], [ [ [ 130.5732186, 32.7628721 ], [ 130.5909799, 32.7629455 ], [ 130.5929759, 32.7686746 ], [ 130.5740676, 32.7684738 ], [ 130.5732186, 32.7628721 ] ] ] ] } },
{ "type": "Feature", "properties": { "hokenjo": "御船" }, "geometry": { "type": "MultiPolygon", "coordinates": [ [ [ [ 130.7705346, 32.6831136 ], [ 130.776856399999986, 32.6661354 ], [ 130.776342299999982, 32.6633267 ], [ 130.78492319999998, 32.6623503 ], [ 130.7929389, 32.6577202 ], [ 130.8002629, 32.6589336 ], [ 130.800360899999987, 32.6525857 ], [ 130.8080809, 32.6431331 ], [ 130.807320399999981, 32.6389784 ], [ 130.8156242, 32.6294048 ], [ 130.8202455, 32.6262752 ], [ 130.825276299999985, 32.6279063 ], [ 130.837589899999983, 32.628165 ], [ 130.8425766, 32.6353015 ], [ 130.8418141, 32.6380439 ], [ 130.8616753, 32.6468094 ], [ 130.8670383, 32.6465854 ], [ 130.8737767, 32.6549734 ], [ 130.872343300000011, 32.662088 ], [ 130.876119200000034, 32.6641739 ], [ 130.8918798, 32.6619288 ], [ 130.9032454, 32.6648762 ], [ 130.92081, 32.6568302 ], [ 130.9391871, 32.6574592 ], [ 130.942846, 32.6505452 ], [ 130.947705, 32.6479437 ], [ 130.958984099999981, 32.6489605 ], [ 130.962011, 32.6466189 ], [ 130.9727254, 32.6465463 ], [ 130.977207099999987, 32.642702 ], [ 130.9672122, 32.6382766 ], [ 130.953364199999982, 32.6385636 ], [ 130.949227, 32.6345336 ], [ 130.9567561, 32.6294803 ], [ 130.9641227, 32.6139453 ], [ 130.9662337, 32.5992557 ], [ 130.9577765, 32.5949551 ], [ 130.948413499999987, 32.5850003 ], [ 130.9505696, 32.579463 ], [ 130.9543596, 32.5771206 ], [ 130.963381, 32.5777922 ], [ 130.969345799999985, 32.5804045 ], [ 130.978551899999985, 32.5772279 ], [ 130.988020299999988, 32.5713384 ], [ 130.9962017, 32.5688172 ], [ 131.000219499999986, 32.5699958 ], [ 131.0097059, 32.5610289 ], [ 131.0194735, 32.5492237 ], [ 131.023947599999985, 32.5533337 ], [ 131.038961799999981, 32.5544261 ], [ 131.0404356, 32.5608705 ], [ 131.037724199999985, 32.5647269 ], [ 131.042380799999989, 32.5744113 ], [ 131.0432505, 32.5823398 ], [ 131.0521919, 32.5877201 ], [ 131.0683947, 32.5840192 ], [ 131.074458599999986, 32.5848054 ], [ 131.0786047, 32.5817791 ], [ 131.0879008, 32.5792402 ], [ 131.0994216, 32.5784461 ], [ 131.1081969, 32.5820623 ], [ 131.106056600000016, 32.5891584 ], [ 131.1134755, 32.5913785 ], [ 131.119509699999981, 32.5988501 ], [ 131.120508, 32.6054765 ], [ 131.11620689999998, 32.6094876 ], [ 131.1159374, 32.6209495 ], [ 131.1198713, 32.6291467 ], [ 131.1155752, 32.6354336 ], [ 131.11622269999998, 32.6426591 ], [ 131.1236533, 32.6446256 ], [ 131.1272157, 32.6542056 ], [ 131.140191099999981, 32.6646467 ], [ 131.143266899999986, 32.670058 ], [ 131.1432194, 32.6758916 ], [ 131.1513894, 32.6800572 ], [ 131.1581203, 32.6776014 ], [ 131.163144499999987, 32.6716926 ], [ 131.174783, 32.6718355 ], [ 131.1752411, 32.679368 ], [ 131.1724705, 32.684748 ], [ 131.1755871, 32.6871066 ], [ 131.1750787, 32.693407 ], [ 131.1804072, 32.7001271 ], [ 131.181928199999987, 32.7060244 ], [ 131.1793481, 32.7097469 ], [ 131.189952299999987, 32.721993 ], [ 131.206144699999982, 32.7301628 ], [ 131.2119284, 32.7286867 ], [ 131.231499899999989, 32.7440291 ], [ 131.2348519, 32.7442894 ], [ 131.2342237, 32.753437 ], [ 131.212521399999986, 32.7580945 ], [ 131.2081485, 32.7658639 ], [ 131.201646, 32.7684114 ], [ 131.2004509, 32.7747325 ], [ 131.2038772, 32.7805194 ], [ 131.2049997, 32.7873491 ], [ 131.1996107, 32.7957322 ], [ 131.192241699999983, 32.8027536 ], [ 131.178218099999981, 32.8045693 ], [ 131.169920099999985, 32.8144448 ], [ 131.161568099999982, 32.81623 ], [ 131.1590502, 32.8191625 ], [ 131.1486937, 32.8196557 ], [ 131.1431915, 32.815589 ], [ 131.141932199999985, 32.8049271 ], [ 131.1361618, 32.7988565 ], [ 131.12716290000003, 32.7948104 ], [ 131.1152195, 32.7955534 ], [ 131.1082595, 32.7918981 ], [ 131.096475699999985, 32.7924653 ], [ 131.093772299999983, 32.7951345 ], [ 131.085237799999987, 32.7911308 ], [ 131.081494, 32.7949519 ], [ 131.0733812, 32.7918426 ], [ 131.06688459999998, 32.7928578 ], [ 131.0500285, 32.7892967 ], [ 131.0456217, 32.78508 ], [ 131.0384588, 32.7836533 ], [ 131.030361299999981, 32.7892953 ], [ 131.0240604, 32.786756 ], [ 131.0143596, 32.7857572 ], [ 131.00286, 32.7887876 ], [ 130.9987138, 32.7917017 ], [ 130.994992199999984, 32.7988703 ], [ 130.9959179, 32.804668 ], [ 130.9909039, 32.8038263 ], [ 130.982717799999989, 32.7967897 ], [ 130.9602634, 32.7843671 ], [ 130.954997599999984, 32.7894895 ], [ 130.948496500000033, 32.7908334 ], [ 130.942141599999985, 32.7845875 ], [ 130.9331956, 32.7795217 ], [ 130.9261615, 32.7838024 ], [ 130.912152, 32.7860659 ], [ 130.896634799999987, 32.7827576 ], [ 130.8899671, 32.7856837 ], [ 130.8799161, 32.798625 ], [ 130.874465, 32.8005625 ], [ 130.871834, 32.8069432 ], [ 130.8761341, 32.8113615 ], [ 130.8762797, 32.8167658 ], [ 130.8804815, 32.8201726 ], [ 130.8749804, 32.8368103 ], [ 130.8744011, 32.8400713 ], [ 130.864391, 32.8352618 ], [ 130.8601691, 32.8354485 ], [ 130.8464229, 32.8319042 ], [ 130.837572599999987, 32.8266296 ], [ 130.833702499999987, 32.8220106 ], [ 130.8277832, 32.8253689 ], [ 130.8290537, 32.815386 ], [ 130.81569589999998, 32.8154201 ], [ 130.8087409, 32.8123183 ], [ 130.806174, 32.8058402 ], [ 130.7872557, 32.7996404 ], [ 130.783008, 32.8051719 ], [ 130.778122, 32.8045371 ], [ 130.783463400000016, 32.7964116 ], [ 130.7846352, 32.7845352 ], [ 130.787598, 32.7787008 ], [ 130.79155, 32.777886599999988 ], [ 130.7955129, 32.7698978 ], [ 130.7783428, 32.763387 ], [ 130.770818599999984, 32.762975 ], [ 130.7646647, 32.7602868 ], [ 130.7612009, 32.7644416 ], [ 130.754439599999984, 32.7622121 ], [ 130.7465311, 32.7537818 ], [ 130.7289463, 32.7502847 ], [ 130.725806899999981, 32.7434499 ], [ 130.7197506, 32.7453738 ], [ 130.712523399999981, 32.7382745 ], [ 130.706772299999983, 32.7407378 ], [ 130.699496399999987, 32.7358552 ], [ 130.7139549, 32.7354108 ], [ 130.7247896, 32.7371442 ], [ 130.7382242, 32.7350743 ], [ 130.7472247, 32.7349341 ], [ 130.7570475, 32.7283318 ], [ 130.759721, 32.7203323 ], [ 130.7618371, 32.7116503 ], [ 130.7534078, 32.7086758 ], [ 130.7537666, 32.6997216 ], [ 130.764766399999985, 32.6926472 ], [ 130.7643062, 32.6864973 ], [ 130.7705346, 32.6831136 ] ] ] ] } },
{ "type": "Feature", "properties": { "hokenjo": "山鹿" }, "geometry": { "type": "MultiPolygon", "coordinates": [ [ [ [ 130.733612500000021, 32.9719694 ], [ 130.737071899999989, 32.9756297 ], [ 130.7430053, 32.974867 ], [ 130.7545639, 32.9839118 ], [ 130.7656093, 32.995944 ], [ 130.7808609, 32.9924902 ], [ 130.785257799999982, 32.9983505 ], [ 130.7949649, 33.000496 ], [ 130.7978933, 33.008974 ], [ 130.805975, 33.01159 ], [ 130.8083308, 33.01491 ], [ 130.8066124, 33.0264661 ], [ 130.8077626, 33.0349385 ], [ 130.8148295, 33.0486035 ], [ 130.8230806, 33.0540227 ], [ 130.8159536, 33.0644366 ], [ 130.82822969999998, 33.0727298 ], [ 130.8361625, 33.0714691 ], [ 130.8378189, 33.0845887 ], [ 130.8450364, 33.0880412 ], [ 130.845744699999983, 33.0921792 ], [ 130.836597499999982, 33.1052553 ], [ 130.8203792, 33.106571 ], [ 130.82096869999998, 33.1113527 ], [ 130.8118215, 33.1166426 ], [ 130.8072793, 33.1158585 ], [ 130.7993543, 33.1203506 ], [ 130.7891768, 33.1240314 ], [ 130.7775557, 33.1232183 ], [ 130.7708893, 33.124332699999989 ], [ 130.758553, 33.1315531 ], [ 130.7538697, 33.1374494 ], [ 130.7374853, 33.1463687 ], [ 130.734529399999985, 33.1534245 ], [ 130.727687299999985, 33.1543295 ], [ 130.723008099999987, 33.1519059 ], [ 130.712355699999989, 33.1553311 ], [ 130.704316299999988, 33.1516589 ], [ 130.691041600000034, 33.1549458 ], [ 130.69308909999998, 33.1599513 ], [ 130.6852174, 33.1690768 ], [ 130.680021499999981, 33.1713087 ], [ 130.6787319, 33.1642424 ], [ 130.667536899999988, 33.1569549 ], [ 130.666308, 33.1433846 ], [ 130.6689003, 33.1389541 ], [ 130.663045499999981, 33.1345677 ], [ 130.6599508, 33.1246797 ], [ 130.6602639, 33.1181066 ], [ 130.6546883, 33.1153963 ], [ 130.6556831, 33.1086202 ], [ 130.6512244, 33.1032274 ], [ 130.6559298, 33.0966242 ], [ 130.655354499999987, 33.089219199999988 ], [ 130.6507053, 33.0835791 ], [ 130.6394733, 33.0800454 ], [ 130.6324993, 33.0734912 ], [ 130.6327713, 33.0667723 ], [ 130.636457399999983, 33.0608951 ], [ 130.635342399999985, 33.0537126 ], [ 130.6495165, 33.0522644 ], [ 130.653106799999989, 33.0482153 ], [ 130.6517433, 33.0358139 ], [ 130.648416699999984, 33.0264108 ], [ 130.6360373, 33.0229713 ], [ 130.6321118, 33.0195907 ], [ 130.638314399999985, 33.0138694 ], [ 130.637367499999982, 33.009433 ], [ 130.646723899999984, 33.0061464 ], [ 130.6459802, 32.9980776 ], [ 130.64158519999998, 32.9944226 ], [ 130.6479247, 32.987326599999989 ], [ 130.643065700000022, 32.9762111 ], [ 130.650739500000014, 32.9752769 ], [ 130.654645599999981, 32.9718945 ], [ 130.6507963, 32.9626795 ], [ 130.6360506, 32.9661328 ], [ 130.631978799999985, 32.9607253 ], [ 130.629411799999986, 32.9446998 ], [ 130.6351617, 32.9435907 ], [ 130.6402851, 32.9384557 ], [ 130.6443203, 32.9378646 ], [ 130.6516112, 32.9322098 ], [ 130.6549258, 32.935255399999988 ], [ 130.6619557, 32.934257 ], [ 130.6670508, 32.9369364 ], [ 130.6707605, 32.949715 ], [ 130.6736402, 32.9522975 ], [ 130.691547, 32.9595524 ], [ 130.6964195, 32.9548874 ], [ 130.701170499999989, 32.9595964 ], [ 130.7039815, 32.9680739 ], [ 130.709346100000033, 32.9732662 ], [ 130.709260299999983, 32.9770189 ], [ 130.718588899999986, 32.9745743 ], [ 130.724705799999981, 32.9769774 ], [ 130.733612500000021, 32.9719694 ] ] ] ] } },
{ "type": "Feature", "properties": { "hokenjo": "人吉" }, "geometry": { "type": "MultiPolygon", "coordinates": [ [ [ [ 131.0471152, 32.2443001 ], [ 131.0427025, 32.2481631 ], [ 131.0416223, 32.2578994 ], [ 131.0445106, 32.2630483 ], [ 131.0542142, 32.2670025 ], [ 131.0545376, 32.2716975 ], [ 131.0497732, 32.2833246 ], [ 131.051115399999986, 32.2863557 ], [ 131.0588296, 32.2868538 ], [ 131.070514299999985, 32.2804175 ], [ 131.0785943, 32.2812228 ], [ 131.07908519999998, 32.2846969 ], [ 131.090495799999985, 32.293985 ], [ 131.0929291, 32.299995 ], [ 131.106045699999981, 32.3243937 ], [ 131.111877599999985, 32.3297857 ], [ 131.1072053, 32.3334001 ], [ 131.0955324, 32.3508083 ], [ 131.0908868, 32.3495463 ], [ 131.0780318, 32.3551115 ], [ 131.0743388, 32.3609097 ], [ 131.073989399999988, 32.3659139 ], [ 131.0798575, 32.3742875 ], [ 131.0741669, 32.3828719 ], [ 131.069308, 32.384318 ], [ 131.0732252, 32.3912438 ], [ 131.0679682, 32.4075965 ], [ 131.05602890000003, 32.4069837 ], [ 131.043788, 32.4081311 ], [ 131.0405819, 32.4147977 ], [ 131.032896599999987, 32.4206952 ], [ 131.0309143, 32.426531 ], [ 131.022224599999987, 32.4371484 ], [ 131.0165308, 32.4476861 ], [ 131.0166404, 32.4603075 ], [ 131.0143362, 32.4627477 ], [ 131.0081654, 32.4604405 ], [ 130.9999426, 32.4523533 ], [ 130.987060900000017, 32.4470763 ], [ 130.9801946, 32.4478216 ], [ 130.9778163, 32.4511629 ], [ 130.958895499999983, 32.4503548 ], [ 130.95338, 32.4436024 ], [ 130.9411153, 32.438504 ], [ 130.935736099999986, 32.4384423 ], [ 130.9286625, 32.4416103 ], [ 130.9123559, 32.4407456 ], [ 130.9028339, 32.4426714 ], [ 130.8980813, 32.4518556 ], [ 130.9000146, 32.4561734 ], [ 130.901133499999986, 32.4673519 ], [ 130.8896866, 32.4773713 ], [ 130.880319899999989, 32.4777968 ], [ 130.8764019, 32.4851201 ], [ 130.862547399999983, 32.4937203 ], [ 130.858148299999982, 32.4933722 ], [ 130.8521916, 32.4878445 ], [ 130.8475985, 32.4930583 ], [ 130.844193, 32.4922055 ], [ 130.8398191, 32.4989693 ], [ 130.816378899999989, 32.4907392 ], [ 130.8067208, 32.4943588 ], [ 130.794692199999986, 32.4942183 ], [ 130.7861007, 32.4846948 ], [ 130.7684265, 32.4797599 ], [ 130.7581246, 32.4784289 ], [ 130.751299499999988, 32.474607 ], [ 130.7517595, 32.4686423 ], [ 130.7424651, 32.4693857 ], [ 130.737859, 32.4717838 ], [ 130.738014599999985, 32.4616491 ], [ 130.7410596, 32.4533585 ], [ 130.7285829, 32.4522889 ], [ 130.7221932, 32.4493253 ], [ 130.722951, 32.4435447 ], [ 130.727723199999986, 32.4355683 ], [ 130.7293412, 32.4282197 ], [ 130.720459, 32.4190742 ], [ 130.724311299999982, 32.4132306 ], [ 130.7243107, 32.4055606 ], [ 130.7357738, 32.4046314 ], [ 130.741787099999982, 32.4009165 ], [ 130.739229, 32.3929243 ], [ 130.731394599999987, 32.3920987 ], [ 130.721330699999982, 32.3864115 ], [ 130.7097774, 32.3681 ], [ 130.701898699999987, 32.3628539 ], [ 130.7024523, 32.3567109 ], [ 130.6972504, 32.3541065 ], [ 130.7009296, 32.347029 ], [ 130.6938448, 32.342189399999988 ], [ 130.6839531, 32.3385989 ], [ 130.6787115, 32.3427642 ], [ 130.670770299999987, 32.3401256 ], [ 130.6653311, 32.3539995 ], [ 130.6591967, 32.3602679 ], [ 130.6566858, 32.3677095 ], [ 130.657299199999983, 32.3731667 ], [ 130.652455, 32.3735284 ], [ 130.645076099999983, 32.3702913 ], [ 130.6421928, 32.3648879 ], [ 130.641653, 32.3601446 ], [ 130.6358664, 32.3549041 ], [ 130.6163655, 32.3474838 ], [ 130.6102061, 32.3477416 ], [ 130.60421, 32.3428422 ], [ 130.6009244, 32.3272911 ], [ 130.6124448, 32.3105968 ], [ 130.6093742, 32.3054607 ], [ 130.5986226, 32.294781 ], [ 130.6037943, 32.2918434 ], [ 130.604971799999987, 32.2793879 ], [ 130.613875899999982, 32.2771375 ], [ 130.5973573, 32.2692104 ], [ 130.590507, 32.2622235 ], [ 130.593194, 32.2579038 ], [ 130.5915751, 32.2489727 ], [ 130.5845923, 32.2424794 ], [ 130.5845976, 32.2355972 ], [ 130.587442899999985, 32.2291903 ], [ 130.582481200000018, 32.2185195 ], [ 130.5815575, 32.2109529 ], [ 130.5869639, 32.2071776 ], [ 130.5794009, 32.194383 ], [ 130.591720899999984, 32.1859577 ], [ 130.610466699999989, 32.1866627 ], [ 130.6153181, 32.1761863 ], [ 130.6175575, 32.1630239 ], [ 130.622696099999985, 32.1560583 ], [ 130.6368253, 32.1549277 ], [ 130.641248099999984, 32.1519161 ], [ 130.651643899999982, 32.1512655 ], [ 130.6554031, 32.1407613 ], [ 130.6550095, 32.1356811 ], [ 130.6704392, 32.1289308 ], [ 130.690107, 32.1150266 ], [ 130.699072799999982, 32.1069992 ], [ 130.7140584, 32.1039714 ], [ 130.7206017, 32.1007992 ], [ 130.727675299999987, 32.1018714 ], [ 130.733497799999981, 32.108367 ], [ 130.7399039, 32.1048828 ], [ 130.7388512, 32.1012851 ], [ 130.7535823, 32.103447 ], [ 130.7594698, 32.0968151 ], [ 130.7669464, 32.1015059 ], [ 130.7794331, 32.0994717 ], [ 130.807912300000027, 32.0993424 ], [ 130.820796699999988, 32.0949241 ], [ 130.8229078, 32.0997266 ], [ 130.830958700000025, 32.1047776 ], [ 130.8390142, 32.1072057 ], [ 130.849230299999988, 32.1042379 ], [ 130.857067799999982, 32.0997002 ], [ 130.862425, 32.1017999 ], [ 130.8694084, 32.1150582 ], [ 130.876356099999981, 32.1167154 ], [ 130.8783814, 32.1212668 ], [ 130.8973097, 32.1259746 ], [ 130.90074, 32.1323829 ], [ 130.906012, 32.133594 ], [ 130.913428899999985, 32.1304487 ], [ 130.9163431, 32.1252148 ], [ 130.927465, 32.1224771 ], [ 130.9325766, 32.1163585 ], [ 130.944147499999985, 32.1196435 ], [ 130.9551291, 32.1153638 ], [ 130.961448499999989, 32.1200502 ], [ 130.9745182, 32.1209206 ], [ 130.9725513, 32.1281053 ], [ 130.974658799999986, 32.1367653 ], [ 130.9835368, 32.1432287 ], [ 130.9926357, 32.1480415 ], [ 130.9958212, 32.1559324 ], [ 130.9923868, 32.1579229 ], [ 130.998019, 32.1614199 ], [ 131.0037826, 32.1695213 ], [ 131.01318150000003, 32.174378 ], [ 131.0187253, 32.1698523 ], [ 131.0263603, 32.1713643 ], [ 131.038085300000034, 32.1698863 ], [ 131.045298299999985, 32.1612613 ], [ 131.0595236, 32.1560461 ], [ 131.0701747, 32.159668 ], [ 131.0833561, 32.1546397 ], [ 131.0962422, 32.1523741 ], [ 131.1021322, 32.1579341 ], [ 131.1089653, 32.1601488 ], [ 131.10759059999998, 32.1660088 ], [ 131.1014381, 32.1730938 ], [ 131.1035403, 32.181991 ], [ 131.1021917, 32.1862971 ], [ 131.104323099999988, 32.1920071 ], [ 131.100076200000018, 32.1960251 ], [ 131.100531499999988, 32.2015429 ], [ 131.094483699999984, 32.2049065 ], [ 131.084267, 32.2061871 ], [ 131.073744299999987, 32.2241656 ], [ 131.0691443, 32.2253078 ], [ 131.070915499999984, 32.23476 ], [ 131.0570305, 32.2459412 ], [ 131.0471152, 32.2443001 ] ] ] ] } },
{ "type": "Feature", "properties": { "hokenjo": "水俣" }, "geometry": { "type": "MultiPolygon", "coordinates": [ [ [ [ 130.5794009, 32.194383 ], [ 130.5869639, 32.2071776 ], [ 130.5815575, 32.2109529 ], [ 130.582481200000018, 32.2185195 ], [ 130.587442899999985, 32.2291903 ], [ 130.5845976, 32.2355972 ], [ 130.5845923, 32.2424794 ], [ 130.5915751, 32.2489727 ], [ 130.593194, 32.2579038 ], [ 130.590507, 32.2622235 ], [ 130.5973573, 32.2692104 ], [ 130.613875899999982, 32.2771375 ], [ 130.604971799999987, 32.2793879 ], [ 130.6037943, 32.2918434 ], [ 130.5986226, 32.294781 ], [ 130.6093742, 32.3054607 ], [ 130.6124448, 32.3105968 ], [ 130.6009244, 32.3272911 ], [ 130.60421, 32.3428422 ], [ 130.6102061, 32.3477416 ], [ 130.6163655, 32.3474838 ], [ 130.6358664, 32.3549041 ], [ 130.641653, 32.3601446 ], [ 130.6421928, 32.3648879 ], [ 130.6310044, 32.3672844 ], [ 130.625223300000016, 32.3645066 ], [ 130.6197386, 32.3739714 ], [ 130.606562, 32.3760564 ], [ 130.600325, 32.3731531 ], [ 130.5883636, 32.3766056 ], [ 130.57777, 32.3717018 ], [ 130.567250299999984, 32.3765596 ], [ 130.5607748, 32.382366 ], [ 130.5531164, 32.3804863 ], [ 130.5499117, 32.3731286 ], [ 130.541143399999982, 32.365073 ], [ 130.5308387, 32.3671491 ], [ 130.5279654, 32.3740239 ], [ 130.5342468, 32.3833461 ], [ 130.5304921, 32.3863925 ], [ 130.534835700000031, 32.3931134 ], [ 130.5347357, 32.3980578 ], [ 130.539378699999986, 32.3995526 ], [ 130.54341789999998, 32.4057529 ], [ 130.5380624, 32.4102773 ], [ 130.5195674, 32.3936541 ], [ 130.513583499999982, 32.3921778 ], [ 130.5116435, 32.3875708 ], [ 130.4892044, 32.3663534 ], [ 130.488474599999989, 32.3605681 ], [ 130.4957849, 32.362390499999989 ], [ 130.507607299999989, 32.3581475 ], [ 130.5074726, 32.3547911 ], [ 130.493832199999986, 32.3505052 ], [ 130.4827951, 32.3420084 ], [ 130.4798328, 32.3353795 ], [ 130.4846418, 32.3338035 ], [ 130.4802743, 32.3269406 ], [ 130.4735983, 32.3315206 ], [ 130.4662435, 32.321406 ], [ 130.4715137, 32.315889 ], [ 130.4721671, 32.3013819 ], [ 130.490032899999989, 32.3000033 ], [ 130.477597299999985, 32.2869577 ], [ 130.465597799999983, 32.2964293 ], [ 130.4678614, 32.2855436 ], [ 130.4668651, 32.2793439 ], [ 130.4636328, 32.2767976 ], [ 130.4584529, 32.2899998 ], [ 130.4487607, 32.2876548 ], [ 130.4525036, 32.2811466 ], [ 130.4482477, 32.2760599 ], [ 130.4505019, 32.2725263 ], [ 130.442709899999983, 32.2685634 ], [ 130.439259199999981, 32.2708351 ], [ 130.432828799999982, 32.2634948 ], [ 130.4310438, 32.2529536 ], [ 130.4241299, 32.249752 ], [ 130.431405399999989, 32.2408675 ], [ 130.435500099999985, 32.241077 ], [ 130.4348205, 32.2331347 ], [ 130.432231, 32.2310895 ], [ 130.4225471, 32.2381618 ], [ 130.4150783, 32.2328487 ], [ 130.4074039, 32.2311423 ], [ 130.402366199999989, 32.2353995 ], [ 130.398649399999982, 32.228191 ], [ 130.39416749999998, 32.2274442 ], [ 130.386718699999989, 32.2137056 ], [ 130.3790219, 32.2056215 ], [ 130.3718437, 32.2013445 ], [ 130.380219399999987, 32.1920865 ], [ 130.3746325, 32.1872425 ], [ 130.377703199999985, 32.1823362 ], [ 130.3780189, 32.176451 ], [ 130.3708858, 32.1770735 ], [ 130.3677783, 32.1813147 ], [ 130.36036679999998, 32.1822936 ], [ 130.363189700000021, 32.1739596 ], [ 130.361360599999983, 32.167194 ], [ 130.372010499999988, 32.1594707 ], [ 130.3799996, 32.1505724 ], [ 130.386659399999985, 32.1473896 ], [ 130.3920257, 32.1341563 ], [ 130.4033296, 32.1243652 ], [ 130.402670699999987, 32.1202035 ], [ 130.424876499999982, 32.1169835 ], [ 130.430416, 32.1149102 ], [ 130.44115979999998, 32.1139824 ], [ 130.449455699999987, 32.1166463 ], [ 130.4546215, 32.113901 ], [ 130.4633101, 32.118815399999988 ], [ 130.4670462, 32.1156607 ], [ 130.4735023, 32.1186132 ], [ 130.4760123, 32.1225049 ], [ 130.4769018, 32.1389876 ], [ 130.482335700000021, 32.139601 ], [ 130.4923651, 32.1336971 ], [ 130.4990812, 32.1354718 ], [ 130.509212, 32.1405215 ], [ 130.5172418, 32.1358796 ], [ 130.5402351, 32.137414 ], [ 130.5461023, 32.1493459 ], [ 130.55750279999998, 32.1541495 ], [ 130.5826778, 32.1549136 ], [ 130.5889909, 32.1678283 ], [ 130.5967353, 32.1759211 ], [ 130.5951733, 32.1834958 ], [ 130.591720899999984, 32.1859577 ], [ 130.5794009, 32.194383 ] ] ] ] } },
{ "type": "Feature", "properties": { "hokenjo": "天草" }, "geometry": { "type": "MultiPolygon", "coordinates": [ [ [ [ 130.0363075, 32.1762281 ], [ 130.0399261, 32.1806764 ], [ 130.0332431, 32.1853922 ], [ 130.0291938, 32.1908162 ], [ 130.021168099999983, 32.1877885 ], [ 130.0225594, 32.1822881 ], [ 130.019026699999984, 32.1796436 ], [ 130.015268599999985, 32.1716717 ], [ 130.0178625, 32.162402799999988 ], [ 130.0222731, 32.1613428 ], [ 130.0240183, 32.1700906 ], [ 130.0322306, 32.1751681 ], [ 130.037617499999982, 32.1665592 ], [ 130.0447967, 32.1589425 ], [ 130.0486108, 32.1673375 ], [ 130.0363075, 32.1762281 ] ] ], [ [ [ 130.078085, 32.2016725 ], [ 130.069952199999989, 32.1959725 ], [ 130.0784831, 32.1951556 ], [ 130.078085, 32.2016725 ] ] ], [ [ [ 130.1464756, 32.2651433 ], [ 130.1506683, 32.2689883 ], [ 130.1484586, 32.2744681 ], [ 130.1411941, 32.2776499 ], [ 130.1336575, 32.2721278 ], [ 130.1320522, 32.2660903 ], [ 130.1348322, 32.2627131 ], [ 130.1464756, 32.2651433 ] ] ], [ [ [ 130.3306053, 32.3584653 ], [ 130.320147, 32.362952 ], [ 130.322185599999983, 32.3671966 ], [ 130.314609499999989, 32.3680249 ], [ 130.3110431, 32.3577656 ], [ 130.3038326, 32.3632784 ], [ 130.299602599999986, 32.3591916 ], [ 130.301919699999985, 32.3506739 ], [ 130.3084467, 32.3512775 ], [ 130.316116400000027, 32.3484531 ], [ 130.313905299999988, 32.3442253 ], [ 130.321368899999982, 32.3404144 ], [ 130.3296494, 32.3478728 ], [ 130.339245, 32.3473147 ], [ 130.3406722, 32.3518133 ], [ 130.3332208, 32.3547341 ], [ 130.3306053, 32.3584653 ] ] ], [ [ [ 130.1383231, 32.5464006 ], [ 130.1211619, 32.546675 ], [ 130.1179531, 32.5435949 ], [ 130.0970812, 32.5339173 ], [ 130.0920208, 32.5291447 ], [ 130.082231299999989, 32.5237033 ], [ 130.0717828, 32.5207954 ], [ 130.0660248, 32.5158853 ], [ 130.0435511, 32.5149983 ], [ 130.034165699999988, 32.5217936 ], [ 130.0327561, 32.5263468 ], [ 130.0377818, 32.5359435 ], [ 130.025643799999983, 32.5377659 ], [ 130.012488599999983, 32.5293819 ], [ 130.0271447, 32.5202031 ], [ 130.035397499999988, 32.5174164 ], [ 130.035629699999987, 32.5111466 ], [ 130.0400316, 32.509546 ], [ 130.04523, 32.49917 ], [ 130.0473647, 32.4910375 ], [ 130.0405016, 32.4898173 ], [ 130.0352196, 32.4766458 ], [ 130.0384386, 32.4748438 ], [ 130.0379496, 32.4664872 ], [ 130.0281286, 32.4556173 ], [ 130.0180656, 32.4392211 ], [ 130.0066411, 32.4279631 ], [ 130.0027222, 32.4141117 ], [ 130.0043158, 32.4106556 ], [ 129.9981669, 32.4035236 ], [ 129.996340799999984, 32.3912275 ], [ 129.9883594, 32.3840506 ], [ 129.9939847, 32.3826651 ], [ 129.9938975, 32.3767553 ], [ 129.9878483, 32.3754531 ], [ 129.9796342, 32.366015 ], [ 129.9748003, 32.3558389 ], [ 129.9777422, 32.3457644 ], [ 129.981049399999989, 32.3418406 ], [ 129.9794986, 32.3336606 ], [ 129.9808453, 32.3250972 ], [ 129.9873072, 32.3219347 ], [ 129.9924902, 32.3232159 ], [ 129.9952619, 32.3147181 ], [ 129.9937894, 32.3073947 ], [ 130.005250599999982, 32.3092234 ], [ 130.0071608, 32.3117276 ], [ 130.0178168, 32.3140442 ], [ 130.0179453, 32.3097178 ], [ 130.028410399999984, 32.3089752 ], [ 130.030703599999981, 32.3031836 ], [ 130.0368603, 32.3049486 ], [ 130.0381936, 32.3129431 ], [ 130.0541892, 32.3094481 ], [ 130.058077199999985, 32.3032806 ], [ 130.065697699999987, 32.3057766 ], [ 130.0714322, 32.3004625 ], [ 130.066675799999985, 32.296425299999989 ], [ 130.061403499999983, 32.2962952 ], [ 130.067153599999983, 32.2885892 ], [ 130.0628417, 32.2846933 ], [ 130.0627863, 32.2785264 ], [ 130.051731099999984, 32.2787613 ], [ 130.05147, 32.2870606 ], [ 130.044025799999986, 32.2981269 ], [ 130.0350028, 32.3023553 ], [ 130.0303261, 32.2940167 ], [ 130.031759199999982, 32.2896139 ], [ 130.026194799999985, 32.2869084 ], [ 130.025137199999989, 32.3013403 ], [ 130.0109397, 32.2984081 ], [ 130.0045514, 32.2888578 ], [ 129.993790599999983, 32.2829153 ], [ 129.9876539, 32.2766236 ], [ 129.9871828, 32.2719556 ], [ 129.981756099999984, 32.2687197 ], [ 129.9705506, 32.2476961 ], [ 129.96953640000001, 32.2429492 ], [ 129.9751044, 32.2400797 ], [ 129.983316699999989, 32.2462361 ], [ 129.989812799999982, 32.2396458 ], [ 130.012528299999985, 32.2352717 ], [ 130.0147033, 32.2224178 ], [ 130.0094818, 32.2191794 ], [ 129.9998899, 32.2179831 ], [ 129.9970789, 32.2043819 ], [ 129.9921142, 32.2009711 ], [ 130.0019381, 32.1932247 ], [ 130.012612599999983, 32.1991696 ], [ 130.0130055, 32.189538 ], [ 130.0229359, 32.1887261 ], [ 130.0325876, 32.200009 ], [ 130.029479, 32.209282 ], [ 130.0402961, 32.208995 ], [ 130.0445981, 32.2017506 ], [ 130.0555283, 32.207867799999988 ], [ 130.0581689, 32.2112392 ], [ 130.073405, 32.2112961 ], [ 130.080742499999985, 32.2183942 ], [ 130.0723989, 32.2248095 ], [ 130.0821736, 32.2301319 ], [ 130.078633599999989, 32.2350872 ], [ 130.080470599999984, 32.2430761 ], [ 130.089476, 32.2429771 ], [ 130.0867997, 32.2377939 ], [ 130.089596299999982, 32.2282531 ], [ 130.1005472, 32.2317 ], [ 130.102873099999982, 32.2489908 ], [ 130.093971399999987, 32.2468711 ], [ 130.092834400000015, 32.2542322 ], [ 130.103334900000021, 32.2555156 ], [ 130.1068956, 32.2536814 ], [ 130.1148758, 32.2679444 ], [ 130.1227433, 32.2783623 ], [ 130.1336667, 32.2882035 ], [ 130.1378164, 32.2889511 ], [ 130.1430474, 32.283766 ], [ 130.14931439999998, 32.282969699999988 ], [ 130.1608838, 32.2896651 ], [ 130.166470799999985, 32.2958806 ], [ 130.163451899999984, 32.3015519 ], [ 130.148046699999981, 32.3019294 ], [ 130.1438075, 32.2967144 ], [ 130.140102399999989, 32.2977928 ], [ 130.142106700000028, 32.3058599 ], [ 130.1478081, 32.312043599999988 ], [ 130.1568969, 32.3136786 ], [ 130.151871199999988, 32.3221575 ], [ 130.1587233, 32.3240619 ], [ 130.1558446, 32.3304309 ], [ 130.1577919, 32.3343347 ], [ 130.164519399999989, 32.3292611 ], [ 130.1748503, 32.3393692 ], [ 130.1770717, 32.3354289 ], [ 130.1682547, 32.3260875 ], [ 130.168122499999981, 32.3168081 ], [ 130.1726936, 32.3104828 ], [ 130.1791689, 32.3105844 ], [ 130.1856172, 32.3138772 ], [ 130.1951636, 32.3240081 ], [ 130.1997481, 32.322649399999989 ], [ 130.20337, 32.3328142 ], [ 130.208191199999987, 32.3348686 ], [ 130.207198, 32.3465497 ], [ 130.2118179, 32.3554066 ], [ 130.2184964, 32.3648 ], [ 130.225542, 32.3688355 ], [ 130.2212965, 32.376897 ], [ 130.2167225, 32.3801993 ], [ 130.2231502, 32.3859368 ], [ 130.2193933, 32.3925465 ], [ 130.2090974, 32.3959461 ], [ 130.204726199999982, 32.3949631 ], [ 130.1994181, 32.3850772 ], [ 130.194332600000024, 32.3872492 ], [ 130.201416699999982, 32.3920508 ], [ 130.2006624, 32.4016102 ], [ 130.19783289999998, 32.405482 ], [ 130.2023619, 32.4110089 ], [ 130.2098512, 32.414033 ], [ 130.207896399999981, 32.4219789 ], [ 130.216145899999987, 32.421598 ], [ 130.2093458, 32.4305164 ], [ 130.2080848, 32.437637 ], [ 130.2049113, 32.4413702 ], [ 130.2020368, 32.4491687 ], [ 130.2030833, 32.4537725 ], [ 130.1969597, 32.458503 ], [ 130.2051133, 32.4642079 ], [ 130.2085578, 32.4723207 ], [ 130.205826299999984, 32.4786295 ], [ 130.1968497, 32.4880506 ], [ 130.1924578, 32.4961286 ], [ 130.1979739, 32.5047632 ], [ 130.1930848, 32.5252225 ], [ 130.1950392, 32.532174 ], [ 130.1879712, 32.5485456 ], [ 130.170648299999982, 32.5506856 ], [ 130.147326, 32.549586 ], [ 130.1383231, 32.5464006 ] ] ], [ [ [ 130.2299706, 32.3772308 ], [ 130.229512199999988, 32.3665086 ], [ 130.235940299999982, 32.3680703 ], [ 130.2357475, 32.3806303 ], [ 130.2299706, 32.3772308 ] ] ], [ [ [ 130.3189174, 32.3775706 ], [ 130.3189084, 32.3708435 ], [ 130.3256039, 32.3727357 ], [ 130.324469099999988, 32.3820876 ], [ 130.3189174, 32.3775706 ] ] ], [ [ [ 130.3541468, 32.4051458 ], [ 130.351067300000011, 32.4024772 ], [ 130.3473923, 32.3981855 ], [ 130.356193, 32.3769509 ], [ 130.361655400000018, 32.3807 ], [ 130.362632, 32.3859982 ], [ 130.3668693, 32.3897487 ], [ 130.3767671, 32.38944 ], [ 130.381962099999981, 32.3868416 ], [ 130.3887598, 32.3926378 ], [ 130.4002884, 32.3979815 ], [ 130.403220100000027, 32.4048352 ], [ 130.411053, 32.4150657 ], [ 130.403905399999985, 32.4216935 ], [ 130.4158933, 32.4224223 ], [ 130.4156166, 32.4302396 ], [ 130.4081335, 32.4333872 ], [ 130.4142861, 32.4403737 ], [ 130.4189384, 32.4503346 ], [ 130.4286966, 32.4552761 ], [ 130.431478299999981, 32.4643379 ], [ 130.4359986, 32.4695606 ], [ 130.4375724, 32.4863319 ], [ 130.4522869, 32.5068614 ], [ 130.4511129, 32.5097779 ], [ 130.456208, 32.515187 ], [ 130.4558859, 32.52405 ], [ 130.4471144, 32.5227425 ], [ 130.4415625, 32.5286168 ], [ 130.4361409, 32.5260444 ], [ 130.432445699999988, 32.519257 ], [ 130.4244343, 32.5183953 ], [ 130.418702599999989, 32.5229515 ], [ 130.411102799999981, 32.5168821 ], [ 130.405132899999984, 32.5148401 ], [ 130.3946818, 32.5000179 ], [ 130.3907437, 32.5016078 ], [ 130.391463099999982, 32.5075801 ], [ 130.389454, 32.5140339 ], [ 130.368672799999985, 32.5180536 ], [ 130.3695706, 32.5245592 ], [ 130.3595192, 32.5273206 ], [ 130.3432944, 32.52166 ], [ 130.3348397, 32.5218511 ], [ 130.3259608, 32.5187947 ], [ 130.3157254, 32.5175879 ], [ 130.3111178, 32.5105589 ], [ 130.2939331, 32.4979375 ], [ 130.2945511, 32.4924356 ], [ 130.2817839, 32.4840758 ], [ 130.2729908, 32.4830725 ], [ 130.267986399999984, 32.4796625 ], [ 130.2590342, 32.4790028 ], [ 130.250959699999981, 32.4702828 ], [ 130.2401203, 32.4660017 ], [ 130.233404899999982, 32.4605057 ], [ 130.2301578, 32.4618414 ], [ 130.2165458, 32.4571739 ], [ 130.210443199999986, 32.4527606 ], [ 130.204596899999984, 32.4514352 ], [ 130.205514, 32.4419926 ], [ 130.2099509, 32.4368529 ], [ 130.210417299999989, 32.4313159 ], [ 130.219311, 32.4230131 ], [ 130.22509789999998, 32.4120633 ], [ 130.231762, 32.4151305 ], [ 130.240810899999985, 32.4154893 ], [ 130.2438828, 32.4124108 ], [ 130.2439411, 32.4016464 ], [ 130.2459604, 32.396876 ], [ 130.2341605, 32.3874026 ], [ 130.2433364, 32.3844862 ], [ 130.2524406, 32.3875106 ], [ 130.252371, 32.3932209 ], [ 130.260624399999983, 32.4037801 ], [ 130.2619417, 32.4105317 ], [ 130.2748492, 32.4120881 ], [ 130.2784483, 32.4028153 ], [ 130.2862567, 32.3992306 ], [ 130.2899947, 32.4011303 ], [ 130.300839, 32.3991043 ], [ 130.3086108, 32.3960004 ], [ 130.329395299999987, 32.3992376 ], [ 130.334202, 32.4034294 ], [ 130.3417988, 32.4063182 ], [ 130.3509003, 32.4178058 ], [ 130.3541468, 32.4051458 ] ] ], [ [ [ 130.333367, 32.6007018 ], [ 130.341413200000034, 32.5986865 ], [ 130.3437366, 32.6036626 ], [ 130.3369025, 32.606926099999988 ], [ 130.3305048, 32.6050736 ], [ 130.333367, 32.6007018 ] ] ], [ [ [ 130.3740803, 32.3429919 ], [ 130.3717713, 32.3498914 ], [ 130.3641997, 32.3459228 ], [ 130.355293, 32.352133 ], [ 130.3446236, 32.3488256 ], [ 130.3373061, 32.3375619 ], [ 130.3297747, 32.3333789 ], [ 130.333803099999983, 32.3174772 ], [ 130.321713599999981, 32.3173628 ], [ 130.316492499999981, 32.3113081 ], [ 130.308697199999983, 32.3107617 ], [ 130.30466389999998, 32.3062289 ], [ 130.3218731, 32.3075594 ], [ 130.33077, 32.3061783 ], [ 130.336077499999988, 32.3110661 ], [ 130.3448947, 32.3123342 ], [ 130.3601319, 32.3260933 ], [ 130.363948599999986, 32.3351272 ], [ 130.3740803, 32.3429919 ] ] ], [ [ [ 130.3412698, 32.3665322 ], [ 130.3491481, 32.3605523 ], [ 130.3547643, 32.363724 ], [ 130.350661, 32.3718608 ], [ 130.341966900000017, 32.3711716 ], [ 130.3412698, 32.3665322 ] ] ], [ [ [ 130.4225883, 32.3713264 ], [ 130.4311212, 32.377128399999989 ], [ 130.423856799999982, 32.3818019 ], [ 130.4230966, 32.3937864 ], [ 130.415084500000034, 32.3994293 ], [ 130.412260799999984, 32.3976477 ], [ 130.409309399999984, 32.3837557 ], [ 130.4214378, 32.3785663 ], [ 130.4161747, 32.3702498 ], [ 130.4225883, 32.3713264 ] ] ], [ [ [ 130.3957729, 32.5395006 ], [ 130.404047099999985, 32.5359174 ], [ 130.4080481, 32.5423543 ], [ 130.4036444, 32.5440686 ], [ 130.3957729, 32.5395006 ] ] ], [ [ [ 130.411196599999982, 32.5476432 ], [ 130.4150215, 32.5395107 ], [ 130.4288042, 32.540887 ], [ 130.411196599999982, 32.5476432 ] ] ], [ [ [ 130.4705803, 32.5464174 ], [ 130.470480399999985, 32.5505435 ], [ 130.4873916, 32.5704554 ], [ 130.4734963, 32.5878077 ], [ 130.4678692, 32.5850651 ], [ 130.466408699999988, 32.58006 ], [ 130.460651899999988, 32.5733519 ], [ 130.4643544, 32.5651518 ], [ 130.462088199999982, 32.5609001 ], [ 130.466018099999985, 32.5556324 ], [ 130.462677899999989, 32.5414546 ], [ 130.465771099999984, 32.5405891 ], [ 130.4705803, 32.5464174 ] ] ], [ [ [ 130.3848596, 32.5793964 ], [ 130.3897316, 32.5867963 ], [ 130.3802392, 32.5826902 ], [ 130.3848596, 32.5793964 ] ] ], [ [ [ 130.444547299999982, 32.5992316 ], [ 130.455557199999987, 32.6091156 ], [ 130.457760799999988, 32.6146347 ], [ 130.4513665, 32.6172129 ], [ 130.443146899999988, 32.625866 ], [ 130.435873499999985, 32.6221788 ], [ 130.4313565, 32.6174357 ], [ 130.4218014, 32.6173414 ], [ 130.413966599999981, 32.610239 ], [ 130.4061055, 32.5983536 ], [ 130.39548019999998, 32.5914736 ], [ 130.3940211, 32.5859807 ], [ 130.399766299999982, 32.5825233 ], [ 130.406133899999986, 32.5842072 ], [ 130.4169238, 32.5809769 ], [ 130.4195104, 32.5750584 ], [ 130.4148846, 32.5736042 ], [ 130.407399400000031, 32.5654123 ], [ 130.407184299999983, 32.5600179 ], [ 130.403969499999988, 32.554815 ], [ 130.4049646, 32.5508991 ], [ 130.4168024, 32.5505001 ], [ 130.42290509999998, 32.5525607 ], [ 130.428035599999987, 32.5483845 ], [ 130.4389285, 32.548022 ], [ 130.4403381, 32.5532525 ], [ 130.4504375, 32.560068699999988 ], [ 130.4507539, 32.5666207 ], [ 130.447352099999989, 32.572334 ], [ 130.4523726, 32.576453 ], [ 130.4583404, 32.5862966 ], [ 130.4526061, 32.58726 ], [ 130.448430699999989, 32.591189 ], [ 130.444547299999982, 32.5992316 ] ] ] ] } },
{ "type": "Feature", "properties": { "hokenjo": "八代" }, "geometry": { "type": "MultiPolygon", "coordinates": [ [ [ [ 130.723774, 32.558579099999989 ], [ 130.7156637, 32.5634143 ], [ 130.7068889, 32.572067 ], [ 130.7139584, 32.5782802 ], [ 130.7055073, 32.5846357 ], [ 130.698348899999985, 32.5804831 ], [ 130.678205500000018, 32.5924601 ], [ 130.6790442, 32.597647 ], [ 130.6521112, 32.6098965 ], [ 130.645000499999981, 32.6160449 ], [ 130.6413613, 32.614163 ], [ 130.6304699, 32.622688 ], [ 130.6180506, 32.6192911 ], [ 130.619365099999982, 32.6150406 ], [ 130.633996599999989, 32.6034015 ], [ 130.6327824, 32.6021167 ], [ 130.6159372, 32.5883823 ], [ 130.608657, 32.5930919 ], [ 130.589850399999989, 32.5762354 ], [ 130.575932099999989, 32.5583967 ], [ 130.5624343, 32.5379658 ], [ 130.555969, 32.5428902 ], [ 130.5466252, 32.5361536 ], [ 130.543837699999983, 32.5382379 ], [ 130.536156799999986, 32.5258572 ], [ 130.5632635, 32.5123482 ], [ 130.5676297, 32.5067413 ], [ 130.532896199999982, 32.5226626 ], [ 130.531153499999988, 32.5200333 ], [ 130.5526989, 32.5095775 ], [ 130.5651389, 32.5054376 ], [ 130.56273969999998, 32.4986369 ], [ 130.5523081, 32.5008878 ], [ 130.5468296, 32.5001968 ], [ 130.542181299999982, 32.493608 ], [ 130.5424955, 32.4845436 ], [ 130.544955, 32.4791103 ], [ 130.5492327, 32.4772066 ], [ 130.5649508, 32.4760008 ], [ 130.5650746, 32.4681121 ], [ 130.569224, 32.4643236 ], [ 130.5650331, 32.4560194 ], [ 130.5730656, 32.4408133 ], [ 130.569144, 32.4342569 ], [ 130.556293900000014, 32.4234561 ], [ 130.5474355, 32.4223527 ], [ 130.5410793, 32.4121295 ], [ 130.5380624, 32.4102773 ], [ 130.54341789999998, 32.4057529 ], [ 130.539378699999986, 32.3995526 ], [ 130.5347357, 32.3980578 ], [ 130.534835700000031, 32.3931134 ], [ 130.5304921, 32.3863925 ], [ 130.5342468, 32.3833461 ], [ 130.5279654, 32.3740239 ], [ 130.5308387, 32.3671491 ], [ 130.541143399999982, 32.365073 ], [ 130.5499117, 32.3731286 ], [ 130.5531164, 32.3804863 ], [ 130.5607748, 32.382366 ], [ 130.567250299999984, 32.3765596 ], [ 130.57777, 32.3717018 ], [ 130.5883636, 32.3766056 ], [ 130.600325, 32.3731531 ], [ 130.606562, 32.3760564 ], [ 130.6197386, 32.3739714 ], [ 130.625223300000016, 32.3645066 ], [ 130.6310044, 32.3672844 ], [ 130.6421928, 32.3648879 ], [ 130.645076099999983, 32.3702913 ], [ 130.652455, 32.3735284 ], [ 130.657299199999983, 32.3731667 ], [ 130.6566858, 32.3677095 ], [ 130.6591967, 32.3602679 ], [ 130.6653311, 32.3539995 ], [ 130.670770299999987, 32.3401256 ], [ 130.6787115, 32.3427642 ], [ 130.6839531, 32.3385989 ], [ 130.6938448, 32.342189399999988 ], [ 130.7009296, 32.347029 ], [ 130.6972504, 32.3541065 ], [ 130.7024523, 32.3567109 ], [ 130.701898699999987, 32.3628539 ], [ 130.7097774, 32.3681 ], [ 130.721330699999982, 32.3864115 ], [ 130.731394599999987, 32.3920987 ], [ 130.739229, 32.3929243 ], [ 130.741787099999982, 32.4009165 ], [ 130.7357738, 32.4046314 ], [ 130.7243107, 32.4055606 ], [ 130.724311299999982, 32.4132306 ], [ 130.720459, 32.4190742 ], [ 130.7293412, 32.4282197 ], [ 130.727723199999986, 32.4355683 ], [ 130.722951, 32.4435447 ], [ 130.7221932, 32.4493253 ], [ 130.7285829, 32.4522889 ], [ 130.7410596, 32.4533585 ], [ 130.738014599999985, 32.4616491 ], [ 130.737859, 32.4717838 ], [ 130.7424651, 32.4693857 ], [ 130.7517595, 32.4686423 ], [ 130.751299499999988, 32.474607 ], [ 130.7581246, 32.4784289 ], [ 130.7684265, 32.4797599 ], [ 130.7861007, 32.4846948 ], [ 130.794692199999986, 32.4942183 ], [ 130.8067208, 32.4943588 ], [ 130.816378899999989, 32.4907392 ], [ 130.8398191, 32.4989693 ], [ 130.844193, 32.4922055 ], [ 130.8475985, 32.4930583 ], [ 130.8521916, 32.4878445 ], [ 130.858148299999982, 32.4933722 ], [ 130.862547399999983, 32.4937203 ], [ 130.8764019, 32.4851201 ], [ 130.880319899999989, 32.4777968 ], [ 130.8896866, 32.4773713 ], [ 130.901133499999986, 32.4673519 ], [ 130.9000146, 32.4561734 ], [ 130.8980813, 32.4518556 ], [ 130.9028339, 32.4426714 ], [ 130.9123559, 32.4407456 ], [ 130.9286625, 32.4416103 ], [ 130.935736099999986, 32.4384423 ], [ 130.9411153, 32.438504 ], [ 130.95338, 32.4436024 ], [ 130.958895499999983, 32.4503548 ], [ 130.9778163, 32.4511629 ], [ 130.9801946, 32.4478216 ], [ 130.987060900000017, 32.4470763 ], [ 130.9999426, 32.4523533 ], [ 131.0081654, 32.4604405 ], [ 131.0143362, 32.4627477 ], [ 131.016354399999983, 32.4732608 ], [ 131.0139356, 32.4800233 ], [ 131.0069593, 32.490058 ], [ 131.009708499999988, 32.5091898 ], [ 131.009406899999988, 32.5154056 ], [ 131.0151952, 32.5158367 ], [ 131.0184241, 32.5195883 ], [ 131.024666599999989, 32.5202467 ], [ 131.0248805, 32.5315726 ], [ 131.0190666, 32.5415443 ], [ 131.0194735, 32.5492237 ], [ 131.0097059, 32.5610289 ], [ 131.000219499999986, 32.5699958 ], [ 130.9962017, 32.5688172 ], [ 130.988020299999988, 32.5713384 ], [ 130.978551899999985, 32.5772279 ], [ 130.969345799999985, 32.5804045 ], [ 130.963381, 32.5777922 ], [ 130.9543596, 32.5771206 ], [ 130.9505696, 32.579463 ], [ 130.9469187, 32.5766351 ], [ 130.938972299999989, 32.5779418 ], [ 130.923315799999983, 32.5745725 ], [ 130.9221183, 32.5793928 ], [ 130.913563499999981, 32.5847757 ], [ 130.9072913, 32.5837631 ], [ 130.90897769999998, 32.5759326 ], [ 130.8922325, 32.5707482 ], [ 130.883757799999984, 32.5741061 ], [ 130.8705424, 32.5721607 ], [ 130.8614574, 32.5742267 ], [ 130.8522527, 32.5726604 ], [ 130.846281399999981, 32.569458 ], [ 130.842211599999985, 32.5708238 ], [ 130.8278798, 32.5618435 ], [ 130.821019799999988, 32.5607718 ], [ 130.815083099999981, 32.5669217 ], [ 130.8038606, 32.5682647 ], [ 130.793027599999988, 32.5785884 ], [ 130.7887627, 32.5943766 ], [ 130.782714400000032, 32.595357 ], [ 130.775509, 32.5846676 ], [ 130.76929149999998, 32.5807195 ], [ 130.7653929, 32.5740264 ], [ 130.7592392, 32.5741579 ], [ 130.753635799999984, 32.5674798 ], [ 130.753681299999982, 32.5637501 ], [ 130.742174899999981, 32.5588894 ], [ 130.7361937, 32.561583899999988 ], [ 130.723774, 32.558579099999989 ] ] ] ] } },
{ "type": "Feature", "properties": { "hokenjo": "有明" }, "geometry": { "type": "MultiPolygon", "coordinates": [ [ [ [ 130.629411799999986, 32.9446998 ], [ 130.631978799999985, 32.9607253 ], [ 130.6360506, 32.9661328 ], [ 130.6507963, 32.9626795 ], [ 130.654645599999981, 32.9718945 ], [ 130.650739500000014, 32.9752769 ], [ 130.643065700000022, 32.9762111 ], [ 130.6479247, 32.987326599999989 ], [ 130.64158519999998, 32.9944226 ], [ 130.6459802, 32.9980776 ], [ 130.646723899999984, 33.0061464 ], [ 130.637367499999982, 33.009433 ], [ 130.638314399999985, 33.0138694 ], [ 130.6321118, 33.0195907 ], [ 130.6360373, 33.0229713 ], [ 130.648416699999984, 33.0264108 ], [ 130.6517433, 33.0358139 ], [ 130.653106799999989, 33.0482153 ], [ 130.6495165, 33.0522644 ], [ 130.635342399999985, 33.0537126 ], [ 130.636457399999983, 33.0608951 ], [ 130.6327713, 33.0667723 ], [ 130.6324993, 33.0734912 ], [ 130.6394733, 33.0800454 ], [ 130.6507053, 33.0835791 ], [ 130.655354499999987, 33.089219199999988 ], [ 130.6559298, 33.0966242 ], [ 130.6512244, 33.1032274 ], [ 130.6556831, 33.1086202 ], [ 130.6401299, 33.1133851 ], [ 130.6213426, 33.1112908 ], [ 130.615551, 33.1085955 ], [ 130.6070104, 33.1103896 ], [ 130.6010102, 33.1147926 ], [ 130.589760499999983, 33.1139379 ], [ 130.5801989, 33.1160192 ], [ 130.5731611, 33.1117403 ], [ 130.570799699999981, 33.1067387 ], [ 130.5617959, 33.1041892 ], [ 130.561199499999987, 33.0959125 ], [ 130.5654266, 33.0916334 ], [ 130.5657211, 33.0872531 ], [ 130.5559561, 33.0860917 ], [ 130.5466312, 33.0805692 ], [ 130.5413668, 33.082011099999988 ], [ 130.535367899999983, 33.0780519 ], [ 130.5322486, 33.065503 ], [ 130.5168737, 33.0655666 ], [ 130.513092299999983, 33.0615174 ], [ 130.5040574, 33.058026 ], [ 130.495035699999988, 33.0486757 ], [ 130.5044734, 33.036789 ], [ 130.5055783, 33.0260732 ], [ 130.5109525, 33.0231377 ], [ 130.5158705, 33.0120208 ], [ 130.507062499999989, 33.0038926 ], [ 130.499103599999984, 33.0065601 ], [ 130.483968399999981, 33.0016142 ], [ 130.450657, 33.0038963 ], [ 130.444870899999984, 33.0024704 ], [ 130.436248899999981, 33.0050623 ], [ 130.424799399999984, 33.0051654 ], [ 130.4141367, 33.0023138 ], [ 130.4183591, 32.9933464 ], [ 130.425635299999982, 32.993777 ], [ 130.4299695, 32.9870826 ], [ 130.4319241, 32.9595117 ], [ 130.437781199999989, 32.9419012 ], [ 130.443169300000022, 32.9278792 ], [ 130.439735899999988, 32.9208641 ], [ 130.4442652, 32.9147682 ], [ 130.451603299999988, 32.909099 ], [ 130.4563411, 32.9138984 ], [ 130.4634098, 32.9119578 ], [ 130.4570201, 32.9054345 ], [ 130.4625962, 32.9014439 ], [ 130.4708109, 32.9004413 ], [ 130.476478499999985, 32.9049868 ], [ 130.494768199999982, 32.8931169 ], [ 130.4993035, 32.8930782 ], [ 130.5232182, 32.8808979 ], [ 130.5266709, 32.8771379 ], [ 130.5228803, 32.8699497 ], [ 130.522826899999984, 32.8533505 ], [ 130.528726899999981, 32.8509925 ], [ 130.56492, 32.8420243 ], [ 130.571539799999982, 32.8487824 ], [ 130.5731846, 32.8527245 ], [ 130.596290499999981, 32.8465208 ], [ 130.600440100000014, 32.8474869 ], [ 130.6131679, 32.8430854 ], [ 130.6220413, 32.8447208 ], [ 130.6251964, 32.8525359 ], [ 130.630816399999986, 32.8537962 ], [ 130.6262385, 32.8619765 ], [ 130.634774600000014, 32.8609423 ], [ 130.6384631, 32.8650319 ], [ 130.63980429999998, 32.8733775 ], [ 130.6448548, 32.8849422 ], [ 130.6519635, 32.8879367 ], [ 130.6493707, 32.8925222 ], [ 130.6465598, 32.9080223 ], [ 130.637204, 32.9162346 ], [ 130.6462368, 32.931553799999989 ], [ 130.6516112, 32.9322098 ], [ 130.6443203, 32.9378646 ], [ 130.6402851, 32.9384557 ], [ 130.6351617, 32.9435907 ], [ 130.629411799999986, 32.9446998 ] ] ] ] } }
]
}
