{
"type": "FeatureCollection",
"name": "kyoto",
"crs": { "type": "name", "properties": { "name": "urn:ogc:def:crs:OGC:1.3:CRS84" } },
"features": [
{ "type": "Feature", "properties": { "hokenjo": "右京・西京" }, "geometry": { "type": "Polygon", "coordinates": [ [ [ 135.7153606, 34.980048599999989 ], [ 135.718560599999989, 34.9840203 ], [ 135.7272908, 34.9857681 ], [ 135.7290525, 34.9937939 ], [ 135.7328906, 34.9964028 ], [ 135.732879199999985, 35.0082728 ], [ 135.7240903, 35.0085339 ], [ 135.7240325, 35.0160425 ], [ 135.7268133, 35.0225444 ], [ 135.722260799999987, 35.0276797 ], [ 135.7222186, 35.0359067 ], [ 135.710842499999984, 35.0421467 ], [ 135.713986399999982, 35.0474022 ], [ 135.7107, 35.0594336 ], [ 135.7036728, 35.0634522 ], [ 135.7004158, 35.0689597 ], [ 135.6943058, 35.0715333 ], [ 135.6898861, 35.0802989 ], [ 135.6852039, 35.0769197 ], [ 135.6765869, 35.0789831 ], [ 135.6772311, 35.0833231 ], [ 135.6684378, 35.0832422 ], [ 135.6674764, 35.0868933 ], [ 135.67299749999998, 35.0942933 ], [ 135.6635311, 35.0980447 ], [ 135.660975, 35.0937 ], [ 135.655668099999986, 35.0915031 ], [ 135.6501628, 35.1016067 ], [ 135.654426699999988, 35.1057547 ], [ 135.6492264, 35.1098642 ], [ 135.649738300000024, 35.1144231 ], [ 135.659799199999981, 35.1161078 ], [ 135.6704047, 35.1231964 ], [ 135.6742858, 35.1297622 ], [ 135.675490800000034, 35.1377261 ], [ 135.672587199999981, 35.1416919 ], [ 135.67293189999998, 35.1586311 ], [ 135.674644199999989, 35.1641514 ], [ 135.6896567, 35.1662261 ], [ 135.7057931, 35.1659208 ], [ 135.7136439, 35.1688225 ], [ 135.7202667, 35.168235 ], [ 135.7240731, 35.1714933 ], [ 135.730866400000025, 35.169874199999988 ], [ 135.7343956, 35.1618403 ], [ 135.7416417, 35.1583639 ], [ 135.744655, 35.1500967 ], [ 135.7531689, 35.1469314 ], [ 135.7620528, 35.1513294 ], [ 135.766004399999986, 35.1509006 ], [ 135.773203099999989, 35.1571508 ], [ 135.7708111, 35.1622153 ], [ 135.7708203, 35.17279 ], [ 135.7752333, 35.1787922 ], [ 135.7566478, 35.1960261 ], [ 135.7535119, 35.2024128 ], [ 135.7542044, 35.2074094 ], [ 135.762555599999985, 35.2149947 ], [ 135.763198099999983, 35.2209231 ], [ 135.7606553, 35.226594399999989 ], [ 135.7611956, 35.2331728 ], [ 135.7550039, 35.2444031 ], [ 135.7421928, 35.2431256 ], [ 135.733148299999982, 35.2457139 ], [ 135.728655299999986, 35.2511264 ], [ 135.7329708, 35.2553342 ], [ 135.7310306, 35.2582681 ], [ 135.7322389, 35.2661342 ], [ 135.727348899999981, 35.2677664 ], [ 135.7175733, 35.265325 ], [ 135.7120103, 35.261035 ], [ 135.7072206, 35.2613747 ], [ 135.68941719999998, 35.255212799999988 ], [ 135.654806899999983, 35.2631711 ], [ 135.6519231, 35.2599925 ], [ 135.6400131, 35.2580394 ], [ 135.6288719, 35.2453667 ], [ 135.6297094, 35.2359961 ], [ 135.620175, 35.2331661 ], [ 135.619197499999984, 35.2254978 ], [ 135.608668599999987, 35.2283336 ], [ 135.5990994, 35.2250408 ], [ 135.589902199999983, 35.2164053 ], [ 135.596682499999986, 35.2121167 ], [ 135.596541699999989, 35.2025472 ], [ 135.5912117, 35.195177199999989 ], [ 135.584230599999984, 35.189705 ], [ 135.5829522, 35.1852911 ], [ 135.5735133, 35.1713097 ], [ 135.5738972, 35.1690231 ], [ 135.56163, 35.1565617 ], [ 135.562378099999989, 35.1482322 ], [ 135.5590133, 35.1369308 ], [ 135.561449399999987, 35.1326031 ], [ 135.5679156, 35.1275917 ], [ 135.5752872, 35.1325158 ], [ 135.5776131, 35.1276903 ], [ 135.5909661, 35.1241739 ], [ 135.592264199999988, 35.1167786 ], [ 135.5973094, 35.1100603 ], [ 135.6039003, 35.1122617 ], [ 135.6120178, 35.1049086 ], [ 135.616477799999984, 35.1038797 ], [ 135.614563299999986, 35.0973839 ], [ 135.6051642, 35.0926619 ], [ 135.5979228, 35.0943464 ], [ 135.5919414, 35.0840739 ], [ 135.5900958, 35.0771033 ], [ 135.596149699999984, 35.0712336 ], [ 135.5995886, 35.0706744 ], [ 135.6025275, 35.0629394 ], [ 135.6084172, 35.0665128 ], [ 135.618815, 35.0681842 ], [ 135.621996699999983, 35.0645908 ], [ 135.6174422, 35.0554717 ], [ 135.617578899999984, 35.0420353 ], [ 135.621776399999987, 35.0380333 ], [ 135.626201899999984, 35.0395403 ], [ 135.6350431, 35.0309331 ], [ 135.6398728, 35.0234408 ], [ 135.636449700000014, 35.0191206 ], [ 135.646745, 35.0074769 ], [ 135.6460894, 35.0014194 ], [ 135.6389969, 34.9978822 ], [ 135.6381858, 34.9807761 ], [ 135.6412942, 34.9756408 ], [ 135.6239675, 34.9743878 ], [ 135.613263599999982, 34.9711953 ], [ 135.6156667, 34.9628042 ], [ 135.618792499999984, 34.9588164 ], [ 135.6115231, 34.9438983 ], [ 135.610801399999986, 34.93974 ], [ 135.60344809999998, 34.93582 ], [ 135.6011111, 34.9297169 ], [ 135.6151994, 34.9276247 ], [ 135.623750299999983, 34.9349081 ], [ 135.632973099999987, 34.9346222 ], [ 135.643159699999984, 34.9297136 ], [ 135.6540439, 34.9341131 ], [ 135.659275, 34.9329383 ], [ 135.6746125, 34.9456908 ], [ 135.6799014, 34.9444861 ], [ 135.6949675, 34.9466781 ], [ 135.683122199999985, 34.9642303 ], [ 135.6928675, 34.9683625 ], [ 135.70512309999998, 34.9634536 ], [ 135.7049314, 34.9685492 ], [ 135.7220294, 34.9686681 ], [ 135.7219208, 34.9732669 ], [ 135.7153606, 34.980048599999989 ] ] ] } },
{ "type": "Feature", "properties": { "hokenjo": "乙訓" }, "geometry": { "type": "Polygon", "coordinates": [ [ [ 135.7065261, 34.9081072 ], [ 135.7141911, 34.9160075 ], [ 135.7146042, 34.9290622 ], [ 135.713844199999983, 34.9356175 ], [ 135.7183325, 34.9421186 ], [ 135.7174417, 34.9505761 ], [ 135.709559399999989, 34.9557239 ], [ 135.70998, 34.9625231 ], [ 135.70512309999998, 34.9634536 ], [ 135.6928675, 34.9683625 ], [ 135.683122199999985, 34.9642303 ], [ 135.6949675, 34.9466781 ], [ 135.6799014, 34.9444861 ], [ 135.6746125, 34.9456908 ], [ 135.659275, 34.9329383 ], [ 135.6540439, 34.9341131 ], [ 135.643159699999984, 34.9297136 ], [ 135.6485356, 34.9259861 ], [ 135.649536899999987, 34.9167647 ], [ 135.6485022, 34.9095475 ], [ 135.6540858, 34.909345 ], [ 135.6620328, 34.9036969 ], [ 135.668073599999985, 34.9051894 ], [ 135.6746372, 34.9001781 ], [ 135.6792117, 34.8903247 ], [ 135.6826944, 34.8878422 ], [ 135.686428899999981, 34.8910153 ], [ 135.6935072, 34.8920892 ], [ 135.7031742, 34.8986933 ], [ 135.7065261, 34.9081072 ] ] ] } },
{ "type": "Feature", "properties": { "hokenjo": "山城南" }, "geometry": { "type": "Polygon", "coordinates": [ [ [ 135.8130242, 34.7915864 ], [ 135.800443600000023, 34.7900675 ], [ 135.786361699999986, 34.7889222 ], [ 135.7865644, 34.784461899999989 ], [ 135.7818886, 34.780026899999989 ], [ 135.7715614, 34.7812292 ], [ 135.759967499999988, 34.7794883 ], [ 135.753999199999981, 34.7693781 ], [ 135.755775299999982, 34.7639561 ], [ 135.7493394, 34.7572417 ], [ 135.74159419999998, 34.7566158 ], [ 135.736707800000033, 34.7518097 ], [ 135.7392286, 34.7482706 ], [ 135.746355599999987, 34.7468331 ], [ 135.7475839, 34.7432358 ], [ 135.757057799999984, 34.7359192 ], [ 135.754803899999985, 34.7282647 ], [ 135.761335299999985, 34.7259803 ], [ 135.778130299999987, 34.7231706 ], [ 135.7919594, 34.7247333 ], [ 135.8036806, 34.7218572 ], [ 135.8058414, 34.7179969 ], [ 135.8123656, 34.7172706 ], [ 135.8197858, 34.7116944 ], [ 135.8266447, 34.71366 ], [ 135.8390006, 34.7117992 ], [ 135.8490156, 34.7059722 ], [ 135.8633094, 34.7062408 ], [ 135.867944199999982, 34.7104675 ], [ 135.8761375, 34.7138775 ], [ 135.8851589, 34.7136203 ], [ 135.8901711, 34.7094389 ], [ 135.897386399999988, 34.7308719 ], [ 135.9030208, 34.7329158 ], [ 135.9117492, 34.7438522 ], [ 135.9161561, 34.7536864 ], [ 135.9220689, 34.7547561 ], [ 135.9289197, 34.7527297 ], [ 135.923181699999986, 34.744595 ], [ 135.9239231, 34.7414464 ], [ 135.9324719, 34.7376467 ], [ 135.941113299999984, 34.7390458 ], [ 135.954924399999982, 34.7482853 ], [ 135.9582633, 34.740884199999989 ], [ 135.9659886, 34.7431869 ], [ 135.969754199999983, 34.7405242 ], [ 135.9727781, 34.7420753 ], [ 135.9809536, 34.7371358 ], [ 135.9860933, 34.7263244 ], [ 135.9861617, 34.7153069 ], [ 135.9997453, 34.7129808 ], [ 136.00523579999998, 34.7173283 ], [ 136.012682499999983, 34.7140289 ], [ 136.0138661, 34.7077989 ], [ 136.0194061, 34.7085664 ], [ 136.0268131, 34.7061047 ], [ 136.0293153, 34.7137442 ], [ 136.039445299999983, 34.7201197 ], [ 136.0418669, 34.734275599999989 ], [ 136.0498364, 34.7405056 ], [ 136.047611099999983, 34.7441958 ], [ 136.0392692, 34.7493881 ], [ 136.038132499999989, 34.7562233 ], [ 136.0302039, 34.7559053 ], [ 136.0293442, 34.7648156 ], [ 136.0333147, 34.7718194 ], [ 136.0335775, 34.7794394 ], [ 136.0226058, 34.7823106 ], [ 136.019959699999987, 34.7863739 ], [ 136.022248599999983, 34.7914947 ], [ 136.0113311, 34.7958056 ], [ 136.010271099999983, 34.7995533 ], [ 136.0150514, 34.8091458 ], [ 136.0186578, 34.8126714 ], [ 136.027374399999985, 34.8149111 ], [ 136.028458600000022, 34.8191158 ], [ 136.027711399999987, 34.8218017 ], [ 136.01549, 34.8265992 ], [ 136.0053825, 34.8265556 ], [ 136.002327799999989, 34.8327619 ], [ 136.005269699999985, 34.8431103 ], [ 136.0007508, 34.8450856 ], [ 135.9948028, 34.84226 ], [ 135.9777767, 34.8384614 ], [ 135.971471399999984, 34.8384944 ], [ 135.9720544, 34.8460489 ], [ 135.962732800000026, 34.8504336 ], [ 135.9571336, 34.8547764 ], [ 135.946186899999987, 34.8517825 ], [ 135.935149199999984, 34.8463475 ], [ 135.9238494, 34.8329861 ], [ 135.911600599999986, 34.8345 ], [ 135.9043139, 34.8304856 ], [ 135.907608899999985, 34.8279083 ], [ 135.8976553, 34.822545 ], [ 135.889893300000011, 34.8256672 ], [ 135.8868297, 34.8195717 ], [ 135.878578299999987, 34.8164147 ], [ 135.8693822, 34.8161681 ], [ 135.8610706, 34.8136525 ], [ 135.8669669, 34.8078325 ], [ 135.867688099999981, 34.8026542 ], [ 135.8488489, 34.799985299999989 ], [ 135.836748299999982, 34.8006261 ], [ 135.8280686, 34.7986017 ], [ 135.8252683, 34.7948411 ], [ 135.8130242, 34.7915864 ] ] ] } },
{ "type": "Feature", "properties": { "hokenjo": "山城北" }, "geometry": { "type": "Polygon", "coordinates": [ [ [ 135.7865644, 34.784461899999989 ], [ 135.786361699999986, 34.7889222 ], [ 135.800443600000023, 34.7900675 ], [ 135.8130242, 34.7915864 ], [ 135.8252683, 34.7948411 ], [ 135.8280686, 34.7986017 ], [ 135.836748299999982, 34.8006261 ], [ 135.8488489, 34.799985299999989 ], [ 135.867688099999981, 34.8026542 ], [ 135.8669669, 34.8078325 ], [ 135.8610706, 34.8136525 ], [ 135.8693822, 34.8161681 ], [ 135.878578299999987, 34.8164147 ], [ 135.8868297, 34.8195717 ], [ 135.889893300000011, 34.8256672 ], [ 135.8976553, 34.822545 ], [ 135.907608899999985, 34.8279083 ], [ 135.9043139, 34.8304856 ], [ 135.911600599999986, 34.8345 ], [ 135.9238494, 34.8329861 ], [ 135.935149199999984, 34.8463475 ], [ 135.946186899999987, 34.8517825 ], [ 135.947035299999982, 34.8535206 ], [ 135.940988299999987, 34.8637389 ], [ 135.9436269, 34.8727944 ], [ 135.9411819, 34.8847328 ], [ 135.9360261, 34.891640599999988 ], [ 135.9239514, 34.8849061 ], [ 135.9126556, 34.8835164 ], [ 135.9094603, 34.8768975 ], [ 135.8996694, 34.8714044 ], [ 135.8887225, 34.8754958 ], [ 135.8887206, 34.8812875 ], [ 135.8814103, 34.8837469 ], [ 135.866637199999985, 34.8921403 ], [ 135.867289199999988, 34.8968694 ], [ 135.8631311, 34.9036964 ], [ 135.8711783, 34.9099486 ], [ 135.8690528, 34.9201708 ], [ 135.8707133, 34.9260039 ], [ 135.8799244, 34.934525 ], [ 135.8760283, 34.9432297 ], [ 135.878441899999984, 34.9474342 ], [ 135.8626272, 34.9508403 ], [ 135.859465299999982, 34.9570894 ], [ 135.8519172, 34.9569256 ], [ 135.8471108, 34.9484469 ], [ 135.84991, 34.9394072 ], [ 135.8446942, 34.9355039 ], [ 135.8301467, 34.9353106 ], [ 135.8294128, 34.9273922 ], [ 135.818136899999985, 34.9266481 ], [ 135.814312799999982, 34.9292542 ], [ 135.8108383, 34.9365314 ], [ 135.8074964, 34.9375878 ], [ 135.7976894, 34.9345131 ], [ 135.7922092, 34.9303769 ], [ 135.7898375, 34.9169933 ], [ 135.7761281, 34.9161361 ], [ 135.760916399999985, 34.9080847 ], [ 135.7530658, 34.9041672 ], [ 135.7477131, 34.911385 ], [ 135.7402842, 34.9047886 ], [ 135.7319606, 34.9044131 ], [ 135.7195731, 34.8981022 ], [ 135.715951100000012, 34.8992297 ], [ 135.720098299999989, 34.89286 ], [ 135.721459399999986, 34.8892903 ], [ 135.7225814, 34.8879756 ], [ 135.7287125, 34.8851547 ], [ 135.732708299999985, 34.87826 ], [ 135.732472200000018, 34.8749156 ], [ 135.723739699999982, 34.8803989 ], [ 135.715441699999985, 34.8827844 ], [ 135.7119419, 34.8872572 ], [ 135.7119453, 34.8932036 ], [ 135.705489699999987, 34.8946825 ], [ 135.7031742, 34.8986933 ], [ 135.6935072, 34.8920892 ], [ 135.686428899999981, 34.8910153 ], [ 135.6826944, 34.8878422 ], [ 135.6799222, 34.8813414 ], [ 135.683518599999985, 34.8776328 ], [ 135.682552200000032, 34.8721514 ], [ 135.69106, 34.8684842 ], [ 135.691642799999983, 34.8532922 ], [ 135.6956525, 34.8481689 ], [ 135.7022567, 34.85173 ], [ 135.7101711, 34.8466297 ], [ 135.7121656, 34.8400511 ], [ 135.7186978, 34.8318207 ], [ 135.7232747, 34.8262342 ], [ 135.73108, 34.8226636 ], [ 135.7465886, 34.8012444 ], [ 135.740674399999989, 34.7883672 ], [ 135.7322944, 34.7827486 ], [ 135.728634699999986, 34.7779981 ], [ 135.7333533, 34.7547836 ], [ 135.736707800000033, 34.7518097 ], [ 135.74159419999998, 34.7566158 ], [ 135.7493394, 34.7572417 ], [ 135.755775299999982, 34.7639561 ], [ 135.753999199999981, 34.7693781 ], [ 135.759967499999988, 34.7794883 ], [ 135.7715614, 34.7812292 ], [ 135.7818886, 34.780026899999989 ], [ 135.7865644, 34.784461899999989 ] ] ] } },
{ "type": "Feature", "properties": { "hokenjo": "上京・中京・下京" }, "geometry": { "type": "Polygon", "coordinates": [ [ [ 135.7715689, 35.0040006 ], [ 135.7717925, 35.0095914 ], [ 135.771628099999987, 35.0166922 ], [ 135.7715322, 35.0291953 ], [ 135.7698122, 35.0326328 ], [ 135.7642889, 35.0374456 ], [ 135.75215559999998, 35.0375636 ], [ 135.7470439, 35.0354586 ], [ 135.7356342, 35.0346017 ], [ 135.733137199999987, 35.0224269 ], [ 135.7268133, 35.0225444 ], [ 135.7240325, 35.0160425 ], [ 135.7240903, 35.0085339 ], [ 135.732879199999985, 35.0082728 ], [ 135.7328906, 34.9964028 ], [ 135.7290525, 34.9937939 ], [ 135.7272908, 34.9857681 ], [ 135.734311099999985, 34.9814675 ], [ 135.745769199999984, 34.9849867 ], [ 135.7668094, 34.9839206 ], [ 135.7678039, 34.9818953 ], [ 135.768043899999981, 34.9962308 ], [ 135.7715689, 35.0040006 ] ] ] } },
{ "type": "Feature", "properties": { "hokenjo": "丹後" }, "geometry": { "type": "Polygon", "coordinates": [ [ [ 135.110210599999988, 35.4636489 ], [ 135.1248172, 35.4697253 ], [ 135.1297569, 35.4697214 ], [ 135.1446597, 35.4655947 ], [ 135.149518299999983, 35.4589747 ], [ 135.1594264, 35.4553639 ], [ 135.1744569, 35.4569197 ], [ 135.184792499999986, 35.4624256 ], [ 135.1859589, 35.4698858 ], [ 135.193979399999989, 35.4740825 ], [ 135.2014772, 35.4816569 ], [ 135.201030299999985, 35.4898678 ], [ 135.209457800000024, 35.4931853 ], [ 135.218658299999987, 35.4928875 ], [ 135.2199067, 35.4985208 ], [ 135.224001099999981, 35.5037469 ], [ 135.2342142, 35.5111822 ], [ 135.2417347, 35.5073303 ], [ 135.2541647, 35.5104931 ], [ 135.260424699999987, 35.5062917 ], [ 135.2658078, 35.4982064 ], [ 135.271697499999988, 35.4961078 ], [ 135.2763053, 35.4913092 ], [ 135.2838956, 35.4897881 ], [ 135.2876556, 35.4995272 ], [ 135.288650099999984, 35.5162516 ], [ 135.283119699999986, 35.5203723 ], [ 135.271751199999983, 35.5250258 ], [ 135.273213699999985, 35.5286554 ], [ 135.26929819999998, 35.5333403 ], [ 135.2455722, 35.5353267 ], [ 135.240399599999989, 35.5397215 ], [ 135.236527199999983, 35.5500084 ], [ 135.2424658, 35.5602107 ], [ 135.2610956, 35.5536987 ], [ 135.2651291, 35.5567886 ], [ 135.2748302, 35.5601617 ], [ 135.2624509, 35.5680506 ], [ 135.2540889, 35.5679694 ], [ 135.2509801, 35.5704275 ], [ 135.2498334, 35.5781229 ], [ 135.2470162, 35.5816877 ], [ 135.247658299999983, 35.5875345 ], [ 135.254858899999988, 35.5881151 ], [ 135.2561524, 35.5984979 ], [ 135.2377592, 35.5815657 ], [ 135.227813700000013, 35.5852728 ], [ 135.230028799999985, 35.5764267 ], [ 135.226900799999981, 35.5697096 ], [ 135.2076262, 35.5627653 ], [ 135.203993699999984, 35.5552673 ], [ 135.2086281, 35.5535769 ], [ 135.2108677, 35.5479296 ], [ 135.2088214, 35.5427086 ], [ 135.2018243, 35.5375792 ], [ 135.1925247, 35.5401823 ], [ 135.187522199999989, 35.5473604 ], [ 135.186723199999989, 35.557171499999988 ], [ 135.189746499999984, 35.5666968 ], [ 135.199799399999989, 35.5784593 ], [ 135.205787099999981, 35.5834359 ], [ 135.2089935, 35.591233 ], [ 135.2143796, 35.5982536 ], [ 135.225377899999984, 35.6033388 ], [ 135.2279972, 35.6079143 ], [ 135.2337096, 35.6117466 ], [ 135.235499299999987, 35.6164629 ], [ 135.244756, 35.6206894 ], [ 135.2458216, 35.6305056 ], [ 135.250377, 35.6401854 ], [ 135.2528844, 35.6489806 ], [ 135.2633564, 35.6605767 ], [ 135.267574599999989, 35.6668063 ], [ 135.274396599999989, 35.6672597 ], [ 135.2833144, 35.6705683 ], [ 135.2877814, 35.6756053 ], [ 135.2944803, 35.6705689 ], [ 135.2918175, 35.6641222 ], [ 135.2931614, 35.6604886 ], [ 135.3034194, 35.6631378 ], [ 135.29856, 35.6736075 ], [ 135.2989086, 35.6790386 ], [ 135.304464699999983, 35.6868717 ], [ 135.3044611, 35.6919494 ], [ 135.3086592, 35.6937633 ], [ 135.30652139999998, 35.6992075 ], [ 135.2989144, 35.7006761 ], [ 135.2946136, 35.7050669 ], [ 135.2874514, 35.7078247 ], [ 135.2864281, 35.7108978 ], [ 135.289547199999987, 35.7185994 ], [ 135.2885044, 35.7243281 ], [ 135.2839803, 35.7284956 ], [ 135.2730367, 35.732435 ], [ 135.2737161, 35.7397775 ], [ 135.2665381, 35.7446728 ], [ 135.257180299999987, 35.7443808 ], [ 135.252647199999984, 35.7500861 ], [ 135.250356399999987, 35.7588847 ], [ 135.2435136, 35.7602742 ], [ 135.2331082, 35.7693601 ], [ 135.2211246, 35.7788418 ], [ 135.2201454, 35.7704313 ], [ 135.2069871, 35.7639094 ], [ 135.196126700000036, 35.7675151 ], [ 135.1860125, 35.7644773 ], [ 135.183486099999982, 35.7605837 ], [ 135.1745807, 35.7613217 ], [ 135.1717964, 35.7573456 ], [ 135.16683, 35.7575252 ], [ 135.161867199999989, 35.7537733 ], [ 135.155783499999984, 35.754216 ], [ 135.1467528, 35.7498853 ], [ 135.135183399999988, 35.7525377 ], [ 135.1243537, 35.7456867 ], [ 135.108312, 35.7438918 ], [ 135.1007807, 35.7413095 ], [ 135.0946544, 35.7429749 ], [ 135.0850448, 35.7393671 ], [ 135.087805, 35.7318249 ], [ 135.0852607, 35.7257755 ], [ 135.074062, 35.7180754 ], [ 135.0679352, 35.718026099999989 ], [ 135.0662969, 35.7136605 ], [ 135.059248, 35.7073905 ], [ 135.046272099999982, 35.7024342 ], [ 135.042099899999982, 35.6996088 ], [ 135.0368238, 35.7022657 ], [ 135.0297808, 35.6973491 ], [ 135.029846599999985, 35.6917577 ], [ 135.0255684, 35.6895097 ], [ 135.0199193, 35.692282 ], [ 135.0149979, 35.690197499999989 ], [ 135.0029577, 35.6937932 ], [ 134.9993091, 35.6909513 ], [ 134.9864489, 35.6921126 ], [ 134.9817421, 35.6846639 ], [ 134.9747381, 35.6834566 ], [ 134.9727824, 35.6763587 ], [ 134.966651399999989, 35.6756942 ], [ 134.9641111, 35.6707407 ], [ 134.9666728, 35.6664439 ], [ 134.9630679, 35.662225299999989 ], [ 134.9431792, 35.6525853 ], [ 134.9233457, 35.6463696 ], [ 134.9091646, 35.6452806 ], [ 134.8999153, 35.6485444 ], [ 134.892305099999987, 35.6488012 ], [ 134.883699600000028, 35.646636699999988 ], [ 134.8856801, 35.6566705 ], [ 134.8787548, 35.6608626 ], [ 134.870548, 35.6597169 ], [ 134.8641692, 35.6518069 ], [ 134.8671961, 35.6362908 ], [ 134.870314399999984, 35.6315861 ], [ 134.8738969, 35.6211558 ], [ 134.870677199999989, 35.6148319 ], [ 134.8664814, 35.6135231 ], [ 134.867413299999981, 35.6084294 ], [ 134.8655178, 35.5993725 ], [ 134.8540353, 35.5892831 ], [ 134.8627294, 35.5869161 ], [ 134.8660625, 35.5810586 ], [ 134.875763299999988, 35.5739517 ], [ 134.8812125, 35.5673844 ], [ 134.8810517, 35.5640336 ], [ 134.888286099999988, 35.5601611 ], [ 134.9008756, 35.5560633 ], [ 134.9031264, 35.5493975 ], [ 134.9148069, 35.5449397 ], [ 134.9192919, 35.5381211 ], [ 134.9151292, 35.5277081 ], [ 134.9231508, 35.52169 ], [ 134.9233558, 35.516314699999988 ], [ 134.9300639, 35.5116772 ], [ 134.94211, 35.5142008 ], [ 134.963435799999985, 35.5145247 ], [ 134.965270299999986, 35.5198192 ], [ 134.9740569, 35.5250506 ], [ 134.9792567, 35.5239664 ], [ 134.9820397, 35.5284511 ], [ 134.988248299999981, 35.5295397 ], [ 134.993415299999981, 35.5343078 ], [ 135.0080083, 35.5336328 ], [ 135.0175103, 35.5379553 ], [ 135.0271875, 35.5400297 ], [ 135.0355169, 35.5398017 ], [ 135.0371039, 35.5372644 ], [ 135.0361911, 35.53061 ], [ 135.0393614, 35.5284769 ], [ 135.0429614, 35.5200086 ], [ 135.04288, 35.51139 ], [ 135.0451558, 35.5086931 ], [ 135.041287499999981, 35.5037428 ], [ 135.0324167, 35.4975897 ], [ 135.0421633, 35.4940606 ], [ 135.0401325, 35.4816608 ], [ 135.035124199999984, 35.4770283 ], [ 135.0410364, 35.4733042 ], [ 135.0437475, 35.4659819 ], [ 135.045365299999986, 35.4550725 ], [ 135.0498464, 35.4507175 ], [ 135.0592153, 35.4520783 ], [ 135.06115, 35.4486892 ], [ 135.070494699999983, 35.4447761 ], [ 135.0804025, 35.4435017 ], [ 135.094363099999981, 35.4437719 ], [ 135.106977199999989, 35.4507069 ], [ 135.1057069, 35.4578581 ], [ 135.110210599999988, 35.4636489 ] ] ] } },
{ "type": "Feature", "properties": { "hokenjo": "中丹西" }, "geometry": { "type": "Polygon", "coordinates": [ [ [ 135.1594264, 35.4553639 ], [ 135.149518299999983, 35.4589747 ], [ 135.1446597, 35.4655947 ], [ 135.1297569, 35.4697214 ], [ 135.1248172, 35.4697253 ], [ 135.110210599999988, 35.4636489 ], [ 135.1057069, 35.4578581 ], [ 135.106977199999989, 35.4507069 ], [ 135.094363099999981, 35.4437719 ], [ 135.0804025, 35.4435017 ], [ 135.070494699999983, 35.4447761 ], [ 135.06115, 35.4486892 ], [ 135.0592153, 35.4520783 ], [ 135.0498464, 35.4507175 ], [ 135.0518181, 35.4424908 ], [ 135.049381399999987, 35.4401369 ], [ 135.0470297, 35.4238994 ], [ 135.0502544, 35.4136594 ], [ 135.048743299999984, 35.4073611 ], [ 135.038397799999984, 35.4097536 ], [ 135.0300344, 35.4101003 ], [ 135.0297206, 35.4055808 ], [ 135.023591899999985, 35.4010411 ], [ 135.019240599999989, 35.3941228 ], [ 135.0053758, 35.3906517 ], [ 135.0019661, 35.3870503 ], [ 134.9905536, 35.3857131 ], [ 134.988611099999986, 35.3928322 ], [ 134.980755599999981, 35.3983683 ], [ 134.970946699999985, 35.3989511 ], [ 134.9589339, 35.4091114 ], [ 134.9549336, 35.4084764 ], [ 134.946148599999987, 35.4133097 ], [ 134.9322756, 35.4059464 ], [ 134.922981099999987, 35.3910619 ], [ 134.926508899999988, 35.38573 ], [ 134.9268261, 35.3774608 ], [ 134.9189417, 35.3644372 ], [ 134.9234664, 35.3542381 ], [ 134.9188672, 35.350125 ], [ 134.9172058, 35.3401581 ], [ 134.925583099999983, 35.3366781 ], [ 134.928060599999981, 35.3302386 ], [ 134.924801699999989, 35.3260928 ], [ 134.9259322, 35.3217717 ], [ 134.9213186, 35.3174089 ], [ 134.9247, 35.31166 ], [ 134.93424330000002, 35.3077525 ], [ 134.9409039, 35.3087461 ], [ 134.947122799999988, 35.3039328 ], [ 134.9600533, 35.2979125 ], [ 134.986442499999981, 35.2925856 ], [ 134.992858899999987, 35.2890536 ], [ 134.99677, 35.2896714 ], [ 135.0073228, 35.2855833 ], [ 135.011913599999986, 35.2805061 ], [ 135.010480299999983, 35.2697372 ], [ 135.0193889, 35.2678897 ], [ 135.0357678, 35.2625678 ], [ 135.0421086, 35.2640819 ], [ 135.0494914, 35.2619628 ], [ 135.0569419, 35.2644833 ], [ 135.058025, 35.2549364 ], [ 135.064337199999983, 35.2464364 ], [ 135.0678747, 35.2373511 ], [ 135.074738599999989, 35.2432542 ], [ 135.082899699999984, 35.2463797 ], [ 135.0854233, 35.2531911 ], [ 135.089605300000017, 35.2544672 ], [ 135.094648299999989, 35.2600244 ], [ 135.100331399999988, 35.2597281 ], [ 135.1093158, 35.2662922 ], [ 135.119295599999987, 35.2626308 ], [ 135.128929199999988, 35.2607169 ], [ 135.1347922, 35.2649931 ], [ 135.14198, 35.2622797 ], [ 135.1470139, 35.2639972 ], [ 135.1572536, 35.26123 ], [ 135.167026099999987, 35.242744699999989 ], [ 135.1618197, 35.23123 ], [ 135.1546917, 35.2266994 ], [ 135.1630672, 35.2200906 ], [ 135.17096669999998, 35.2202669 ], [ 135.1751314, 35.2146008 ], [ 135.182065, 35.2159836 ], [ 135.188835, 35.2068286 ], [ 135.197057799999982, 35.2030175 ], [ 135.2001319, 35.1955203 ], [ 135.1928939, 35.1940711 ], [ 135.1867131, 35.1902239 ], [ 135.19014, 35.1831861 ], [ 135.1872519, 35.1719433 ], [ 135.193374399999982, 35.1721044 ], [ 135.203242499999988, 35.1649075 ], [ 135.20663, 35.1606144 ], [ 135.222159399999981, 35.1628928 ], [ 135.228571099999982, 35.1657814 ], [ 135.2320297, 35.1774567 ], [ 135.237531099999984, 35.1763294 ], [ 135.250064399999985, 35.178035 ], [ 135.253564399999988, 35.1764364 ], [ 135.267435799999987, 35.1757108 ], [ 135.2740953, 35.1772292 ], [ 135.2847233, 35.1711858 ], [ 135.289318899999984, 35.1724169 ], [ 135.28724889999998, 35.1738761 ], [ 135.2870364, 35.1873367 ], [ 135.284158600000012, 35.190245 ], [ 135.286585800000012, 35.2004069 ], [ 135.293847199999988, 35.1983522 ], [ 135.2966433, 35.212045 ], [ 135.293102799999986, 35.2191517 ], [ 135.2993669, 35.2204375 ], [ 135.2887481, 35.2346153 ], [ 135.298648899999989, 35.2353175 ], [ 135.30314, 35.2431525 ], [ 135.31037809999998, 35.2482875 ], [ 135.323396699999989, 35.2548831 ], [ 135.3248269, 35.259774199999988 ], [ 135.321566099999984, 35.2635308 ], [ 135.3186269, 35.2738469 ], [ 135.3114564, 35.2694394 ], [ 135.2982783, 35.2682161 ], [ 135.2919297, 35.2654125 ], [ 135.28066, 35.2675656 ], [ 135.2722456, 35.2716778 ], [ 135.258204399999983, 35.2687592 ], [ 135.2466686, 35.2638511 ], [ 135.238593899999984, 35.2648828 ], [ 135.2204647, 35.2775269 ], [ 135.216700299999985, 35.2768767 ], [ 135.2025722, 35.2842781 ], [ 135.2005642, 35.2885486 ], [ 135.200865, 35.3009661 ], [ 135.1975292, 35.3082864 ], [ 135.1852686, 35.3112244 ], [ 135.1934733, 35.3213194 ], [ 135.190712499999989, 35.3282497 ], [ 135.1892761, 35.3389856 ], [ 135.184118899999987, 35.3393906 ], [ 135.177641099999988, 35.3444067 ], [ 135.1728292, 35.345251399999988 ], [ 135.1796783, 35.3529353 ], [ 135.186215, 35.3547078 ], [ 135.185048599999988, 35.361975 ], [ 135.1738325, 35.3694214 ], [ 135.1745161, 35.3730597 ], [ 135.188656899999984, 35.3706347 ], [ 135.19203109999998, 35.3733789 ], [ 135.1979122, 35.3711781 ], [ 135.2039828, 35.3728756 ], [ 135.203112799999985, 35.3832611 ], [ 135.2083161, 35.3929747 ], [ 135.2166033, 35.3948458 ], [ 135.219412799999986, 35.391984199999989 ], [ 135.2280964, 35.3923483 ], [ 135.2291564, 35.3962778 ], [ 135.2218519, 35.4017192 ], [ 135.2208894, 35.406105 ], [ 135.214617799999985, 35.4126794 ], [ 135.2034931, 35.4144256 ], [ 135.2047053, 35.4245644 ], [ 135.1956194, 35.4294925 ], [ 135.1843678, 35.4314119 ], [ 135.174491099999983, 35.4281917 ], [ 135.1688811, 35.430361399999988 ], [ 135.1710211, 35.4368958 ], [ 135.1667747, 35.4418461 ], [ 135.172595799999982, 35.4488078 ], [ 135.1594264, 35.4553639 ] ] ] } },
{ "type": "Feature", "properties": { "hokenjo": "中丹東" }, "geometry": { "type": "Polygon", "coordinates": [ [ [ 135.4703218, 35.4544872 ], [ 135.4694523, 35.4581583 ], [ 135.462768399999987, 35.4622469 ], [ 135.458429199999983, 35.4688569 ], [ 135.4624809, 35.4788075 ], [ 135.4695865, 35.4847872 ], [ 135.4706673, 35.4893 ], [ 135.4763032, 35.4896811 ], [ 135.472575899999981, 35.5011764 ], [ 135.4762246, 35.5054927 ], [ 135.4666559, 35.5094861 ], [ 135.4499262, 35.5207961 ], [ 135.449862, 35.5272497 ], [ 135.4541376, 35.5369339 ], [ 135.4596382, 35.5434252 ], [ 135.4604846, 35.5484569 ], [ 135.466844899999984, 35.5519138 ], [ 135.4837727, 35.5568399 ], [ 135.481235, 35.5590235 ], [ 135.474313599999988, 35.5568789 ], [ 135.465060699999981, 35.5712025 ], [ 135.4574575, 35.5704191 ], [ 135.4535291, 35.5673884 ], [ 135.4495044, 35.5722418 ], [ 135.4495535, 35.5804573 ], [ 135.456105799999989, 35.5847794 ], [ 135.4570817, 35.5919422 ], [ 135.4614536, 35.5986469 ], [ 135.456590299999988, 35.6002075 ], [ 135.4497442, 35.5979528 ], [ 135.450126399999988, 35.5948514 ], [ 135.435244399999988, 35.5883614 ], [ 135.434582799999987, 35.5809722 ], [ 135.4270363, 35.575094799999988 ], [ 135.4267499, 35.5665009 ], [ 135.4133473, 35.5700909 ], [ 135.4038607, 35.561784 ], [ 135.390133, 35.5565472 ], [ 135.379381099999989, 35.5620384 ], [ 135.377574700000025, 35.5589405 ], [ 135.3664914, 35.5513485 ], [ 135.357364599999983, 35.5494562 ], [ 135.351907499999982, 35.544302 ], [ 135.343950799999988, 35.5445232 ], [ 135.340383, 35.5499436 ], [ 135.336510799999985, 35.5376939 ], [ 135.3363288, 35.5321169 ], [ 135.339100299999984, 35.5236338 ], [ 135.3495153, 35.5178705 ], [ 135.343956599999984, 35.515341 ], [ 135.34740069999998, 35.5098771 ], [ 135.3421119, 35.5073531 ], [ 135.3550234, 35.5023754 ], [ 135.372505499999988, 35.5062599 ], [ 135.3835908, 35.5039715 ], [ 135.3846791, 35.5116422 ], [ 135.388894599999986, 35.5164242 ], [ 135.3940958, 35.5172007 ], [ 135.3958624, 35.5126171 ], [ 135.3910496, 35.5087499 ], [ 135.394077, 35.4997563 ], [ 135.400451799999985, 35.4946551 ], [ 135.396141799999981, 35.4896459 ], [ 135.3949102, 35.4844624 ], [ 135.385415, 35.4786523 ], [ 135.373503299999982, 35.4769012 ], [ 135.3820581, 35.4858623 ], [ 135.3796361, 35.4903465 ], [ 135.3749364, 35.4917063 ], [ 135.3639752, 35.4881284 ], [ 135.3545562, 35.4884707 ], [ 135.3495528, 35.4863942 ], [ 135.34386, 35.474848699999988 ], [ 135.3364631, 35.4725196 ], [ 135.326986299999987, 35.4638971 ], [ 135.327510599999982, 35.4599539 ], [ 135.3204614, 35.4564094 ], [ 135.3217283, 35.4524417 ], [ 135.313373499999983, 35.4524327 ], [ 135.3109141, 35.4580708 ], [ 135.317890799999986, 35.463409 ], [ 135.3195073, 35.4737268 ], [ 135.324327499999981, 35.4818692 ], [ 135.3229284, 35.4866216 ], [ 135.3320867, 35.4951721 ], [ 135.334700199999986, 35.5056774 ], [ 135.3315766, 35.5098999 ], [ 135.331239399999987, 35.5168333 ], [ 135.3234481, 35.5256544 ], [ 135.3105755, 35.5122835 ], [ 135.295933599999984, 35.5157035 ], [ 135.288650099999984, 35.5162516 ], [ 135.2876556, 35.4995272 ], [ 135.2838956, 35.4897881 ], [ 135.2763053, 35.4913092 ], [ 135.271697499999988, 35.4961078 ], [ 135.2658078, 35.4982064 ], [ 135.260424699999987, 35.5062917 ], [ 135.2541647, 35.5104931 ], [ 135.2417347, 35.5073303 ], [ 135.2342142, 35.5111822 ], [ 135.224001099999981, 35.5037469 ], [ 135.2199067, 35.4985208 ], [ 135.218658299999987, 35.4928875 ], [ 135.209457800000024, 35.4931853 ], [ 135.201030299999985, 35.4898678 ], [ 135.2014772, 35.4816569 ], [ 135.193979399999989, 35.4740825 ], [ 135.1859589, 35.4698858 ], [ 135.184792499999986, 35.4624256 ], [ 135.1744569, 35.4569197 ], [ 135.1594264, 35.4553639 ], [ 135.172595799999982, 35.4488078 ], [ 135.1667747, 35.4418461 ], [ 135.1710211, 35.4368958 ], [ 135.1688811, 35.430361399999988 ], [ 135.174491099999983, 35.4281917 ], [ 135.1843678, 35.4314119 ], [ 135.1956194, 35.4294925 ], [ 135.2047053, 35.4245644 ], [ 135.2034931, 35.4144256 ], [ 135.214617799999985, 35.4126794 ], [ 135.2208894, 35.406105 ], [ 135.2218519, 35.4017192 ], [ 135.2291564, 35.3962778 ], [ 135.2280964, 35.3923483 ], [ 135.219412799999986, 35.391984199999989 ], [ 135.2166033, 35.3948458 ], [ 135.2083161, 35.3929747 ], [ 135.203112799999985, 35.3832611 ], [ 135.2039828, 35.3728756 ], [ 135.1979122, 35.3711781 ], [ 135.19203109999998, 35.3733789 ], [ 135.188656899999984, 35.3706347 ], [ 135.1745161, 35.3730597 ], [ 135.1738325, 35.3694214 ], [ 135.185048599999988, 35.361975 ], [ 135.186215, 35.3547078 ], [ 135.1796783, 35.3529353 ], [ 135.1728292, 35.345251399999988 ], [ 135.177641099999988, 35.3444067 ], [ 135.184118899999987, 35.3393906 ], [ 135.1892761, 35.3389856 ], [ 135.190712499999989, 35.3282497 ], [ 135.1934733, 35.3213194 ], [ 135.1852686, 35.3112244 ], [ 135.1975292, 35.3082864 ], [ 135.200865, 35.3009661 ], [ 135.2005642, 35.2885486 ], [ 135.2025722, 35.2842781 ], [ 135.216700299999985, 35.2768767 ], [ 135.2204647, 35.2775269 ], [ 135.238593899999984, 35.2648828 ], [ 135.2466686, 35.2638511 ], [ 135.258204399999983, 35.2687592 ], [ 135.2722456, 35.2716778 ], [ 135.28066, 35.2675656 ], [ 135.2919297, 35.2654125 ], [ 135.2982783, 35.2682161 ], [ 135.3114564, 35.2694394 ], [ 135.3186269, 35.2738469 ], [ 135.332404199999985, 35.2711192 ], [ 135.338571699999989, 35.2798675 ], [ 135.3452522, 35.2819856 ], [ 135.351337799999982, 35.2892642 ], [ 135.358824699999985, 35.2920781 ], [ 135.3672522, 35.2919956 ], [ 135.369802199999981, 35.2967292 ], [ 135.3792761, 35.3028528 ], [ 135.384612799999985, 35.3149422 ], [ 135.392572199999989, 35.3179431 ], [ 135.4009997, 35.32494 ], [ 135.411698600000022, 35.3270881 ], [ 135.4167822, 35.3346894 ], [ 135.4227728, 35.3368753 ], [ 135.4285381, 35.3423028 ], [ 135.4565658, 35.3458569 ], [ 135.46753529999998, 35.346025 ], [ 135.4753811, 35.3438425 ], [ 135.4862594, 35.3456575 ], [ 135.4981033, 35.3421528 ], [ 135.4999689, 35.3477531 ], [ 135.5053786, 35.3490617 ], [ 135.5000517, 35.3598572 ], [ 135.516362, 35.3647008 ], [ 135.521780399999983, 35.3696808 ], [ 135.52820509999998, 35.3692072 ], [ 135.5344029, 35.3712477 ], [ 135.534502, 35.3774391 ], [ 135.5275412, 35.3802172 ], [ 135.5287815, 35.3907225 ], [ 135.531642299999987, 35.3927969 ], [ 135.5251979, 35.4030847 ], [ 135.5299698, 35.4084238 ], [ 135.527022599999981, 35.4184152 ], [ 135.520807900000023, 35.4229263 ], [ 135.515904, 35.4219483 ], [ 135.5101448, 35.4244219 ], [ 135.5056946, 35.4208975 ], [ 135.495364, 35.4264094 ], [ 135.5004854, 35.4325472 ], [ 135.4977882, 35.4375453 ], [ 135.490983699999987, 35.4385525 ], [ 135.4861206, 35.448573 ], [ 135.480862, 35.4480822 ], [ 135.4703218, 35.4544872 ] ] ] } },
{ "type": "Feature", "properties": { "hokenjo": "東山・山科" }, "geometry": { "type": "Polygon", "coordinates": [ [ [ 135.7907056, 35.0077283 ], [ 135.7844778, 35.0108539 ], [ 135.7717925, 35.0095914 ], [ 135.7715689, 35.0040006 ], [ 135.768043899999981, 34.9962308 ], [ 135.7678039, 34.9818953 ], [ 135.7646436, 34.972990599999989 ], [ 135.781092799999982, 34.9740958 ], [ 135.787831399999988, 34.9716503 ], [ 135.791289399999982, 34.9650583 ], [ 135.7905125, 34.9587044 ], [ 135.79357, 34.9503489 ], [ 135.801780799999989, 34.9554339 ], [ 135.8048167, 34.952965 ], [ 135.817679699999985, 34.9575486 ], [ 135.820736399999987, 34.9643372 ], [ 135.829028599999987, 34.9656636 ], [ 135.8360458, 34.9698569 ], [ 135.840765799999986, 34.9658575 ], [ 135.8465122, 34.9656617 ], [ 135.86341059999998, 34.9600542 ], [ 135.8522753, 34.9713475 ], [ 135.85676, 34.9800022 ], [ 135.855026399999986, 34.9847417 ], [ 135.849117799999988, 34.9848125 ], [ 135.849267199999986, 34.9917339 ], [ 135.8423003, 34.9899419 ], [ 135.8274753, 34.9911192 ], [ 135.8325719, 34.9991008 ], [ 135.8365589, 35.0012264 ], [ 135.8326817, 35.0094253 ], [ 135.8240975, 35.0088242 ], [ 135.8202394, 35.0129619 ], [ 135.8151492, 35.0152069 ], [ 135.804586700000016, 35.0146208 ], [ 135.8007278, 35.0076011 ], [ 135.7907056, 35.0077283 ] ] ] } },
{ "type": "Feature", "properties": { "hokenjo": "南・伏見" }, "geometry": { "type": "Polygon", "coordinates": [ [ [ 135.7646436, 34.972990599999989 ], [ 135.7678039, 34.9818953 ], [ 135.7668094, 34.9839206 ], [ 135.745769199999984, 34.9849867 ], [ 135.734311099999985, 34.9814675 ], [ 135.7272908, 34.9857681 ], [ 135.718560599999989, 34.9840203 ], [ 135.7153606, 34.980048599999989 ], [ 135.7219208, 34.9732669 ], [ 135.7220294, 34.9686681 ], [ 135.7049314, 34.9685492 ], [ 135.70512309999998, 34.9634536 ], [ 135.70998, 34.9625231 ], [ 135.709559399999989, 34.9557239 ], [ 135.7174417, 34.9505761 ], [ 135.7183325, 34.9421186 ], [ 135.713844199999983, 34.9356175 ], [ 135.7146042, 34.9290622 ], [ 135.7141911, 34.9160075 ], [ 135.7065261, 34.9081072 ], [ 135.7031742, 34.8986933 ], [ 135.705489699999987, 34.8946825 ], [ 135.7119453, 34.8932036 ], [ 135.7119419, 34.8872572 ], [ 135.715441699999985, 34.8827844 ], [ 135.723739699999982, 34.8803989 ], [ 135.732472200000018, 34.8749156 ], [ 135.732708299999985, 34.87826 ], [ 135.7287125, 34.8851547 ], [ 135.7225814, 34.8879756 ], [ 135.721459399999986, 34.8892903 ], [ 135.720098299999989, 34.89286 ], [ 135.715951100000012, 34.8992297 ], [ 135.7195731, 34.8981022 ], [ 135.7319606, 34.9044131 ], [ 135.7402842, 34.9047886 ], [ 135.7477131, 34.911385 ], [ 135.7530658, 34.9041672 ], [ 135.760916399999985, 34.9080847 ], [ 135.7761281, 34.9161361 ], [ 135.7898375, 34.9169933 ], [ 135.7922092, 34.9303769 ], [ 135.7976894, 34.9345131 ], [ 135.8074964, 34.9375878 ], [ 135.8108383, 34.9365314 ], [ 135.814312799999982, 34.9292542 ], [ 135.818136899999985, 34.9266481 ], [ 135.8294128, 34.9273922 ], [ 135.8301467, 34.9353106 ], [ 135.8446942, 34.9355039 ], [ 135.84991, 34.9394072 ], [ 135.8471108, 34.9484469 ], [ 135.8519172, 34.9569256 ], [ 135.859465299999982, 34.9570894 ], [ 135.8626272, 34.9508403 ], [ 135.878441899999984, 34.9474342 ], [ 135.8754267, 34.9536653 ], [ 135.8648608, 34.9571653 ], [ 135.86341059999998, 34.9600542 ], [ 135.8465122, 34.9656617 ], [ 135.840765799999986, 34.9658575 ], [ 135.8360458, 34.9698569 ], [ 135.829028599999987, 34.9656636 ], [ 135.820736399999987, 34.9643372 ], [ 135.817679699999985, 34.9575486 ], [ 135.8048167, 34.952965 ], [ 135.801780799999989, 34.9554339 ], [ 135.79357, 34.9503489 ], [ 135.7905125, 34.9587044 ], [ 135.791289399999982, 34.9650583 ], [ 135.787831399999988, 34.9716503 ], [ 135.781092799999982, 34.9740958 ], [ 135.7646436, 34.972990599999989 ] ] ] } },
{ "type": "Feature", "properties": { "hokenjo": "南丹" }, "geometry": { "type": "Polygon", "coordinates": [ [ [ 135.5979228, 35.0943464 ], [ 135.6051642, 35.0926619 ], [ 135.614563299999986, 35.0973839 ], [ 135.616477799999984, 35.1038797 ], [ 135.6120178, 35.1049086 ], [ 135.6039003, 35.1122617 ], [ 135.5973094, 35.1100603 ], [ 135.592264199999988, 35.1167786 ], [ 135.5909661, 35.1241739 ], [ 135.5776131, 35.1276903 ], [ 135.5752872, 35.1325158 ], [ 135.5679156, 35.1275917 ], [ 135.561449399999987, 35.1326031 ], [ 135.5590133, 35.1369308 ], [ 135.562378099999989, 35.1482322 ], [ 135.56163, 35.1565617 ], [ 135.5738972, 35.1690231 ], [ 135.5735133, 35.1713097 ], [ 135.5829522, 35.1852911 ], [ 135.584230599999984, 35.189705 ], [ 135.5912117, 35.195177199999989 ], [ 135.596541699999989, 35.2025472 ], [ 135.596682499999986, 35.2121167 ], [ 135.589902199999983, 35.2164053 ], [ 135.5990994, 35.2250408 ], [ 135.608668599999987, 35.2283336 ], [ 135.619197499999984, 35.2254978 ], [ 135.620175, 35.2331661 ], [ 135.6297094, 35.2359961 ], [ 135.6288719, 35.2453667 ], [ 135.6400131, 35.2580394 ], [ 135.6519231, 35.2599925 ], [ 135.654806899999983, 35.2631711 ], [ 135.68941719999998, 35.255212799999988 ], [ 135.7072206, 35.2613747 ], [ 135.7120103, 35.261035 ], [ 135.7175733, 35.265325 ], [ 135.727348899999981, 35.2677664 ], [ 135.725665599999985, 35.2717094 ], [ 135.731507199999982, 35.2779464 ], [ 135.7292022, 35.2835864 ], [ 135.736056099999985, 35.2877311 ], [ 135.74833, 35.2866714 ], [ 135.766096399999981, 35.2895397 ], [ 135.771954199999982, 35.2879656 ], [ 135.7747561, 35.2840847 ], [ 135.781454699999983, 35.2900361 ], [ 135.7776792, 35.29449 ], [ 135.7774825, 35.3051164 ], [ 135.7876933, 35.3079725 ], [ 135.7951897, 35.3212389 ], [ 135.7908711, 35.3238028 ], [ 135.785733099999987, 35.3307192 ], [ 135.780818499999981, 35.340562 ], [ 135.76407279999998, 35.3445575 ], [ 135.7687853, 35.3560145 ], [ 135.75518169999998, 35.3544456 ], [ 135.7441411, 35.3589383 ], [ 135.7363705, 35.3511464 ], [ 135.725016499999981, 35.3517353 ], [ 135.7189385, 35.3553 ], [ 135.71279149999998, 35.3530783 ], [ 135.710724299999981, 35.3480014 ], [ 135.7009865, 35.3436869 ], [ 135.677114499999988, 35.3498377 ], [ 135.6681984, 35.3570664 ], [ 135.6613433, 35.3563419 ], [ 135.652443299999987, 35.3599394 ], [ 135.6423644, 35.3667153 ], [ 135.6366375, 35.3637094 ], [ 135.6234708, 35.3698991 ], [ 135.6070627, 35.3714955 ], [ 135.5938693, 35.3704822 ], [ 135.5881024, 35.3682575 ], [ 135.5796116, 35.3748739 ], [ 135.5717285, 35.3742639 ], [ 135.565838499999984, 35.3773266 ], [ 135.558780399999989, 35.3764797 ], [ 135.5369801, 35.3766714 ], [ 135.534502, 35.3774391 ], [ 135.5344029, 35.3712477 ], [ 135.52820509999998, 35.3692072 ], [ 135.521780399999983, 35.3696808 ], [ 135.516362, 35.3647008 ], [ 135.5000517, 35.3598572 ], [ 135.5053786, 35.3490617 ], [ 135.4999689, 35.3477531 ], [ 135.4981033, 35.3421528 ], [ 135.4862594, 35.3456575 ], [ 135.4753811, 35.3438425 ], [ 135.46753529999998, 35.346025 ], [ 135.4565658, 35.3458569 ], [ 135.4285381, 35.3423028 ], [ 135.4227728, 35.3368753 ], [ 135.4167822, 35.3346894 ], [ 135.411698600000022, 35.3270881 ], [ 135.4009997, 35.32494 ], [ 135.392572199999989, 35.3179431 ], [ 135.384612799999985, 35.3149422 ], [ 135.3792761, 35.3028528 ], [ 135.369802199999981, 35.2967292 ], [ 135.3672522, 35.2919956 ], [ 135.358824699999985, 35.2920781 ], [ 135.351337799999982, 35.2892642 ], [ 135.3452522, 35.2819856 ], [ 135.338571699999989, 35.2798675 ], [ 135.332404199999985, 35.2711192 ], [ 135.3186269, 35.2738469 ], [ 135.321566099999984, 35.2635308 ], [ 135.3248269, 35.259774199999988 ], [ 135.323396699999989, 35.2548831 ], [ 135.31037809999998, 35.2482875 ], [ 135.30314, 35.2431525 ], [ 135.298648899999989, 35.2353175 ], [ 135.2887481, 35.2346153 ], [ 135.2993669, 35.2204375 ], [ 135.293102799999986, 35.2191517 ], [ 135.2966433, 35.212045 ], [ 135.293847199999988, 35.1983522 ], [ 135.286585800000012, 35.2004069 ], [ 135.284158600000012, 35.190245 ], [ 135.2870364, 35.1873367 ], [ 135.28724889999998, 35.1738761 ], [ 135.289318899999984, 35.1724169 ], [ 135.2922058, 35.1613056 ], [ 135.2856142, 35.1526575 ], [ 135.2785431, 35.1510825 ], [ 135.27993, 35.1469672 ], [ 135.2876183, 35.1427325 ], [ 135.2937456, 35.1415697 ], [ 135.3034811, 35.142756399999989 ], [ 135.3153275, 35.1462578 ], [ 135.3240319, 35.1466033 ], [ 135.326841699999989, 35.1492158 ], [ 135.3409594, 35.1496575 ], [ 135.3374356, 35.1440867 ], [ 135.3397606, 35.1378003 ], [ 135.3432206, 35.1356411 ], [ 135.3547117, 35.1366553 ], [ 135.35987609999998, 35.1321581 ], [ 135.3727361, 35.1289575 ], [ 135.3822203, 35.1297983 ], [ 135.3912039, 35.1264844 ], [ 135.386074399999984, 35.1207361 ], [ 135.3872217, 35.1164869 ], [ 135.3933147, 35.1105081 ], [ 135.3891725, 35.1083336 ], [ 135.3876847, 35.0991531 ], [ 135.3916142, 35.0980281 ], [ 135.4006819, 35.0938206 ], [ 135.4042814, 35.0889931 ], [ 135.4001092, 35.0859581 ], [ 135.3995353, 35.0760994 ], [ 135.3870736, 35.0725439 ], [ 135.376613599999985, 35.0660244 ], [ 135.377153099999987, 35.0608678 ], [ 135.3687289, 35.0548897 ], [ 135.37124559999998, 35.0452889 ], [ 135.375975300000022, 35.044135 ], [ 135.3800444, 35.0391064 ], [ 135.3820728, 35.0308981 ], [ 135.381688900000029, 35.0261925 ], [ 135.377693099999988, 35.0206386 ], [ 135.381550799999985, 35.0103753 ], [ 135.3974739, 35.0106417 ], [ 135.403247199999981, 35.0066919 ], [ 135.4097672, 35.0115256 ], [ 135.4181039, 35.0032217 ], [ 135.4228178, 35.0021094 ], [ 135.4361883, 35.0084067 ], [ 135.446790599999986, 35.0054506 ], [ 135.4519697, 35.001751399999989 ], [ 135.459873099999982, 35.0015869 ], [ 135.4712217, 34.9948047 ], [ 135.4818856, 34.9951456 ], [ 135.4930558, 34.98767 ], [ 135.4831628, 34.9818683 ], [ 135.48845559999998, 34.9665717 ], [ 135.4819364, 34.9652297 ], [ 135.4847756, 34.9545603 ], [ 135.480859399999986, 34.9502914 ], [ 135.4883419, 34.9463864 ], [ 135.490417799999989, 34.9417944 ], [ 135.499674699999986, 34.941345 ], [ 135.50402889999998, 34.9462869 ], [ 135.514702199999988, 34.943725799999989 ], [ 135.515021099999984, 34.9369225 ], [ 135.5225628, 34.9302842 ], [ 135.536993599999988, 34.925525 ], [ 135.5360072, 34.9209164 ], [ 135.5410603, 34.9153097 ], [ 135.54431, 34.9174508 ], [ 135.5533283, 34.9155483 ], [ 135.5627375, 34.9177908 ], [ 135.5674094, 34.9162881 ], [ 135.581258099999985, 34.9224517 ], [ 135.5810533, 34.9370358 ], [ 135.571915599999983, 34.9390817 ], [ 135.5646839, 34.9330242 ], [ 135.5618436, 34.9377647 ], [ 135.561243599999983, 34.9466628 ], [ 135.5631314, 34.9536639 ], [ 135.5785778, 34.955885 ], [ 135.578360299999986, 34.9604619 ], [ 135.571231100000034, 34.9639156 ], [ 135.5709267, 34.9697883 ], [ 135.5770358, 34.9739242 ], [ 135.584667500000023, 34.97514 ], [ 135.5892422, 34.967221099999989 ], [ 135.6033189, 34.9711486 ], [ 135.6076439, 34.9693294 ], [ 135.613263599999982, 34.9711953 ], [ 135.6239675, 34.9743878 ], [ 135.6412942, 34.9756408 ], [ 135.6381858, 34.9807761 ], [ 135.6389969, 34.9978822 ], [ 135.6460894, 35.0014194 ], [ 135.646745, 35.0074769 ], [ 135.636449700000014, 35.0191206 ], [ 135.6398728, 35.0234408 ], [ 135.6350431, 35.0309331 ], [ 135.626201899999984, 35.0395403 ], [ 135.621776399999987, 35.0380333 ], [ 135.617578899999984, 35.0420353 ], [ 135.6174422, 35.0554717 ], [ 135.621996699999983, 35.0645908 ], [ 135.618815, 35.0681842 ], [ 135.6084172, 35.0665128 ], [ 135.6025275, 35.0629394 ], [ 135.5995886, 35.0706744 ], [ 135.596149699999984, 35.0712336 ], [ 135.5900958, 35.0771033 ], [ 135.5919414, 35.0840739 ], [ 135.5979228, 35.0943464 ] ] ] } },
{ "type": "Feature", "properties": { "hokenjo": "北・左京" }, "geometry": { "type": "Polygon", "coordinates": [ [ [ 135.7698122, 35.0326328 ], [ 135.7715322, 35.0291953 ], [ 135.771628099999987, 35.0166922 ], [ 135.7717925, 35.0095914 ], [ 135.7844778, 35.0108539 ], [ 135.7907056, 35.0077283 ], [ 135.8007278, 35.0076011 ], [ 135.804586700000016, 35.0146208 ], [ 135.8151492, 35.0152069 ], [ 135.8202394, 35.0129619 ], [ 135.8354642, 35.0123286 ], [ 135.834517799999986, 35.0220806 ], [ 135.826421399999987, 35.0236136 ], [ 135.8281122, 35.0283806 ], [ 135.8246167, 35.0356383 ], [ 135.8154169, 35.0421508 ], [ 135.8159014, 35.0473692 ], [ 135.8269831, 35.0538531 ], [ 135.834852499999982, 35.0555539 ], [ 135.8358467, 35.0623297 ], [ 135.831891899999988, 35.0714556 ], [ 135.838317499999988, 35.0790786 ], [ 135.8398397, 35.0861369 ], [ 135.8350461, 35.0913269 ], [ 135.8378947, 35.0974439 ], [ 135.842938299999986, 35.102515 ], [ 135.84326249999998, 35.1099033 ], [ 135.849812499999985, 35.1205397 ], [ 135.8496056, 35.1269389 ], [ 135.852294199999989, 35.1342669 ], [ 135.84871, 35.1418522 ], [ 135.8526142, 35.1461803 ], [ 135.8561531, 35.1594369 ], [ 135.8468131, 35.1623869 ], [ 135.840630299999987, 35.1800656 ], [ 135.841908099999984, 35.1898397 ], [ 135.8352406, 35.20221 ], [ 135.8354942, 35.2066969 ], [ 135.8310869, 35.2104172 ], [ 135.8308642, 35.2227614 ], [ 135.837351899999987, 35.2259569 ], [ 135.8375322, 35.2375467 ], [ 135.842360300000024, 35.2531986 ], [ 135.8460892, 35.2571122 ], [ 135.8446672, 35.2613075 ], [ 135.847534699999983, 35.2666653 ], [ 135.852478599999984, 35.2689586 ], [ 135.8545322, 35.2753275 ], [ 135.8607553, 35.28296 ], [ 135.8585372, 35.2870967 ], [ 135.8516811, 35.2859678 ], [ 135.849615799999981, 35.2802819 ], [ 135.8417833, 35.2781244 ], [ 135.8346086, 35.2740794 ], [ 135.82962329999998, 35.2767353 ], [ 135.820053299999984, 35.29107 ], [ 135.8214025, 35.296835 ], [ 135.8149675, 35.3012575 ], [ 135.811248899999981, 35.3135303 ], [ 135.7951897, 35.3212389 ], [ 135.7876933, 35.3079725 ], [ 135.7774825, 35.3051164 ], [ 135.7776792, 35.29449 ], [ 135.781454699999983, 35.2900361 ], [ 135.7747561, 35.2840847 ], [ 135.771954199999982, 35.2879656 ], [ 135.766096399999981, 35.2895397 ], [ 135.74833, 35.2866714 ], [ 135.736056099999985, 35.2877311 ], [ 135.7292022, 35.2835864 ], [ 135.731507199999982, 35.2779464 ], [ 135.725665599999985, 35.2717094 ], [ 135.727348899999981, 35.2677664 ], [ 135.7322389, 35.2661342 ], [ 135.7310306, 35.2582681 ], [ 135.7329708, 35.2553342 ], [ 135.728655299999986, 35.2511264 ], [ 135.733148299999982, 35.2457139 ], [ 135.7421928, 35.2431256 ], [ 135.7550039, 35.2444031 ], [ 135.7611956, 35.2331728 ], [ 135.7606553, 35.226594399999989 ], [ 135.763198099999983, 35.2209231 ], [ 135.762555599999985, 35.2149947 ], [ 135.7542044, 35.2074094 ], [ 135.7535119, 35.2024128 ], [ 135.7566478, 35.1960261 ], [ 135.7752333, 35.1787922 ], [ 135.7708203, 35.17279 ], [ 135.7708111, 35.1622153 ], [ 135.773203099999989, 35.1571508 ], [ 135.766004399999986, 35.1509006 ], [ 135.7620528, 35.1513294 ], [ 135.7531689, 35.1469314 ], [ 135.744655, 35.1500967 ], [ 135.7416417, 35.1583639 ], [ 135.7343956, 35.1618403 ], [ 135.730866400000025, 35.169874199999988 ], [ 135.7240731, 35.1714933 ], [ 135.7202667, 35.168235 ], [ 135.7136439, 35.1688225 ], [ 135.7057931, 35.1659208 ], [ 135.6896567, 35.1662261 ], [ 135.674644199999989, 35.1641514 ], [ 135.67293189999998, 35.1586311 ], [ 135.672587199999981, 35.1416919 ], [ 135.675490800000034, 35.1377261 ], [ 135.6742858, 35.1297622 ], [ 135.6704047, 35.1231964 ], [ 135.659799199999981, 35.1161078 ], [ 135.649738300000024, 35.1144231 ], [ 135.6492264, 35.1098642 ], [ 135.654426699999988, 35.1057547 ], [ 135.6501628, 35.1016067 ], [ 135.655668099999986, 35.0915031 ], [ 135.660975, 35.0937 ], [ 135.6635311, 35.0980447 ], [ 135.67299749999998, 35.0942933 ], [ 135.6674764, 35.0868933 ], [ 135.6684378, 35.0832422 ], [ 135.6772311, 35.0833231 ], [ 135.6765869, 35.0789831 ], [ 135.6852039, 35.0769197 ], [ 135.6898861, 35.0802989 ], [ 135.6943058, 35.0715333 ], [ 135.7004158, 35.0689597 ], [ 135.7036728, 35.0634522 ], [ 135.7107, 35.0594336 ], [ 135.713986399999982, 35.0474022 ], [ 135.710842499999984, 35.0421467 ], [ 135.7222186, 35.0359067 ], [ 135.722260799999987, 35.0276797 ], [ 135.7268133, 35.0225444 ], [ 135.733137199999987, 35.0224269 ], [ 135.7356342, 35.0346017 ], [ 135.7470439, 35.0354586 ], [ 135.75215559999998, 35.0375636 ], [ 135.7642889, 35.0374456 ], [ 135.7698122, 35.0326328 ] ] ] } }
]
}
