{
"type": "FeatureCollection",
"name": "miyazaki",
"crs": { "type": "name", "properties": { "name": "urn:ogc:def:crs:OGC:1.3:CRS84" } },
"features": [
{ "type": "Feature", "properties": { "hokenjo": "延岡" }, "geometry": { "type": "MultiPolygon", "coordinates": [ [ [ [ 131.728116299999982, 32.4967211 ], [ 131.7259137, 32.4997861 ], [ 131.721191799999986, 32.5016123 ], [ 131.7125623, 32.5011046 ], [ 131.7100461, 32.5026994 ], [ 131.7121893, 32.5101579 ], [ 131.711679299999986, 32.5150169 ], [ 131.709807399999988, 32.5164393 ], [ 131.7049613, 32.5158044 ], [ 131.703599199999985, 32.5186508 ], [ 131.697832799999986, 32.5147798 ], [ 131.7005068, 32.511222599999989 ], [ 131.7006351, 32.5077523 ], [ 131.6970034, 32.5076579 ], [ 131.6945136, 32.5103847 ], [ 131.6923222, 32.5075797 ], [ 131.684533499999986, 32.5091751 ], [ 131.6829624, 32.5130555 ], [ 131.6837069, 32.516356 ], [ 131.6862801, 32.5171146 ], [ 131.6856957, 32.521732799999988 ], [ 131.688032099999987, 32.5235744 ], [ 131.6863243, 32.5280413 ], [ 131.682546, 32.5323587 ], [ 131.6823886, 32.5403916 ], [ 131.6854524, 32.5506053 ], [ 131.6893282, 32.5600452 ], [ 131.6947585, 32.5694967 ], [ 131.7029997, 32.5808531 ], [ 131.7069474, 32.5854064 ], [ 131.7131067, 32.5904142 ], [ 131.716057799999987, 32.5913801 ], [ 131.7203231, 32.5895311 ], [ 131.731913599999984, 32.5915219 ], [ 131.7341022, 32.5905403 ], [ 131.7423647, 32.5919783 ], [ 131.7440058, 32.5972094 ], [ 131.7475417, 32.6013892 ], [ 131.754046099999982, 32.6016203 ], [ 131.7559622, 32.6038808 ], [ 131.7531761, 32.6087372 ], [ 131.757680599999986, 32.6096272 ], [ 131.7644603, 32.6163106 ], [ 131.7610072, 32.6202939 ], [ 131.764749199999983, 32.6283014 ], [ 131.7682122, 32.6289161 ], [ 131.7687364, 32.6326964 ], [ 131.7731542, 32.6341972 ], [ 131.7735031, 32.6406886 ], [ 131.7715972, 32.6430659 ], [ 131.766272499999985, 32.6409767 ], [ 131.7643775, 32.641745 ], [ 131.759195799999986, 32.6397742 ], [ 131.75981969999998, 32.6356983 ], [ 131.7575597, 32.6352136 ], [ 131.756781099999984, 32.6444603 ], [ 131.762575, 32.6421804 ], [ 131.7640953, 32.6452661 ], [ 131.7672514, 32.6469981 ], [ 131.762889199999989, 32.6541472 ], [ 131.762853899999982, 32.6586672 ], [ 131.767497099999986, 32.6599953 ], [ 131.7715481, 32.6596872 ], [ 131.771996699999988, 32.6662736 ], [ 131.777505599999984, 32.6713464 ], [ 131.777165599999989, 32.6740278 ], [ 131.784871399999986, 32.674535 ], [ 131.7855433, 32.6637181 ], [ 131.7887814, 32.6617458 ], [ 131.7910914, 32.663895 ], [ 131.7910119, 32.6723439 ], [ 131.792936699999984, 32.6781403 ], [ 131.795633899999984, 32.6781292 ], [ 131.8017678, 32.683785 ], [ 131.81053559999998, 32.6872225 ], [ 131.815480799999989, 32.6869347 ], [ 131.8164467, 32.6925906 ], [ 131.8152344, 32.697125 ], [ 131.8205561, 32.6972694 ], [ 131.816841, 32.7028394 ], [ 131.8266433, 32.7065628 ], [ 131.831663900000024, 32.6998816 ], [ 131.8378554, 32.6976329 ], [ 131.8390311, 32.6933744 ], [ 131.842959399999984, 32.6904711 ], [ 131.8493231, 32.6962614 ], [ 131.8532167, 32.6972425 ], [ 131.85363, 32.7025906 ], [ 131.848321699999985, 32.7037394 ], [ 131.8458239, 32.7083642 ], [ 131.8470692, 32.7144483 ], [ 131.8498794, 32.716059199999989 ], [ 131.85004619999998, 32.7218936 ], [ 131.8553542, 32.7221878 ], [ 131.8580508, 32.7189606 ], [ 131.864284699999985, 32.7185103 ], [ 131.8649172, 32.7230108 ], [ 131.86143389999998, 32.7234897 ], [ 131.857637499999981, 32.7293989 ], [ 131.859368599999982, 32.733235 ], [ 131.861653099999984, 32.7346097 ], [ 131.870051099999984, 32.7347506 ], [ 131.875965, 32.7335364 ], [ 131.8772169, 32.7393206 ], [ 131.873544400000014, 32.7404481 ], [ 131.8614967, 32.7401914 ], [ 131.8579703, 32.7376608 ], [ 131.8470092, 32.73593 ], [ 131.8465736, 32.7421914 ], [ 131.8441239, 32.7476556 ], [ 131.8469883, 32.7507147 ], [ 131.849805299999986, 32.755958299999989 ], [ 131.8484225, 32.7604986 ], [ 131.848988099999985, 32.7645033 ], [ 131.846902199999988, 32.7662808 ], [ 131.8460747, 32.7738892 ], [ 131.844335299999983, 32.7769231 ], [ 131.848523299999982, 32.7831078 ], [ 131.8504206, 32.7889642 ], [ 131.8493092, 32.79043 ], [ 131.8544536, 32.7960725 ], [ 131.8536469, 32.7982353 ], [ 131.860078099999981, 32.8060706 ], [ 131.8586833, 32.8156864 ], [ 131.858796899999987, 32.8214367 ], [ 131.855088099999989, 32.8231678 ], [ 131.8481492, 32.8178467 ], [ 131.840935, 32.8199139 ], [ 131.834499699999981, 32.8196978 ], [ 131.8316242, 32.8235289 ], [ 131.825974699999989, 32.8262953 ], [ 131.824503099999987, 32.8298722 ], [ 131.8201669, 32.8277783 ], [ 131.8141539, 32.8263708 ], [ 131.806660599999987, 32.8221503 ], [ 131.7981517, 32.8248911 ], [ 131.7939006, 32.8219453 ], [ 131.7877992, 32.8279311 ], [ 131.7872722, 32.833645 ], [ 131.782982799999985, 32.8337958 ], [ 131.7766169, 32.8359381 ], [ 131.768813099999988, 32.8369292 ], [ 131.75406719999998, 32.83642 ], [ 131.747361399999988, 32.8331003 ], [ 131.7413333, 32.8342922 ], [ 131.735728099999989, 32.8311017 ], [ 131.736540599999984, 32.8255081 ], [ 131.734665, 32.8180394 ], [ 131.7310908, 32.8159347 ], [ 131.7292311, 32.8047711 ], [ 131.730149399999988, 32.8033494 ], [ 131.7279447, 32.7973722 ], [ 131.718303599999984, 32.7908656 ], [ 131.7151294, 32.7853369 ], [ 131.715398599999986, 32.7801692 ], [ 131.712469699999986, 32.7735428 ], [ 131.7068789, 32.7716122 ], [ 131.699500799999981, 32.7730894 ], [ 131.696263099999982, 32.7746503 ], [ 131.6910136, 32.7718397 ], [ 131.6792692, 32.7699881 ], [ 131.6763025, 32.7683756 ], [ 131.669345800000031, 32.7683286 ], [ 131.6688586, 32.7665933 ], [ 131.6608817, 32.7691492 ], [ 131.6482897, 32.7717494 ], [ 131.6406781, 32.7703394 ], [ 131.6326436, 32.7720292 ], [ 131.629752199999984, 32.7718025 ], [ 131.6253319, 32.7745186 ], [ 131.6179167, 32.7731086 ], [ 131.605455, 32.7738961 ], [ 131.6007622, 32.77223 ], [ 131.5966444, 32.7751339 ], [ 131.590067799999986, 32.7741261 ], [ 131.587982200000027, 32.7704489 ], [ 131.5824089, 32.7652703 ], [ 131.5792114, 32.7609808 ], [ 131.568917199999987, 32.7541639 ], [ 131.56537, 32.7555139 ], [ 131.555502499999989, 32.7553828 ], [ 131.5471736, 32.7582111 ], [ 131.5451525, 32.7573442 ], [ 131.5363236, 32.7588581 ], [ 131.532610799999986, 32.7628639 ], [ 131.5241019, 32.7638439 ], [ 131.5183381, 32.7676558 ], [ 131.512085, 32.7696983 ], [ 131.5084822, 32.7742425 ], [ 131.504323299999982, 32.7731278 ], [ 131.499577499999987, 32.7740825 ], [ 131.496269399999989, 32.7726617 ], [ 131.4916306, 32.7740281 ], [ 131.4880306, 32.7713431 ], [ 131.4884894, 32.7669567 ], [ 131.482626899999985, 32.7634925 ], [ 131.4819942, 32.760062499999989 ], [ 131.488530300000036, 32.7566267 ], [ 131.487711099999984, 32.7508461 ], [ 131.4900283, 32.7479044 ], [ 131.487932799999982, 32.7424122 ], [ 131.4813981, 32.7379056 ], [ 131.4844881, 32.7302256 ], [ 131.4844367, 32.7240483 ], [ 131.4827564, 32.72293 ], [ 131.4830847, 32.7176994 ], [ 131.479912499999983, 32.7136608 ], [ 131.480121699999984, 32.7104969 ], [ 131.4756883, 32.7046361 ], [ 131.466106699999983, 32.7018089 ], [ 131.4622592, 32.696805 ], [ 131.4572464, 32.6953492 ], [ 131.453471899999982, 32.6920344 ], [ 131.4519569, 32.6841147 ], [ 131.4501019, 32.6831736 ], [ 131.4468564, 32.6779319 ], [ 131.447986899999989, 32.6719244 ], [ 131.439818299999985, 32.6678622 ], [ 131.4400056, 32.6642586 ], [ 131.4343433, 32.6618553 ], [ 131.44045939999998, 32.6549847 ], [ 131.4394633, 32.6508672 ], [ 131.4370017, 32.6479136 ], [ 131.437120599999986, 32.6431031 ], [ 131.4405453, 32.6404156 ], [ 131.4360614, 32.6376783 ], [ 131.4349656, 32.6336436 ], [ 131.4486686, 32.6266189 ], [ 131.4504656, 32.6228258 ], [ 131.4498806, 32.6188167 ], [ 131.4521389, 32.6136097 ], [ 131.44931219999998, 32.6107192 ], [ 131.4486422, 32.6024303 ], [ 131.4500208, 32.5977736 ], [ 131.44603859999998, 32.5937561 ], [ 131.448192799999987, 32.5874944 ], [ 131.4433094, 32.5770464 ], [ 131.4408494, 32.5766972 ], [ 131.4402397, 32.5689419 ], [ 131.4355578, 32.5656125 ], [ 131.4326275, 32.5653322 ], [ 131.428778599999987, 32.5598917 ], [ 131.4303578, 32.5561786 ], [ 131.4369044, 32.5567417 ], [ 131.4385878, 32.5556608 ], [ 131.4422806, 32.5587942 ], [ 131.4565706, 32.5573569 ], [ 131.4641397, 32.5593925 ], [ 131.4666528, 32.5636986 ], [ 131.4727753, 32.5668633 ], [ 131.4783289, 32.5669414 ], [ 131.4855344, 32.5649419 ], [ 131.495925299999982, 32.5587978 ], [ 131.4991456, 32.5592956 ], [ 131.504860799999989, 32.5571242 ], [ 131.5097108, 32.550922799999988 ], [ 131.5130347, 32.5508978 ], [ 131.5154086, 32.5463153 ], [ 131.5188503, 32.5451489 ], [ 131.5211042, 32.5423389 ], [ 131.526724699999988, 32.5404472 ], [ 131.5289033, 32.5434289 ], [ 131.533299199999988, 32.5420289 ], [ 131.5357464, 32.5397311 ], [ 131.5447728, 32.5380197 ], [ 131.548385, 32.5358008 ], [ 131.551594199999982, 32.5379036 ], [ 131.5560011, 32.5370256 ], [ 131.5626608, 32.5390758 ], [ 131.5659322, 32.5454594 ], [ 131.57084279999998, 32.5442725 ], [ 131.5745983, 32.5476944 ], [ 131.578508299999982, 32.5457561 ], [ 131.5820869, 32.5463719 ], [ 131.5840183, 32.5432361 ], [ 131.581355799999983, 32.5395975 ], [ 131.582414199999988, 32.5357244 ], [ 131.5850433, 32.5353769 ], [ 131.588889199999983, 32.5315744 ], [ 131.588643099999985, 32.529755 ], [ 131.591904699999986, 32.5257186 ], [ 131.5967817, 32.5275403 ], [ 131.603828599999986, 32.5318853 ], [ 131.604688899999985, 32.5335408 ], [ 131.6100553, 32.5313053 ], [ 131.613377499999984, 32.5267264 ], [ 131.612723599999981, 32.5199856 ], [ 131.6150342, 32.516893599999989 ], [ 131.6275281, 32.5195817 ], [ 131.6299678, 32.5223647 ], [ 131.6339633, 32.5197117 ], [ 131.642532499999987, 32.5192219 ], [ 131.6445936, 32.5159094 ], [ 131.6489814, 32.515920799999989 ], [ 131.651766899999984, 32.5114536 ], [ 131.656793099999987, 32.5116511 ], [ 131.6640194, 32.5076853 ], [ 131.665847499999984, 32.505015 ], [ 131.665400299999988, 32.5016708 ], [ 131.6686839, 32.4989953 ], [ 131.6782872, 32.4965547 ], [ 131.6797244, 32.4930533 ], [ 131.6839539, 32.4898733 ], [ 131.6910325, 32.4943303 ], [ 131.6964544, 32.4961808 ], [ 131.70081, 32.4947764 ], [ 131.7076461, 32.4981647 ], [ 131.712838299999987, 32.4978031 ], [ 131.715815599999985, 32.4953056 ], [ 131.720550299999985, 32.4972456 ], [ 131.728116299999982, 32.4967211 ] ] ], [ [ [ 131.8183981, 32.6742489 ], [ 131.8166731, 32.6715169 ], [ 131.8123338, 32.669728899999988 ], [ 131.8111094, 32.6654324 ], [ 131.812235800000025, 32.6582651 ], [ 131.8237322, 32.6566861 ], [ 131.828464199999985, 32.6574622 ], [ 131.829205, 32.6619692 ], [ 131.8317111, 32.6647175 ], [ 131.8365517, 32.6664994 ], [ 131.835575, 32.670915 ], [ 131.8286286, 32.6680686 ], [ 131.822323499999982, 32.6687674 ], [ 131.8185378, 32.6710831 ], [ 131.8183981, 32.6742489 ] ] ] ] } },
{ "type": "Feature", "properties": { "hokenjo": "宮崎市" }, "geometry": { "type": "MultiPolygon", "coordinates": [ [ [ [ 131.4331247, 32.05573 ], [ 131.4328997, 32.0534617 ], [ 131.425352799999985, 32.0523961 ], [ 131.421872799999989, 32.054944399999989 ], [ 131.421158599999984, 32.0584917 ], [ 131.416547799999989, 32.0615333 ], [ 131.410756099999986, 32.0630739 ], [ 131.4074369, 32.065736699999988 ], [ 131.402701899999983, 32.0656403 ], [ 131.4023731, 32.0612683 ], [ 131.3976389, 32.0538556 ], [ 131.3939575, 32.051605 ], [ 131.3955033, 32.048425 ], [ 131.390884199999988, 32.0415072 ], [ 131.3922753, 32.0397089 ], [ 131.390537199999983, 32.0353322 ], [ 131.3876378, 32.0359492 ], [ 131.386053299999986, 32.0332917 ], [ 131.387331900000021, 32.0214092 ], [ 131.3868244, 32.0183364 ], [ 131.3890064, 32.015205 ], [ 131.3858706, 32.0081175 ], [ 131.3801281, 32.0048614 ], [ 131.3798014, 32.0014564 ], [ 131.3764914, 31.9970644 ], [ 131.3798836, 31.9921669 ], [ 131.377250799999985, 31.9900461 ], [ 131.377485799999988, 31.9868922 ], [ 131.374574199999984, 31.9833519 ], [ 131.3746411, 31.9768847 ], [ 131.3714047, 31.9680997 ], [ 131.368392199999988, 31.9707653 ], [ 131.3654583, 31.9712614 ], [ 131.3602947, 31.9768758 ], [ 131.3560369, 31.9778831 ], [ 131.3512217, 31.9771817 ], [ 131.348117799999983, 31.9813447 ], [ 131.342780799999986, 31.9805261 ], [ 131.3393975, 31.9787594 ], [ 131.331882799999988, 31.9783433 ], [ 131.3306981, 31.9746692 ], [ 131.32820719999998, 31.9732264 ], [ 131.3287622, 31.9703244 ], [ 131.3266022, 31.9654533 ], [ 131.3222958, 31.9669394 ], [ 131.31209, 31.9663547 ], [ 131.3038172, 31.9713667 ], [ 131.2991017, 31.9751994 ], [ 131.299128599999989, 31.97671 ], [ 131.294315, 31.9791997 ], [ 131.292831899999982, 31.9817503 ], [ 131.287353599999989, 31.9821661 ], [ 131.28321219999998, 31.9803931 ], [ 131.280401899999987, 31.9827675 ], [ 131.2765578, 31.9833142 ], [ 131.2730172, 31.9809378 ], [ 131.2696081, 31.9814631 ], [ 131.265565, 31.9821369 ], [ 131.2569928, 31.9783364 ], [ 131.253289199999983, 31.9808686 ], [ 131.242950799999988, 31.9758389 ], [ 131.23704, 31.9736617 ], [ 131.2332906, 31.9747494 ], [ 131.2300644, 31.9730881 ], [ 131.2248003, 31.97251360000001 ], [ 131.223991899999987, 31.9779653 ], [ 131.22134, 31.9828931 ], [ 131.2178994, 31.9865639 ], [ 131.2171506, 31.9922203 ], [ 131.213809199999986, 31.995835 ], [ 131.197325299999989, 31.9884722 ], [ 131.2007356, 31.9810383 ], [ 131.204268899999988, 31.9797514 ], [ 131.2075333, 31.9821919 ], [ 131.2087922, 31.9784181 ], [ 131.2043586, 31.9752594 ], [ 131.2064064, 31.9726969 ], [ 131.2050419, 31.9639667 ], [ 131.200291700000037, 31.9636972 ], [ 131.192903299999983, 31.9514822 ], [ 131.1925125, 31.9489797 ], [ 131.1948506, 31.9435358 ], [ 131.198967499999981, 31.9396981 ], [ 131.201629199999985, 31.9397411 ], [ 131.207579399999986, 31.9367478 ], [ 131.206058899999988, 31.9327447 ], [ 131.2082394, 31.9311908 ], [ 131.2144161, 31.9309683 ], [ 131.216184200000015, 31.9285836 ], [ 131.2204017, 31.9194311 ], [ 131.208943600000026, 31.9126269 ], [ 131.203156100000029, 31.9169056 ], [ 131.199885599999988, 31.9182267 ], [ 131.1970497, 31.9158972 ], [ 131.19577, 31.9122578 ], [ 131.190893099999982, 31.9098567 ], [ 131.18929559999998, 31.9004717 ], [ 131.1917139, 31.8969628 ], [ 131.1917961, 31.8916847 ], [ 131.190492800000015, 31.8878322 ], [ 131.1901, 31.8809053 ], [ 131.1932225, 31.8775622 ], [ 131.195731099999989, 31.8698572 ], [ 131.2008544, 31.8678817 ], [ 131.2067786, 31.863415 ], [ 131.2081533, 31.864634400000011 ], [ 131.211164199999985, 31.8723261 ], [ 131.2142719, 31.8749303 ], [ 131.216971699999988, 31.8805653 ], [ 131.2290494, 31.8800194 ], [ 131.239224399999983, 31.8767994 ], [ 131.243023099999988, 31.8785897 ], [ 131.2433639, 31.8846803 ], [ 131.2476536, 31.8878708 ], [ 131.2484192, 31.8841194 ], [ 131.2468769, 31.8792508 ], [ 131.248438099999987, 31.8755517 ], [ 131.2541669, 31.8767597 ], [ 131.250145799999984, 31.8720639 ], [ 131.249803899999989, 31.8656833 ], [ 131.254298299999988, 31.86087 ], [ 131.2493811, 31.85672 ], [ 131.2385597, 31.8579872 ], [ 131.2370917, 31.8514914 ], [ 131.2424825, 31.8510017 ], [ 131.2414097, 31.8413983 ], [ 131.2367611, 31.8405294 ], [ 131.2283225, 31.83562 ], [ 131.22619, 31.8301378 ], [ 131.2224125, 31.8290381 ], [ 131.2296275, 31.8213286 ], [ 131.2303717, 31.8162631 ], [ 131.234340800000012, 31.8143522 ], [ 131.2382675, 31.8083533 ], [ 131.2400322, 31.7977403 ], [ 131.241109199999983, 31.7954687 ], [ 131.2378597, 31.7883428 ], [ 131.237830799999983, 31.7826047 ], [ 131.241284399999984, 31.7779997 ], [ 131.2451308, 31.7774519 ], [ 131.251755799999984, 31.7792267 ], [ 131.2540275, 31.7764978 ], [ 131.260543899999988, 31.7802981 ], [ 131.263654699999989, 31.7806306 ], [ 131.2670214, 31.7784719 ], [ 131.265326099999982, 31.7763103 ], [ 131.2663642, 31.7694931 ], [ 131.2696008, 31.7685531 ], [ 131.2822683, 31.7655742 ], [ 131.2875781, 31.7636342 ], [ 131.3009064, 31.7674833 ], [ 131.307874699999985, 31.7659719 ], [ 131.3101586, 31.7711794 ], [ 131.3088625, 31.7808033 ], [ 131.3139406, 31.7794428 ], [ 131.31884, 31.7819936 ], [ 131.3260933, 31.7811575 ], [ 131.33427, 31.7811392 ], [ 131.3368692, 31.7819089 ], [ 131.3386136, 31.7785481 ], [ 131.3448594, 31.7773997 ], [ 131.3480036, 31.7735647 ], [ 131.357875299999989, 31.7712469 ], [ 131.358663299999989, 31.7727731 ], [ 131.3732239, 31.7725314 ], [ 131.3744989, 31.7776244 ], [ 131.3799344, 31.7791031 ], [ 131.3834928, 31.7716722 ], [ 131.3899903, 31.7682356 ], [ 131.396095, 31.7677858 ], [ 131.3984872, 31.7622669 ], [ 131.3969544, 31.7595339 ], [ 131.397999699999986, 31.7569658 ], [ 131.3959183, 31.7523728 ], [ 131.396897199999984, 31.7510578 ], [ 131.4036906, 31.7506797 ], [ 131.4101833, 31.7493319 ], [ 131.4146811, 31.7449156 ], [ 131.416006899999985, 31.738385 ], [ 131.424288599999983, 31.7344633 ], [ 131.427466899999985, 31.7316419 ], [ 131.4316556, 31.7300283 ], [ 131.4352458, 31.7307353 ], [ 131.4444892, 31.7295353 ], [ 131.4479567, 31.7282725 ], [ 131.4565178, 31.7277442 ], [ 131.459814199999983, 31.7288972 ], [ 131.463637799999987, 31.7264261 ], [ 131.463672799999983, 31.7214494 ], [ 131.467882799999984, 31.7210131 ], [ 131.466148, 31.7256702 ], [ 131.4674134, 31.7282749 ], [ 131.4640747, 31.7309001 ], [ 131.4632475, 31.733994 ], [ 131.465251, 31.7372279 ], [ 131.4684341, 31.7383551 ], [ 131.47311670000002, 31.7372312 ], [ 131.4713696, 31.7437607 ], [ 131.4679056, 31.7487987 ], [ 131.46843, 31.7526931 ], [ 131.4713591, 31.7584405 ], [ 131.4765275, 31.7577055 ], [ 131.4765937, 31.7628929 ], [ 131.4782995, 31.7672691 ], [ 131.480665200000033, 31.769435 ], [ 131.4854412, 31.7803442 ], [ 131.4886069, 31.7854959 ], [ 131.483194199999986, 31.7856844 ], [ 131.4802067, 31.7877525 ], [ 131.4757694, 31.7940822 ], [ 131.472919099999984, 31.7942674 ], [ 131.4698928, 31.7978558 ], [ 131.4716698, 31.8029924 ], [ 131.464961499999987, 31.80509 ], [ 131.4577152, 31.8123195 ], [ 131.4551438, 31.8168104 ], [ 131.451777099999987, 31.834611 ], [ 131.452255899999983, 31.8503234 ], [ 131.4529708, 31.8614374 ], [ 131.4540992, 31.868656 ], [ 131.4571252, 31.8741539 ], [ 131.4623753, 31.8755767 ], [ 131.463379799999984, 31.8791876 ], [ 131.4589503, 31.8796094 ], [ 131.457390799999985, 31.8833958 ], [ 131.4578577, 31.8900575 ], [ 131.4611878, 31.8965669 ], [ 131.4645898, 31.8961264 ], [ 131.4665068, 31.9054576 ], [ 131.4677998, 31.9065196 ], [ 131.469047, 31.9125925 ], [ 131.4640914, 31.9135066 ], [ 131.461178099999984, 31.9009658 ], [ 131.4586693, 31.9012887 ], [ 131.457869599999981, 31.9061549 ], [ 131.459862, 31.9159679 ], [ 131.465530199999989, 31.9189058 ], [ 131.4670379, 31.9220965 ], [ 131.47242, 31.9225689 ], [ 131.472911499999981, 31.9252496 ], [ 131.4691469, 31.9284426 ], [ 131.4724491, 31.9462454 ], [ 131.4818133, 31.9753527 ], [ 131.482119399999988, 31.9775286 ], [ 131.49669, 32.0208352 ], [ 131.503843099999983, 32.0407775 ], [ 131.50344579999998, 32.0439188 ], [ 131.507543199999986, 32.0462784 ], [ 131.5032966, 32.0468603 ], [ 131.500367899999986, 32.0439474 ], [ 131.4916198, 32.0434586 ], [ 131.48676949999998, 32.0413745 ], [ 131.4785765, 32.0454359 ], [ 131.47339119999998, 32.0469169 ], [ 131.4721544, 32.0492697 ], [ 131.467528099999981, 32.0503602 ], [ 131.4599062, 32.0503601 ], [ 131.452995, 32.0521573 ], [ 131.449174699999986, 32.0554073 ], [ 131.4412318, 32.0570511 ], [ 131.438425, 32.0555361 ], [ 131.4331247, 32.05573 ] ] ] ] } },
{ "type": "Feature", "properties": { "hokenjo": "高千穂" }, "geometry": { "type": "MultiPolygon", "coordinates": [ [ [ [ 131.267525, 32.6405369 ], [ 131.278286899999983, 32.6386489 ], [ 131.2873725, 32.6346131 ], [ 131.289592199999987, 32.6355756 ], [ 131.310083599999984, 32.6294472 ], [ 131.3162072, 32.6286019 ], [ 131.321008299999988, 32.6208214 ], [ 131.321186399999988, 32.6192819 ], [ 131.3290758, 32.6116456 ], [ 131.3322053, 32.6101186 ], [ 131.334454199999982, 32.6120297 ], [ 131.340846699999986, 32.6129419 ], [ 131.3472247, 32.6123972 ], [ 131.350201699999985, 32.6106417 ], [ 131.3572131, 32.6085039 ], [ 131.358292799999987, 32.6048314 ], [ 131.356511399999988, 32.6017111 ], [ 131.3582097, 32.5983981 ], [ 131.3562656, 32.5951886 ], [ 131.3622047, 32.5886183 ], [ 131.3642553, 32.5840608 ], [ 131.361677499999985, 32.5804778 ], [ 131.3619725, 32.5777133 ], [ 131.3674469, 32.5763633 ], [ 131.3724731, 32.5656864 ], [ 131.3739483, 32.5641081 ], [ 131.380681899999985, 32.5624103 ], [ 131.384332199999989, 32.5647772 ], [ 131.3923414, 32.5659342 ], [ 131.396118299999983, 32.5687947 ], [ 131.4050394, 32.5656778 ], [ 131.4088506, 32.5609153 ], [ 131.413914399999982, 32.5607958 ], [ 131.41771, 32.5638297 ], [ 131.4212483, 32.5637831 ], [ 131.428778599999987, 32.5598917 ], [ 131.4326275, 32.5653322 ], [ 131.4355578, 32.5656125 ], [ 131.4402397, 32.5689419 ], [ 131.4408494, 32.5766972 ], [ 131.4433094, 32.5770464 ], [ 131.448192799999987, 32.5874944 ], [ 131.44603859999998, 32.5937561 ], [ 131.4500208, 32.5977736 ], [ 131.4486422, 32.6024303 ], [ 131.44931219999998, 32.6107192 ], [ 131.4521389, 32.6136097 ], [ 131.4498806, 32.6188167 ], [ 131.4504656, 32.6228258 ], [ 131.4486686, 32.6266189 ], [ 131.4349656, 32.6336436 ], [ 131.4360614, 32.6376783 ], [ 131.4405453, 32.6404156 ], [ 131.437120599999986, 32.6431031 ], [ 131.4370017, 32.6479136 ], [ 131.4394633, 32.6508672 ], [ 131.44045939999998, 32.6549847 ], [ 131.4343433, 32.6618553 ], [ 131.4400056, 32.6642586 ], [ 131.439818299999985, 32.6678622 ], [ 131.447986899999989, 32.6719244 ], [ 131.4468564, 32.6779319 ], [ 131.4501019, 32.6831736 ], [ 131.4519569, 32.6841147 ], [ 131.453471899999982, 32.6920344 ], [ 131.4572464, 32.6953492 ], [ 131.4622592, 32.696805 ], [ 131.466106699999983, 32.7018089 ], [ 131.4756883, 32.7046361 ], [ 131.480121699999984, 32.7104969 ], [ 131.479912499999983, 32.7136608 ], [ 131.4830847, 32.7176994 ], [ 131.4827564, 32.72293 ], [ 131.4844367, 32.7240483 ], [ 131.4844881, 32.7302256 ], [ 131.4813981, 32.7379056 ], [ 131.487932799999982, 32.7424122 ], [ 131.4900283, 32.7479044 ], [ 131.487711099999984, 32.7508461 ], [ 131.488530300000036, 32.7566267 ], [ 131.4819942, 32.760062499999989 ], [ 131.482626899999985, 32.7634925 ], [ 131.4884894, 32.7669567 ], [ 131.4880306, 32.7713431 ], [ 131.4916306, 32.7740281 ], [ 131.496269399999989, 32.7726617 ], [ 131.499577499999987, 32.7740825 ], [ 131.504323299999982, 32.7731278 ], [ 131.5084822, 32.7742425 ], [ 131.510196899999983, 32.7777269 ], [ 131.5082414, 32.7814719 ], [ 131.5107725, 32.7901058 ], [ 131.513525, 32.7922581 ], [ 131.51746559999998, 32.8008042 ], [ 131.511816399999987, 32.8044864 ], [ 131.5077589, 32.8058167 ], [ 131.5055853, 32.8088469 ], [ 131.501995, 32.8104958 ], [ 131.5032453, 32.8136881 ], [ 131.4989594, 32.8155992 ], [ 131.4934489, 32.8158467 ], [ 131.483779, 32.8251641 ], [ 131.4788893, 32.8309438 ], [ 131.476355899999987, 32.8361519 ], [ 131.4724687, 32.835843 ], [ 131.463167299999981, 32.831143 ], [ 131.4542262, 32.8290161 ], [ 131.443572599999982, 32.8300319 ], [ 131.436969900000037, 32.8286261 ], [ 131.4360402, 32.8258816 ], [ 131.432014899999984, 32.8214833 ], [ 131.431271, 32.8183691 ], [ 131.4255355, 32.8163582 ], [ 131.4242558, 32.8135644 ], [ 131.421208799999988, 32.811916 ], [ 131.4160446, 32.8132624 ], [ 131.410011, 32.8131996 ], [ 131.405656, 32.8121707 ], [ 131.4002227, 32.8134882 ], [ 131.394823, 32.8110784 ], [ 131.388700699999987, 32.811782 ], [ 131.383930099999986, 32.8090104 ], [ 131.3782845, 32.8094706 ], [ 131.3689642, 32.8059898 ], [ 131.3639052, 32.8033585 ], [ 131.3564352, 32.8050268 ], [ 131.352517899999981, 32.8087471 ], [ 131.348635299999984, 32.8106821 ], [ 131.3483273, 32.8136499 ], [ 131.3506276, 32.8169127 ], [ 131.349784799999981, 32.8243546 ], [ 131.3438108, 32.8311005 ], [ 131.3402691, 32.8334402 ], [ 131.336086, 32.8327814 ], [ 131.3302229, 32.83333 ], [ 131.322897899999987, 32.8286525 ], [ 131.3089053, 32.8281725 ], [ 131.3015417, 32.8295711 ], [ 131.2915514, 32.8277991 ], [ 131.286083, 32.8314016 ], [ 131.281102799999985, 32.8294433 ], [ 131.2760738, 32.8287463 ], [ 131.272639699999985, 32.824153 ], [ 131.2654263, 32.8264752 ], [ 131.2625563, 32.8184849 ], [ 131.2578188, 32.818104399999989 ], [ 131.2549752, 32.8155805 ], [ 131.2571661, 32.8138216 ], [ 131.2549042, 32.809293 ], [ 131.2552561, 32.8046683 ], [ 131.2518337, 32.8014324 ], [ 131.2490714, 32.8015488 ], [ 131.24661279999998, 32.7989927 ], [ 131.24504060000001, 32.7941274 ], [ 131.2460096, 32.790963 ], [ 131.245369899999986, 32.7865514 ], [ 131.237352099999981, 32.7844877 ], [ 131.234633299999985, 32.7809636 ], [ 131.2372116, 32.7770478 ], [ 131.2464645, 32.7693961 ], [ 131.2454812, 32.7660039 ], [ 131.2415873, 32.7599653 ], [ 131.237149, 32.7584481 ], [ 131.2338624, 32.7474336 ], [ 131.2350055, 32.7443316 ], [ 131.231499899999989, 32.7440291 ], [ 131.2195975, 32.7353168 ], [ 131.215213899999981, 32.7304378 ], [ 131.2119284, 32.7286867 ], [ 131.206144699999982, 32.7301628 ], [ 131.195026500000012, 32.7253147 ], [ 131.189952299999987, 32.721993 ], [ 131.184020799999985, 32.714812 ], [ 131.180745799999983, 32.712927 ], [ 131.1793481, 32.7097469 ], [ 131.181928199999987, 32.7060244 ], [ 131.1794832, 32.7036074 ], [ 131.1804072, 32.7001271 ], [ 131.1770239, 32.6971242 ], [ 131.1750787, 32.693407 ], [ 131.1755871, 32.6871066 ], [ 131.1724705, 32.684748 ], [ 131.1752411, 32.679368 ], [ 131.174783, 32.6718355 ], [ 131.171461699999981, 32.672363 ], [ 131.163144499999987, 32.6716926 ], [ 131.1581203, 32.6776014 ], [ 131.1513894, 32.6800572 ], [ 131.1487663, 32.6776967 ], [ 131.1432194, 32.6758916 ], [ 131.143266899999986, 32.670058 ], [ 131.140191099999981, 32.6646467 ], [ 131.135863, 32.6622392 ], [ 131.1305357, 32.6578786 ], [ 131.1299119, 32.6547511 ], [ 131.1272157, 32.6542055 ], [ 131.1235941, 32.6466772 ], [ 131.1236533, 32.6446256 ], [ 131.11622269999998, 32.6426591 ], [ 131.1148124, 32.6389149 ], [ 131.1155752, 32.6354336 ], [ 131.11909, 32.6328684 ], [ 131.1198713, 32.6291467 ], [ 131.1159374, 32.6209495 ], [ 131.11620689999998, 32.6094876 ], [ 131.120508, 32.6054765 ], [ 131.1186394, 32.6021887 ], [ 131.119509699999981, 32.5988501 ], [ 131.1161361, 32.5967962 ], [ 131.1134755, 32.5913785 ], [ 131.106056600000016, 32.5891584 ], [ 131.105601899999982, 32.5852979 ], [ 131.1081969, 32.5820623 ], [ 131.1049911, 32.5796059 ], [ 131.107715, 32.5753498 ], [ 131.111377299999987, 32.5624532 ], [ 131.120331199999981, 32.5583133 ], [ 131.130937599999982, 32.5579292 ], [ 131.135332, 32.5631536 ], [ 131.141727299999985, 32.56389 ], [ 131.1461337, 32.5631017 ], [ 131.1483982, 32.564189 ], [ 131.159514600000023, 32.563731 ], [ 131.162129599999986, 32.5646046 ], [ 131.1659627, 32.5697652 ], [ 131.1703597, 32.5710385 ], [ 131.171900199999982, 32.5739657 ], [ 131.171075699999989, 32.5773246 ], [ 131.174018, 32.5829808 ], [ 131.175964099999987, 32.5844324 ], [ 131.172890199999983, 32.589781 ], [ 131.177241, 32.5948383 ], [ 131.176814899999982, 32.599398 ], [ 131.186136799999986, 32.6008605 ], [ 131.190956299999982, 32.6000917 ], [ 131.196927099999982, 32.6008406 ], [ 131.2025371, 32.5933073 ], [ 131.2053233, 32.5924698 ], [ 131.2083471, 32.5885806 ], [ 131.2162917, 32.5918383 ], [ 131.2198716, 32.5921604 ], [ 131.224462, 32.5944789 ], [ 131.2304447, 32.5911242 ], [ 131.237355, 32.5956292 ], [ 131.243300600000026, 32.5962681 ], [ 131.2436094, 32.59861 ], [ 131.2494422, 32.605389699999989 ], [ 131.251473299999986, 32.6061728 ], [ 131.253479699999986, 32.61072 ], [ 131.2527397, 32.6144642 ], [ 131.2556275, 32.6189658 ], [ 131.2579103, 32.6309131 ], [ 131.2544469, 32.6365478 ], [ 131.255891099999985, 32.6421131 ], [ 131.2661594, 32.6396031 ], [ 131.267525, 32.6405369 ] ] ] ] } },
{ "type": "Feature", "properties": { "hokenjo": "高鍋" }, "geometry": { "type": "MultiPolygon", "coordinates": [ [ [ [ 131.5148024, 32.0721625 ], [ 131.5199857, 32.087353 ], [ 131.525812799999983, 32.1016592 ], [ 131.5300485, 32.1085355 ], [ 131.5323994, 32.1152829 ], [ 131.5349233, 32.1178719 ], [ 131.537162199999983, 32.1237933 ], [ 131.5369283, 32.1262012 ], [ 131.5401363, 32.1321105 ], [ 131.5392005, 32.1367176 ], [ 131.541332400000016, 32.149401 ], [ 131.5434493, 32.1574415 ], [ 131.54614429999998, 32.1655418 ], [ 131.5481486, 32.1672931 ], [ 131.5526419, 32.1791561 ], [ 131.5518414, 32.1823104 ], [ 131.5530111, 32.1888961 ], [ 131.5554469, 32.1941527 ], [ 131.555996, 32.1978254 ], [ 131.5629889, 32.2174256 ], [ 131.568581599999987, 32.2295443 ], [ 131.572876, 32.2342932 ], [ 131.573025299999983, 32.2379631 ], [ 131.575372, 32.2411392 ], [ 131.5755261, 32.2486795 ], [ 131.5717799, 32.2530609 ], [ 131.5726201, 32.2564938 ], [ 131.575885299999982, 32.2586012 ], [ 131.575933099999986, 32.2648671 ], [ 131.577199399999984, 32.2708986 ], [ 131.585047800000012, 32.2914442 ], [ 131.5920214, 32.3060485 ], [ 131.5884686, 32.3051592 ], [ 131.5799381, 32.3089917 ], [ 131.5768617, 32.3052469 ], [ 131.574975, 32.3000006 ], [ 131.571965800000015, 32.2962336 ], [ 131.565811699999983, 32.3006264 ], [ 131.563704199999989, 32.3003211 ], [ 131.561259399999983, 32.3050931 ], [ 131.55751, 32.3048131 ], [ 131.559865, 32.3125678 ], [ 131.5566006, 32.3171903 ], [ 131.5554747, 32.32265 ], [ 131.5489006, 32.3233206 ], [ 131.537705, 32.3191431 ], [ 131.5291647, 32.3193206 ], [ 131.526757799999984, 32.3142197 ], [ 131.5213564, 32.3108628 ], [ 131.5182853, 32.3073208 ], [ 131.514827199999985, 32.3060417 ], [ 131.499325, 32.2955956 ], [ 131.4942475, 32.2958436 ], [ 131.493423299999989, 32.2996997 ], [ 131.4898436, 32.3003203 ], [ 131.486279699999983, 32.2984472 ], [ 131.483130599999981, 32.3023656 ], [ 131.4850169, 32.3059475 ], [ 131.4844128, 32.3087278 ], [ 131.4754269, 32.3168514 ], [ 131.471420599999988, 32.3189406 ], [ 131.4655769, 32.3163747 ], [ 131.4626422, 32.3106867 ], [ 131.4592064, 32.3094961 ], [ 131.4463356, 32.3135631 ], [ 131.4424022, 32.3115469 ], [ 131.4331239, 32.3095275 ], [ 131.4253367, 32.3060994 ], [ 131.4098492, 32.3087878 ], [ 131.4053997, 32.3124825 ], [ 131.3961658, 32.3135792 ], [ 131.3930283, 32.3125822 ], [ 131.3811078, 32.3160367 ], [ 131.378348099999982, 32.3134878 ], [ 131.372627199999982, 32.3134056 ], [ 131.3628189, 32.3092436 ], [ 131.3632192, 32.3148181 ], [ 131.3692044, 32.3157989 ], [ 131.369778599999989, 32.3218064 ], [ 131.3623083, 32.3244483 ], [ 131.3584506, 32.3275889 ], [ 131.350446399999981, 32.3307914 ], [ 131.3491253, 32.3321864 ], [ 131.34151079999998, 32.329485 ], [ 131.3380517, 32.3290358 ], [ 131.3344969, 32.325795 ], [ 131.326467799999989, 32.3252925 ], [ 131.3227225, 32.3220114 ], [ 131.319026399999984, 32.3229081 ], [ 131.312016699999987, 32.3210386 ], [ 131.3097314, 32.3217869 ], [ 131.305331699999982, 32.3152986 ], [ 131.3022139, 32.315185 ], [ 131.2935467, 32.3110164 ], [ 131.2873878, 32.30903 ], [ 131.2797156, 32.3096094 ], [ 131.27334, 32.311712799999988 ], [ 131.2703103, 32.3147572 ], [ 131.263049199999983, 32.3160572 ], [ 131.261475, 32.3186767 ], [ 131.2562558, 32.3221308 ], [ 131.2561556, 32.3255228 ], [ 131.2492258, 32.3289375 ], [ 131.2421058, 32.3273383 ], [ 131.2350194, 32.3285192 ], [ 131.228471399999989, 32.3239203 ], [ 131.223739699999982, 32.3238583 ], [ 131.2113986, 32.3299128 ], [ 131.2043275, 32.3368788 ], [ 131.1987849, 32.3398626 ], [ 131.1972582, 32.3378643 ], [ 131.1901174, 32.3407401 ], [ 131.185019899999986, 32.3340706 ], [ 131.183346299999982, 32.329194 ], [ 131.1764671, 32.3247032 ], [ 131.17690349999998, 32.3185307 ], [ 131.1750623, 32.3099624 ], [ 131.1738356, 32.3072894 ], [ 131.1690511, 32.3016803 ], [ 131.1666203, 32.3020222 ], [ 131.1625247, 32.3080852 ], [ 131.1591606, 32.3114154 ], [ 131.1558645, 32.3124498 ], [ 131.1467551, 32.312299 ], [ 131.1438959, 32.3106679 ], [ 131.133009, 32.3101357 ], [ 131.1284554, 32.3070484 ], [ 131.1240512, 32.3120287 ], [ 131.1205534, 32.3137301 ], [ 131.118434799999989, 32.317031 ], [ 131.109318100000024, 32.3157701 ], [ 131.101179799999983, 32.3117238 ], [ 131.096112799999986, 32.3053527 ], [ 131.096018, 32.3030772 ], [ 131.0929291, 32.299995 ], [ 131.090495799999985, 32.293985 ], [ 131.0871324, 32.2931322 ], [ 131.0859155, 32.2895475 ], [ 131.07908519999998, 32.2846969 ], [ 131.0785943, 32.2812228 ], [ 131.070514299999985, 32.2804175 ], [ 131.0675129, 32.2832486 ], [ 131.0588296, 32.2868538 ], [ 131.0514818, 32.2866052 ], [ 131.0497732, 32.2833246 ], [ 131.0545376, 32.2716974 ], [ 131.0542142, 32.2670025 ], [ 131.0507759, 32.2645447 ], [ 131.0445106, 32.2630483 ], [ 131.0416223, 32.2578994 ], [ 131.0427025, 32.2481631 ], [ 131.0469886, 32.2441995 ], [ 131.049534699999981, 32.2455907 ], [ 131.0570305, 32.2459412 ], [ 131.0611697, 32.2436971 ], [ 131.0666233, 32.2393049 ], [ 131.070915499999984, 32.23476 ], [ 131.0688513, 32.2297272 ], [ 131.0691443, 32.2253078 ], [ 131.073744299999987, 32.2241656 ], [ 131.0781632, 32.2194378 ], [ 131.0784371, 32.2155645 ], [ 131.082876199999987, 32.2098848 ], [ 131.084267, 32.2061871 ], [ 131.094483699999984, 32.2049065 ], [ 131.100531499999988, 32.2015429 ], [ 131.100076200000018, 32.1960251 ], [ 131.104323099999988, 32.1920071 ], [ 131.1021917, 32.1862971 ], [ 131.1035403, 32.181991 ], [ 131.1013534, 32.1782305 ], [ 131.1014381, 32.1730938 ], [ 131.104299199999986, 32.168543 ], [ 131.10759059999998, 32.1660088 ], [ 131.1089653, 32.1601488 ], [ 131.1117128, 32.159503 ], [ 131.1142331, 32.1511685 ], [ 131.117534, 32.1490001 ], [ 131.1214194, 32.1446036 ], [ 131.1258664, 32.1447639 ], [ 131.129835, 32.1467811 ], [ 131.1325061, 32.1426967 ], [ 131.1343144, 32.1367583 ], [ 131.1430614, 32.1383969 ], [ 131.1500106, 32.1363094 ], [ 131.150256399999989, 32.1324714 ], [ 131.1540561, 32.1333042 ], [ 131.1558494, 32.1366625 ], [ 131.1597933, 32.1384472 ], [ 131.1680925, 32.1355372 ], [ 131.167166399999985, 32.131075 ], [ 131.17043, 32.1294189 ], [ 131.17876, 32.1279522 ], [ 131.18884079999998, 32.1314681 ], [ 131.1934306, 32.1321006 ], [ 131.1976211, 32.1305336 ], [ 131.1994603, 32.1246806 ], [ 131.20464, 32.1216683 ], [ 131.210053599999981, 32.1248283 ], [ 131.217817199999985, 32.1241772 ], [ 131.2261208, 32.11613 ], [ 131.2286761, 32.1114897 ], [ 131.23351, 32.1064089 ], [ 131.2344644, 32.1030711 ], [ 131.242433299999988, 32.1003939 ], [ 131.2459561, 32.0981564 ], [ 131.2666131, 32.0987483 ], [ 131.272663599999987, 32.0907111 ], [ 131.272975799999983, 32.0859808 ], [ 131.27555110000003, 32.0823806 ], [ 131.284678899999989, 32.0745047 ], [ 131.285198899999983, 32.0726533 ], [ 131.2898094, 32.0722172 ], [ 131.2927625, 32.06932 ], [ 131.2963408, 32.0691689 ], [ 131.30671719999998, 32.0629636 ], [ 131.312442799999985, 32.0607086 ], [ 131.3150339, 32.0651189 ], [ 131.3193231, 32.0613564 ], [ 131.321893099999983, 32.0527233 ], [ 131.324068899999986, 32.0521572 ], [ 131.330118299999981, 32.045548599999989 ], [ 131.3292894, 32.0440461 ], [ 131.3333231, 32.0377342 ], [ 131.3389144, 32.0326311 ], [ 131.344845, 32.0290419 ], [ 131.3495225, 32.0274256 ], [ 131.359345599999983, 32.027611899999989 ], [ 131.364904699999983, 32.0253 ], [ 131.3654694, 32.0238456 ], [ 131.3738486, 32.0192878 ], [ 131.3821381, 32.0198706 ], [ 131.3868244, 32.0183364 ], [ 131.387331900000021, 32.0214092 ], [ 131.386053299999986, 32.0332917 ], [ 131.3876378, 32.0359492 ], [ 131.390537199999983, 32.0353322 ], [ 131.3922753, 32.0397089 ], [ 131.390884199999988, 32.0415072 ], [ 131.3955033, 32.048425 ], [ 131.3939575, 32.051605 ], [ 131.3976389, 32.0538556 ], [ 131.4023731, 32.0612683 ], [ 131.402701899999983, 32.0656403 ], [ 131.4074369, 32.065736699999988 ], [ 131.410756099999986, 32.0630739 ], [ 131.416547799999989, 32.0615333 ], [ 131.421158599999984, 32.0584917 ], [ 131.421872799999989, 32.054944399999989 ], [ 131.425352799999985, 32.0523961 ], [ 131.4328997, 32.0534617 ], [ 131.4331247, 32.05573 ], [ 131.438425, 32.0555361 ], [ 131.4412318, 32.0570511 ], [ 131.449174699999986, 32.0554073 ], [ 131.452995, 32.0521573 ], [ 131.4599062, 32.0503601 ], [ 131.467528099999981, 32.0503602 ], [ 131.4721544, 32.0492697 ], [ 131.47339119999998, 32.0469169 ], [ 131.4785765, 32.0454359 ], [ 131.48676949999998, 32.0413745 ], [ 131.4916198, 32.0434586 ], [ 131.500367899999986, 32.0439474 ], [ 131.5032966, 32.0468603 ], [ 131.507543199999986, 32.0462784 ], [ 131.5148024, 32.0721625 ] ] ] ] } },
{ "type": "Feature", "properties": { "hokenjo": "小林" }, "geometry": { "type": "MultiPolygon", "coordinates": [ [ [ [ 131.0888631, 31.9380469 ], [ 131.094295599999981, 31.93912 ], [ 131.098564399999987, 31.9374997 ], [ 131.1012275, 31.9308661 ], [ 131.1062469, 31.9311689 ], [ 131.1091528, 31.9326106 ], [ 131.108985599999983, 31.9355125 ], [ 131.112523899999985, 31.9355072 ], [ 131.1159542, 31.9384725 ], [ 131.132395, 31.9446856 ], [ 131.1365264, 31.9427161 ], [ 131.142100299999981, 31.9421786 ], [ 131.1496022, 31.9439358 ], [ 131.152846399999987, 31.9428297 ], [ 131.1565975, 31.9395181 ], [ 131.1638303, 31.9400656 ], [ 131.1701717, 31.938955 ], [ 131.1738456, 31.9444747 ], [ 131.175894699999986, 31.9448003 ], [ 131.1810992, 31.9422469 ], [ 131.1889378, 31.9415472 ], [ 131.1947917, 31.9393664 ], [ 131.198967499999981, 31.9396981 ], [ 131.1948506, 31.9435358 ], [ 131.1925125, 31.9489797 ], [ 131.192903299999983, 31.9514822 ], [ 131.200291700000037, 31.9636972 ], [ 131.2050419, 31.9639667 ], [ 131.2064064, 31.9726969 ], [ 131.2043586, 31.9752594 ], [ 131.2087922, 31.9784181 ], [ 131.2075333, 31.9821919 ], [ 131.204268899999988, 31.9797514 ], [ 131.2007356, 31.9810383 ], [ 131.197325299999989, 31.9884722 ], [ 131.1919706, 31.9881764 ], [ 131.1873344, 31.9902814 ], [ 131.184976399999982, 31.9928597 ], [ 131.179472799999985, 31.9914319 ], [ 131.1748892, 31.9947467 ], [ 131.174408299999982, 31.9900389 ], [ 131.1703056, 31.99120610000001 ], [ 131.1660494, 31.9944528 ], [ 131.166875, 31.9962042 ], [ 131.1642497, 32.0038978 ], [ 131.1643269, 32.008155 ], [ 131.1591719, 32.0127692 ], [ 131.159245, 32.0143117 ], [ 131.1531647, 32.0176819 ], [ 131.1509911, 32.0254419 ], [ 131.157535, 32.0274836 ], [ 131.1562903, 32.0348786 ], [ 131.1582842, 32.0397097 ], [ 131.1569925, 32.0430986 ], [ 131.166623099999981, 32.0515206 ], [ 131.166442499999988, 32.0648992 ], [ 131.1596731, 32.0711381 ], [ 131.1602533, 32.0736258 ], [ 131.18427029999998, 32.0849928 ], [ 131.1843225, 32.0893806 ], [ 131.181565299999988, 32.0904375 ], [ 131.1814008, 32.0941211 ], [ 131.1772569, 32.0967492 ], [ 131.1793486, 32.1026536 ], [ 131.1778894, 32.1053097 ], [ 131.1797633, 32.109070599999988 ], [ 131.176499399999983, 32.1106281 ], [ 131.1757447, 32.1164714 ], [ 131.1726289, 32.1263986 ], [ 131.17043, 32.1294189 ], [ 131.167166399999985, 32.131075 ], [ 131.1680925, 32.1355372 ], [ 131.1597933, 32.1384472 ], [ 131.1558494, 32.1366625 ], [ 131.1540561, 32.1333042 ], [ 131.150256399999989, 32.1324714 ], [ 131.1500106, 32.1363094 ], [ 131.1430614, 32.1383969 ], [ 131.1343144, 32.1367583 ], [ 131.1325061, 32.1426967 ], [ 131.129835, 32.1467811 ], [ 131.1258664, 32.1447639 ], [ 131.1214194, 32.1446036 ], [ 131.117534, 32.1490001 ], [ 131.1142331, 32.1511685 ], [ 131.1117128, 32.159503 ], [ 131.1089653, 32.1601488 ], [ 131.1021322, 32.1579341 ], [ 131.0962422, 32.1523741 ], [ 131.094088299999981, 32.1533883 ], [ 131.0833561, 32.1546397 ], [ 131.0773661, 32.1578147 ], [ 131.0701747, 32.159668 ], [ 131.0677369, 32.1572866 ], [ 131.0595236, 32.1560461 ], [ 131.058535799999987, 32.1549258 ], [ 131.052115499999985, 32.1583594 ], [ 131.049250199999989, 32.1630119 ], [ 131.045298299999985, 32.1612613 ], [ 131.038085300000034, 32.1698863 ], [ 131.0263603, 32.1713643 ], [ 131.023280299999982, 32.1692678 ], [ 131.0187253, 32.1698523 ], [ 131.01318150000003, 32.174378 ], [ 131.009986199999986, 32.1734686 ], [ 131.0037826, 32.1695213 ], [ 130.998019, 32.1614199 ], [ 130.994419599999986, 32.1580696 ], [ 130.9958212, 32.1559324 ], [ 130.995578199999983, 32.1517613 ], [ 130.9926357, 32.1480415 ], [ 130.985823499999981, 32.1431748 ], [ 130.9835368, 32.1432287 ], [ 130.974658799999986, 32.1367653 ], [ 130.9725513, 32.1281053 ], [ 130.9745182, 32.1209206 ], [ 130.968420500000036, 32.1197586 ], [ 130.961448499999989, 32.1200502 ], [ 130.9563583, 32.1156375 ], [ 130.9534969, 32.1153952 ], [ 130.9493891, 32.1160772 ], [ 130.944147499999985, 32.1196435 ], [ 130.9389602, 32.1187193 ], [ 130.9325766, 32.1163585 ], [ 130.9282997, 32.119966 ], [ 130.927465, 32.1224771 ], [ 130.921269699999982, 32.1245565 ], [ 130.9163431, 32.1252148 ], [ 130.913428899999985, 32.1304487 ], [ 130.9106136, 32.129449 ], [ 130.906012, 32.133594 ], [ 130.90074, 32.1323829 ], [ 130.8973097, 32.1259746 ], [ 130.8883553, 32.1231399 ], [ 130.88619, 32.1236879 ], [ 130.8781434, 32.1210857 ], [ 130.876356099999981, 32.1167154 ], [ 130.8694084, 32.1150582 ], [ 130.8669559, 32.1117715 ], [ 130.8660409, 32.1080168 ], [ 130.862425, 32.1017999 ], [ 130.857067799999982, 32.0997002 ], [ 130.849230299999988, 32.1042379 ], [ 130.844498099999981, 32.1040068 ], [ 130.8390142, 32.1072057 ], [ 130.833702599999981, 32.1048299 ], [ 130.830958700000025, 32.1047776 ], [ 130.8229078, 32.0997266 ], [ 130.820796699999988, 32.0949241 ], [ 130.807912300000027, 32.0993424 ], [ 130.7888117, 32.0989894 ], [ 130.7826053, 32.1001619 ], [ 130.7794331, 32.0994717 ], [ 130.7753581, 32.1018814 ], [ 130.7728142, 32.10038 ], [ 130.7669464, 32.1015059 ], [ 130.7594698, 32.0968151 ], [ 130.756255899999985, 32.0985645 ], [ 130.7535823, 32.103447 ], [ 130.7511489, 32.1040778 ], [ 130.7454203, 32.1019206 ], [ 130.7420945, 32.0978956 ], [ 130.7388512, 32.1012851 ], [ 130.7399039, 32.1048828 ], [ 130.736813399999988, 32.1081709 ], [ 130.733497799999981, 32.108367 ], [ 130.727675299999987, 32.1018714 ], [ 130.7206017, 32.1007992 ], [ 130.7212436, 32.098692 ], [ 130.7179347, 32.094746 ], [ 130.7159853, 32.0856933 ], [ 130.7123114, 32.0816842 ], [ 130.70573109999998, 32.0799144 ], [ 130.7035597, 32.0771828 ], [ 130.7033769, 32.0585453 ], [ 130.703910600000029, 32.0577111 ], [ 130.7355547, 32.0482008 ], [ 130.73788829999998, 32.0472469 ], [ 130.743053299999985, 32.0417706 ], [ 130.7462756, 32.0418619 ], [ 130.747468199999986, 32.0362679 ], [ 130.7525382, 32.033316 ], [ 130.7584675, 32.0333044 ], [ 130.7588658, 32.0300322 ], [ 130.7620106, 32.0274972 ], [ 130.7614519, 32.0252403 ], [ 130.7687431, 32.0201739 ], [ 130.7768725, 32.0164769 ], [ 130.7782636, 32.0136417 ], [ 130.7786872, 31.9979622 ], [ 130.78117, 31.9922111 ], [ 130.7819608, 31.9830906 ], [ 130.7841947, 31.9790706 ], [ 130.790619199999981, 31.9748189 ], [ 130.7945061, 31.9732983 ], [ 130.7958978, 31.9664406 ], [ 130.8010531, 31.9608442 ], [ 130.7996478, 31.9568356 ], [ 130.799539399999986, 31.9501978 ], [ 130.8052908, 31.9498267 ], [ 130.8115369, 31.9447375 ], [ 130.818052199999983, 31.9409953 ], [ 130.8257803, 31.9416711 ], [ 130.837171899999987, 31.9417175 ], [ 130.8405119, 31.9427256 ], [ 130.8446183, 31.9398881 ], [ 130.846834199999989, 31.9402369 ], [ 130.8574869, 31.9380658 ], [ 130.8584828, 31.9353206 ], [ 130.861370300000033, 31.9339406 ], [ 130.8656258, 31.9339461 ], [ 130.869515299999989, 31.9298236 ], [ 130.8726839, 31.9280264 ], [ 130.8782042, 31.9221803 ], [ 130.882285, 31.9212178 ], [ 130.88287889999998, 31.9150372 ], [ 130.8864125, 31.9131306 ], [ 130.8863261, 31.9095039 ], [ 130.8880014, 31.9057381 ], [ 130.8906431, 31.9035694 ], [ 130.8977428, 31.8885311 ], [ 130.900828599999983, 31.8857547 ], [ 130.9045075, 31.88701 ], [ 130.911168299999986, 31.8876308 ], [ 130.9138394, 31.8859794 ], [ 130.914013899999986, 31.8857669 ], [ 130.92521, 31.88587 ], [ 130.9288708, 31.8848914 ], [ 130.931714699999986, 31.8861228 ], [ 130.9370944, 31.8860356 ], [ 130.9489872, 31.8905314 ], [ 130.9531989, 31.8879208 ], [ 130.957297499999981, 31.8872853 ], [ 130.9844489, 31.8810425 ], [ 130.991001899999986, 31.8811542 ], [ 130.9935008, 31.8832869 ], [ 130.9998972, 31.88435 ], [ 130.999495599999989, 31.8889708 ], [ 131.0016886, 31.8928125 ], [ 131.008044399999989, 31.8985003 ], [ 131.012276899999989, 31.9066697 ], [ 131.0188511, 31.91248860000001 ], [ 131.0200461, 31.9152994 ], [ 131.02644, 31.9145494 ], [ 131.0228683, 31.9191864 ], [ 131.0303194, 31.9289425 ], [ 131.035642800000034, 31.9303178 ], [ 131.040386899999987, 31.9299467 ], [ 131.046639199999987, 31.9220267 ], [ 131.04955529999998, 31.9219828 ], [ 131.056623299999984, 31.9163578 ], [ 131.0660689, 31.9166917 ], [ 131.0721983, 31.9137078 ], [ 131.0760967, 31.9139681 ], [ 131.0785214, 31.9106117 ], [ 131.083311399999985, 31.909365 ], [ 131.0877964, 31.912250600000011 ], [ 131.0961772, 31.9101858 ], [ 131.0973611, 31.9139483 ], [ 131.1036919, 31.9206622 ], [ 131.0932172, 31.9269281 ], [ 131.0916092, 31.9296619 ], [ 131.0875081, 31.9306494 ], [ 131.0888631, 31.9380469 ] ] ] ] } },
{ "type": "Feature", "properties": { "hokenjo": "中央" }, "geometry": { "type": "MultiPolygon", "coordinates": [ [ [ [ 131.18884079999998, 32.1314681 ], [ 131.17876, 32.1279522 ], [ 131.17043, 32.1294189 ], [ 131.1726289, 32.1263986 ], [ 131.1757447, 32.1164714 ], [ 131.176499399999983, 32.1106281 ], [ 131.1797633, 32.109070599999988 ], [ 131.1778894, 32.1053097 ], [ 131.1793486, 32.1026536 ], [ 131.1772569, 32.0967492 ], [ 131.1814008, 32.0941211 ], [ 131.181565299999988, 32.0904375 ], [ 131.1843225, 32.0893806 ], [ 131.18427029999998, 32.0849928 ], [ 131.1602533, 32.0736258 ], [ 131.1596731, 32.0711381 ], [ 131.166442499999988, 32.0648992 ], [ 131.166623099999981, 32.0515206 ], [ 131.1569925, 32.0430986 ], [ 131.1582842, 32.0397097 ], [ 131.1562903, 32.0348786 ], [ 131.157535, 32.0274836 ], [ 131.1509911, 32.0254419 ], [ 131.1531647, 32.0176819 ], [ 131.159245, 32.0143117 ], [ 131.1591719, 32.0127692 ], [ 131.1643269, 32.008155 ], [ 131.1642497, 32.0038978 ], [ 131.166875, 31.9962042 ], [ 131.1660494, 31.9944528 ], [ 131.1703056, 31.99120610000001 ], [ 131.174408299999982, 31.9900389 ], [ 131.1748892, 31.9947467 ], [ 131.179472799999985, 31.9914319 ], [ 131.184976399999982, 31.9928597 ], [ 131.1873344, 31.9902814 ], [ 131.1919706, 31.9881764 ], [ 131.197325299999989, 31.9884722 ], [ 131.213809199999986, 31.995835 ], [ 131.2171506, 31.9922203 ], [ 131.2178994, 31.9865639 ], [ 131.22134, 31.9828931 ], [ 131.223991899999987, 31.9779653 ], [ 131.2248003, 31.97251360000001 ], [ 131.2300644, 31.9730881 ], [ 131.2332906, 31.9747494 ], [ 131.23704, 31.9736617 ], [ 131.242950799999988, 31.9758389 ], [ 131.253289199999983, 31.9808686 ], [ 131.2569928, 31.9783364 ], [ 131.265565, 31.9821369 ], [ 131.2696081, 31.9814631 ], [ 131.2730172, 31.9809378 ], [ 131.2765578, 31.9833142 ], [ 131.280401899999987, 31.9827675 ], [ 131.28321219999998, 31.9803931 ], [ 131.287353599999989, 31.9821661 ], [ 131.292831899999982, 31.9817503 ], [ 131.294315, 31.9791997 ], [ 131.299128599999989, 31.97671 ], [ 131.2991017, 31.9751994 ], [ 131.3038172, 31.9713667 ], [ 131.31209, 31.9663547 ], [ 131.3222958, 31.9669394 ], [ 131.3266022, 31.9654533 ], [ 131.3287622, 31.9703244 ], [ 131.32820719999998, 31.9732264 ], [ 131.3306981, 31.9746692 ], [ 131.331882799999988, 31.9783433 ], [ 131.3393975, 31.9787594 ], [ 131.342780799999986, 31.9805261 ], [ 131.348117799999983, 31.9813447 ], [ 131.3512217, 31.9771817 ], [ 131.3560369, 31.9778831 ], [ 131.3602947, 31.9768758 ], [ 131.3654583, 31.9712614 ], [ 131.368392199999988, 31.9707653 ], [ 131.3714047, 31.9680997 ], [ 131.3746411, 31.9768847 ], [ 131.374574199999984, 31.9833519 ], [ 131.377485799999988, 31.9868922 ], [ 131.377250799999985, 31.9900461 ], [ 131.3798836, 31.9921669 ], [ 131.3764914, 31.9970644 ], [ 131.3798014, 32.0014564 ], [ 131.3801281, 32.0048614 ], [ 131.3858706, 32.0081175 ], [ 131.3890064, 32.015205 ], [ 131.3868244, 32.0183364 ], [ 131.3821381, 32.0198706 ], [ 131.3738486, 32.0192878 ], [ 131.3654694, 32.0238456 ], [ 131.364904699999983, 32.0253 ], [ 131.359345599999983, 32.027611899999989 ], [ 131.3495225, 32.0274256 ], [ 131.344845, 32.0290419 ], [ 131.3389144, 32.0326311 ], [ 131.3333231, 32.0377342 ], [ 131.3292894, 32.0440461 ], [ 131.330118299999981, 32.045548599999989 ], [ 131.324068899999986, 32.0521572 ], [ 131.321893099999983, 32.0527233 ], [ 131.3193231, 32.0613564 ], [ 131.3150339, 32.0651189 ], [ 131.312442799999985, 32.0607086 ], [ 131.30671719999998, 32.0629636 ], [ 131.2963408, 32.0691689 ], [ 131.2927625, 32.06932 ], [ 131.2898094, 32.0722172 ], [ 131.285198899999983, 32.0726533 ], [ 131.284678899999989, 32.0745047 ], [ 131.27555110000003, 32.0823806 ], [ 131.272975799999983, 32.0859808 ], [ 131.272663599999987, 32.0907111 ], [ 131.2666131, 32.0987483 ], [ 131.2459561, 32.0981564 ], [ 131.242433299999988, 32.1003939 ], [ 131.2344644, 32.1030711 ], [ 131.23351, 32.1064089 ], [ 131.2286761, 32.1114897 ], [ 131.2261208, 32.11613 ], [ 131.217817199999985, 32.1241772 ], [ 131.210053599999981, 32.1248283 ], [ 131.20464, 32.1216683 ], [ 131.1994603, 32.1246806 ], [ 131.1976211, 32.1305336 ], [ 131.1934306, 32.1321006 ], [ 131.18884079999998, 32.1314681 ] ] ] ] } },
{ "type": "Feature", "properties": { "hokenjo": "都城" }, "geometry": { "type": "MultiPolygon", "coordinates": [ [ [ [ 131.2400322, 31.7977403 ], [ 131.2382675, 31.8083533 ], [ 131.234340800000012, 31.8143522 ], [ 131.2303717, 31.8162631 ], [ 131.2296275, 31.8213286 ], [ 131.2224125, 31.8290381 ], [ 131.22619, 31.8301378 ], [ 131.2283225, 31.83562 ], [ 131.2367611, 31.8405294 ], [ 131.2414097, 31.8413983 ], [ 131.2424825, 31.8510017 ], [ 131.2370917, 31.8514914 ], [ 131.2385597, 31.8579872 ], [ 131.2493811, 31.85672 ], [ 131.254298299999988, 31.86087 ], [ 131.249803899999989, 31.8656833 ], [ 131.250145799999984, 31.8720639 ], [ 131.2541669, 31.8767597 ], [ 131.248438099999987, 31.8755517 ], [ 131.2468769, 31.8792508 ], [ 131.2484192, 31.8841194 ], [ 131.2476536, 31.8878708 ], [ 131.2433639, 31.8846803 ], [ 131.243023099999988, 31.8785897 ], [ 131.239224399999983, 31.8767994 ], [ 131.2290494, 31.8800194 ], [ 131.216971699999988, 31.8805653 ], [ 131.2142719, 31.8749303 ], [ 131.211164199999985, 31.8723261 ], [ 131.2081533, 31.864634400000011 ], [ 131.2067786, 31.863415 ], [ 131.2008544, 31.8678817 ], [ 131.195731099999989, 31.8698572 ], [ 131.1932225, 31.8775622 ], [ 131.1901, 31.8809053 ], [ 131.190492800000015, 31.8878322 ], [ 131.1917961, 31.8916847 ], [ 131.1917139, 31.8969628 ], [ 131.18929559999998, 31.9004717 ], [ 131.190893099999982, 31.9098567 ], [ 131.19577, 31.9122578 ], [ 131.1970497, 31.9158972 ], [ 131.199885599999988, 31.9182267 ], [ 131.203156100000029, 31.9169056 ], [ 131.208943600000026, 31.9126269 ], [ 131.2204017, 31.9194311 ], [ 131.216184200000015, 31.9285836 ], [ 131.2144161, 31.9309683 ], [ 131.2082394, 31.9311908 ], [ 131.206058899999988, 31.9327447 ], [ 131.207579399999986, 31.9367478 ], [ 131.201629199999985, 31.9397411 ], [ 131.198967499999981, 31.9396981 ], [ 131.1947917, 31.9393664 ], [ 131.1889378, 31.9415472 ], [ 131.1810992, 31.9422469 ], [ 131.175894699999986, 31.9448003 ], [ 131.1738456, 31.9444747 ], [ 131.1701717, 31.938955 ], [ 131.1638303, 31.9400656 ], [ 131.1565975, 31.9395181 ], [ 131.152846399999987, 31.9428297 ], [ 131.1496022, 31.9439358 ], [ 131.142100299999981, 31.9421786 ], [ 131.1365264, 31.9427161 ], [ 131.132395, 31.9446856 ], [ 131.1159542, 31.9384725 ], [ 131.112523899999985, 31.9355072 ], [ 131.108985599999983, 31.9355125 ], [ 131.1091528, 31.9326106 ], [ 131.1062469, 31.9311689 ], [ 131.1012275, 31.9308661 ], [ 131.098564399999987, 31.9374997 ], [ 131.094295599999981, 31.93912 ], [ 131.0888631, 31.9380469 ], [ 131.0875081, 31.9306494 ], [ 131.0916092, 31.9296619 ], [ 131.0932172, 31.9269281 ], [ 131.1036919, 31.9206622 ], [ 131.0973611, 31.9139483 ], [ 131.0961772, 31.9101858 ], [ 131.0877964, 31.912250600000011 ], [ 131.083311399999985, 31.909365 ], [ 131.0785214, 31.9106117 ], [ 131.0760967, 31.9139681 ], [ 131.0721983, 31.9137078 ], [ 131.0660689, 31.9166917 ], [ 131.056623299999984, 31.9163578 ], [ 131.04955529999998, 31.9219828 ], [ 131.046639199999987, 31.9220267 ], [ 131.040386899999987, 31.9299467 ], [ 131.035642800000034, 31.9303178 ], [ 131.0303194, 31.9289425 ], [ 131.0228683, 31.9191864 ], [ 131.02644, 31.9145494 ], [ 131.0200461, 31.9152994 ], [ 131.0188511, 31.91248860000001 ], [ 131.012276899999989, 31.9066697 ], [ 131.008044399999989, 31.8985003 ], [ 131.0016886, 31.8928125 ], [ 130.999495599999989, 31.8889708 ], [ 130.9998972, 31.88435 ], [ 130.9935008, 31.8832869 ], [ 130.991001899999986, 31.8811542 ], [ 130.9844489, 31.8810425 ], [ 130.957297499999981, 31.8872853 ], [ 130.9531989, 31.8879208 ], [ 130.9489872, 31.8905314 ], [ 130.9370944, 31.8860356 ], [ 130.931714699999986, 31.8861228 ], [ 130.9288708, 31.8848914 ], [ 130.92521, 31.88587 ], [ 130.914013899999986, 31.8857669 ], [ 130.9117406, 31.8834283 ], [ 130.9067789, 31.8853258 ], [ 130.9024478, 31.884445 ], [ 130.8993906, 31.8810456 ], [ 130.8945703, 31.8779664 ], [ 130.89349, 31.8720914 ], [ 130.8877517, 31.8608622 ], [ 130.889219199999985, 31.8517339 ], [ 130.8881883, 31.8483389 ], [ 130.8844081, 31.8455078 ], [ 130.8762203, 31.8441881 ], [ 130.8750267, 31.8426564 ], [ 130.879050299999989, 31.8393958 ], [ 130.8788006, 31.8368019 ], [ 130.8817444, 31.8335136 ], [ 130.881825, 31.8296889 ], [ 130.8782589, 31.8288503 ], [ 130.8766397, 31.8213425 ], [ 130.876902199999989, 31.8157278 ], [ 130.880198299999989, 31.8148978 ], [ 130.882783099999983, 31.8070489 ], [ 130.8905111, 31.8064767 ], [ 130.8949797, 31.803895 ], [ 130.898, 31.8036094 ], [ 130.9009508, 31.8010486 ], [ 130.909386899999987, 31.8007189 ], [ 130.9150656, 31.8048931 ], [ 130.917932799999988, 31.8034811 ], [ 130.9183175, 31.7993136 ], [ 130.921191099999987, 31.7996736 ], [ 130.9257581, 31.7942656 ], [ 130.9252831, 31.7912325 ], [ 130.929544199999981, 31.7863581 ], [ 130.9417119, 31.7851108 ], [ 130.957430599999981, 31.7829889 ], [ 130.9611031, 31.7816317 ], [ 130.966688299999987, 31.7815639 ], [ 130.971405, 31.78459 ], [ 130.976753300000013, 31.7823925 ], [ 130.9802525, 31.7785392 ], [ 130.986985, 31.7801478 ], [ 130.9906253, 31.7767692 ], [ 130.9916892, 31.7711789 ], [ 130.9884367, 31.7654592 ], [ 130.9827756, 31.7673908 ], [ 130.9824356, 31.763215 ], [ 130.979193899999984, 31.7617156 ], [ 130.9780983, 31.7588572 ], [ 130.9785167, 31.7515683 ], [ 130.9840136, 31.7516278 ], [ 130.9868964, 31.7497175 ], [ 130.9907153, 31.7511575 ], [ 130.994538899999981, 31.7474139 ], [ 130.9978825, 31.7459169 ], [ 131.00225, 31.7483467 ], [ 131.006745599999988, 31.7492256 ], [ 131.0089936, 31.7473153 ], [ 131.0152019, 31.7488042 ], [ 131.017840299999989, 31.7452261 ], [ 131.0159673, 31.7416045 ], [ 131.0170688, 31.7372014 ], [ 131.0164892, 31.7339083 ], [ 131.0176411, 31.7244319 ], [ 131.0160856, 31.7171806 ], [ 131.0130567, 31.7131275 ], [ 131.016525, 31.7098989 ], [ 131.0184789, 31.705215 ], [ 131.0286056, 31.6974767 ], [ 131.0236686, 31.6917714 ], [ 131.0255328, 31.68846 ], [ 131.0237597, 31.6852417 ], [ 131.0265731, 31.6824111 ], [ 131.0242356, 31.674095 ], [ 131.0276197, 31.6685272 ], [ 131.0255953, 31.6668978 ], [ 131.030874399999988, 31.6628961 ], [ 131.0368397, 31.6618147 ], [ 131.046066699999983, 31.6524569 ], [ 131.048239199999983, 31.6456925 ], [ 131.0475347, 31.6420683 ], [ 131.0521656, 31.6402236 ], [ 131.052048900000017, 31.6373183 ], [ 131.0542589, 31.6334931 ], [ 131.057367900000031, 31.6341924 ], [ 131.0579936, 31.638135599999988 ], [ 131.06518029999998, 31.6474014 ], [ 131.06900109999998, 31.6498725 ], [ 131.072548899999987, 31.6581222 ], [ 131.0792687, 31.6602142 ], [ 131.0832486, 31.6561275 ], [ 131.089387499999987, 31.6536447 ], [ 131.0927256, 31.6486703 ], [ 131.0956067, 31.6463589 ], [ 131.1010461, 31.6447106 ], [ 131.1080528, 31.6376289 ], [ 131.1134442, 31.635075 ], [ 131.1149886, 31.6307122 ], [ 131.1178486, 31.6293289 ], [ 131.122296899999981, 31.6304931 ], [ 131.1278097, 31.6264803 ], [ 131.1388494, 31.6276853 ], [ 131.1422489, 31.6302875 ], [ 131.148067, 31.6306591 ], [ 131.1511219, 31.6332689 ], [ 131.155706399999985, 31.6341306 ], [ 131.1588903, 31.6371353 ], [ 131.1630628, 31.6364964 ], [ 131.16442, 31.6394519 ], [ 131.1685367, 31.6373103 ], [ 131.1699164, 31.6334972 ], [ 131.178664699999985, 31.6299106 ], [ 131.180186099999986, 31.6262875 ], [ 131.1883508, 31.6246333 ], [ 131.1894025, 31.6222369 ], [ 131.1937369, 31.619915 ], [ 131.1973739, 31.6279206 ], [ 131.1975419, 31.6325842 ], [ 131.2024633, 31.6350722 ], [ 131.2025078, 31.6369658 ], [ 131.199790799999988, 31.6393289 ], [ 131.1974847, 31.6444925 ], [ 131.19103, 31.6449342 ], [ 131.180776899999984, 31.6508292 ], [ 131.179980799999981, 31.6563253 ], [ 131.17634750000002, 31.6586842 ], [ 131.170410299999986, 31.6645539 ], [ 131.1678742, 31.6688039 ], [ 131.160337199999987, 31.6706031 ], [ 131.1616181, 31.6749475 ], [ 131.1664003, 31.6790561 ], [ 131.169117199999988, 31.6858122 ], [ 131.1740103, 31.688675 ], [ 131.1754714, 31.6917417 ], [ 131.185199399999988, 31.6992664 ], [ 131.1910856, 31.6991697 ], [ 131.1977358, 31.7041911 ], [ 131.203314399999982, 31.7041608 ], [ 131.2055044, 31.7062944 ], [ 131.2135228, 31.7105 ], [ 131.2107958, 31.7149161 ], [ 131.214382199999989, 31.7155103 ], [ 131.2180075, 31.7135406 ], [ 131.2293817, 31.7141922 ], [ 131.2321192, 31.7161914 ], [ 131.235388299999983, 31.7226725 ], [ 131.2346019, 31.7259128 ], [ 131.2381881, 31.7277483 ], [ 131.236926399999987, 31.7309589 ], [ 131.23954, 31.7333906 ], [ 131.248302199999983, 31.7332247 ], [ 131.2515167, 31.7349569 ], [ 131.257005599999985, 31.7345333 ], [ 131.2601525, 31.7363694 ], [ 131.261650299999985, 31.7450175 ], [ 131.2634808, 31.7494875 ], [ 131.268880599999989, 31.7553 ], [ 131.267474199999981, 31.7638269 ], [ 131.2696008, 31.7685531 ], [ 131.2663642, 31.7694931 ], [ 131.265326099999982, 31.7763103 ], [ 131.2670214, 31.7784719 ], [ 131.263654699999989, 31.7806306 ], [ 131.260543899999988, 31.7802981 ], [ 131.2540275, 31.7764978 ], [ 131.251755799999984, 31.7792267 ], [ 131.2451308, 31.7774519 ], [ 131.241284399999984, 31.7779997 ], [ 131.237830799999983, 31.7826047 ], [ 131.2378597, 31.7883428 ], [ 131.241109199999983, 31.7954687 ], [ 131.2400322, 31.7977403 ] ] ] ] } },
{ "type": "Feature", "properties": { "hokenjo": "日向" }, "geometry": { "type": "MultiPolygon", "coordinates": [ [ [ [ 131.650795, 32.4576709 ], [ 131.6506307, 32.4626036 ], [ 131.6519788, 32.4668914 ], [ 131.6578259, 32.4692908 ], [ 131.656050599999986, 32.47328 ], [ 131.6567997, 32.4801941 ], [ 131.6598794, 32.483577 ], [ 131.6704729, 32.4807327 ], [ 131.674410199999983, 32.4803796 ], [ 131.677828399999981, 32.4834987 ], [ 131.6802195, 32.4829583 ], [ 131.6803055, 32.4793452 ], [ 131.677194, 32.4752664 ], [ 131.684611, 32.4713935 ], [ 131.6877264, 32.4688913 ], [ 131.6934503, 32.470001 ], [ 131.696210899999983, 32.4694772 ], [ 131.7042195, 32.4765233 ], [ 131.707564099999985, 32.47741 ], [ 131.710518399999984, 32.4820144 ], [ 131.7157952, 32.4816071 ], [ 131.7174939, 32.4885422 ], [ 131.7204266, 32.4863232 ], [ 131.7242604, 32.4890733 ], [ 131.7261777, 32.4953132 ], [ 131.728116299999982, 32.4967211 ], [ 131.720550299999985, 32.4972456 ], [ 131.715815599999985, 32.4953056 ], [ 131.712838299999987, 32.4978031 ], [ 131.7076461, 32.4981647 ], [ 131.70081, 32.4947764 ], [ 131.6964544, 32.4961808 ], [ 131.6910325, 32.4943303 ], [ 131.6839539, 32.4898733 ], [ 131.6797244, 32.4930533 ], [ 131.6782872, 32.4965547 ], [ 131.6686839, 32.4989953 ], [ 131.665400299999988, 32.5016708 ], [ 131.665847499999984, 32.505015 ], [ 131.6640194, 32.5076853 ], [ 131.656793099999987, 32.5116511 ], [ 131.651766899999984, 32.5114536 ], [ 131.6489814, 32.515920799999989 ], [ 131.6445936, 32.5159094 ], [ 131.642532499999987, 32.5192219 ], [ 131.6339633, 32.5197117 ], [ 131.6299678, 32.5223647 ], [ 131.6275281, 32.5195817 ], [ 131.6150342, 32.516893599999989 ], [ 131.612723599999981, 32.5199856 ], [ 131.613377499999984, 32.5267264 ], [ 131.6100553, 32.5313053 ], [ 131.604688899999985, 32.5335408 ], [ 131.603828599999986, 32.5318853 ], [ 131.5967817, 32.5275403 ], [ 131.591904699999986, 32.5257186 ], [ 131.588643099999985, 32.529755 ], [ 131.588889199999983, 32.5315744 ], [ 131.5850433, 32.5353769 ], [ 131.582414199999988, 32.5357244 ], [ 131.581355799999983, 32.5395975 ], [ 131.5840183, 32.5432361 ], [ 131.5820869, 32.5463719 ], [ 131.578508299999982, 32.5457561 ], [ 131.5745983, 32.5476944 ], [ 131.57084279999998, 32.5442725 ], [ 131.5659322, 32.5454594 ], [ 131.5626608, 32.5390758 ], [ 131.5560011, 32.5370256 ], [ 131.551594199999982, 32.5379036 ], [ 131.548385, 32.5358008 ], [ 131.5447728, 32.5380197 ], [ 131.5357464, 32.5397311 ], [ 131.533299199999988, 32.5420289 ], [ 131.5289033, 32.5434289 ], [ 131.526724699999988, 32.5404472 ], [ 131.5211042, 32.5423389 ], [ 131.5188503, 32.5451489 ], [ 131.5154086, 32.5463153 ], [ 131.5130347, 32.5508978 ], [ 131.5097108, 32.550922799999988 ], [ 131.504860799999989, 32.5571242 ], [ 131.4991456, 32.5592956 ], [ 131.495925299999982, 32.5587978 ], [ 131.4855344, 32.5649419 ], [ 131.4783289, 32.5669414 ], [ 131.4727753, 32.5668633 ], [ 131.4666528, 32.5636986 ], [ 131.4641397, 32.5593925 ], [ 131.4565706, 32.5573569 ], [ 131.4422806, 32.5587942 ], [ 131.4385878, 32.5556608 ], [ 131.4369044, 32.5567417 ], [ 131.4303578, 32.5561786 ], [ 131.428778599999987, 32.5598917 ], [ 131.4212483, 32.5637831 ], [ 131.41771, 32.5638297 ], [ 131.413914399999982, 32.5607958 ], [ 131.4088506, 32.5609153 ], [ 131.4050394, 32.5656778 ], [ 131.396118299999983, 32.5687947 ], [ 131.3923414, 32.5659342 ], [ 131.384332199999989, 32.5647772 ], [ 131.380681899999985, 32.5624103 ], [ 131.3739483, 32.5641081 ], [ 131.3724731, 32.5656864 ], [ 131.3674469, 32.5763633 ], [ 131.3619725, 32.5777133 ], [ 131.361677499999985, 32.5804778 ], [ 131.3642553, 32.5840608 ], [ 131.3622047, 32.5886183 ], [ 131.3562656, 32.5951886 ], [ 131.3582097, 32.5983981 ], [ 131.356511399999988, 32.6017111 ], [ 131.358292799999987, 32.6048314 ], [ 131.3572131, 32.6085039 ], [ 131.350201699999985, 32.6106417 ], [ 131.3472247, 32.6123972 ], [ 131.340846699999986, 32.6129419 ], [ 131.334454199999982, 32.6120297 ], [ 131.3322053, 32.6101186 ], [ 131.3290758, 32.6116456 ], [ 131.321186399999988, 32.6192819 ], [ 131.321008299999988, 32.6208214 ], [ 131.3162072, 32.6286019 ], [ 131.310083599999984, 32.6294472 ], [ 131.289592199999987, 32.6355756 ], [ 131.2873725, 32.6346131 ], [ 131.278286899999983, 32.6386489 ], [ 131.267525, 32.6405369 ], [ 131.2661594, 32.6396031 ], [ 131.255891099999985, 32.6421131 ], [ 131.2544469, 32.6365478 ], [ 131.2579103, 32.6309131 ], [ 131.2556275, 32.6189658 ], [ 131.2527397, 32.6144642 ], [ 131.253479699999986, 32.61072 ], [ 131.251473299999986, 32.6061728 ], [ 131.2494422, 32.605389699999989 ], [ 131.2436094, 32.59861 ], [ 131.243300600000026, 32.5962681 ], [ 131.237355, 32.5956292 ], [ 131.2304447, 32.5911242 ], [ 131.224462, 32.5944789 ], [ 131.2198716, 32.5921604 ], [ 131.2162917, 32.5918383 ], [ 131.2083471, 32.5885806 ], [ 131.2053233, 32.5924698 ], [ 131.2025371, 32.5933073 ], [ 131.196927099999982, 32.6008406 ], [ 131.190956299999982, 32.6000917 ], [ 131.186136799999986, 32.6008605 ], [ 131.176814899999982, 32.599398 ], [ 131.177241, 32.5948383 ], [ 131.172890199999983, 32.589781 ], [ 131.175964099999987, 32.5844324 ], [ 131.174018, 32.5829808 ], [ 131.171075699999989, 32.5773246 ], [ 131.171900199999982, 32.5739657 ], [ 131.1703597, 32.5710385 ], [ 131.1659627, 32.5697652 ], [ 131.162129599999986, 32.5646046 ], [ 131.159514600000023, 32.563731 ], [ 131.1483982, 32.564189 ], [ 131.1461337, 32.5631017 ], [ 131.141727299999985, 32.56389 ], [ 131.135332, 32.5631536 ], [ 131.130937599999982, 32.5579292 ], [ 131.120331199999981, 32.5583133 ], [ 131.111377299999987, 32.5624532 ], [ 131.107715, 32.5753498 ], [ 131.1049911, 32.5796059 ], [ 131.0994216, 32.5784461 ], [ 131.092610799999989, 32.5794514 ], [ 131.0879008, 32.5792402 ], [ 131.0786047, 32.5817791 ], [ 131.074458599999986, 32.5848054 ], [ 131.0683947, 32.5840192 ], [ 131.0627505, 32.5862736 ], [ 131.0585533, 32.5860194 ], [ 131.0521919, 32.5877201 ], [ 131.0487766, 32.5848835 ], [ 131.0432505, 32.5823398 ], [ 131.0416286, 32.5798937 ], [ 131.042380799999989, 32.5744113 ], [ 131.03953, 32.5714427 ], [ 131.037724199999985, 32.5647269 ], [ 131.0404356, 32.5608705 ], [ 131.038961799999981, 32.5544261 ], [ 131.035432899999989, 32.553043 ], [ 131.0306376, 32.5539788 ], [ 131.023947599999985, 32.5533337 ], [ 131.017989299999982, 32.5463742 ], [ 131.0190666, 32.5415443 ], [ 131.0235299, 32.5361393 ], [ 131.0248805, 32.5315726 ], [ 131.0240341, 32.5275657 ], [ 131.02548550000003, 32.52317 ], [ 131.024666599999989, 32.5202467 ], [ 131.0184241, 32.5195883 ], [ 131.0151952, 32.5158367 ], [ 131.009406899999988, 32.5154056 ], [ 131.009708499999988, 32.5091898 ], [ 131.0069593, 32.490058 ], [ 131.0105848, 32.482983 ], [ 131.0139356, 32.4800233 ], [ 131.01391049999998, 32.4769691 ], [ 131.016354399999983, 32.4732608 ], [ 131.0143732, 32.4636658 ], [ 131.0166404, 32.4603075 ], [ 131.0160023, 32.4556097 ], [ 131.0165308, 32.4476861 ], [ 131.0201272, 32.441714499999989 ], [ 131.0198921, 32.4386731 ], [ 131.022224599999987, 32.4371484 ], [ 131.0309143, 32.426531 ], [ 131.032896599999987, 32.4206952 ], [ 131.0405819, 32.4147977 ], [ 131.043788, 32.4081311 ], [ 131.048069199999986, 32.4073095 ], [ 131.0540756, 32.408347 ], [ 131.05602890000003, 32.4069837 ], [ 131.064558399999981, 32.407972 ], [ 131.0679682, 32.4075965 ], [ 131.069808500000022, 32.3997212 ], [ 131.072876, 32.3961324 ], [ 131.0732252, 32.3912438 ], [ 131.0692829, 32.3885088 ], [ 131.069308, 32.384318 ], [ 131.0741669, 32.3828719 ], [ 131.0765472, 32.3772836 ], [ 131.0798575, 32.3742875 ], [ 131.0764141, 32.3714366 ], [ 131.073989399999988, 32.3659139 ], [ 131.0743388, 32.3609097 ], [ 131.0771339, 32.3599909 ], [ 131.0780318, 32.3551115 ], [ 131.0815251, 32.3543809 ], [ 131.0908868, 32.3495463 ], [ 131.0955324, 32.3508083 ], [ 131.096719399999984, 32.3460894 ], [ 131.0993559, 32.3415616 ], [ 131.1016057, 32.3423544 ], [ 131.1072053, 32.3334001 ], [ 131.111877599999985, 32.3297857 ], [ 131.111007299999983, 32.327074 ], [ 131.106045699999981, 32.3243937 ], [ 131.1044365, 32.318619 ], [ 131.1016234, 32.3152524 ], [ 131.101179799999983, 32.3117238 ], [ 131.109318100000024, 32.3157701 ], [ 131.118434799999989, 32.317031 ], [ 131.1205534, 32.3137301 ], [ 131.1240512, 32.3120287 ], [ 131.1284554, 32.3070484 ], [ 131.133009, 32.3101357 ], [ 131.1438959, 32.3106679 ], [ 131.1467551, 32.312299 ], [ 131.1558645, 32.3124498 ], [ 131.1591606, 32.3114154 ], [ 131.1625247, 32.3080852 ], [ 131.1666203, 32.3020222 ], [ 131.1690511, 32.3016803 ], [ 131.1738356, 32.3072894 ], [ 131.1750623, 32.3099624 ], [ 131.17690349999998, 32.3185307 ], [ 131.1764671, 32.3247032 ], [ 131.183346299999982, 32.329194 ], [ 131.185019899999986, 32.3340706 ], [ 131.1901174, 32.3407401 ], [ 131.1972582, 32.3378643 ], [ 131.1987849, 32.3398626 ], [ 131.2043275, 32.3368788 ], [ 131.2113986, 32.3299128 ], [ 131.223739699999982, 32.3238583 ], [ 131.228471399999989, 32.3239203 ], [ 131.2350194, 32.3285192 ], [ 131.2421058, 32.3273383 ], [ 131.2492258, 32.3289375 ], [ 131.2561556, 32.3255228 ], [ 131.2562558, 32.3221308 ], [ 131.261475, 32.3186767 ], [ 131.263049199999983, 32.3160572 ], [ 131.2703103, 32.3147572 ], [ 131.27334, 32.311712799999988 ], [ 131.2797156, 32.3096094 ], [ 131.2873878, 32.30903 ], [ 131.2935467, 32.3110164 ], [ 131.3022139, 32.315185 ], [ 131.305331699999982, 32.3152986 ], [ 131.3097314, 32.3217869 ], [ 131.312016699999987, 32.3210386 ], [ 131.319026399999984, 32.3229081 ], [ 131.3227225, 32.3220114 ], [ 131.326467799999989, 32.3252925 ], [ 131.3344969, 32.325795 ], [ 131.3380517, 32.3290358 ], [ 131.34151079999998, 32.329485 ], [ 131.3491253, 32.3321864 ], [ 131.350446399999981, 32.3307914 ], [ 131.3584506, 32.3275889 ], [ 131.3623083, 32.3244483 ], [ 131.369778599999989, 32.3218064 ], [ 131.3692044, 32.3157989 ], [ 131.3632192, 32.3148181 ], [ 131.3628189, 32.3092436 ], [ 131.372627199999982, 32.3134056 ], [ 131.378348099999982, 32.3134878 ], [ 131.3811078, 32.3160367 ], [ 131.3930283, 32.3125822 ], [ 131.3961658, 32.3135792 ], [ 131.4053997, 32.3124825 ], [ 131.4098492, 32.3087878 ], [ 131.4253367, 32.3060994 ], [ 131.4331239, 32.3095275 ], [ 131.4424022, 32.3115469 ], [ 131.4463356, 32.3135631 ], [ 131.4592064, 32.3094961 ], [ 131.4626422, 32.3106867 ], [ 131.4655769, 32.3163747 ], [ 131.471420599999988, 32.3189406 ], [ 131.4754269, 32.3168514 ], [ 131.4844128, 32.3087278 ], [ 131.4850169, 32.3059475 ], [ 131.483130599999981, 32.3023656 ], [ 131.486279699999983, 32.2984472 ], [ 131.4898436, 32.3003203 ], [ 131.493423299999989, 32.2996997 ], [ 131.4942475, 32.2958436 ], [ 131.499325, 32.2955956 ], [ 131.514827199999985, 32.3060417 ], [ 131.5182853, 32.3073208 ], [ 131.5213564, 32.3108628 ], [ 131.526757799999984, 32.3142197 ], [ 131.5291647, 32.3193206 ], [ 131.537705, 32.3191431 ], [ 131.5489006, 32.3233206 ], [ 131.5554747, 32.32265 ], [ 131.5566006, 32.3171903 ], [ 131.559865, 32.3125678 ], [ 131.55751, 32.3048131 ], [ 131.561259399999983, 32.3050931 ], [ 131.563704199999989, 32.3003211 ], [ 131.565811699999983, 32.3006264 ], [ 131.571965800000015, 32.2962336 ], [ 131.574975, 32.3000006 ], [ 131.5768617, 32.3052469 ], [ 131.5799381, 32.3089917 ], [ 131.5884686, 32.3051592 ], [ 131.5920214, 32.3060485 ], [ 131.598233500000021, 32.317928099999989 ], [ 131.6042773, 32.3259894 ], [ 131.6096782, 32.3290767 ], [ 131.6115697, 32.3340976 ], [ 131.6151856, 32.3359775 ], [ 131.614968399999981, 32.3399104 ], [ 131.619000799999981, 32.3381322 ], [ 131.6226572, 32.3414703 ], [ 131.6264069, 32.3405294 ], [ 131.627614699999981, 32.3438875 ], [ 131.627931099999984, 32.3498194 ], [ 131.6224851, 32.3557309 ], [ 131.6233048, 32.3591885 ], [ 131.627297, 32.3664026 ], [ 131.6293492, 32.3685254 ], [ 131.6359206, 32.3709516 ], [ 131.636079199999983, 32.3738007 ], [ 131.6323538, 32.3773967 ], [ 131.632670099999984, 32.3807249 ], [ 131.6365064, 32.3901204 ], [ 131.638850099999985, 32.3939482 ], [ 131.6383951, 32.3964735 ], [ 131.6455722, 32.4091057 ], [ 131.650261199999989, 32.4107364 ], [ 131.652819199999982, 32.4136504 ], [ 131.6582043, 32.4130337 ], [ 131.664921199999981, 32.4109573 ], [ 131.672782899999987, 32.416734 ], [ 131.6839915, 32.4184897 ], [ 131.6821478, 32.421122 ], [ 131.6872625, 32.4215081 ], [ 131.6899488, 32.4230626 ], [ 131.68414850000002, 32.4267992 ], [ 131.682964699999985, 32.4247619 ], [ 131.6748194, 32.4220499 ], [ 131.670823800000022, 32.428207 ], [ 131.6674696, 32.4271707 ], [ 131.6636418, 32.4280792 ], [ 131.6549962, 32.4270323 ], [ 131.654811099999989, 32.4289843 ], [ 131.6631879, 32.4312093 ], [ 131.668281899999982, 32.4316215 ], [ 131.6766423, 32.4304847 ], [ 131.6810384, 32.4329987 ], [ 131.6818236, 32.4357247 ], [ 131.679982599999988, 32.4409215 ], [ 131.675907199999983, 32.4431405 ], [ 131.662236299999989, 32.4365273 ], [ 131.6608981, 32.4385141 ], [ 131.666251, 32.4433175 ], [ 131.6669502, 32.4479015 ], [ 131.6637307, 32.4492884 ], [ 131.652457, 32.4396479 ], [ 131.651001, 32.4347475 ], [ 131.643819900000011, 32.4381525 ], [ 131.6453299, 32.4408434 ], [ 131.6499192, 32.4412854 ], [ 131.6566612, 32.4472698 ], [ 131.652445400000033, 32.4515588 ], [ 131.65453, 32.4561128 ], [ 131.650795, 32.4576709 ] ] ], [ [ [ 131.670709599999981, 32.4653287 ], [ 131.66951659999998, 32.4703152 ], [ 131.666066199999989, 32.4661272 ], [ 131.670709599999981, 32.4653287 ] ] ] ] } },
{ "type": "Feature", "properties": { "hokenjo": "日南" }, "geometry": { "type": "MultiPolygon", "coordinates": [ [ [ [ 131.3794053, 31.4552342 ], [ 131.3786772, 31.4566072 ], [ 131.3736844, 31.4545353 ], [ 131.3723764, 31.4510853 ], [ 131.3778264, 31.44851 ], [ 131.3794053, 31.4552342 ] ] ], [ [ [ 131.3920989, 31.4783789 ], [ 131.390030599999989, 31.4797519 ], [ 131.387259, 31.4774133 ], [ 131.3891208, 31.4742497 ], [ 131.3919564, 31.4732933 ], [ 131.3920989, 31.4783789 ] ] ], [ [ [ 131.3837111, 31.4904408 ], [ 131.38311969999998, 31.4940869 ], [ 131.3865286, 31.4984833 ], [ 131.3849744, 31.5027386 ], [ 131.3737184, 31.5057593 ], [ 131.3732681, 31.5091196 ], [ 131.37652079999998, 31.5120866 ], [ 131.3725011, 31.5177052 ], [ 131.378821099999982, 31.519216600000011 ], [ 131.3788925, 31.5148739 ], [ 131.3852669, 31.5191934 ], [ 131.3840059, 31.5237538 ], [ 131.3808216, 31.5262091 ], [ 131.381914900000027, 31.5308533 ], [ 131.3848978, 31.5324252 ], [ 131.385325099999989, 31.5409261 ], [ 131.381806, 31.5450968 ], [ 131.381239, 31.5526416 ], [ 131.3843795, 31.5583731 ], [ 131.388193, 31.5601206 ], [ 131.3927742, 31.5573356 ], [ 131.397634399999987, 31.5588142 ], [ 131.3960969, 31.5618133 ], [ 131.3919761, 31.5624667 ], [ 131.391639699999985, 31.5646712 ], [ 131.3968611, 31.5659742 ], [ 131.399391399999985, 31.5728729 ], [ 131.399472, 31.5786023 ], [ 131.402498, 31.5817125 ], [ 131.406694099999982, 31.5818907 ], [ 131.407599900000037, 31.5771471 ], [ 131.409742099999988, 31.5742118 ], [ 131.40629149999998, 31.5727529 ], [ 131.406643799999983, 31.5675535 ], [ 131.4081952, 31.5667248 ], [ 131.412351799999982, 31.5702421 ], [ 131.4111624, 31.5776036 ], [ 131.4123266, 31.582689 ], [ 131.4090651, 31.5875169 ], [ 131.409476500000011, 31.5903845 ], [ 131.415253, 31.5997024 ], [ 131.4226306, 31.6087335 ], [ 131.426236099999983, 31.6104853 ], [ 131.4318563, 31.6112755 ], [ 131.436236899999983, 31.6146196 ], [ 131.4410672, 31.6152233 ], [ 131.4461025, 31.6172314 ], [ 131.4494994, 31.6202003 ], [ 131.451885299999987, 31.6244086 ], [ 131.456978599999985, 31.6246944 ], [ 131.4583264, 31.6296311 ], [ 131.462177199999985, 31.6332222 ], [ 131.4588594, 31.6360175 ], [ 131.4534544, 31.6377431 ], [ 131.4561864, 31.6412767 ], [ 131.4581478, 31.6466594 ], [ 131.462097199999988, 31.6466928 ], [ 131.4636103, 31.6448069 ], [ 131.4692925, 31.6453103 ], [ 131.4668825, 31.6496778 ], [ 131.4667145, 31.652505 ], [ 131.463367799999986, 31.6525894 ], [ 131.4622286, 31.6574869 ], [ 131.4633794, 31.6626881 ], [ 131.461245599999984, 31.6690631 ], [ 131.4572992, 31.6680056 ], [ 131.452051899999987, 31.6696214 ], [ 131.4518378, 31.6738092 ], [ 131.453670599999981, 31.6770275 ], [ 131.4503622, 31.6791361 ], [ 131.451608600000014, 31.6814831 ], [ 131.456597499999987, 31.6822578 ], [ 131.4684839, 31.6870583 ], [ 131.4660544, 31.692405 ], [ 131.4591336, 31.6933722 ], [ 131.4562247, 31.6984458 ], [ 131.460131099999984, 31.7008592 ], [ 131.4624325, 31.7038061 ], [ 131.45911719999998, 31.7068958 ], [ 131.4584242, 31.7093789 ], [ 131.4618592, 31.7154933 ], [ 131.4600289, 31.7184408 ], [ 131.467882799999984, 31.7210131 ], [ 131.463672799999983, 31.7214494 ], [ 131.463637799999987, 31.7264261 ], [ 131.459814199999983, 31.7288972 ], [ 131.4565178, 31.7277442 ], [ 131.4479567, 31.7282725 ], [ 131.4444892, 31.7295353 ], [ 131.4352458, 31.7307353 ], [ 131.4316556, 31.7300283 ], [ 131.427466899999985, 31.7316419 ], [ 131.424288599999983, 31.7344633 ], [ 131.416006899999985, 31.738385 ], [ 131.4146811, 31.7449156 ], [ 131.4101833, 31.7493319 ], [ 131.4036906, 31.7506797 ], [ 131.396897199999984, 31.7510578 ], [ 131.3959183, 31.7523728 ], [ 131.397999699999986, 31.7569658 ], [ 131.3969544, 31.7595339 ], [ 131.3984872, 31.7622669 ], [ 131.396095, 31.7677858 ], [ 131.3899903, 31.7682356 ], [ 131.3834928, 31.7716722 ], [ 131.3799344, 31.7791031 ], [ 131.3744989, 31.7776244 ], [ 131.3732239, 31.7725314 ], [ 131.358663299999989, 31.7727731 ], [ 131.357875299999989, 31.7712469 ], [ 131.3480036, 31.7735647 ], [ 131.3448594, 31.7773997 ], [ 131.3386136, 31.7785481 ], [ 131.3368692, 31.7819089 ], [ 131.33427, 31.7811392 ], [ 131.3260933, 31.7811575 ], [ 131.31884, 31.7819936 ], [ 131.3139406, 31.7794428 ], [ 131.3088625, 31.7808033 ], [ 131.3101586, 31.7711794 ], [ 131.307874699999985, 31.7659719 ], [ 131.3009064, 31.7674833 ], [ 131.2875781, 31.7636342 ], [ 131.2822683, 31.7655742 ], [ 131.2696008, 31.7685531 ], [ 131.267474199999981, 31.7638269 ], [ 131.268880599999989, 31.7553 ], [ 131.2634808, 31.7494875 ], [ 131.261650299999985, 31.7450175 ], [ 131.2601525, 31.7363694 ], [ 131.257005599999985, 31.7345333 ], [ 131.2515167, 31.7349569 ], [ 131.248302199999983, 31.7332247 ], [ 131.23954, 31.7333906 ], [ 131.236926399999987, 31.7309589 ], [ 131.2381881, 31.7277483 ], [ 131.2346019, 31.7259128 ], [ 131.235388299999983, 31.7226725 ], [ 131.2321192, 31.7161914 ], [ 131.2293817, 31.7141922 ], [ 131.2180075, 31.7135406 ], [ 131.214382199999989, 31.7155103 ], [ 131.2107958, 31.7149161 ], [ 131.2135228, 31.7105 ], [ 131.2055044, 31.7062944 ], [ 131.203314399999982, 31.7041608 ], [ 131.1977358, 31.7041911 ], [ 131.1910856, 31.6991697 ], [ 131.185199399999988, 31.6992664 ], [ 131.1754714, 31.6917417 ], [ 131.1740103, 31.688675 ], [ 131.169117199999988, 31.6858122 ], [ 131.1664003, 31.6790561 ], [ 131.1616181, 31.6749475 ], [ 131.160337199999987, 31.6706031 ], [ 131.1678742, 31.6688039 ], [ 131.170410299999986, 31.6645539 ], [ 131.17634750000002, 31.6586842 ], [ 131.179980799999981, 31.6563253 ], [ 131.180776899999984, 31.6508292 ], [ 131.19103, 31.6449342 ], [ 131.1974847, 31.6444925 ], [ 131.199790799999988, 31.6393289 ], [ 131.2025078, 31.6369658 ], [ 131.2024633, 31.6350722 ], [ 131.1975419, 31.6325842 ], [ 131.1973739, 31.6279206 ], [ 131.1937369, 31.619915 ], [ 131.1894025, 31.6222369 ], [ 131.189187799999985, 31.6185275 ], [ 131.185246399999983, 31.6101378 ], [ 131.1872089, 31.6035769 ], [ 131.192322499999989, 31.5985564 ], [ 131.197435, 31.5952575 ], [ 131.1984511, 31.5913164 ], [ 131.20048749999998, 31.5898097 ], [ 131.2054475, 31.5799494 ], [ 131.2017789, 31.5672075 ], [ 131.19966, 31.5640989 ], [ 131.1955939, 31.5628147 ], [ 131.1939592, 31.5600292 ], [ 131.189336699999984, 31.5571878 ], [ 131.19542, 31.5523047 ], [ 131.1968928, 31.5494842 ], [ 131.1958744, 31.546655 ], [ 131.1988911, 31.5413597 ], [ 131.1972969, 31.5388728 ], [ 131.2014925, 31.5311225 ], [ 131.2000433, 31.5230372 ], [ 131.20075749999998, 31.5177386 ], [ 131.1968494, 31.5115819 ], [ 131.193236899999988, 31.5097603 ], [ 131.1843844, 31.5070031 ], [ 131.1790361, 31.5062333 ], [ 131.17531169999998, 31.5024872 ], [ 131.1720842, 31.5020453 ], [ 131.1689883, 31.4966842 ], [ 131.1710431, 31.4940661 ], [ 131.16569579999998, 31.4889544 ], [ 131.1631875, 31.4840819 ], [ 131.1643053, 31.4810589 ], [ 131.1643397, 31.4736192 ], [ 131.1600353, 31.4596778 ], [ 131.1622444, 31.4600314 ], [ 131.168, 31.4576839 ], [ 131.1707561, 31.4547736 ], [ 131.170466399999981, 31.4519822 ], [ 131.1767439, 31.4497539 ], [ 131.1774503, 31.4530233 ], [ 131.1815942, 31.4564644 ], [ 131.1873386, 31.4565775 ], [ 131.196335799999986, 31.4555694 ], [ 131.2065839, 31.4528109 ], [ 131.205212599999982, 31.4479717 ], [ 131.2098485, 31.4481613 ], [ 131.2095036, 31.4444656 ], [ 131.2185044, 31.4405 ], [ 131.2257947, 31.4322436 ], [ 131.2286139, 31.4242225 ], [ 131.2347797, 31.4304058 ], [ 131.2402353, 31.4285347 ], [ 131.24305529999998, 31.4262406 ], [ 131.2450814, 31.4208561 ], [ 131.2444389, 31.4191506 ], [ 131.2395861, 31.4177644 ], [ 131.236786699999982, 31.4151017 ], [ 131.2369406, 31.40802 ], [ 131.2356208, 31.4051458 ], [ 131.23925939999998, 31.4026864 ], [ 131.2397253, 31.3973117 ], [ 131.2429497, 31.3897486 ], [ 131.2459464, 31.3862781 ], [ 131.2501858, 31.3841581 ], [ 131.254099699999983, 31.3808106 ], [ 131.259884699999986, 31.3806414 ], [ 131.262511099999983, 31.3795314 ], [ 131.2762167, 31.3819672 ], [ 131.282374399999981, 31.3814425 ], [ 131.288631899999984, 31.3849817 ], [ 131.2910158, 31.3891803 ], [ 131.294666399999983, 31.389265 ], [ 131.2970439, 31.3851736 ], [ 131.3008197, 31.3863403 ], [ 131.3036361, 31.3888225 ], [ 131.309342499999985, 31.3907139 ], [ 131.3145319, 31.3859847 ], [ 131.316106099999985, 31.3726797 ], [ 131.3184172, 31.3687011 ], [ 131.323223899999988, 31.3651789 ], [ 131.3283783, 31.3641986 ], [ 131.3355403, 31.3606742 ], [ 131.3417211, 31.3613581 ], [ 131.3464947, 31.3634828 ], [ 131.349061399999982, 31.3661647 ], [ 131.3500022, 31.3712103 ], [ 131.3445342, 31.3765594 ], [ 131.335608300000018, 31.3801986 ], [ 131.3339131, 31.3824128 ], [ 131.332337200000012, 31.3893558 ], [ 131.33367579999998, 31.3984742 ], [ 131.3433622, 31.3990625 ], [ 131.34583, 31.4003625 ], [ 131.341876899999988, 31.4034506 ], [ 131.3424086, 31.41058 ], [ 131.3469656, 31.4146322 ], [ 131.3531556, 31.4151483 ], [ 131.353741899999989, 31.41758 ], [ 131.3572025, 31.4192992 ], [ 131.3653558, 31.4205353 ], [ 131.366429399999987, 31.4241967 ], [ 131.370918099999983, 31.4280967 ], [ 131.37258060000002, 31.4359186 ], [ 131.3705694, 31.444845 ], [ 131.369938599999983, 31.4513653 ], [ 131.364641399999982, 31.4554847 ], [ 131.3619206, 31.4648619 ], [ 131.3630375, 31.4717542 ], [ 131.3744131, 31.47708 ], [ 131.375543099999987, 31.4784775 ], [ 131.384593099999989, 31.4803672 ], [ 131.388801699999988, 31.4857214 ], [ 131.388182200000017, 31.4909472 ], [ 131.3837111, 31.4904408 ] ] ], [ [ [ 131.4123569, 31.5377403 ], [ 131.4144181, 31.5413186 ], [ 131.4106328, 31.54226 ], [ 131.408493099999987, 31.5406994 ], [ 131.4092853, 31.5377819 ], [ 131.4064481, 31.5356975 ], [ 131.403315599999985, 31.5303883 ], [ 131.4065822, 31.5262614 ], [ 131.410071099999982, 31.5194881 ], [ 131.4159781, 31.5172728 ], [ 131.4157256, 31.5229297 ], [ 131.413181899999984, 31.5273939 ], [ 131.4164281, 31.5317272 ], [ 131.4123569, 31.5377403 ] ] ] ] } }
]
}
