{
"type": "FeatureCollection",
"name": "nagano",
"crs": { "type": "name", "properties": { "name": "urn:ogc:def:crs:OGC:1.3:CRS84" } },
"features": [
{ "type": "Feature", "properties": { "hokenjo": "伊那" }, "geometry": { "type": "MultiPolygon", "coordinates": [ [ [ [ 138.0383316, 35.6369805 ], [ 138.0353183, 35.6669433 ], [ 138.04405, 35.6746724 ], [ 138.0434086, 35.6913869 ], [ 138.047245299999986, 35.6990657 ], [ 138.0613726, 35.7035396 ], [ 138.0771135, 35.6943244 ], [ 138.0794841, 35.6793833 ], [ 138.0855463, 35.672952 ], [ 138.091958299999988, 35.655027 ], [ 138.1018781, 35.6469973 ], [ 138.105329399999988, 35.6271561 ], [ 138.1010832, 35.614890599999988 ], [ 138.1110267, 35.60015 ], [ 138.126104, 35.5925472 ], [ 138.1308214, 35.5813046 ], [ 138.1462826, 35.576456 ], [ 138.151810399999988, 35.5709599 ], [ 138.1620504, 35.5812949 ], [ 138.172841800000015, 35.5816018 ], [ 138.184399, 35.5730918 ], [ 138.1959579, 35.5954904 ], [ 138.2060554, 35.6083965 ], [ 138.2024046, 35.618216 ], [ 138.2034421, 35.632181 ], [ 138.2186707, 35.6445493 ], [ 138.2080846, 35.6557888 ], [ 138.2054891, 35.6642643 ], [ 138.193302099999983, 35.6722646 ], [ 138.193983, 35.6954935 ], [ 138.1808561, 35.7112377 ], [ 138.181848299999984, 35.718338 ], [ 138.1974744, 35.7270324 ], [ 138.2192478, 35.745508799999989 ], [ 138.236701899999986, 35.7577149 ], [ 138.2053272, 35.7825854 ], [ 138.1983209, 35.7815574 ], [ 138.177495599999986, 35.7861852 ], [ 138.1722853, 35.8007629 ], [ 138.1755267, 35.8232418 ], [ 138.1806545, 35.8331434 ], [ 138.177095100000031, 35.8448065 ], [ 138.188891499999983, 35.8578134 ], [ 138.177628199999987, 35.8672537 ], [ 138.1808824, 35.8891506 ], [ 138.1741635, 35.8906043 ], [ 138.168912799999987, 35.9166012 ], [ 138.160789199999982, 35.9334578 ], [ 138.146716199999986, 35.9425381 ], [ 138.150584, 35.9541223 ], [ 138.1247665, 35.9714667 ], [ 138.1131532, 35.9748536 ], [ 138.08655, 35.9601803 ], [ 138.0796292, 35.960503 ], [ 138.074014399999982, 35.9503158 ], [ 138.0590233, 35.9462463 ], [ 138.043795, 35.953578 ], [ 138.035010799999981, 35.9624241 ], [ 138.04593, 35.965136 ], [ 138.04820730000003, 35.9744021 ], [ 138.045316499999984, 35.9996069 ], [ 138.0368226, 36.0016382 ], [ 138.037326, 36.0122971 ], [ 138.019420199999985, 36.0107721 ], [ 137.9915743, 36.0163846 ], [ 137.9971502, 36.0231184 ], [ 137.9997291, 36.040809 ], [ 138.006851399999988, 36.0531873 ], [ 138.000862499999982, 36.0545054 ], [ 137.9797086, 36.0442501 ], [ 137.9593644, 36.0540842 ], [ 137.9504589, 36.0545931 ], [ 137.949705599999987, 36.0637811 ], [ 137.938705299999981, 36.0615161 ], [ 137.9379856, 36.0530158 ], [ 137.9276994, 36.0493278 ], [ 137.9273466, 36.0424442 ], [ 137.9152833, 36.0347192 ], [ 137.9064683, 36.0346364 ], [ 137.8990091, 36.0246561 ], [ 137.904505500000027, 36.0182414 ], [ 137.88910869999998, 36.0050373 ], [ 137.8805131, 36.0015409 ], [ 137.870598299999983, 35.9824814 ], [ 137.8613638, 35.9714226 ], [ 137.8512687, 35.9680052 ], [ 137.8461724, 35.9583726 ], [ 137.8313248, 35.9478943 ], [ 137.829145899999986, 35.9376913 ], [ 137.8348072, 35.9282418 ], [ 137.8516617, 35.9238999 ], [ 137.858410599999985, 35.9120213 ], [ 137.851431599999984, 35.9061174 ], [ 137.8472119, 35.8902669 ], [ 137.8569707, 35.8771557 ], [ 137.85629179999998, 35.8677377 ], [ 137.8468465, 35.8580266 ], [ 137.8470589, 35.8373366 ], [ 137.8369739, 35.823283599999989 ], [ 137.8240974, 35.8131236 ], [ 137.8282946, 35.8061761 ], [ 137.8253655, 35.8010333 ], [ 137.8046468, 35.7895408 ], [ 137.8093249, 35.7813897 ], [ 137.808879, 35.7795123 ], [ 137.813818199999986, 35.7533084 ], [ 137.804247299999986, 35.7424831 ], [ 137.8051648, 35.7264803 ], [ 137.8167981, 35.71685 ], [ 137.811539499999981, 35.7016759 ], [ 137.8135667, 35.6920584 ], [ 137.803112299999981, 35.6813737 ], [ 137.8052998, 35.6742884 ], [ 137.8013034, 35.6556809 ], [ 137.8086695, 35.6439245 ], [ 137.8214592, 35.6435176 ], [ 137.8311014, 35.6388887 ], [ 137.8429126, 35.6521028 ], [ 137.865325, 35.6484634 ], [ 137.8683872, 35.6403426 ], [ 137.8868611, 35.6358093 ], [ 137.8991006, 35.6399743 ], [ 137.9049406, 35.6395067 ], [ 137.9048239, 35.623739799999989 ], [ 137.932658, 35.6024995 ], [ 137.94145469999998, 35.6093645 ], [ 137.960804699999983, 35.6019854 ], [ 137.971447499999982, 35.607284 ], [ 137.989334700000029, 35.6096087 ], [ 138.0023636, 35.5972737 ], [ 138.022912599999984, 35.6140294 ], [ 138.0383316, 35.6369805 ] ] ] ] } },
{ "type": "Feature", "properties": { "hokenjo": "佐久" }, "geometry": { "type": "MultiPolygon", "coordinates": [ [ [ [ 138.4976715, 35.9114062 ], [ 138.505671299999989, 35.9188673 ], [ 138.521371, 35.9186942 ], [ 138.5293719, 35.9145487 ], [ 138.545358, 35.9147773 ], [ 138.5538441, 35.9189934 ], [ 138.576666599999982, 35.9114439 ], [ 138.5924296, 35.9182767 ], [ 138.60253849999998, 35.9098439 ], [ 138.6072298, 35.8996831 ], [ 138.6067606, 35.8784559 ], [ 138.6107561, 35.8736895 ], [ 138.634234099999986, 35.8700531 ], [ 138.6559307, 35.8758675 ], [ 138.675987599999985, 35.8698381 ], [ 138.6858456, 35.8938656 ], [ 138.7079702, 35.9096364 ], [ 138.724106, 35.9079851 ], [ 138.738507, 35.9290192 ], [ 138.7392543, 35.9391081 ], [ 138.7311355, 35.9451453 ], [ 138.7255998, 35.9576111 ], [ 138.7114469, 35.9712816 ], [ 138.712550100000016, 35.985333 ], [ 138.6886954, 35.9917747 ], [ 138.6797494, 36.0116149 ], [ 138.661696399999983, 36.0120147 ], [ 138.631487900000025, 36.0282788 ], [ 138.6441711, 36.0495702 ], [ 138.642815399999989, 36.0687423 ], [ 138.630465499999985, 36.0860584 ], [ 138.6307391, 36.091377 ], [ 138.6451831, 36.0988067 ], [ 138.6464078, 36.1095723 ], [ 138.634091499999982, 36.1339701 ], [ 138.6221612, 36.1319551 ], [ 138.600662, 36.1356262 ], [ 138.593301, 36.153069599999988 ], [ 138.5772749, 36.1680732 ], [ 138.5805832, 36.1757418 ], [ 138.594566, 36.165606 ], [ 138.637105, 36.1748848 ], [ 138.6227973, 36.1969279 ], [ 138.636047, 36.2066763 ], [ 138.6332098, 36.2160893 ], [ 138.6222445, 36.2145857 ], [ 138.611870399999987, 36.2293913 ], [ 138.6124968, 36.240918 ], [ 138.6021776, 36.2495005 ], [ 138.6059522, 36.2667947 ], [ 138.6003355, 36.2783999 ], [ 138.6125089, 36.2856552 ], [ 138.6305834, 36.2884563 ], [ 138.6448862, 36.2945366 ], [ 138.6535307, 36.3031149 ], [ 138.6478921, 36.3144757 ], [ 138.6533058, 36.3243699 ], [ 138.6500806, 36.3524833 ], [ 138.6571635, 36.3689015 ], [ 138.6496388, 36.3789443 ], [ 138.6521697, 36.3950693 ], [ 138.6466303, 36.4107726 ], [ 138.6371514, 36.4172162 ], [ 138.6266344, 36.415504 ], [ 138.6078664, 36.4231879 ], [ 138.590196099999986, 36.4238904 ], [ 138.573129599999987, 36.4191951 ], [ 138.555008, 36.4177737 ], [ 138.540611499999983, 36.4028493 ], [ 138.519883199999981, 36.4067399 ], [ 138.506790199999983, 36.4139304 ], [ 138.4920572, 36.4132576 ], [ 138.4889574, 36.4009335 ], [ 138.477868, 36.4044499 ], [ 138.45965, 36.4047504 ], [ 138.457715300000018, 36.4115743 ], [ 138.4439822, 36.3981702 ], [ 138.438014, 36.3846293 ], [ 138.412224399999985, 36.3712115 ], [ 138.3982044, 36.3721701 ], [ 138.3853179, 36.3601562 ], [ 138.3812374, 36.3341074 ], [ 138.3669591, 36.3331915 ], [ 138.3633965, 36.3257357 ], [ 138.3727537, 36.3171832 ], [ 138.3796687, 36.3028738 ], [ 138.386305599999986, 36.297566 ], [ 138.379343899999981, 36.2913807 ], [ 138.3683609, 36.2995513 ], [ 138.3420908, 36.2923263 ], [ 138.3372267, 36.3074749 ], [ 138.3409542, 36.3164937 ], [ 138.3306561, 36.3205956 ], [ 138.3242277, 36.3069501 ], [ 138.2947007, 36.3089051 ], [ 138.2987588, 36.3191931 ], [ 138.2916088, 36.3229103 ], [ 138.2834526, 36.3069395 ], [ 138.2831895, 36.2873621 ], [ 138.2884072, 36.2670529 ], [ 138.2877791, 36.2575918 ], [ 138.2992899, 36.2462257 ], [ 138.2828451, 36.2203818 ], [ 138.283324099999987, 36.1845583 ], [ 138.276808, 36.1640502 ], [ 138.2755285, 36.1514971 ], [ 138.2609723, 36.1315099 ], [ 138.2347361, 36.1104841 ], [ 138.2475441, 36.1008399 ], [ 138.246631899999983, 36.0949541 ], [ 138.267254899999983, 36.0912189 ], [ 138.2754002, 36.0863466 ], [ 138.2866553, 36.0898991 ], [ 138.301704199999989, 36.1109147 ], [ 138.320761500000032, 36.1116577 ], [ 138.3256476, 36.1081566 ], [ 138.327987, 36.0914619 ], [ 138.334206099999989, 36.0848089 ], [ 138.3344022, 36.0685344 ], [ 138.3456285, 36.0610736 ], [ 138.353380099999981, 36.0467406 ], [ 138.361660299999983, 36.0174659 ], [ 138.3649105, 36.0031673 ], [ 138.371888, 35.9950503 ], [ 138.3745188, 35.9830889 ], [ 138.370460399999985, 35.9713806 ], [ 138.4241932, 35.9589748 ], [ 138.4431612, 35.9511376 ], [ 138.4543334, 35.9383062 ], [ 138.444418899999988, 35.9177329 ], [ 138.4542219, 35.9032062 ], [ 138.4716545, 35.8961904 ], [ 138.489782599999984, 35.8964512 ], [ 138.4976715, 35.9114062 ] ] ] ] } },
{ "type": "Feature", "properties": { "hokenjo": "松本" }, "geometry": { "type": "MultiPolygon", "coordinates": [ [ [ [ 137.9241352, 36.1641108 ], [ 137.893869699999982, 36.1307269 ], [ 137.8922694, 36.1405061 ], [ 137.8846242, 36.1465369 ], [ 137.9010649, 36.1746003 ], [ 137.8976075, 36.1880683 ], [ 137.8904144, 36.1903758 ], [ 137.8750394, 36.1866297 ], [ 137.8461452, 36.1704177 ], [ 137.8398501, 36.1612133 ], [ 137.8299867, 36.1595849 ], [ 137.8108129, 36.145281 ], [ 137.794359899999989, 36.1296816 ], [ 137.777987699999983, 36.0994311 ], [ 137.7635091, 36.0881853 ], [ 137.754639199999986, 36.0865464 ], [ 137.7819399, 36.0731933 ], [ 137.7967188, 36.0780283 ], [ 137.806659699999983, 36.0548517 ], [ 137.8152778, 36.0544722 ], [ 137.8103755, 36.0379736 ], [ 137.808077199999985, 36.0157926 ], [ 137.8089569, 35.9979459 ], [ 137.8049479, 35.9798921 ], [ 137.8066165, 35.9730954 ], [ 137.7953592, 35.9599104 ], [ 137.801597499999986, 35.9357754 ], [ 137.8013822, 35.9264552 ], [ 137.80672, 35.9145143 ], [ 137.8046852, 35.8986783 ], [ 137.814582699999988, 35.887578 ], [ 137.816132399999987, 35.8785619 ], [ 137.806524, 35.8695819 ], [ 137.80439530000001, 35.8503858 ], [ 137.810137, 35.8480769 ], [ 137.808653099999987, 35.8310875 ], [ 137.816215799999981, 35.8287422 ], [ 137.8240974, 35.8131236 ], [ 137.8369739, 35.823283599999989 ], [ 137.8470589, 35.8373366 ], [ 137.8468465, 35.8580266 ], [ 137.85629179999998, 35.8677377 ], [ 137.8569707, 35.8771557 ], [ 137.8472119, 35.8902669 ], [ 137.851431599999984, 35.9061174 ], [ 137.858410599999985, 35.9120213 ], [ 137.8516617, 35.9238999 ], [ 137.8348072, 35.9282418 ], [ 137.829145899999986, 35.9376913 ], [ 137.8313248, 35.9478943 ], [ 137.8461724, 35.9583726 ], [ 137.8512687, 35.9680052 ], [ 137.8613638, 35.9714226 ], [ 137.870598299999983, 35.9824814 ], [ 137.8805131, 36.0015409 ], [ 137.88910869999998, 36.0050373 ], [ 137.904505500000027, 36.0182414 ], [ 137.8990091, 36.0246561 ], [ 137.9064683, 36.0346364 ], [ 137.9152833, 36.0347192 ], [ 137.9273466, 36.0424442 ], [ 137.9276994, 36.0493278 ], [ 137.9379856, 36.0530158 ], [ 137.938705299999981, 36.0615161 ], [ 137.949705599999987, 36.0637811 ], [ 137.9504589, 36.0545931 ], [ 137.9593644, 36.0540842 ], [ 137.9797086, 36.0442501 ], [ 138.000862499999982, 36.0545054 ], [ 138.006851399999988, 36.0531873 ], [ 138.015955, 36.0621973 ], [ 138.0127539, 36.0700359 ], [ 138.0171329, 36.0787023 ], [ 138.0287223, 36.0855232 ], [ 138.03018849999998, 36.1143329 ], [ 138.0416739, 36.1396412 ], [ 138.042347899999982, 36.1481273 ], [ 137.9991694, 36.1529723 ], [ 137.9793239, 36.1584286 ], [ 137.9688999, 36.1502267 ], [ 137.967236899999989, 36.1695631 ], [ 137.9470074, 36.1704514 ], [ 137.9407388, 36.1522828 ], [ 137.9241352, 36.1641108 ] ] ], [ [ [ 137.9687672, 36.364075 ], [ 137.980293599999982, 36.3760275 ], [ 137.991502199999985, 36.3767364 ], [ 137.998979099999985, 36.3712261 ], [ 138.0199766, 36.3757412 ], [ 138.0476754, 36.3767912 ], [ 138.051668, 36.379441199999988 ], [ 138.071893400000022, 36.3706546 ], [ 138.079199599999981, 36.3721115 ], [ 138.072888799999987, 36.378634 ], [ 138.0635436, 36.3985181 ], [ 138.071669200000031, 36.4046459 ], [ 138.096705, 36.4071765 ], [ 138.1154558, 36.4037584 ], [ 138.117270900000022, 36.4212289 ], [ 138.1143016, 36.4341364 ], [ 138.1216085, 36.4368309 ], [ 138.117952699999989, 36.4490242 ], [ 138.106038899999987, 36.4591977 ], [ 138.1021423, 36.4680816 ], [ 138.084659, 36.4747244 ], [ 138.075801499999983, 36.4804846 ], [ 138.073123, 36.4900399 ], [ 138.0464738, 36.4948926 ], [ 138.0391194, 36.4877793 ], [ 138.0055377, 36.4800929 ], [ 137.9771226, 36.4607015 ], [ 137.9593549, 36.4679196 ], [ 137.9509957, 36.4797203 ], [ 137.9532211, 36.4849792 ], [ 137.946931399999983, 36.4893756 ], [ 137.9263413, 36.4711553 ], [ 137.9329476, 36.4607576 ], [ 137.928889, 36.4502159 ], [ 137.9053264, 36.4393609 ], [ 137.9133378, 36.4229835 ], [ 137.9246602, 36.4115185 ], [ 137.9128369, 36.4068913 ], [ 137.9015029, 36.3899599 ], [ 137.908257, 36.3713216 ], [ 137.8880906, 36.3639961 ], [ 137.872386299999988, 36.3792088 ], [ 137.853427499999981, 36.3937863 ], [ 137.8361691, 36.3832089 ], [ 137.8253147, 36.3911625 ], [ 137.7996181, 36.3947689 ], [ 137.7906782, 36.3921031 ], [ 137.7754285, 36.3972321 ], [ 137.7704613, 36.3918213 ], [ 137.755182499999989, 36.401688 ], [ 137.7538767, 36.4107124 ], [ 137.7469309, 36.4184296 ], [ 137.727004699999981, 36.4252649 ], [ 137.711469599999987, 36.4105873 ], [ 137.7145315, 36.3982586 ], [ 137.706154199999986, 36.3849777 ], [ 137.7090105, 36.3767463 ], [ 137.7010137, 36.3650041 ], [ 137.726980400000031, 36.3420557 ], [ 137.7280886, 36.3208859 ], [ 137.721361799999983, 36.3050678 ], [ 137.7256825, 36.2876522 ], [ 137.740375799999981, 36.2816772 ], [ 137.744648499999983, 36.2752108 ], [ 137.78229349999998, 36.2762325 ], [ 137.7881602, 36.2837031 ], [ 137.796811, 36.2756833 ], [ 137.79785, 36.2597333 ], [ 137.7891286, 36.2495322 ], [ 137.794036, 36.2411666 ], [ 137.8326925, 36.2462841 ], [ 137.846787399999982, 36.2393814 ], [ 137.866424199999983, 36.2373575 ], [ 137.885368699999987, 36.2428994 ], [ 137.918262, 36.2463906 ], [ 137.9297396, 36.2597531 ], [ 137.944556899999981, 36.2878711 ], [ 137.9559022, 36.2944803 ], [ 137.9724311, 36.2989839 ], [ 137.978072, 36.3050197 ], [ 137.969488399999989, 36.3177453 ], [ 137.958299, 36.317215 ], [ 137.947829, 36.3242608 ], [ 137.957509099999982, 36.3405658 ], [ 137.9533233, 36.3440347 ], [ 137.956054699999981, 36.3591936 ], [ 137.9687672, 36.364075 ] ] ] ] } },
{ "type": "Feature", "properties": { "hokenjo": "松本市" }, "geometry": { "type": "MultiPolygon", "coordinates": [ [ [ [ 138.079199599999981, 36.3721115 ], [ 138.071893400000022, 36.3706546 ], [ 138.051668, 36.379441199999988 ], [ 138.0476754, 36.3767912 ], [ 138.0199766, 36.3757412 ], [ 137.998979099999985, 36.3712261 ], [ 137.991502199999985, 36.3767364 ], [ 137.980293599999982, 36.3760275 ], [ 137.9687672, 36.364075 ], [ 137.956054699999981, 36.3591936 ], [ 137.9533233, 36.3440347 ], [ 137.957509099999982, 36.3405658 ], [ 137.947829, 36.3242608 ], [ 137.958299, 36.317215 ], [ 137.969488399999989, 36.3177453 ], [ 137.978072, 36.3050197 ], [ 137.9724311, 36.2989839 ], [ 137.9559022, 36.2944803 ], [ 137.944556899999981, 36.2878711 ], [ 137.9297396, 36.2597531 ], [ 137.918262, 36.2463906 ], [ 137.885368699999987, 36.2428994 ], [ 137.866424199999983, 36.2373575 ], [ 137.846787399999982, 36.2393814 ], [ 137.8326925, 36.2462841 ], [ 137.794036, 36.2411666 ], [ 137.7891286, 36.2495322 ], [ 137.79785, 36.2597333 ], [ 137.796811, 36.2756833 ], [ 137.7881602, 36.2837031 ], [ 137.78229349999998, 36.2762325 ], [ 137.744648499999983, 36.2752108 ], [ 137.740375799999981, 36.2816772 ], [ 137.7256825, 36.2876522 ], [ 137.721361799999983, 36.3050678 ], [ 137.7280886, 36.3208859 ], [ 137.726980400000031, 36.3420557 ], [ 137.7010137, 36.3650041 ], [ 137.6875709, 36.3556965 ], [ 137.680883699999981, 36.3379719 ], [ 137.6587968, 36.337353 ], [ 137.6456071, 36.3412607 ], [ 137.6506743, 36.3273979 ], [ 137.6468587, 36.2964523 ], [ 137.647820599999989, 36.2890517 ], [ 137.6287978, 36.2783659 ], [ 137.614719399999984, 36.2629273 ], [ 137.6059233, 36.2487867 ], [ 137.596350199999989, 36.2429762 ], [ 137.5830254, 36.2203965 ], [ 137.5729804, 36.2184109 ], [ 137.57511839999998, 36.2038854 ], [ 137.581042699999983, 36.1953098 ], [ 137.5951746, 36.1903495 ], [ 137.5911567, 36.1783532 ], [ 137.591222499999986, 36.1641171 ], [ 137.5678929, 36.1533762 ], [ 137.5547123, 36.1376602 ], [ 137.560466900000023, 36.1304712 ], [ 137.5508575, 36.1098751 ], [ 137.5723486, 36.0885921 ], [ 137.5927903, 36.0809446 ], [ 137.608225299999987, 36.0779319 ], [ 137.6137233, 36.0596169 ], [ 137.598324599999984, 36.0431891 ], [ 137.599494099999987, 36.0259361 ], [ 137.612938499999984, 36.0184203 ], [ 137.633141599999988, 36.0267692 ], [ 137.653828, 36.0190317 ], [ 137.668219099999988, 36.0104453 ], [ 137.6815466, 36.0167776 ], [ 137.703821, 36.010115899999988 ], [ 137.7198033, 36.0263681 ], [ 137.7228041, 36.0341398 ], [ 137.7370611, 36.047837 ], [ 137.7357106, 36.069555 ], [ 137.754639199999986, 36.0865464 ], [ 137.7635091, 36.0881853 ], [ 137.777987699999983, 36.0994311 ], [ 137.794359899999989, 36.1296816 ], [ 137.8108129, 36.145281 ], [ 137.8299867, 36.1595849 ], [ 137.8398501, 36.1612133 ], [ 137.8461452, 36.1704177 ], [ 137.8750394, 36.1866297 ], [ 137.8904144, 36.1903758 ], [ 137.8976075, 36.1880683 ], [ 137.9010649, 36.1746003 ], [ 137.8846242, 36.1465369 ], [ 137.8922694, 36.1405061 ], [ 137.893869699999982, 36.1307269 ], [ 137.9241352, 36.1641108 ], [ 137.9407388, 36.1522828 ], [ 137.9470074, 36.1704514 ], [ 137.967236899999989, 36.1695631 ], [ 137.9688999, 36.1502267 ], [ 137.9793239, 36.1584286 ], [ 137.9991694, 36.1529723 ], [ 138.042347899999982, 36.1481273 ], [ 138.045519899999988, 36.1612884 ], [ 138.05391849999998, 36.1683443 ], [ 138.077885399999985, 36.156769 ], [ 138.0883327, 36.1574913 ], [ 138.1040486, 36.1639176 ], [ 138.1278328, 36.1664835 ], [ 138.1312381, 36.1767354 ], [ 138.1261701, 36.1835612 ], [ 138.1257829, 36.2007796 ], [ 138.129338499999989, 36.2117076 ], [ 138.119813, 36.2187006 ], [ 138.107079699999986, 36.2259856 ], [ 138.102454699999981, 36.2365439 ], [ 138.0791159, 36.251117 ], [ 138.0828014, 36.2617801 ], [ 138.0729283, 36.2727323 ], [ 138.0716181, 36.2866848 ], [ 138.081004399999983, 36.3123307 ], [ 138.0721858, 36.3218465 ], [ 138.0666684, 36.3452798 ], [ 138.0780048, 36.3608799 ], [ 138.079199599999981, 36.3721115 ] ] ] ] } },
{ "type": "Feature", "properties": { "hokenjo": "上田" }, "geometry": { "type": "MultiPolygon", "coordinates": [ [ [ [ 138.1312381, 36.1767354 ], [ 138.1278328, 36.1664835 ], [ 138.1338778, 36.1629421 ], [ 138.13470049999998, 36.1482391 ], [ 138.1470569, 36.1441502 ], [ 138.1545329, 36.1297672 ], [ 138.165633499999984, 36.1225186 ], [ 138.19112819999998, 36.1226958 ], [ 138.1899182, 36.1164102 ], [ 138.199533800000012, 36.107733 ], [ 138.2167466, 36.1052705 ], [ 138.2347361, 36.1104841 ], [ 138.2609723, 36.1315099 ], [ 138.2755285, 36.1514971 ], [ 138.276808, 36.1640502 ], [ 138.283324099999987, 36.1845583 ], [ 138.2828451, 36.2203818 ], [ 138.2992899, 36.2462257 ], [ 138.2877791, 36.2575918 ], [ 138.2884072, 36.2670529 ], [ 138.2831895, 36.2873621 ], [ 138.2834526, 36.3069395 ], [ 138.2916088, 36.3229103 ], [ 138.2987588, 36.3191931 ], [ 138.2947007, 36.3089051 ], [ 138.3242277, 36.3069501 ], [ 138.3306561, 36.3205956 ], [ 138.3409542, 36.3164937 ], [ 138.3372267, 36.3074749 ], [ 138.3420908, 36.2923263 ], [ 138.3683609, 36.2995513 ], [ 138.379343899999981, 36.2913807 ], [ 138.386305599999986, 36.297566 ], [ 138.3796687, 36.3028738 ], [ 138.3727537, 36.3171832 ], [ 138.3633965, 36.3257357 ], [ 138.3669591, 36.3331915 ], [ 138.3812374, 36.3341074 ], [ 138.3853179, 36.3601562 ], [ 138.3982044, 36.3721701 ], [ 138.412224399999985, 36.3712115 ], [ 138.438014, 36.3846293 ], [ 138.4439822, 36.3981702 ], [ 138.457715300000018, 36.4115743 ], [ 138.45696479999998, 36.4202401 ], [ 138.4416014, 36.4225929 ], [ 138.400970799999982, 36.4347353 ], [ 138.4031264, 36.4523194 ], [ 138.4000711, 36.461405 ], [ 138.4007603, 36.4814539 ], [ 138.397132, 36.4905822 ], [ 138.4060318, 36.5073641 ], [ 138.4042465, 36.5220652 ], [ 138.4139777, 36.5326066 ], [ 138.412388599999986, 36.5414863 ], [ 138.3820733, 36.5546613 ], [ 138.3562035, 36.5492262 ], [ 138.351954, 36.5412826 ], [ 138.3339614, 36.5373515 ], [ 138.3237078, 36.546154 ], [ 138.311435, 36.5503612 ], [ 138.293877399999985, 36.5322987 ], [ 138.277452399999987, 36.5349523 ], [ 138.266487, 36.5132315 ], [ 138.249855, 36.5156968 ], [ 138.239368, 36.5094893 ], [ 138.2294861, 36.5141632 ], [ 138.2199574, 36.5077571 ], [ 138.1998471, 36.5111596 ], [ 138.20176619999998, 36.5009843 ], [ 138.2195554, 36.4904854 ], [ 138.2306367, 36.4796235 ], [ 138.2286892, 36.4646563 ], [ 138.24138, 36.4570227 ], [ 138.249781899999988, 36.4441391 ], [ 138.248690499999981, 36.433313 ], [ 138.2161523, 36.4293953 ], [ 138.211060299999986, 36.4260914 ], [ 138.180614099999985, 36.4210475 ], [ 138.1658496, 36.4167434 ], [ 138.1398596, 36.4340159 ], [ 138.128618499999988, 36.438207 ], [ 138.1216085, 36.4368309 ], [ 138.1143016, 36.4341364 ], [ 138.117270900000022, 36.4212289 ], [ 138.1154558, 36.4037584 ], [ 138.096705, 36.4071765 ], [ 138.071669200000031, 36.4046459 ], [ 138.0635436, 36.3985181 ], [ 138.072888799999987, 36.378634 ], [ 138.079199599999981, 36.3721115 ], [ 138.0780048, 36.3608799 ], [ 138.0666684, 36.3452798 ], [ 138.0721858, 36.3218465 ], [ 138.081004399999983, 36.3123307 ], [ 138.0716181, 36.2866848 ], [ 138.0729283, 36.2727323 ], [ 138.0828014, 36.2617801 ], [ 138.0791159, 36.251117 ], [ 138.102454699999981, 36.2365439 ], [ 138.107079699999986, 36.2259856 ], [ 138.119813, 36.2187006 ], [ 138.129338499999989, 36.2117076 ], [ 138.1257829, 36.2007796 ], [ 138.1261701, 36.1835612 ], [ 138.1312381, 36.1767354 ] ] ] ] } },
{ "type": "Feature", "properties": { "hokenjo": "諏訪" }, "geometry": { "type": "MultiPolygon", "coordinates": [ [ [ [ 138.360079499999983, 35.9510137 ], [ 138.3603464, 35.9572112 ], [ 138.370460399999985, 35.9713806 ], [ 138.3745188, 35.9830889 ], [ 138.371888, 35.9950503 ], [ 138.3649105, 36.0031673 ], [ 138.361660299999983, 36.0174659 ], [ 138.353380099999981, 36.0467406 ], [ 138.3456285, 36.0610736 ], [ 138.3344022, 36.0685344 ], [ 138.334206099999989, 36.0848089 ], [ 138.327987, 36.0914619 ], [ 138.3256476, 36.1081566 ], [ 138.320761500000032, 36.1116577 ], [ 138.301704199999989, 36.1109147 ], [ 138.2866553, 36.0898991 ], [ 138.2754002, 36.0863466 ], [ 138.267254899999983, 36.0912189 ], [ 138.246631899999983, 36.0949541 ], [ 138.2475441, 36.1008399 ], [ 138.2347361, 36.1104841 ], [ 138.2167466, 36.1052705 ], [ 138.199533800000012, 36.107733 ], [ 138.1899182, 36.1164102 ], [ 138.19112819999998, 36.1226958 ], [ 138.165633499999984, 36.1225186 ], [ 138.1545329, 36.1297672 ], [ 138.1470569, 36.1441502 ], [ 138.13470049999998, 36.1482391 ], [ 138.1338778, 36.1629421 ], [ 138.1278328, 36.1664835 ], [ 138.1040486, 36.1639176 ], [ 138.0883327, 36.1574913 ], [ 138.077885399999985, 36.156769 ], [ 138.05391849999998, 36.1683443 ], [ 138.045519899999988, 36.1612884 ], [ 138.042347899999982, 36.1481273 ], [ 138.0416739, 36.1396412 ], [ 138.03018849999998, 36.1143329 ], [ 138.0287223, 36.0855232 ], [ 138.0171329, 36.0787023 ], [ 138.0127539, 36.0700359 ], [ 138.015955, 36.0621973 ], [ 138.006851399999988, 36.0531873 ], [ 137.9997291, 36.040809 ], [ 137.9971502, 36.0231184 ], [ 137.9915743, 36.0163846 ], [ 138.019420199999985, 36.0107721 ], [ 138.037326, 36.0122971 ], [ 138.0368226, 36.0016382 ], [ 138.045316499999984, 35.9996069 ], [ 138.04820730000003, 35.9744021 ], [ 138.04593, 35.965136 ], [ 138.035010799999981, 35.9624241 ], [ 138.043795, 35.953578 ], [ 138.0590233, 35.9462463 ], [ 138.074014399999982, 35.9503158 ], [ 138.0796292, 35.960503 ], [ 138.08655, 35.9601803 ], [ 138.1131532, 35.9748536 ], [ 138.1247665, 35.9714667 ], [ 138.150584, 35.9541223 ], [ 138.146716199999986, 35.9425381 ], [ 138.160789199999982, 35.9334578 ], [ 138.168912799999987, 35.9166012 ], [ 138.1741635, 35.8906043 ], [ 138.1808824, 35.8891506 ], [ 138.177628199999987, 35.8672537 ], [ 138.188891499999983, 35.8578134 ], [ 138.177095100000031, 35.8448065 ], [ 138.1806545, 35.8331434 ], [ 138.1755267, 35.8232418 ], [ 138.1722853, 35.8007629 ], [ 138.177495599999986, 35.7861852 ], [ 138.1983209, 35.7815574 ], [ 138.1851742, 35.7910799 ], [ 138.187785, 35.7999529 ], [ 138.2056929, 35.8157343 ], [ 138.2034931, 35.8226321 ], [ 138.22678879999998, 35.8574037 ], [ 138.232598599999989, 35.8761318 ], [ 138.2486036, 35.8859246 ], [ 138.2644405, 35.8759113 ], [ 138.2728411, 35.8649293 ], [ 138.2836408, 35.8593157 ], [ 138.2930558, 35.8670624 ], [ 138.307678700000025, 35.8874493 ], [ 138.3243182, 35.9023299 ], [ 138.3420324, 35.9256693 ], [ 138.345046699999983, 35.9413331 ], [ 138.360079499999983, 35.9510137 ] ] ] ] } },
{ "type": "Feature", "properties": { "hokenjo": "大町" }, "geometry": { "type": "MultiPolygon", "coordinates": [ [ [ [ 137.853427499999981, 36.3937863 ], [ 137.872386299999988, 36.3792088 ], [ 137.8880906, 36.3639961 ], [ 137.908257, 36.3713216 ], [ 137.9015029, 36.3899599 ], [ 137.9128369, 36.4068913 ], [ 137.9246602, 36.4115185 ], [ 137.9133378, 36.4229835 ], [ 137.9053264, 36.4393609 ], [ 137.928889, 36.4502159 ], [ 137.9329476, 36.4607576 ], [ 137.9263413, 36.4711553 ], [ 137.946931399999983, 36.4893756 ], [ 137.9532211, 36.4849792 ], [ 137.9560942, 36.5011495 ], [ 137.963923699999981, 36.5057153 ], [ 137.966673499999985, 36.51692 ], [ 137.9497338, 36.5239783 ], [ 137.9399149, 36.5167458 ], [ 137.919017199999985, 36.5382544 ], [ 137.917596799999984, 36.549641 ], [ 137.9263607, 36.5588252 ], [ 137.941768699999983, 36.5947821 ], [ 137.927526, 36.6000015 ], [ 137.9280683, 36.6064871 ], [ 137.9143992, 36.6186456 ], [ 137.9187829, 36.6345609 ], [ 137.9094408, 36.6490181 ], [ 137.9101058, 36.6615773 ], [ 137.9174495, 36.6819239 ], [ 137.9149951, 36.693860099999988 ], [ 137.923426799999987, 36.7000679 ], [ 137.933750299999986, 36.7254026 ], [ 137.9415401, 36.7360743 ], [ 137.953313799999989, 36.7484821 ], [ 137.952888800000011, 36.7554827 ], [ 137.9679253, 36.7710329 ], [ 137.967677899999984, 36.7810401 ], [ 137.989184699999981, 36.8115178 ], [ 138.003461499999986, 36.8264136 ], [ 138.0200652, 36.8422211 ], [ 138.0165911, 36.8604033 ], [ 138.0316235, 36.8781391 ], [ 138.031062099999986, 36.8913613 ], [ 138.015577400000012, 36.8932138 ], [ 138.013638, 36.9040691 ], [ 137.9915709, 36.910688 ], [ 137.969575, 36.9108127 ], [ 137.9623533, 36.9021111 ], [ 137.9473722, 36.9130292 ], [ 137.932120699999984, 36.9142717 ], [ 137.9197421, 36.9198697 ], [ 137.89326, 36.9099597 ], [ 137.874650299999985, 36.9158527 ], [ 137.8634702, 36.9128941 ], [ 137.871434099999988, 36.9026958 ], [ 137.8616653, 36.8907788 ], [ 137.8682966, 36.8777854 ], [ 137.8778505, 36.8731893 ], [ 137.855922199999981, 36.8495029 ], [ 137.8568644, 36.8438262 ], [ 137.8452225, 36.8346187 ], [ 137.8310487, 36.817813 ], [ 137.830975099999989, 36.808013 ], [ 137.8199826, 36.7982217 ], [ 137.7932755, 36.7866567 ], [ 137.7914964, 36.779197 ], [ 137.7648465, 36.7676926 ], [ 137.7517723, 36.7511082 ], [ 137.7592856, 36.7406107 ], [ 137.7509704, 36.7268876 ], [ 137.7500643, 36.7049798 ], [ 137.7597384, 36.6859323 ], [ 137.760600499999981, 36.664585099999989 ], [ 137.7513299, 36.6267456 ], [ 137.7439407, 36.6127451 ], [ 137.753097199999985, 36.5937223 ], [ 137.7478633, 36.5868539 ], [ 137.725106900000014, 36.5866962 ], [ 137.713206, 36.5770801 ], [ 137.6877378, 36.5620745 ], [ 137.6894988, 36.5535734 ], [ 137.684597599999989, 36.5378073 ], [ 137.7085152, 36.5334009 ], [ 137.702751799999987, 36.5246957 ], [ 137.705469599999986, 36.5178877 ], [ 137.6687456, 36.5094613 ], [ 137.6662369, 36.4932177 ], [ 137.6520007, 36.488200299999988 ], [ 137.650779799999981, 36.4801203 ], [ 137.6566373, 36.4704137 ], [ 137.655067799999983, 36.4587259 ], [ 137.645293399999986, 36.4545303 ], [ 137.6399122, 36.4458298 ], [ 137.6333043, 36.425022299999988 ], [ 137.609199599999982, 36.4179058 ], [ 137.6053612, 36.4025383 ], [ 137.5924075, 36.389675 ], [ 137.587156599999986, 36.3895919 ], [ 137.5870865, 36.3719642 ], [ 137.619173499999988, 36.3642093 ], [ 137.6354705, 36.3425499 ], [ 137.6456071, 36.3412607 ], [ 137.6587968, 36.337353 ], [ 137.680883699999981, 36.3379719 ], [ 137.6875709, 36.3556965 ], [ 137.7010137, 36.3650041 ], [ 137.7090105, 36.3767463 ], [ 137.706154199999986, 36.3849777 ], [ 137.7145315, 36.3982586 ], [ 137.711469599999987, 36.4105873 ], [ 137.727004699999981, 36.4252649 ], [ 137.7469309, 36.4184296 ], [ 137.7538767, 36.4107124 ], [ 137.755182499999989, 36.401688 ], [ 137.7704613, 36.3918213 ], [ 137.7754285, 36.3972321 ], [ 137.7906782, 36.3921031 ], [ 137.7996181, 36.3947689 ], [ 137.8253147, 36.3911625 ], [ 137.8361691, 36.3832089 ], [ 137.853427499999981, 36.3937863 ] ] ] ] } },
{ "type": "Feature", "properties": { "hokenjo": "長野" }, "geometry": { "type": "MultiPolygon", "coordinates": [ [ [ [ 138.2306367, 36.4796235 ], [ 138.2195554, 36.4904854 ], [ 138.20176619999998, 36.5009843 ], [ 138.1998471, 36.5111596 ], [ 138.1994091, 36.5229346 ], [ 138.1872019, 36.543079 ], [ 138.1711769, 36.5487632 ], [ 138.1675062, 36.5591954 ], [ 138.1329978, 36.5581846 ], [ 138.1284244, 36.5508907 ], [ 138.1153969, 36.5419296 ], [ 138.1023274, 36.5395659 ], [ 138.0813272, 36.5439479 ], [ 138.0662974, 36.5399048 ], [ 138.0462636, 36.5397084 ], [ 138.043926199999987, 36.5196851 ], [ 138.03510559999998, 36.5109023 ], [ 138.0296294, 36.4907129 ], [ 138.0391194, 36.4877793 ], [ 138.0464738, 36.4948926 ], [ 138.073123, 36.4900399 ], [ 138.075801499999983, 36.4804846 ], [ 138.084659, 36.4747244 ], [ 138.1021423, 36.4680816 ], [ 138.106038899999987, 36.4591977 ], [ 138.117952699999989, 36.4490242 ], [ 138.1216085, 36.4368309 ], [ 138.128618499999988, 36.438207 ], [ 138.1398596, 36.4340159 ], [ 138.1658496, 36.4167434 ], [ 138.180614099999985, 36.4210475 ], [ 138.211060299999986, 36.4260914 ], [ 138.2161523, 36.4293953 ], [ 138.248690499999981, 36.433313 ], [ 138.249781899999988, 36.4441391 ], [ 138.24138, 36.4570227 ], [ 138.2286892, 36.4646563 ], [ 138.2306367, 36.4796235 ] ] ], [ [ [ 138.3182373, 36.5667876 ], [ 138.311124200000023, 36.5593776 ], [ 138.311435, 36.5503612 ], [ 138.3237078, 36.546154 ], [ 138.3339614, 36.5373515 ], [ 138.351954, 36.5412826 ], [ 138.3562035, 36.5492262 ], [ 138.3820733, 36.5546613 ], [ 138.412388599999986, 36.5414863 ], [ 138.428840899999983, 36.5562254 ], [ 138.4284295, 36.5686962 ], [ 138.4202948, 36.5772373 ], [ 138.4288355, 36.5978914 ], [ 138.4415833, 36.6106694 ], [ 138.454973599999988, 36.6138508 ], [ 138.460575700000021, 36.6264722 ], [ 138.459056299999986, 36.634838 ], [ 138.473097199999984, 36.6440483 ], [ 138.4900819, 36.6411958 ], [ 138.5081027, 36.6482672 ], [ 138.5249057, 36.6509084 ], [ 138.5343382, 36.6662687 ], [ 138.5138014, 36.6675716 ], [ 138.4994948, 36.6754369 ], [ 138.4718685, 36.6773379 ], [ 138.468742099999986, 36.6862777 ], [ 138.4285414, 36.6957929 ], [ 138.405699199999987, 36.6990901 ], [ 138.395016699999985, 36.6960371 ], [ 138.3682169, 36.7042124 ], [ 138.3556313, 36.695053 ], [ 138.3482644, 36.6967066 ], [ 138.3406258, 36.7074199 ], [ 138.3437386, 36.7156416 ], [ 138.3312664, 36.7249404 ], [ 138.31097029999998, 36.7208944 ], [ 138.3015033, 36.7152094 ], [ 138.2899691, 36.7147822 ], [ 138.283269, 36.7030847 ], [ 138.2832794, 36.6876664 ], [ 138.2572635, 36.6401278 ], [ 138.2683927, 36.636995 ], [ 138.2878705, 36.6214978 ], [ 138.28934959999998, 36.6130661 ], [ 138.3054596, 36.5994298 ], [ 138.307445600000023, 36.5730573 ], [ 138.3182373, 36.5667876 ] ] ], [ [ [ 137.944798099999986, 36.6720971 ], [ 137.920368599999989, 36.6570093 ], [ 137.9101058, 36.6615773 ], [ 137.9094408, 36.6490181 ], [ 137.9187829, 36.6345609 ], [ 137.9143992, 36.6186456 ], [ 137.9280683, 36.6064871 ], [ 137.927526, 36.6000015 ], [ 137.941768699999983, 36.5947821 ], [ 137.952504799999986, 36.594965699999989 ], [ 137.962968200000034, 36.6038338 ], [ 137.980804799999987, 36.6014141 ], [ 137.9859909, 36.5965707 ], [ 138.002254, 36.6005041 ], [ 138.003286, 36.6137133 ], [ 137.998383599999983, 36.6227946 ], [ 138.000472, 36.6388702 ], [ 138.0107499, 36.6546207 ], [ 138.0042243, 36.6602293 ], [ 137.959371399999981, 36.6724668 ], [ 137.944798099999986, 36.6720971 ] ] ], [ [ [ 138.2799765, 36.7923955 ], [ 138.2812308, 36.8167945 ], [ 138.275736599999988, 36.8367343 ], [ 138.2749016, 36.8408543 ], [ 138.2705311, 36.8442438 ], [ 138.2683567, 36.8604571 ], [ 138.249314, 36.8653343 ], [ 138.2293704, 36.864176 ], [ 138.2130344, 36.868296 ], [ 138.1955944, 36.8536724 ], [ 138.1778253, 36.8518053 ], [ 138.1628183, 36.8442972 ], [ 138.1318379, 36.8506707 ], [ 138.115052700000035, 36.8503923 ], [ 138.0891648, 36.8357332 ], [ 138.088923099999988, 36.8302152 ], [ 138.10043349999998, 36.816291899999989 ], [ 138.0952895, 36.8009125 ], [ 138.0984884, 36.7796481 ], [ 138.1248785, 36.7832523 ], [ 138.1201189, 36.7743151 ], [ 138.122476899999981, 36.762262 ], [ 138.1294579, 36.7530715 ], [ 138.1401209, 36.7475348 ], [ 138.140492500000022, 36.7396451 ], [ 138.173226, 36.728076 ], [ 138.1788099, 36.7215102 ], [ 138.1946534, 36.712708 ], [ 138.215673399999986, 36.7090336 ], [ 138.2314246, 36.720953 ], [ 138.2515213, 36.7191749 ], [ 138.260778599999981, 36.7277069 ], [ 138.26234119999998, 36.7424752 ], [ 138.2804865, 36.7416288 ], [ 138.294106, 36.7458727 ], [ 138.304255899999987, 36.7640794 ], [ 138.300072799999981, 36.7735338 ], [ 138.2996043, 36.7879563 ], [ 138.2799765, 36.7923955 ] ] ] ] } },
{ "type": "Feature", "properties": { "hokenjo": "長野市" }, "geometry": { "type": "MultiPolygon", "coordinates": [ [ [ [ 138.1401209, 36.7475348 ], [ 138.1294579, 36.7530715 ], [ 138.122476899999981, 36.762262 ], [ 138.1201189, 36.7743151 ], [ 138.1248785, 36.7832523 ], [ 138.0984884, 36.7796481 ], [ 138.0952895, 36.8009125 ], [ 138.10043349999998, 36.816291899999989 ], [ 138.088923099999988, 36.8302152 ], [ 138.0891648, 36.8357332 ], [ 138.0814478, 36.8299216 ], [ 138.06816809999998, 36.8038375 ], [ 138.0522244, 36.7999597 ], [ 138.0518456, 36.80746 ], [ 138.0337973, 36.8088333 ], [ 138.0288787, 36.8171139 ], [ 138.0170401, 36.8188264 ], [ 138.003461499999986, 36.8264136 ], [ 137.989184699999981, 36.8115178 ], [ 137.967677899999984, 36.7810401 ], [ 137.9679253, 36.7710329 ], [ 137.952888800000011, 36.7554827 ], [ 137.953313799999989, 36.7484821 ], [ 137.9415401, 36.7360743 ], [ 137.933750299999986, 36.7254026 ], [ 137.923426799999987, 36.7000679 ], [ 137.9149951, 36.693860099999988 ], [ 137.9174495, 36.6819239 ], [ 137.9101058, 36.6615773 ], [ 137.920368599999989, 36.6570093 ], [ 137.944798099999986, 36.6720971 ], [ 137.959371399999981, 36.6724668 ], [ 138.0042243, 36.6602293 ], [ 138.0107499, 36.6546207 ], [ 138.000472, 36.6388702 ], [ 137.998383599999983, 36.6227946 ], [ 138.003286, 36.6137133 ], [ 138.002254, 36.6005041 ], [ 137.9859909, 36.5965707 ], [ 137.980804799999987, 36.6014141 ], [ 137.962968200000034, 36.6038338 ], [ 137.952504799999986, 36.594965699999989 ], [ 137.941768699999983, 36.5947821 ], [ 137.9263607, 36.5588252 ], [ 137.917596799999984, 36.549641 ], [ 137.919017199999985, 36.5382544 ], [ 137.9399149, 36.5167458 ], [ 137.9497338, 36.5239783 ], [ 137.966673499999985, 36.51692 ], [ 137.963923699999981, 36.5057153 ], [ 137.9560942, 36.5011495 ], [ 137.9532211, 36.4849792 ], [ 137.9509957, 36.4797203 ], [ 137.9593549, 36.4679196 ], [ 137.9771226, 36.4607015 ], [ 138.0055377, 36.4800929 ], [ 138.0391194, 36.4877793 ], [ 138.0296294, 36.4907129 ], [ 138.03510559999998, 36.5109023 ], [ 138.043926199999987, 36.5196851 ], [ 138.0462636, 36.5397084 ], [ 138.0662974, 36.5399048 ], [ 138.0813272, 36.5439479 ], [ 138.1023274, 36.5395659 ], [ 138.1153969, 36.5419296 ], [ 138.1284244, 36.5508907 ], [ 138.1329978, 36.5581846 ], [ 138.1675062, 36.5591954 ], [ 138.1711769, 36.5487632 ], [ 138.1872019, 36.543079 ], [ 138.1994091, 36.5229346 ], [ 138.1998471, 36.5111596 ], [ 138.2199574, 36.5077571 ], [ 138.2294861, 36.5141632 ], [ 138.239368, 36.5094893 ], [ 138.249855, 36.5156968 ], [ 138.266487, 36.5132315 ], [ 138.277452399999987, 36.5349523 ], [ 138.293877399999985, 36.5322987 ], [ 138.311435, 36.5503612 ], [ 138.311124200000023, 36.5593776 ], [ 138.3182373, 36.5667876 ], [ 138.307445600000023, 36.5730573 ], [ 138.3054596, 36.5994298 ], [ 138.28934959999998, 36.6130661 ], [ 138.2878705, 36.6214978 ], [ 138.2683927, 36.636995 ], [ 138.2572635, 36.6401278 ], [ 138.2832794, 36.6876664 ], [ 138.283269, 36.7030847 ], [ 138.2899691, 36.7147822 ], [ 138.3015033, 36.7152094 ], [ 138.31097029999998, 36.7208944 ], [ 138.3048877, 36.7458366 ], [ 138.294106, 36.7458727 ], [ 138.2804865, 36.7416288 ], [ 138.26234119999998, 36.7424752 ], [ 138.260778599999981, 36.7277069 ], [ 138.2515213, 36.7191749 ], [ 138.2314246, 36.720953 ], [ 138.215673399999986, 36.7090336 ], [ 138.1946534, 36.712708 ], [ 138.1788099, 36.7215102 ], [ 138.173226, 36.728076 ], [ 138.140492500000022, 36.7396451 ], [ 138.1401209, 36.7475348 ] ] ] ] } },
{ "type": "Feature", "properties": { "hokenjo": "飯田" }, "geometry": { "type": "MultiPolygon", "coordinates": [ [ [ [ 137.6537954, 35.2179896 ], [ 137.6539151, 35.2267127 ], [ 137.6637887, 35.2278349 ], [ 137.6812608, 35.2350885 ], [ 137.707713899999987, 35.2320174 ], [ 137.7117739, 35.2288743 ], [ 137.7218947, 35.2307582 ], [ 137.72242, 35.2221002 ], [ 137.7433131, 35.2188718 ], [ 137.768021399999981, 35.2184618 ], [ 137.76772, 35.2068949 ], [ 137.800424599999985, 35.205651 ], [ 137.8215194, 35.2156485 ], [ 137.8343318, 35.2139696 ], [ 137.8449296, 35.2210071 ], [ 137.859194, 35.2233174 ], [ 137.8725461, 35.2188802 ], [ 137.8848917, 35.2362496 ], [ 137.8824654, 35.2480963 ], [ 137.8954259, 35.2579885 ], [ 137.918613099999988, 35.2543738 ], [ 137.924763399999989, 35.260306299999989 ], [ 137.929252599999984, 35.2754702 ], [ 137.944242799999984, 35.2762843 ], [ 137.9518903, 35.2830815 ], [ 137.9673406, 35.284204 ], [ 137.9734154, 35.2930476 ], [ 137.9823576, 35.2923934 ], [ 137.9920932, 35.301704 ], [ 138.005677099999986, 35.3043951 ], [ 138.018876299999988, 35.301092 ], [ 138.0277366, 35.3116448 ], [ 138.0260639, 35.3202123 ], [ 138.038982799999985, 35.3260023 ], [ 138.0374253, 35.3325284 ], [ 138.050637, 35.335467 ], [ 138.061335899999989, 35.3471989 ], [ 138.071217, 35.3470625 ], [ 138.08670859999998, 35.3377237 ], [ 138.09633359999998, 35.3399423 ], [ 138.100061399999987, 35.3540267 ], [ 138.115142599999984, 35.3648739 ], [ 138.1292973, 35.3652881 ], [ 138.141143699999986, 35.3694926 ], [ 138.1525481, 35.3979839 ], [ 138.1443765, 35.4060748 ], [ 138.1348796, 35.4077461 ], [ 138.1398255, 35.4226036 ], [ 138.121520799999985, 35.4285567 ], [ 138.123962600000027, 35.4356608 ], [ 138.1204726, 35.4546089 ], [ 138.1315746, 35.4533403 ], [ 138.1410191, 35.4589947 ], [ 138.156913100000025, 35.4599808 ], [ 138.1579889, 35.4942945 ], [ 138.1401808, 35.4997334 ], [ 138.14633, 35.5186428 ], [ 138.1383322, 35.5222117 ], [ 138.1594245, 35.5449323 ], [ 138.1461309, 35.5570154 ], [ 138.151810399999988, 35.5709599 ], [ 138.1462826, 35.576456 ], [ 138.1308214, 35.5813046 ], [ 138.126104, 35.5925472 ], [ 138.1110267, 35.60015 ], [ 138.1010832, 35.614890599999988 ], [ 138.105329399999988, 35.6271561 ], [ 138.1018781, 35.6469973 ], [ 138.091958299999988, 35.655027 ], [ 138.0855463, 35.672952 ], [ 138.0794841, 35.6793833 ], [ 138.0771135, 35.6943244 ], [ 138.0613726, 35.7035396 ], [ 138.047245299999986, 35.6990657 ], [ 138.0434086, 35.6913869 ], [ 138.04405, 35.6746724 ], [ 138.0353183, 35.6669433 ], [ 138.0383316, 35.6369805 ], [ 138.022912599999984, 35.6140294 ], [ 138.0023636, 35.5972737 ], [ 137.989334700000029, 35.6096087 ], [ 137.971447499999982, 35.607284 ], [ 137.960804699999983, 35.6019854 ], [ 137.94145469999998, 35.6093645 ], [ 137.932658, 35.6024995 ], [ 137.9048239, 35.623739799999989 ], [ 137.9049406, 35.6395067 ], [ 137.8991006, 35.6399743 ], [ 137.8868611, 35.6358093 ], [ 137.8683872, 35.6403426 ], [ 137.865325, 35.6484634 ], [ 137.8429126, 35.6521028 ], [ 137.8311014, 35.6388887 ], [ 137.8214592, 35.6435176 ], [ 137.8086695, 35.6439245 ], [ 137.8013034, 35.6556809 ], [ 137.7774143, 35.6316734 ], [ 137.760078, 35.6276281 ], [ 137.753441899999984, 35.6198228 ], [ 137.7374553, 35.6129509 ], [ 137.7295672, 35.6133889 ], [ 137.715194, 35.5990631 ], [ 137.72044649999998, 35.5861623 ], [ 137.6983531, 35.5762539 ], [ 137.690658899999988, 35.5621753 ], [ 137.6942608, 35.554087 ], [ 137.687917699999986, 35.5505373 ], [ 137.6843388, 35.5364342 ], [ 137.674568199999982, 35.5317681 ], [ 137.6539487, 35.5321881 ], [ 137.6440106, 35.5210628 ], [ 137.6437914, 35.5109503 ], [ 137.631755, 35.5091756 ], [ 137.624546399999986, 35.5006062 ], [ 137.629591299999987, 35.4773834 ], [ 137.6284219, 35.4673123 ], [ 137.6183049, 35.4677904 ], [ 137.593149, 35.4469176 ], [ 137.6153048, 35.4308393 ], [ 137.621973699999984, 35.4118959 ], [ 137.63204589999998, 35.4107037 ], [ 137.6336892, 35.3990351 ], [ 137.618430599999982, 35.3917384 ], [ 137.5906736, 35.3936112 ], [ 137.5779497, 35.390129 ], [ 137.5983872, 35.3791818 ], [ 137.598036899999983, 35.3656657 ], [ 137.6025699, 35.3544954 ], [ 137.6015482, 35.3310384 ], [ 137.590548499999983, 35.3304865 ], [ 137.587579, 35.3237051 ], [ 137.575009599999987, 35.3169754 ], [ 137.5601154, 35.309599 ], [ 137.557591200000019, 35.2947151 ], [ 137.5707462, 35.2830971 ], [ 137.5558998, 35.2724232 ], [ 137.557482, 35.2645537 ], [ 137.548422, 35.2597351 ], [ 137.545996699999989, 35.2517857 ], [ 137.5504172, 35.2429051 ], [ 137.5626311, 35.235365099999989 ], [ 137.5787258, 35.2194351 ], [ 137.5778913, 35.1990352 ], [ 137.5914838, 35.199339099999989 ], [ 137.6030844, 35.2060735 ], [ 137.626803599999988, 35.2118846 ], [ 137.6446167, 35.2090066 ], [ 137.6537954, 35.2179896 ] ] ] ] } },
{ "type": "Feature", "properties": { "hokenjo": "北信" }, "geometry": { "type": "MultiPolygon", "coordinates": [ [ [ [ 138.6420784, 36.7237829 ], [ 138.648925099999985, 36.7271196 ], [ 138.6753029, 36.7309379 ], [ 138.6959316, 36.7385127 ], [ 138.688000099999982, 36.7658477 ], [ 138.6695437, 36.7736608 ], [ 138.6717143, 36.7835897 ], [ 138.684211, 36.7879242 ], [ 138.695788099999987, 36.8090562 ], [ 138.680672, 36.824161 ], [ 138.6900118, 36.8323504 ], [ 138.6932026, 36.854816899999989 ], [ 138.6764982, 36.8672508 ], [ 138.6573563, 36.8680461 ], [ 138.6509721, 36.8744206 ], [ 138.6234215, 36.8846643 ], [ 138.6178123, 36.8918844 ], [ 138.6210149, 36.904082 ], [ 138.612867099999988, 36.908549 ], [ 138.5961886, 36.9071137 ], [ 138.5892911, 36.9154523 ], [ 138.592006699999985, 36.9254122 ], [ 138.584517500000032, 36.9318906 ], [ 138.5881651, 36.9769376 ], [ 138.5863019, 36.9868874 ], [ 138.575664099999983, 36.9966244 ], [ 138.5658889, 37.0212606 ], [ 138.5525375, 37.0236241 ], [ 138.536511, 37.0209267 ], [ 138.5198591, 37.0278259 ], [ 138.501434599999982, 37.0250667 ], [ 138.4917231, 37.0204599 ], [ 138.4680057, 37.0178289 ], [ 138.455132, 37.0196147 ], [ 138.4313789, 37.0060773 ], [ 138.411895499999986, 37.0020318 ], [ 138.393829899999986, 36.995119 ], [ 138.3787261, 36.9803466 ], [ 138.363784, 36.9533731 ], [ 138.364521699999983, 36.9442767 ], [ 138.357711699999982, 36.9338473 ], [ 138.3432044, 36.9207967 ], [ 138.3293215, 36.9268817 ], [ 138.3175698, 36.9251851 ], [ 138.296325699999983, 36.9108201 ], [ 138.290289299999984, 36.8968112 ], [ 138.299368099999981, 36.8867212 ], [ 138.2885669, 36.8684424 ], [ 138.2962353, 36.8582529 ], [ 138.2876124, 36.8457065 ], [ 138.2749016, 36.8408543 ], [ 138.275736599999988, 36.8367343 ], [ 138.2812308, 36.8167945 ], [ 138.2799765, 36.7923955 ], [ 138.2996043, 36.7879563 ], [ 138.300072799999981, 36.7735338 ], [ 138.304255899999987, 36.7640794 ], [ 138.294106, 36.7458727 ], [ 138.3048877, 36.7458366 ], [ 138.31097029999998, 36.7208944 ], [ 138.3312664, 36.7249404 ], [ 138.3437386, 36.7156416 ], [ 138.3406258, 36.7074199 ], [ 138.3482644, 36.6967066 ], [ 138.3556313, 36.695053 ], [ 138.3682169, 36.7042124 ], [ 138.395016699999985, 36.6960371 ], [ 138.405699199999987, 36.6990901 ], [ 138.4285414, 36.6957929 ], [ 138.468742099999986, 36.6862777 ], [ 138.4718685, 36.6773379 ], [ 138.4994948, 36.6754369 ], [ 138.5138014, 36.6675716 ], [ 138.5343382, 36.6662687 ], [ 138.517917499999982, 36.6769961 ], [ 138.5200164, 36.6923172 ], [ 138.5436391, 36.7038345 ], [ 138.57489769999998, 36.7071219 ], [ 138.583267700000022, 36.7013063 ], [ 138.594335199999989, 36.7137961 ], [ 138.611141, 36.7065767 ], [ 138.621771099999989, 36.7202131 ], [ 138.6420784, 36.7237829 ] ] ] ] } },
{ "type": "Feature", "properties": { "hokenjo": "木曽" }, "geometry": { "type": "MultiPolygon", "coordinates": [ [ [ [ 137.715194, 35.5990631 ], [ 137.7295672, 35.6133889 ], [ 137.7374553, 35.6129509 ], [ 137.753441899999984, 35.6198228 ], [ 137.760078, 35.6276281 ], [ 137.7774143, 35.6316734 ], [ 137.8013034, 35.6556809 ], [ 137.8052998, 35.6742884 ], [ 137.803112299999981, 35.6813737 ], [ 137.8135667, 35.6920584 ], [ 137.811539499999981, 35.7016759 ], [ 137.8167981, 35.71685 ], [ 137.8051648, 35.7264803 ], [ 137.804247299999986, 35.7424831 ], [ 137.813818199999986, 35.7533084 ], [ 137.808879, 35.7795123 ], [ 137.8093249, 35.7813897 ], [ 137.8046468, 35.7895408 ], [ 137.8253655, 35.8010333 ], [ 137.8282946, 35.8061761 ], [ 137.8240974, 35.8131236 ], [ 137.816215799999981, 35.8287422 ], [ 137.808653099999987, 35.8310875 ], [ 137.810137, 35.8480769 ], [ 137.80439530000001, 35.8503858 ], [ 137.806524, 35.8695819 ], [ 137.816132399999987, 35.8785619 ], [ 137.814582699999988, 35.887578 ], [ 137.8046852, 35.8986783 ], [ 137.80672, 35.9145143 ], [ 137.8013822, 35.9264552 ], [ 137.801597499999986, 35.9357754 ], [ 137.7953592, 35.9599104 ], [ 137.8066165, 35.9730954 ], [ 137.8049479, 35.9798921 ], [ 137.8089569, 35.9979459 ], [ 137.808077199999985, 36.0157926 ], [ 137.8103755, 36.0379736 ], [ 137.8152778, 36.0544722 ], [ 137.806659699999983, 36.0548517 ], [ 137.7967188, 36.0780283 ], [ 137.7819399, 36.0731933 ], [ 137.754639199999986, 36.0865464 ], [ 137.7357106, 36.069555 ], [ 137.7370611, 36.047837 ], [ 137.7228041, 36.0341398 ], [ 137.7198033, 36.0263681 ], [ 137.703821, 36.010115899999988 ], [ 137.6815466, 36.0167776 ], [ 137.668219099999988, 36.0104453 ], [ 137.653828, 36.0190317 ], [ 137.633141599999988, 36.0267692 ], [ 137.612938499999984, 36.0184203 ], [ 137.599494099999987, 36.0259361 ], [ 137.5902959, 36.0065411 ], [ 137.5747045, 35.9956889 ], [ 137.543458, 35.9828708 ], [ 137.5442658, 35.9723758 ], [ 137.5325574, 35.9616172 ], [ 137.5188843, 35.9397339 ], [ 137.505572199999989, 35.9406206 ], [ 137.497749699999986, 35.9288195 ], [ 137.4842146, 35.9161026 ], [ 137.4819321, 35.9005279 ], [ 137.476169, 35.8940173 ], [ 137.458648100000033, 35.8893145 ], [ 137.44868, 35.8928853 ], [ 137.4376141, 35.9050509 ], [ 137.4144399, 35.9013903 ], [ 137.3808162, 35.8924222 ], [ 137.3671651, 35.8767981 ], [ 137.36758530000003, 35.860667 ], [ 137.356776699999983, 35.8427323 ], [ 137.3360456, 35.8442176 ], [ 137.3321439, 35.8406801 ], [ 137.326029, 35.812128099999988 ], [ 137.33627869999998, 35.7988254 ], [ 137.3537167, 35.8013406 ], [ 137.3626468, 35.7979804 ], [ 137.3812207, 35.8012912 ], [ 137.3917926, 35.7985826 ], [ 137.3999479, 35.7753963 ], [ 137.41109179999998, 35.7772701 ], [ 137.4239727, 35.7743585 ], [ 137.440179299999983, 35.7585533 ], [ 137.4595727, 35.7614036 ], [ 137.4647521, 35.7563716 ], [ 137.465539899999982, 35.7437655 ], [ 137.4708377, 35.7357877 ], [ 137.4852124, 35.7247041 ], [ 137.487626799999987, 35.7164839 ], [ 137.486042, 35.7054994 ], [ 137.498675599999984, 35.6962219 ], [ 137.4971964, 35.6884819 ], [ 137.5094253, 35.6823792 ], [ 137.5353739, 35.6658051 ], [ 137.5454475, 35.6510823 ], [ 137.538183, 35.6383301 ], [ 137.528149899999988, 35.6359776 ], [ 137.5226524, 35.6194026 ], [ 137.5138088, 35.6080228 ], [ 137.5383037, 35.5847973 ], [ 137.546152399999983, 35.5872406 ], [ 137.5654413, 35.5850443 ], [ 137.5704327, 35.5798973 ], [ 137.5645999, 35.5664276 ], [ 137.5711157, 35.5626293 ], [ 137.5745085, 35.5445293 ], [ 137.6024983, 35.530702 ], [ 137.6072561, 35.5335434 ], [ 137.631755, 35.5091756 ], [ 137.6437914, 35.5109503 ], [ 137.6440106, 35.5210628 ], [ 137.6539487, 35.5321881 ], [ 137.674568199999982, 35.5317681 ], [ 137.6843388, 35.5364342 ], [ 137.687917699999986, 35.5505373 ], [ 137.6942608, 35.554087 ], [ 137.690658899999988, 35.5621753 ], [ 137.6983531, 35.5762539 ], [ 137.72044649999998, 35.5861623 ], [ 137.715194, 35.5990631 ] ] ] ] } }
]
}
