{
"type": "FeatureCollection",
"name": "nara",
"crs": { "type": "name", "properties": { "name": "urn:ogc:def:crs:OGC:1.3:CRS84" } },
"features": [
{ "type": "Feature", "properties": { "hokenjo": "吉野" }, "geometry": { "type": "MultiPolygon", "coordinates": [ [ [ [ 135.9156744, 33.9725919 ], [ 135.9265633, 33.9814475 ], [ 135.9539825, 33.9803294 ], [ 135.9746031, 33.9859667 ], [ 135.98461469999998, 33.9916411 ], [ 135.989483899999982, 34.0022475 ], [ 136.002489199999985, 34.0069914 ], [ 136.0073492, 34.0197469 ], [ 136.0229828, 34.0365219 ], [ 136.055621699999989, 34.0351994 ], [ 136.0726558, 34.0338628 ], [ 136.096375, 34.0224625 ], [ 136.1044694, 34.0269567 ], [ 136.097821399999987, 34.0448247 ], [ 136.0939158, 34.0666139 ], [ 136.0960967, 34.0863486 ], [ 136.115985599999988, 34.0817583 ], [ 136.102360799999985, 34.0960297 ], [ 136.104060799999985, 34.1151042 ], [ 136.108404400000012, 34.1267844 ], [ 136.1019492, 34.1413294 ], [ 136.1056858, 34.1525169 ], [ 136.1146922, 34.1608164 ], [ 136.1055969, 34.1716183 ], [ 136.1088647, 34.1851378 ], [ 136.0962025, 34.1878064 ], [ 136.0934494, 34.1956981 ], [ 136.0975761, 34.2024717 ], [ 136.1154664, 34.210835 ], [ 136.117298299999987, 34.22311 ], [ 136.110666899999984, 34.2293547 ], [ 136.1246928, 34.2413192 ], [ 136.1318494, 34.2518964 ], [ 136.1180636, 34.2605964 ], [ 136.113418599999989, 34.2787631 ], [ 136.0978294, 34.2888219 ], [ 136.094903599999981, 34.3014511 ], [ 136.1116461, 34.3050139 ], [ 136.1295053, 34.3161744 ], [ 136.1222172, 34.3254228 ], [ 136.1092308, 34.3291069 ], [ 136.10236279999998, 34.3360483 ], [ 136.09080609999998, 34.3625464 ], [ 136.0860917, 34.3796247 ], [ 136.0693058, 34.3893411 ], [ 136.076538299999982, 34.4058631 ], [ 136.090265, 34.416042499999989 ], [ 136.0886992, 34.4287242 ], [ 136.0958981, 34.4352217 ], [ 136.0879631, 34.4515517 ], [ 136.0819639, 34.4733064 ], [ 136.0726928, 34.4771331 ], [ 136.0538675, 34.4790139 ], [ 136.0420153, 34.4630547 ], [ 136.025053899999989, 34.4549789 ], [ 136.0129464, 34.4535303 ], [ 136.007144399999987, 34.4435669 ], [ 135.9967633, 34.4439147 ], [ 135.9755083, 34.4365928 ], [ 135.959661399999987, 34.4362347 ], [ 135.944999699999983, 34.4271297 ], [ 135.933524399999982, 34.4302481 ], [ 135.9191083, 34.4448983 ], [ 135.9066319, 34.4478803 ], [ 135.8972636, 34.4428756 ], [ 135.887413100000032, 34.4534092 ], [ 135.8672369, 34.4432775 ], [ 135.8609011, 34.4423572 ], [ 135.846762499999983, 34.4289586 ], [ 135.8304522, 34.4266089 ], [ 135.8177892, 34.4126442 ], [ 135.8124947, 34.4223283 ], [ 135.781894699999981, 34.4178103 ], [ 135.7654164, 34.4203411 ], [ 135.7485006, 34.4064319 ], [ 135.7395244, 34.4025603 ], [ 135.7427772, 34.3893228 ], [ 135.7308236, 34.3862636 ], [ 135.7098583, 34.3992189 ], [ 135.6968025, 34.3984136 ], [ 135.680003299999981, 34.408325 ], [ 135.6755528, 34.3994581 ], [ 135.6659125, 34.3970611 ], [ 135.6511286, 34.3832064 ], [ 135.6558383, 34.366225 ], [ 135.6635253, 34.3554439 ], [ 135.660326699999985, 34.3269308 ], [ 135.668125299999986, 34.3257481 ], [ 135.6663881, 34.3086872 ], [ 135.675164699999982, 34.2880986 ], [ 135.67276, 34.2814819 ], [ 135.682771699999989, 34.2701831 ], [ 135.6924694, 34.2782719 ], [ 135.718446699999987, 34.2633197 ], [ 135.723448599999983, 34.2400767 ], [ 135.730016899999981, 34.2316011 ], [ 135.7274756, 34.2207267 ], [ 135.7096239, 34.2087928 ], [ 135.6776936, 34.2234361 ], [ 135.6678172, 34.2241936 ], [ 135.655289399999987, 34.2162761 ], [ 135.6480781, 34.2189864 ], [ 135.6344825, 34.204595 ], [ 135.6419625, 34.1831911 ], [ 135.6285689, 34.176887799999989 ], [ 135.6205728, 34.1660875 ], [ 135.6219183, 34.1584217 ], [ 135.5908561, 34.1490011 ], [ 135.5851889, 34.1406644 ], [ 135.578788299999985, 34.1163708 ], [ 135.5658378, 34.112835 ], [ 135.5497197, 34.1005878 ], [ 135.549793099999988, 34.0849847 ], [ 135.539698099999981, 34.0753797 ], [ 135.5513167, 34.0684206 ], [ 135.567062199999981, 34.0573461 ], [ 135.580606099999983, 34.0561903 ], [ 135.5946136, 34.0439892 ], [ 135.599660299999982, 34.0320194 ], [ 135.591487799999982, 34.0193703 ], [ 135.5957339, 34.0115911 ], [ 135.6083817, 34.0136189 ], [ 135.621757799999983, 34.0097783 ], [ 135.63088, 33.9910125 ], [ 135.636729699999989, 33.9898692 ], [ 135.640320299999985, 33.9674197 ], [ 135.636948099999984, 33.9505464 ], [ 135.618096399999985, 33.9546053 ], [ 135.6168444, 33.9368847 ], [ 135.6102342, 33.9128683 ], [ 135.599993899999987, 33.9082603 ], [ 135.606203099999988, 33.8991189 ], [ 135.61948, 33.8994294 ], [ 135.6267753, 33.8847403 ], [ 135.6355475, 33.8769506 ], [ 135.6479881, 33.8768978 ], [ 135.6622044, 33.8890831 ], [ 135.660604400000011, 33.8975656 ], [ 135.678710599999988, 33.8981692 ], [ 135.6853778, 33.903719699999989 ], [ 135.72411, 33.9032878 ], [ 135.7407706, 33.8912556 ], [ 135.7559381, 33.8851869 ], [ 135.7660583, 33.8907922 ], [ 135.7776533, 33.8881844 ], [ 135.801823600000034, 33.8958231 ], [ 135.803361699999982, 33.9029811 ], [ 135.8163194, 33.9056139 ], [ 135.8368567, 33.8954003 ], [ 135.8463261, 33.8967372 ], [ 135.8552894, 33.8878167 ], [ 135.852145799999988, 33.8820217 ], [ 135.8621858, 33.8627214 ], [ 135.874832199999986, 33.8615964 ], [ 135.874817799999988, 33.8728842 ], [ 135.8826881, 33.8788708 ], [ 135.8716219, 33.8886511 ], [ 135.8614653, 33.88715 ], [ 135.8587172, 33.9011922 ], [ 135.86893809999998, 33.9144631 ], [ 135.8939514, 33.9061508 ], [ 135.8978736, 33.9126089 ], [ 135.8980881, 33.9337817 ], [ 135.8938494, 33.9500742 ], [ 135.90229309999998, 33.9539072 ], [ 135.9159881, 33.9678589 ], [ 135.9156744, 33.9725919 ] ] ] ] } },
{ "type": "Feature", "properties": { "hokenjo": "郡山" }, "geometry": { "type": "MultiPolygon", "coordinates": [ [ [ [ 135.8547686, 34.6197206 ], [ 135.8456425, 34.6384539 ], [ 135.8236164, 34.6372017 ], [ 135.8162308, 34.6475467 ], [ 135.7970028, 34.6529139 ], [ 135.7943147, 34.6612497 ], [ 135.770866399999989, 34.6613736 ], [ 135.7544986, 34.657195 ], [ 135.7271206, 34.6651453 ], [ 135.7156842, 34.6974975 ], [ 135.719349200000011, 34.7064806 ], [ 135.7291228, 34.7098583 ], [ 135.7420258, 34.7255578 ], [ 135.7555136, 34.7275319 ], [ 135.757057799999984, 34.7359192 ], [ 135.746355599999987, 34.7468331 ], [ 135.7333533, 34.7547836 ], [ 135.7291625, 34.7774553 ], [ 135.706615, 34.7723375 ], [ 135.710194699999988, 34.7559053 ], [ 135.6969206, 34.741413099999988 ], [ 135.7016917, 34.7216808 ], [ 135.6830789, 34.7112922 ], [ 135.6734036, 34.7022547 ], [ 135.6730981, 34.6901461 ], [ 135.6787047, 34.6777594 ], [ 135.6711042, 34.6615575 ], [ 135.6642636, 34.6499769 ], [ 135.6631961, 34.6295208 ], [ 135.658765599999981, 34.6147325 ], [ 135.6522861, 34.6039467 ], [ 135.674907499999989, 34.6017153 ], [ 135.6824172, 34.5854633 ], [ 135.709295600000019, 34.5989636 ], [ 135.715713099999988, 34.5948783 ], [ 135.7268614, 34.5906658 ], [ 135.741537199999982, 34.5931825 ], [ 135.7516281, 34.5919572 ], [ 135.767509200000035, 34.5971303 ], [ 135.7864031, 34.5958458 ], [ 135.7943836, 34.5869206 ], [ 135.7865756, 34.5800447 ], [ 135.790300299999984, 34.5778561 ], [ 135.8050989, 34.5840475 ], [ 135.8141039, 34.5605558 ], [ 135.826152799999988, 34.5485489 ], [ 135.8618778, 34.5483636 ], [ 135.8816544, 34.5588803 ], [ 135.8859697, 34.5665317 ], [ 135.8960822, 34.5688803 ], [ 135.91368, 34.5894672 ], [ 135.9248656, 34.5903261 ], [ 135.9391283, 34.5992761 ], [ 135.9383761, 34.6131914 ], [ 135.946242499999983, 34.6212436 ], [ 135.9475572, 34.6308461 ], [ 135.939555, 34.6419425 ], [ 135.930636099999987, 34.6418094 ], [ 135.9263119, 34.6320014 ], [ 135.9151592, 34.6289544 ], [ 135.8945517, 34.6330214 ], [ 135.8920061, 34.6095622 ], [ 135.8789239, 34.6131131 ], [ 135.8671556, 34.6209017 ], [ 135.8547686, 34.6197206 ] ] ], [ [ [ 135.980954199999985, 34.6648064 ], [ 136.0000614, 34.6411228 ], [ 135.9927294, 34.6281711 ], [ 136.0050656, 34.6256806 ], [ 136.025247799999988, 34.6352406 ], [ 136.0507375, 34.6210483 ], [ 136.0624669, 34.6199578 ], [ 136.0735769, 34.6340942 ], [ 136.064514699999989, 34.651965 ], [ 136.0777808, 34.6587606 ], [ 136.0864647, 34.6753475 ], [ 136.0750831, 34.697701099999989 ], [ 136.054855299999986, 34.7029225 ], [ 136.04259, 34.7029789 ], [ 136.021320800000012, 34.695045 ], [ 136.017753299999981, 34.6854356 ], [ 136.009142200000014, 34.6834319 ], [ 135.9795361, 34.6910864 ], [ 135.952851399999986, 34.6807897 ], [ 135.96000669999998, 34.6706006 ], [ 135.9592361, 34.6533517 ], [ 135.9787422, 34.6558719 ], [ 135.980954199999985, 34.6648064 ] ] ] ] } },
{ "type": "Feature", "properties": { "hokenjo": "中和" }, "geometry": { "type": "MultiPolygon", "coordinates": [ [ [ [ 135.7654164, 34.4203411 ], [ 135.781894699999981, 34.4178103 ], [ 135.8124947, 34.4223283 ], [ 135.8177892, 34.4126442 ], [ 135.8304522, 34.4266089 ], [ 135.846762499999983, 34.4289586 ], [ 135.8609011, 34.4423572 ], [ 135.8672369, 34.4432775 ], [ 135.887413100000032, 34.4534092 ], [ 135.8972636, 34.4428756 ], [ 135.9066319, 34.4478803 ], [ 135.9191083, 34.4448983 ], [ 135.933524399999982, 34.4302481 ], [ 135.944999699999983, 34.4271297 ], [ 135.959661399999987, 34.4362347 ], [ 135.9755083, 34.4365928 ], [ 135.9967633, 34.4439147 ], [ 136.007144399999987, 34.4435669 ], [ 136.0129464, 34.4535303 ], [ 136.025053899999989, 34.4549789 ], [ 136.0420153, 34.4630547 ], [ 136.0538675, 34.4790139 ], [ 136.0726928, 34.4771331 ], [ 136.0819639, 34.4733064 ], [ 136.0879631, 34.4515517 ], [ 136.0958981, 34.4352217 ], [ 136.111255299999982, 34.4357042 ], [ 136.1180214, 34.4427097 ], [ 136.1313206, 34.4451044 ], [ 136.1514367, 34.4418533 ], [ 136.158235599999983, 34.4490064 ], [ 136.178484199999986, 34.4455214 ], [ 136.188521899999984, 34.450605 ], [ 136.2053603, 34.4483461 ], [ 136.2093231, 34.4670564 ], [ 136.2155597, 34.4811531 ], [ 136.2285197, 34.4890653 ], [ 136.2290361, 34.4947222 ], [ 136.21466719999998, 34.5013119 ], [ 136.2197758, 34.5158856 ], [ 136.2099414, 34.5290292 ], [ 136.1821167, 34.5167511 ], [ 136.1674031, 34.5201653 ], [ 136.1717739, 34.5348192 ], [ 136.1597739, 34.546711699999989 ], [ 136.155498599999987, 34.5597306 ], [ 136.1396028, 34.5592589 ], [ 136.118629699999985, 34.5464864 ], [ 136.106996399999986, 34.5563081 ], [ 136.083356899999984, 34.5593267 ], [ 136.0497672, 34.5802706 ], [ 136.052141399999982, 34.5930583 ], [ 136.0465683, 34.6005575 ], [ 136.0624669, 34.6199578 ], [ 136.0507375, 34.6210483 ], [ 136.025247799999988, 34.6352406 ], [ 136.0050656, 34.6256806 ], [ 135.9927294, 34.6281711 ], [ 135.9995872, 34.6185697 ], [ 135.9789436, 34.6023861 ], [ 135.9799806, 34.5954853 ], [ 135.9697414, 34.5888411 ], [ 135.9780461, 34.5806394 ], [ 135.9765883, 34.5653339 ], [ 135.972052099999985, 34.5585107 ], [ 135.9461225, 34.5602983 ], [ 135.9443967, 34.5668844 ], [ 135.9248656, 34.5903261 ], [ 135.91368, 34.5894672 ], [ 135.8960822, 34.5688803 ], [ 135.8859697, 34.5665317 ], [ 135.8816544, 34.5588803 ], [ 135.8618778, 34.5483636 ], [ 135.826152799999988, 34.5485489 ], [ 135.8141039, 34.5605558 ], [ 135.8050989, 34.5840475 ], [ 135.790300299999984, 34.5778561 ], [ 135.7865756, 34.5800447 ], [ 135.7943836, 34.5869206 ], [ 135.7864031, 34.5958458 ], [ 135.767509200000035, 34.5971303 ], [ 135.7516281, 34.5919572 ], [ 135.741537199999982, 34.5931825 ], [ 135.7268614, 34.5906658 ], [ 135.715713099999988, 34.5948783 ], [ 135.709295600000019, 34.5989636 ], [ 135.6824172, 34.5854633 ], [ 135.6706003, 34.5762011 ], [ 135.673080299999981, 34.5707311 ], [ 135.657780299999985, 34.5613192 ], [ 135.6557731, 34.5491992 ], [ 135.6628347, 34.5296294 ], [ 135.6674983, 34.5308622 ], [ 135.6769275, 34.5255314 ], [ 135.678976399999982, 34.4930558 ], [ 135.6848056, 34.4835981 ], [ 135.6821689, 34.4648664 ], [ 135.6869781, 34.4514608 ], [ 135.6786119, 34.4323567 ], [ 135.6653294, 34.4242406 ], [ 135.6694219, 34.4136753 ], [ 135.680003299999981, 34.408325 ], [ 135.6968025, 34.3984136 ], [ 135.7098583, 34.3992189 ], [ 135.7308236, 34.3862636 ], [ 135.7427772, 34.3893228 ], [ 135.7395244, 34.4025603 ], [ 135.7485006, 34.4064319 ], [ 135.7654164, 34.4203411 ] ] ] ] } },
{ "type": "Feature", "properties": { "hokenjo": "奈良市" }, "geometry": { "type": "MultiPolygon", "coordinates": [ [ [ [ 136.054855299999986, 34.7029225 ], [ 136.071065799999985, 34.7146767 ], [ 136.068031099999985, 34.7238872 ], [ 136.054978899999981, 34.7384003 ], [ 136.0418669, 34.734275599999989 ], [ 136.039445299999983, 34.7201197 ], [ 136.0293153, 34.7137442 ], [ 136.0268131, 34.7061047 ], [ 135.9861617, 34.7153069 ], [ 135.9809536, 34.7371358 ], [ 135.9727781, 34.7420753 ], [ 135.9582633, 34.740884199999989 ], [ 135.954924399999982, 34.7482853 ], [ 135.941113299999984, 34.7390458 ], [ 135.9324719, 34.7376467 ], [ 135.9161561, 34.7536864 ], [ 135.9030208, 34.7329158 ], [ 135.897386399999988, 34.7308719 ], [ 135.8901711, 34.7094389 ], [ 135.8761375, 34.7138775 ], [ 135.8633094, 34.7062408 ], [ 135.8490156, 34.7059722 ], [ 135.8390006, 34.7117992 ], [ 135.8197858, 34.7116944 ], [ 135.8036806, 34.7218572 ], [ 135.781703599999986, 34.7230906 ], [ 135.7555136, 34.7275319 ], [ 135.7420258, 34.7255578 ], [ 135.7291228, 34.7098583 ], [ 135.719349200000011, 34.7064806 ], [ 135.7156842, 34.6974975 ], [ 135.7271206, 34.6651453 ], [ 135.7544986, 34.657195 ], [ 135.770866399999989, 34.6613736 ], [ 135.7943147, 34.6612497 ], [ 135.7970028, 34.6529139 ], [ 135.8162308, 34.6475467 ], [ 135.8236164, 34.6372017 ], [ 135.8456425, 34.6384539 ], [ 135.8547686, 34.6197206 ], [ 135.8671556, 34.6209017 ], [ 135.8789239, 34.6131131 ], [ 135.8920061, 34.6095622 ], [ 135.8945517, 34.6330214 ], [ 135.9151592, 34.6289544 ], [ 135.9263119, 34.6320014 ], [ 135.930636099999987, 34.6418094 ], [ 135.939555, 34.6419425 ], [ 135.9475572, 34.6308461 ], [ 135.946242499999983, 34.6212436 ], [ 135.9383761, 34.6131914 ], [ 135.9391283, 34.5992761 ], [ 135.9248656, 34.5903261 ], [ 135.9443967, 34.5668844 ], [ 135.9461225, 34.5602983 ], [ 135.972052099999985, 34.5585107 ], [ 135.9765883, 34.5653339 ], [ 135.9780461, 34.5806394 ], [ 135.9697414, 34.5888411 ], [ 135.9799806, 34.5954853 ], [ 135.9789436, 34.6023861 ], [ 135.9995872, 34.6185697 ], [ 135.9927294, 34.6281711 ], [ 136.0000614, 34.6411228 ], [ 135.980954199999985, 34.6648064 ], [ 135.9787422, 34.6558719 ], [ 135.9592361, 34.6533517 ], [ 135.96000669999998, 34.6706006 ], [ 135.952851399999986, 34.6807897 ], [ 135.9795361, 34.6910864 ], [ 136.009142200000014, 34.6834319 ], [ 136.017753299999981, 34.6854356 ], [ 136.021320800000012, 34.695045 ], [ 136.04259, 34.7029789 ], [ 136.054855299999986, 34.7029225 ] ] ] ] } }
]
}
