{
"type": "FeatureCollection",
"name": "niigata",
"crs": { "type": "name", "properties": { "name": "urn:ogc:def:crs:OGC:1.3:CRS84" } },
"features": [
{ "type": "Feature", "properties": { "hokenjo": "魚沼" }, "geometry": { "type": "MultiPolygon", "coordinates": [ [ [ [ 138.8348743, 37.1764775 ], [ 138.844901099999987, 37.1654764 ], [ 138.8478067, 37.173681699999989 ], [ 138.8568598, 37.1765006 ], [ 138.8677826, 37.1868078 ], [ 138.8725054, 37.1943475 ], [ 138.882144499999981, 37.1910684 ], [ 138.8854586, 37.1775167 ], [ 138.889880799999986, 37.1715131 ], [ 138.8966016, 37.1750501 ], [ 138.9046299, 37.1745006 ], [ 138.91174909999998, 37.1852106 ], [ 138.907695, 37.1940823 ], [ 138.914985299999984, 37.2008428 ], [ 138.932755, 37.2086192 ], [ 138.9358475, 37.2032867 ], [ 138.9444303, 37.1980439 ], [ 138.938412699999986, 37.1903401 ], [ 138.927955699999984, 37.1806589 ], [ 138.9389018, 37.1716598 ], [ 138.946313799999984, 37.1751179 ], [ 138.9533722, 37.1753309 ], [ 138.955613299999982, 37.185493099999988 ], [ 138.963725399999987, 37.191874 ], [ 138.968455399999982, 37.1913098 ], [ 138.979656, 37.1946204 ], [ 138.992685, 37.1938473 ], [ 139.0026447, 37.1874654 ], [ 139.017207899999988, 37.1876886 ], [ 139.025689299999982, 37.1835606 ], [ 139.022792899999985, 37.1803464 ], [ 139.021192, 37.1678712 ], [ 139.02776369999998, 37.1656134 ], [ 139.0253223, 37.1550518 ], [ 139.026550899999989, 37.1493146 ], [ 139.0394848, 37.1444695 ], [ 139.0550759, 37.1423344 ], [ 139.0544223, 37.1381561 ], [ 139.063204499999983, 37.1336111 ], [ 139.0783945, 37.1311874 ], [ 139.0801619, 37.1259246 ], [ 139.0756433, 37.1221904 ], [ 139.0778494, 37.1159685 ], [ 139.078553, 37.0983894 ], [ 139.0807074, 37.0918463 ], [ 139.0765868, 37.0863877 ], [ 139.0834657, 37.0745936 ], [ 139.0978515, 37.0663938 ], [ 139.097016199999985, 37.0586263 ], [ 139.1113054, 37.0552138 ], [ 139.1153895, 37.0475191 ], [ 139.1229492, 37.0471441 ], [ 139.131906099999981, 37.0257277 ], [ 139.145333599999987, 37.0189383 ], [ 139.1495783, 37.0102216 ], [ 139.1620658, 37.0040891 ], [ 139.1709955, 37.0019791 ], [ 139.1794466, 36.990758 ], [ 139.1752329, 36.9736039 ], [ 139.18310649999998, 36.9614847 ], [ 139.1935193, 36.9610472 ], [ 139.2054482, 36.9559405 ], [ 139.218661, 36.9607091 ], [ 139.228714699999983, 36.9611977 ], [ 139.2404171, 36.9412514 ], [ 139.241817199999986, 36.9490747 ], [ 139.2511625, 36.9620317 ], [ 139.248066699999981, 36.971415 ], [ 139.252148399999982, 36.9765689 ], [ 139.247179, 36.980203 ], [ 139.2531974, 36.98369 ], [ 139.2537868, 36.9903319 ], [ 139.2510297, 37.0046188 ], [ 139.2433666, 37.0151346 ], [ 139.248512, 37.023949099999989 ], [ 139.248540599999984, 37.0309007 ], [ 139.253201499999989, 37.0343088 ], [ 139.254621499999985, 37.0402513 ], [ 139.259555399999982, 37.043297599999988 ], [ 139.257342699999981, 37.0559354 ], [ 139.2470227, 37.0707937 ], [ 139.2487333, 37.0813728 ], [ 139.2425658, 37.0849023 ], [ 139.238646099999983, 37.0905067 ], [ 139.2408759, 37.0937378 ], [ 139.2357395, 37.1024597 ], [ 139.2353732, 37.1139436 ], [ 139.243300799999986, 37.127163 ], [ 139.2456717, 37.144860799999989 ], [ 139.252985699999982, 37.1612541 ], [ 139.251159799999982, 37.1659179 ], [ 139.2432162, 37.1703796 ], [ 139.2445812, 37.1811404 ], [ 139.2404084, 37.1875396 ], [ 139.235648699999985, 37.1884929 ], [ 139.2284387, 37.1970898 ], [ 139.2262409, 37.2035315 ], [ 139.21784839999998, 37.2094945 ], [ 139.21309309999998, 37.1996401 ], [ 139.205266300000034, 37.1942167 ], [ 139.1967213, 37.1940143 ], [ 139.194794700000017, 37.2039626 ], [ 139.1871291, 37.2097139 ], [ 139.1830602, 37.2173917 ], [ 139.172544599999981, 37.2249475 ], [ 139.1659041, 37.2321656 ], [ 139.164756899999986, 37.2394278 ], [ 139.174689799999982, 37.2563489 ], [ 139.191774899999984, 37.2693367 ], [ 139.2054105, 37.2836131 ], [ 139.21229, 37.286209 ], [ 139.215691199999981, 37.3086426 ], [ 139.2221131, 37.3150101 ], [ 139.2242209, 37.3214343 ], [ 139.2210929, 37.323675699999988 ], [ 139.217869899999982, 37.334029799999989 ], [ 139.2281491, 37.3432757 ], [ 139.23362179999998, 37.3436065 ], [ 139.233553699999987, 37.357014 ], [ 139.238031899999982, 37.3729484 ], [ 139.2314614, 37.3802323 ], [ 139.231665099999987, 37.3873753 ], [ 139.2219371, 37.3933339 ], [ 139.2153007, 37.3912644 ], [ 139.207712099999981, 37.3962183 ], [ 139.2076041, 37.4006028 ], [ 139.2019541, 37.4086619 ], [ 139.197246299999989, 37.4107666 ], [ 139.187291099999982, 37.4118377 ], [ 139.1722727, 37.4103583 ], [ 139.1638394, 37.4133483 ], [ 139.1481369, 37.4041611 ], [ 139.1426013, 37.3979683 ], [ 139.136526299999986, 37.3976783 ], [ 139.127581, 37.4013808 ], [ 139.12325629999998, 37.4098708 ], [ 139.108287099999984, 37.4105297 ], [ 139.0946831, 37.40953 ], [ 139.0899198, 37.4057231 ], [ 139.08070859999998, 37.4034209 ], [ 139.0618127, 37.405537 ], [ 139.055341, 37.413554499999989 ], [ 139.0466126, 37.408317 ], [ 139.0492109, 37.4016529 ], [ 139.0340372, 37.399859 ], [ 139.0286183, 37.3977913 ], [ 139.018513399999989, 37.3886213 ], [ 139.014171399999981, 37.3782188 ], [ 139.0000289, 37.3745172 ], [ 138.994123299999984, 37.3715016 ], [ 138.988383299999981, 37.372533 ], [ 138.9797552, 37.379725 ], [ 138.9686702, 37.3838181 ], [ 138.962046, 37.3740653 ], [ 138.9568037, 37.3733447 ], [ 138.956909199999984, 37.3601578 ], [ 138.964137199999982, 37.3539234 ], [ 138.9549422, 37.3512917 ], [ 138.9514308, 37.3450826 ], [ 138.9404585, 37.3398815 ], [ 138.9329007, 37.3385981 ], [ 138.93987, 37.3245901 ], [ 138.938974, 37.3181168 ], [ 138.9316004, 37.3127634 ], [ 138.9335586, 37.304155099999988 ], [ 138.9263257, 37.2965276 ], [ 138.9145182, 37.2922793 ], [ 138.9110466, 37.2933563 ], [ 138.9053941, 37.2932551 ], [ 138.9013033, 37.2887424 ], [ 138.8988488, 37.2808968 ], [ 138.8913474, 37.2791443 ], [ 138.887547600000033, 37.2648335 ], [ 138.8929909, 37.2551216 ], [ 138.8883179, 37.2497586 ], [ 138.8877612, 37.2432727 ], [ 138.8814126, 37.2397966 ], [ 138.88227, 37.2305769 ], [ 138.880341099999981, 37.2241822 ], [ 138.8709336, 37.2201622 ], [ 138.8688599, 37.2079925 ], [ 138.8636205, 37.2026431 ], [ 138.85776690000003, 37.2030389 ], [ 138.852766299999985, 37.1898678 ], [ 138.8485162, 37.1846542 ], [ 138.8348743, 37.1764775 ] ] ] ] } },
{ "type": "Feature", "properties": { "hokenjo": "佐渡" }, "geometry": { "type": "MultiPolygon", "coordinates": [ [ [ [ 138.5029609, 38.3322233 ], [ 138.4939923, 38.3321131 ], [ 138.4785951, 38.3261609 ], [ 138.473333699999984, 38.3222037 ], [ 138.4634953, 38.3233904 ], [ 138.463845599999985, 38.314920099999988 ], [ 138.4530795, 38.3084515 ], [ 138.4515456, 38.3005654 ], [ 138.439979199999982, 38.2867615 ], [ 138.4438571, 38.2775791 ], [ 138.4370176, 38.2700007 ], [ 138.43726719999998, 38.2620401 ], [ 138.428661, 38.254323 ], [ 138.4165754, 38.2540552 ], [ 138.4050483, 38.2495304 ], [ 138.3903432, 38.2391403 ], [ 138.387539299999986, 38.2324825 ], [ 138.376314799999989, 38.2274428 ], [ 138.3725786, 38.2204419 ], [ 138.363892199999981, 38.2129478 ], [ 138.3549596, 38.2094481 ], [ 138.3510954, 38.2043992 ], [ 138.3397444, 38.1989612 ], [ 138.326133500000026, 38.1972945 ], [ 138.3262454, 38.1939848 ], [ 138.315348500000027, 38.1786098 ], [ 138.3117076, 38.1687765 ], [ 138.303495699999985, 38.1655571 ], [ 138.3021063, 38.1519591 ], [ 138.2952301, 38.1438924 ], [ 138.2912943, 38.1427132 ], [ 138.290045599999985, 38.1338694 ], [ 138.2709773, 38.1215794 ], [ 138.272263899999984, 38.1148254 ], [ 138.2601386, 38.1018608 ], [ 138.2612306, 38.0980517 ], [ 138.244084099999981, 38.0889495 ], [ 138.2396659, 38.0806858 ], [ 138.2478596, 38.0760254 ], [ 138.2406943, 38.0668707 ], [ 138.2331902, 38.0621937 ], [ 138.237961399999989, 38.0469226 ], [ 138.235052199999984, 38.0388612 ], [ 138.238922699999989, 38.0314734 ], [ 138.2361966, 38.0253908 ], [ 138.2280094, 38.0230491 ], [ 138.2214008, 38.0144712 ], [ 138.2331336, 38.0089287 ], [ 138.235351899999984, 37.9953968 ], [ 138.2346288, 37.9838699 ], [ 138.2271826, 37.9797189 ], [ 138.2482618, 37.9682946 ], [ 138.253105, 37.964245 ], [ 138.2619841, 37.9846498 ], [ 138.272814899999986, 37.992424 ], [ 138.2742015, 38.0022037 ], [ 138.2863051, 38.0066004 ], [ 138.29873139999998, 38.0070489 ], [ 138.306499699999989, 38.0053161 ], [ 138.31862719999998, 37.9991658 ], [ 138.3282228, 37.991438 ], [ 138.341307699999987, 37.9778417 ], [ 138.343691, 37.9654541 ], [ 138.340756, 37.9598823 ], [ 138.3326027, 37.9561354 ], [ 138.32932, 37.9497922 ], [ 138.3054275, 37.9396987 ], [ 138.3007869, 37.9314693 ], [ 138.29259159999998, 37.9239848 ], [ 138.285181599999987, 37.9202254 ], [ 138.284800499999989, 37.9154123 ], [ 138.2784605, 37.9074651 ], [ 138.2821394, 37.9019417 ], [ 138.2894445, 37.8969013 ], [ 138.289855599999981, 37.8854593 ], [ 138.2834636, 37.8773073 ], [ 138.285442499999988, 37.8745785 ], [ 138.280167799999987, 37.8628576 ], [ 138.2692094, 37.8478384 ], [ 138.2596242, 37.8416342 ], [ 138.249673299999984, 37.8432895 ], [ 138.2453502, 37.8381193 ], [ 138.2320061, 37.8387623 ], [ 138.225109, 37.8354784 ], [ 138.2167327, 37.837244 ], [ 138.207493199999988, 37.8283724 ], [ 138.2044924, 37.8202413 ], [ 138.2151318, 37.8105154 ], [ 138.230550199999982, 37.806249 ], [ 138.236295500000011, 37.8076601 ], [ 138.249667099999982, 37.8030854 ], [ 138.264080799999988, 37.8061437 ], [ 138.2707452, 37.8110851 ], [ 138.2803169, 37.8113162 ], [ 138.281540899999982, 37.8161238 ], [ 138.2918142, 37.8220589 ], [ 138.297760399999987, 37.8209463 ], [ 138.3044011, 37.8266173 ], [ 138.320829, 37.826798 ], [ 138.32472869999998, 37.8244504 ], [ 138.339339200000012, 37.8266578 ], [ 138.344437299999981, 37.8249917 ], [ 138.3495663, 37.8289956 ], [ 138.359561, 37.8304836 ], [ 138.381488, 37.8432964 ], [ 138.385849900000011, 37.8487445 ], [ 138.400323200000031, 37.8606785 ], [ 138.4106562, 37.8632221 ], [ 138.4109564, 37.868993499999988 ], [ 138.416847099999984, 37.8715043 ], [ 138.4272499, 37.8797682 ], [ 138.4416932, 37.8832832 ], [ 138.4486633, 37.8903365 ], [ 138.470664699999986, 37.8970273 ], [ 138.473003, 37.9028181 ], [ 138.4899379, 37.9196339 ], [ 138.500135299999982, 37.9208616 ], [ 138.4990339, 37.924723 ], [ 138.5037233, 37.9368991 ], [ 138.502864500000015, 37.9439111 ], [ 138.510674699999981, 37.9541966 ], [ 138.5121533, 37.9602663 ], [ 138.5206653, 37.9734712 ], [ 138.5208725, 37.9777044 ], [ 138.526846899999981, 37.982757 ], [ 138.5310322, 37.991512 ], [ 138.5381347, 37.9985741 ], [ 138.539190499999989, 38.003238 ], [ 138.546409399999987, 38.0080271 ], [ 138.551328, 38.0194465 ], [ 138.553542, 38.0311903 ], [ 138.563580299999984, 38.0421755 ], [ 138.5630351, 38.0459269 ], [ 138.5673275, 38.0558803 ], [ 138.5725654, 38.0623023 ], [ 138.5695352, 38.0743409 ], [ 138.5725957, 38.0786473 ], [ 138.5687044, 38.0839556 ], [ 138.5609177, 38.0863037 ], [ 138.553159599999987, 38.0812052 ], [ 138.5450141, 38.0811549 ], [ 138.5357357, 38.0786003 ], [ 138.521147899999988, 38.0713721 ], [ 138.509343199999989, 38.070322 ], [ 138.5057932, 38.0723204 ], [ 138.4920176, 38.0698671 ], [ 138.4801837, 38.0623289 ], [ 138.4671104, 38.0656866 ], [ 138.451109299999985, 38.0718977 ], [ 138.436534599999987, 38.0821249 ], [ 138.4343496, 38.0938616 ], [ 138.4377758, 38.1017465 ], [ 138.4351623, 38.1148462 ], [ 138.441510900000026, 38.1278009 ], [ 138.4469718, 38.1337606 ], [ 138.450074799999982, 38.146119399999989 ], [ 138.4591656, 38.1574283 ], [ 138.46007, 38.1615488 ], [ 138.4766936, 38.1799696 ], [ 138.481759899999986, 38.1926204 ], [ 138.4911428, 38.2022055 ], [ 138.4937812, 38.2250198 ], [ 138.5032501, 38.2407426 ], [ 138.5080673, 38.2634628 ], [ 138.5092194, 38.2848987 ], [ 138.5079508, 38.2955067 ], [ 138.510574599999984, 38.3004259 ], [ 138.5122399, 38.3146462 ], [ 138.5210132, 38.3223339 ], [ 138.5170962, 38.3249713 ], [ 138.5149724, 38.3320523 ], [ 138.5029609, 38.3322233 ] ] ] ] } },
{ "type": "Feature", "properties": { "hokenjo": "三条" }, "geometry": { "type": "MultiPolygon", "coordinates": [ [ [ [ 139.233980699999989, 37.5549558 ], [ 139.2324137, 37.5588686 ], [ 139.233731, 37.5683725 ], [ 139.2309976, 37.5777276 ], [ 139.224910099999988, 37.5822618 ], [ 139.2193106, 37.5943377 ], [ 139.2186159, 37.6022377 ], [ 139.204029099999985, 37.6110361 ], [ 139.194314900000023, 37.6141872 ], [ 139.189503, 37.6070297 ], [ 139.180268, 37.5995763 ], [ 139.169793299999981, 37.599246 ], [ 139.16753079999998, 37.6041404 ], [ 139.1543747, 37.6086415 ], [ 139.15177079999998, 37.6132881 ], [ 139.153440599999982, 37.6199212 ], [ 139.150441699999988, 37.6258792 ], [ 139.140230299999985, 37.6294672 ], [ 139.1394401, 37.6374741 ], [ 139.1338915, 37.6421549 ], [ 139.131574900000032, 37.6507929 ], [ 139.1341004, 37.6567848 ], [ 139.1205065, 37.6567923 ], [ 139.1090029, 37.651869 ], [ 139.104483099999982, 37.6567489 ], [ 139.1093804, 37.6607623 ], [ 139.104111499999988, 37.66804 ], [ 139.099875700000013, 37.6696539 ], [ 139.1010129, 37.6778989 ], [ 139.098300199999983, 37.6796169 ], [ 139.1019866, 37.684433 ], [ 139.100003, 37.6889175 ], [ 139.1055108, 37.694668 ], [ 139.105015, 37.7003513 ], [ 139.0933044, 37.7094971 ], [ 139.098043099999984, 37.7132913 ], [ 139.1000761, 37.7206483 ], [ 139.107924199999985, 37.725801 ], [ 139.0991386, 37.7340043 ], [ 139.0878846, 37.7315343 ], [ 139.0826807, 37.726678 ], [ 139.068657, 37.7306569 ], [ 139.061682600000012, 37.7282457 ], [ 139.047242499999982, 37.7194583 ], [ 139.0420691, 37.7102988 ], [ 139.0324966, 37.700678 ], [ 139.032586899999984, 37.6934655 ], [ 139.0249916, 37.6946422 ], [ 139.024923300000012, 37.7058344 ], [ 139.0169191, 37.7106127 ], [ 139.006470399999984, 37.703913 ], [ 139.000936, 37.7037277 ], [ 138.992788099999984, 37.6956655 ], [ 138.9901059, 37.6853769 ], [ 138.992748399999982, 37.6797727 ], [ 138.9839178, 37.6789689 ], [ 138.9669228, 37.68074 ], [ 138.9743, 37.6818816 ], [ 138.972607499999981, 37.6885275 ], [ 138.9616005, 37.6926489 ], [ 138.966010499999982, 37.7053348 ], [ 138.9558379, 37.7031477 ], [ 138.9458933, 37.7046127 ], [ 138.9463972, 37.7158119 ], [ 138.9404616, 37.720126 ], [ 138.930688799999984, 37.721196 ], [ 138.9328547, 37.7304449 ], [ 138.914978, 37.730300199999988 ], [ 138.9119696, 37.7185377 ], [ 138.900179, 37.7143063 ], [ 138.8842759, 37.7134091 ], [ 138.8719506, 37.7113883 ], [ 138.8652444, 37.7067277 ], [ 138.851553599999988, 37.7090658 ], [ 138.8444227, 37.7146552 ], [ 138.833028, 37.714413 ], [ 138.8164457, 37.7184089 ], [ 138.8084129, 37.7068111 ], [ 138.811389, 37.7008353 ], [ 138.808811, 37.6915158 ], [ 138.8048124, 37.6859374 ], [ 138.805611, 37.6779786 ], [ 138.793617399999988, 37.6789044 ], [ 138.7881571, 37.6717216 ], [ 138.7872557, 37.6553138 ], [ 138.8081009, 37.636686399999988 ], [ 138.813524, 37.6432658 ], [ 138.822924, 37.64526 ], [ 138.8235159, 37.6357353 ], [ 138.8375097, 37.6181945 ], [ 138.8319199, 37.6164395 ], [ 138.825644899999986, 37.608677 ], [ 138.831148499999983, 37.6038612 ], [ 138.8310937, 37.5936707 ], [ 138.8408229, 37.6052207 ], [ 138.851597199999986, 37.6113773 ], [ 138.8809808, 37.6201053 ], [ 138.8822894, 37.6166984 ], [ 138.8807075, 37.6039146 ], [ 138.8751589, 37.5994182 ], [ 138.873550199999983, 37.592166 ], [ 138.878625299999982, 37.5935307 ], [ 138.8910759, 37.583295 ], [ 138.8986727, 37.5742732 ], [ 138.9031008, 37.573966 ], [ 138.910573900000031, 37.5654224 ], [ 138.922764699999988, 37.5627579 ], [ 138.928231399999987, 37.5635821 ], [ 138.9348153, 37.5543457 ], [ 138.9442697, 37.5557999 ], [ 138.946629100000024, 37.5485961 ], [ 138.9535208, 37.5475139 ], [ 138.9544613, 37.5407344 ], [ 138.9656161, 37.54585 ], [ 138.9680706, 37.554885 ], [ 138.976252599999981, 37.5621014 ], [ 138.9805667, 37.5602872 ], [ 138.9860969, 37.5500294 ], [ 138.9817917, 37.5470497 ], [ 138.98257049999998, 37.5402553 ], [ 138.9911478, 37.5382367 ], [ 139.000739399999986, 37.5329986 ], [ 139.000353, 37.525765 ], [ 139.0275629, 37.529905 ], [ 139.0476127, 37.5213522 ], [ 139.064290799999981, 37.5245374 ], [ 139.0807178, 37.5252547 ], [ 139.0842245, 37.5207291 ], [ 139.0926426, 37.5214633 ], [ 139.1036892, 37.5158008 ], [ 139.1102529, 37.5155522 ], [ 139.1122723, 37.5107399 ], [ 139.110082799999986, 37.5035999 ], [ 139.105241899999982, 37.5012161 ], [ 139.102696899999984, 37.4922427 ], [ 139.1058799, 37.4855449 ], [ 139.0954882, 37.4765897 ], [ 139.0884821, 37.4751286 ], [ 139.0875743, 37.4679641 ], [ 139.0933004, 37.4499941 ], [ 139.1087054, 37.4383733 ], [ 139.1223938, 37.4264461 ], [ 139.1240669, 37.4196819 ], [ 139.12325629999998, 37.4098708 ], [ 139.127581, 37.4013808 ], [ 139.136526299999986, 37.3976783 ], [ 139.1426013, 37.3979683 ], [ 139.1481369, 37.4041611 ], [ 139.1638394, 37.4133483 ], [ 139.1722727, 37.4103583 ], [ 139.187291099999982, 37.4118377 ], [ 139.197246299999989, 37.4107666 ], [ 139.2083714, 37.417075 ], [ 139.2075318, 37.4289088 ], [ 139.2130329, 37.4386533 ], [ 139.2229989, 37.4486163 ], [ 139.2374695, 37.4451477 ], [ 139.251219599999985, 37.4524401 ], [ 139.2572978, 37.4644568 ], [ 139.276288, 37.475468899999989 ], [ 139.2831272, 37.4837286 ], [ 139.2981988, 37.484933 ], [ 139.295769299999989, 37.492531 ], [ 139.290083400000015, 37.4976661 ], [ 139.2873712, 37.5075161 ], [ 139.277935899999989, 37.506835 ], [ 139.2760878, 37.5097033 ], [ 139.2740431, 37.5158081 ], [ 139.2660641, 37.5123064 ], [ 139.259778499999982, 37.5120734 ], [ 139.2601191, 37.519274 ], [ 139.2556394, 37.5264434 ], [ 139.258717499999989, 37.5357407 ], [ 139.247633799999988, 37.5383468 ], [ 139.242279599999989, 37.5494561 ], [ 139.233980699999989, 37.5549558 ] ] ] ] } },
{ "type": "Feature", "properties": { "hokenjo": "糸魚川" }, "geometry": { "type": "MultiPolygon", "coordinates": [ [ [ [ 138.0677699, 37.1481661 ], [ 138.0599612, 37.1433619 ], [ 138.057937899999985, 37.1378691 ], [ 138.0487162, 37.1279091 ], [ 138.0275072, 37.1166694 ], [ 138.0171785, 37.1140966 ], [ 138.005081599999983, 37.1152324 ], [ 137.9953137, 37.1101204 ], [ 137.988629800000012, 37.1043261 ], [ 137.975961399999989, 37.0988514 ], [ 137.9734056, 37.0946004 ], [ 137.9614384, 37.088516 ], [ 137.949248499999982, 37.0858845 ], [ 137.942858699999988, 37.0808703 ], [ 137.940348, 37.0753747 ], [ 137.928915, 37.0704991 ], [ 137.912479099999985, 37.0609085 ], [ 137.885010199999982, 37.0522491 ], [ 137.8460744, 37.0444704 ], [ 137.8292454, 37.0396795 ], [ 137.8139065, 37.0300672 ], [ 137.767298899999986, 37.017546599999989 ], [ 137.7287663, 37.004192 ], [ 137.7265483, 37.002277299999989 ], [ 137.711162699999988, 36.9986167 ], [ 137.7004302, 36.9944506 ], [ 137.6800479, 36.9906081 ], [ 137.6680493, 36.9858823 ], [ 137.658387299999987, 36.9848834 ], [ 137.65115609999998, 36.9806381 ], [ 137.6363227, 36.9797743 ], [ 137.637673899999982, 36.9765487 ], [ 137.6515364, 36.9690204 ], [ 137.6577389, 36.959829 ], [ 137.6662064, 36.9536932 ], [ 137.679842799999989, 36.9483557 ], [ 137.6874642, 36.9432007 ], [ 137.69864339999998, 36.9422682 ], [ 137.711155099999985, 36.9442348 ], [ 137.713373599999983, 36.935052399999989 ], [ 137.7204567, 36.9266896 ], [ 137.717931400000026, 36.9226405 ], [ 137.7178405, 36.9078039 ], [ 137.7125719, 36.9040806 ], [ 137.7129835, 36.8937581 ], [ 137.7249109, 36.8779026 ], [ 137.732065899999981, 36.8736873 ], [ 137.7351611, 36.8551907 ], [ 137.732870599999984, 36.8450358 ], [ 137.7344386, 36.8313995 ], [ 137.7319908, 36.8236398 ], [ 137.7448719, 36.815218 ], [ 137.7492543, 36.809693 ], [ 137.7509737, 36.8005569 ], [ 137.754293700000034, 36.7965891 ], [ 137.7508565, 36.7913133 ], [ 137.749672, 36.7797127 ], [ 137.757844500000033, 36.7744952 ], [ 137.7648059, 36.767639 ], [ 137.7757339, 36.7736404 ], [ 137.7819356, 36.7729815 ], [ 137.7914964, 36.779197 ], [ 137.7932755, 36.7866567 ], [ 137.7994297, 36.7883851 ], [ 137.8199826, 36.7982217 ], [ 137.82278119999998, 36.8059839 ], [ 137.830975099999989, 36.808013 ], [ 137.8310487, 36.817813 ], [ 137.8452225, 36.8346187 ], [ 137.8568644, 36.8438262 ], [ 137.855922199999981, 36.8495029 ], [ 137.8681776, 36.8627304 ], [ 137.873398, 36.8635765 ], [ 137.8778505, 36.8731893 ], [ 137.8682966, 36.8777854 ], [ 137.8662611, 36.8872202 ], [ 137.8616653, 36.8907788 ], [ 137.871434099999988, 36.9026958 ], [ 137.8626155, 36.9069527 ], [ 137.8634702, 36.9128941 ], [ 137.874650299999985, 36.9158527 ], [ 137.8786083, 36.9127066 ], [ 137.89326, 36.9099597 ], [ 137.9007201, 36.9115875 ], [ 137.91097929999998, 36.9178633 ], [ 137.9197421, 36.9198697 ], [ 137.932120699999984, 36.9142717 ], [ 137.9473722, 36.9130292 ], [ 137.9532136, 36.9050055 ], [ 137.9623533, 36.9021111 ], [ 137.969575, 36.9108127 ], [ 137.9764456, 36.9082916 ], [ 137.9915709, 36.910688 ], [ 138.002856, 36.9050091 ], [ 138.013738, 36.9040207 ], [ 138.0153708, 36.9105766 ], [ 138.024191600000023, 36.9114902 ], [ 138.0331295, 36.9211549 ], [ 138.041931399999982, 36.9183918 ], [ 138.053737899999987, 36.9215123 ], [ 138.061079, 36.9200379 ], [ 138.0674282, 36.9222464 ], [ 138.0794688, 36.9422159 ], [ 138.100414199999989, 36.9478192 ], [ 138.107672200000025, 36.946722 ], [ 138.1126042, 36.9561087 ], [ 138.1025789, 36.9669923 ], [ 138.102343599999983, 36.9713259 ], [ 138.0938014, 36.9761193 ], [ 138.0961447, 36.9838799 ], [ 138.0943345, 36.9953671 ], [ 138.087373700000029, 37.014510699999988 ], [ 138.089607299999983, 37.0233641 ], [ 138.0881695, 37.0303005 ], [ 138.090044, 37.042638 ], [ 138.092939, 37.0471685 ], [ 138.0956516, 37.061936599999989 ], [ 138.0853605, 37.0691905 ], [ 138.0871099, 37.0793455 ], [ 138.0823341, 37.084251 ], [ 138.080702699999989, 37.0906283 ], [ 138.074444699999987, 37.0913007 ], [ 138.0755417, 37.1026883 ], [ 138.082355300000017, 37.1085386 ], [ 138.080897, 37.1120924 ], [ 138.0843993, 37.1209802 ], [ 138.0746335, 37.1375013 ], [ 138.073053200000032, 37.1448705 ], [ 138.0677699, 37.1481661 ] ] ] ] } },
{ "type": "Feature", "properties": { "hokenjo": "十日町" }, "geometry": { "type": "MultiPolygon", "coordinates": [ [ [ [ 138.7004327, 36.8682224 ], [ 138.71378, 36.8737718 ], [ 138.714513399999987, 36.8816687 ], [ 138.7211581, 36.8901078 ], [ 138.7286335, 36.8964233 ], [ 138.7326013, 36.9023722 ], [ 138.730603299999984, 36.9091733 ], [ 138.7381747, 36.912473 ], [ 138.744235799999984, 36.9220421 ], [ 138.7525784, 36.9263021 ], [ 138.753190099999983, 36.9308945 ], [ 138.7628024, 36.9351884 ], [ 138.7729133, 36.9464142 ], [ 138.7789683, 36.9577828 ], [ 138.768601599999982, 36.9632437 ], [ 138.7646164, 36.977466199999988 ], [ 138.7710784, 36.9833951 ], [ 138.773712099999983, 37.0001645 ], [ 138.7785064, 37.0054829 ], [ 138.775412499999987, 37.0097451 ], [ 138.7815292, 37.0164154 ], [ 138.7880219, 37.0298443 ], [ 138.7919269, 37.0300201 ], [ 138.8015437, 37.044357 ], [ 138.803393199999988, 37.053977 ], [ 138.8115999, 37.0591689 ], [ 138.811217199999987, 37.0669653 ], [ 138.819015, 37.0723019 ], [ 138.8301437, 37.0765622 ], [ 138.8235268, 37.0869119 ], [ 138.8269952, 37.0913102 ], [ 138.8296225, 37.1019093 ], [ 138.8341102, 37.1032238 ], [ 138.8396031, 37.1122885 ], [ 138.840786399999985, 37.1185135 ], [ 138.857801199999983, 37.1250871 ], [ 138.8593268, 37.1311573 ], [ 138.87005259999998, 37.1331776 ], [ 138.8747454, 37.1404012 ], [ 138.868145699999985, 37.1489434 ], [ 138.8607624, 37.148559 ], [ 138.8542497, 37.1583726 ], [ 138.8456458, 37.1619006 ], [ 138.844901099999987, 37.1654764 ], [ 138.8348743, 37.1764775 ], [ 138.836637599999989, 37.1880853 ], [ 138.833167799999984, 37.2015136 ], [ 138.8335969, 37.2059286 ], [ 138.8275461, 37.2084722 ], [ 138.8195031, 37.2156208 ], [ 138.807819199999983, 37.2175941 ], [ 138.794174100000021, 37.2170836 ], [ 138.7851061, 37.2196461 ], [ 138.781428, 37.2257058 ], [ 138.7759696, 37.2201473 ], [ 138.7594401, 37.2157826 ], [ 138.7549396, 37.2173487 ], [ 138.732172599999984, 37.2179679 ], [ 138.726249199999984, 37.2217281 ], [ 138.7251384, 37.2294897 ], [ 138.718782799999985, 37.2349186 ], [ 138.703009399999985, 37.2331425 ], [ 138.687429899999984, 37.2355672 ], [ 138.6826169, 37.2339552 ], [ 138.6747038, 37.2371907 ], [ 138.6713641, 37.2290219 ], [ 138.6773782, 37.2221527 ], [ 138.6726588, 37.2181836 ], [ 138.672573299999982, 37.2075317 ], [ 138.6642216, 37.2024553 ], [ 138.6621121, 37.1973134 ], [ 138.655125699999985, 37.1943159 ], [ 138.6508213, 37.1888626 ], [ 138.6495558, 37.1771889 ], [ 138.6398522, 37.1745922 ], [ 138.623912100000013, 37.1794879 ], [ 138.6187727, 37.1776865 ], [ 138.618882499999984, 37.1642345 ], [ 138.6122624, 37.1643489 ], [ 138.599859, 37.1715234 ], [ 138.5939506, 37.1712131 ], [ 138.5842486, 37.1666538 ], [ 138.574400699999984, 37.1671681 ], [ 138.565767599999987, 37.1703591 ], [ 138.565654, 37.1633913 ], [ 138.561957, 37.1553769 ], [ 138.5491271, 37.1469204 ], [ 138.5421313, 37.1390785 ], [ 138.5292174, 37.1378176 ], [ 138.525306, 37.1288646 ], [ 138.5293308, 37.1237759 ], [ 138.5271161, 37.1159909 ], [ 138.5231689, 37.1114831 ], [ 138.5259136, 37.1053171 ], [ 138.5342312, 37.098839 ], [ 138.534850600000027, 37.0915644 ], [ 138.544501199999985, 37.0857091 ], [ 138.5359372, 37.0716659 ], [ 138.537633299999982, 37.0638713 ], [ 138.536733699999985, 37.0559899 ], [ 138.5403495, 37.0447384 ], [ 138.525112299999989, 37.0342963 ], [ 138.5246678, 37.0303779 ], [ 138.5287563, 37.0247714 ], [ 138.536511, 37.0209267 ], [ 138.5485066, 37.0211898 ], [ 138.5525375, 37.0236241 ], [ 138.5658889, 37.0212606 ], [ 138.569800099999981, 37.0154609 ], [ 138.570987699999989, 37.0054037 ], [ 138.575664099999983, 36.9966244 ], [ 138.5863019, 36.9868874 ], [ 138.5881651, 36.9769376 ], [ 138.5855135, 36.9574103 ], [ 138.5865574, 36.9540339 ], [ 138.584517500000032, 36.9318906 ], [ 138.587158599999981, 36.9261255 ], [ 138.592006699999985, 36.9254122 ], [ 138.5892911, 36.9154523 ], [ 138.5961886, 36.9071137 ], [ 138.612867099999988, 36.908549 ], [ 138.6210149, 36.904082 ], [ 138.6178123, 36.8918844 ], [ 138.6234215, 36.8846643 ], [ 138.6409108, 36.878579 ], [ 138.641806299999985, 36.8756453 ], [ 138.6509721, 36.8744206 ], [ 138.6573563, 36.8680461 ], [ 138.666705399999984, 36.8666147 ], [ 138.6764982, 36.8672508 ], [ 138.6884504, 36.8606275 ], [ 138.6935588, 36.8524324 ], [ 138.6903534, 36.8456588 ], [ 138.703080699999987, 36.8498885 ], [ 138.7064149, 36.8589966 ], [ 138.7004327, 36.8682224 ] ] ] ] } },
{ "type": "Feature", "properties": { "hokenjo": "上越" }, "geometry": { "type": "MultiPolygon", "coordinates": [ [ [ [ 138.378695599999986, 36.9804372 ], [ 138.390662599999985, 36.9884541 ], [ 138.393829899999986, 36.995119 ], [ 138.4004291, 36.9978557 ], [ 138.411041, 36.9986551 ], [ 138.411895499999986, 37.0020318 ], [ 138.422557499999982, 37.0053023 ], [ 138.4313789, 37.0060773 ], [ 138.4426499, 37.0130236 ], [ 138.450943599999988, 37.0149958 ], [ 138.455132, 37.0196147 ], [ 138.4680057, 37.0178289 ], [ 138.4814126, 37.0215539 ], [ 138.4917231, 37.0204599 ], [ 138.4974383, 37.0264454 ], [ 138.501434599999982, 37.0250667 ], [ 138.5246678, 37.0303779 ], [ 138.525112299999989, 37.0342963 ], [ 138.5403495, 37.0447384 ], [ 138.536733699999985, 37.0559899 ], [ 138.537633299999982, 37.0638713 ], [ 138.5359372, 37.0716659 ], [ 138.544501199999985, 37.0857091 ], [ 138.534850600000027, 37.0915644 ], [ 138.5342312, 37.098839 ], [ 138.5259136, 37.1053171 ], [ 138.5231689, 37.1114831 ], [ 138.5271161, 37.1159909 ], [ 138.5293308, 37.1237759 ], [ 138.525306, 37.1288646 ], [ 138.5292174, 37.1378176 ], [ 138.5421313, 37.1390785 ], [ 138.5491271, 37.1469204 ], [ 138.561957, 37.1553769 ], [ 138.565654, 37.1633913 ], [ 138.565767599999987, 37.1703591 ], [ 138.5688887, 37.1789941 ], [ 138.5634345, 37.1851854 ], [ 138.55389, 37.1902804 ], [ 138.5561103, 37.1985548 ], [ 138.5486022, 37.2018023 ], [ 138.536515799999989, 37.198419 ], [ 138.527869399999986, 37.2053209 ], [ 138.5266133, 37.2171259 ], [ 138.52175219999998, 37.2212915 ], [ 138.504968, 37.2288979 ], [ 138.5155202, 37.2383354 ], [ 138.5150505, 37.2464132 ], [ 138.5199605, 37.2525165 ], [ 138.5348525, 37.2620696 ], [ 138.534476100000035, 37.2668533 ], [ 138.52975, 37.2729133 ], [ 138.522929399999981, 37.2764671 ], [ 138.512144399999983, 37.2732707 ], [ 138.4995691, 37.2800135 ], [ 138.49010389999998, 37.2880741 ], [ 138.4733283, 37.2897957 ], [ 138.468912499999988, 37.2924016 ], [ 138.457963899999982, 37.2927018 ], [ 138.4521303, 37.2959143 ], [ 138.4439037, 37.2967174 ], [ 138.4371495, 37.2944171 ], [ 138.433571199999989, 37.3015646 ], [ 138.427940899999982, 37.3005057 ], [ 138.4229229, 37.2944007 ], [ 138.4180978, 37.3065863 ], [ 138.355341899999985, 37.2547053 ], [ 138.315625, 37.2247013 ], [ 138.2853965, 37.2040706 ], [ 138.2775871, 37.2117904 ], [ 138.2700797, 37.2041787 ], [ 138.2757957, 37.1983275 ], [ 138.267409499999985, 37.1949363 ], [ 138.264929699999982, 37.1977837 ], [ 138.254894299999989, 37.1917993 ], [ 138.246915799999982, 37.1840147 ], [ 138.2316801, 37.1741679 ], [ 138.216257399999989, 37.1692705 ], [ 138.2072327, 37.1680458 ], [ 138.1967195, 37.170133 ], [ 138.177218899999986, 37.1641453 ], [ 138.1662259, 37.1619871 ], [ 138.151632899999981, 37.161131 ], [ 138.1478033, 37.1632308 ], [ 138.1316902, 37.1641801 ], [ 138.122799499999985, 37.1702587 ], [ 138.1017889, 37.1740574 ], [ 138.0915147, 37.1701666 ], [ 138.0829372, 37.1580086 ], [ 138.0677699, 37.1481661 ], [ 138.073053200000032, 37.1448705 ], [ 138.0746335, 37.1375013 ], [ 138.0843993, 37.1209802 ], [ 138.080897, 37.1120924 ], [ 138.082355300000017, 37.1085386 ], [ 138.0755417, 37.1026883 ], [ 138.074444699999987, 37.0913007 ], [ 138.080702699999989, 37.0906283 ], [ 138.0823341, 37.084251 ], [ 138.0871099, 37.0793455 ], [ 138.0853605, 37.0691905 ], [ 138.0956516, 37.061936599999989 ], [ 138.092939, 37.0471685 ], [ 138.090044, 37.042638 ], [ 138.0881695, 37.0303005 ], [ 138.089607299999983, 37.0233641 ], [ 138.087373700000029, 37.014510699999988 ], [ 138.0943345, 36.9953671 ], [ 138.0961447, 36.9838799 ], [ 138.0938014, 36.9761193 ], [ 138.102343599999983, 36.9713259 ], [ 138.1025789, 36.9669923 ], [ 138.1126042, 36.9561087 ], [ 138.107672200000025, 36.946722 ], [ 138.100414199999989, 36.9478192 ], [ 138.0794688, 36.9422159 ], [ 138.0674282, 36.9222464 ], [ 138.061079, 36.9200379 ], [ 138.053737899999987, 36.9215123 ], [ 138.041931399999982, 36.9183918 ], [ 138.0331295, 36.9211549 ], [ 138.024191600000023, 36.9114902 ], [ 138.0153708, 36.9105766 ], [ 138.013738, 36.9040207 ], [ 138.015577400000012, 36.8932138 ], [ 138.0217424, 36.8905221 ], [ 138.031062099999986, 36.8913613 ], [ 138.0328494, 36.8861913 ], [ 138.0316235, 36.8781391 ], [ 138.026412300000032, 36.8735341 ], [ 138.020959799999986, 36.8634877 ], [ 138.0165911, 36.8604033 ], [ 138.0158339, 36.8523947 ], [ 138.018875799999989, 36.8504377 ], [ 138.0200652, 36.8422211 ], [ 138.0142035, 36.8387091 ], [ 138.003461499999986, 36.8264136 ], [ 138.0170401, 36.8188264 ], [ 138.0288787, 36.8171139 ], [ 138.0337973, 36.8088333 ], [ 138.0449578, 36.8097842 ], [ 138.0518456, 36.80746 ], [ 138.0522244, 36.7999597 ], [ 138.0648167, 36.8044277 ], [ 138.06816809999998, 36.8038375 ], [ 138.075234599999987, 36.8104986 ], [ 138.0730168, 36.8168469 ], [ 138.0814478, 36.8299216 ], [ 138.099287299999986, 36.8435085 ], [ 138.1063462, 36.843784 ], [ 138.115052700000035, 36.8503923 ], [ 138.125326299999983, 36.8480621 ], [ 138.1318379, 36.8506707 ], [ 138.1415079, 36.8471716 ], [ 138.1628183, 36.8442972 ], [ 138.176646299999987, 36.8484223 ], [ 138.1778253, 36.8518053 ], [ 138.1955944, 36.8536724 ], [ 138.2057393, 36.8591179 ], [ 138.2064077, 36.8629882 ], [ 138.2130344, 36.868296 ], [ 138.2293704, 36.864176 ], [ 138.249314, 36.8653343 ], [ 138.254877599999986, 36.8699432 ], [ 138.258024, 36.8639804 ], [ 138.2683567, 36.8604571 ], [ 138.271724399999982, 36.8550451 ], [ 138.2705311, 36.8442438 ], [ 138.2749016, 36.8408543 ], [ 138.2876124, 36.8457065 ], [ 138.2887494, 36.8510226 ], [ 138.2962353, 36.8582529 ], [ 138.2885669, 36.8684424 ], [ 138.2933319, 36.8733071 ], [ 138.292997499999984, 36.878124299999989 ], [ 138.299368099999981, 36.8867212 ], [ 138.290289299999984, 36.8968112 ], [ 138.294038699999987, 36.9009251 ], [ 138.296325699999983, 36.9108201 ], [ 138.3090315, 36.920324 ], [ 138.3175698, 36.9251851 ], [ 138.3293215, 36.9268817 ], [ 138.3375972, 36.9248854 ], [ 138.3432044, 36.9207967 ], [ 138.3489672, 36.9290081 ], [ 138.357711699999982, 36.9338473 ], [ 138.3597136, 36.9399801 ], [ 138.364521699999983, 36.9442767 ], [ 138.363784, 36.9533731 ], [ 138.3681976, 36.9572789 ], [ 138.369516799999985, 36.9640103 ], [ 138.376046299999985, 36.9722961 ], [ 138.3822744, 36.9764211 ], [ 138.378695599999986, 36.9804372 ] ] ] ] } },
{ "type": "Feature", "properties": { "hokenjo": "新潟市" }, "geometry": { "type": "MultiPolygon", "coordinates": [ [ [ [ 138.9616005, 37.6926489 ], [ 138.972607499999981, 37.6885275 ], [ 138.9743, 37.6818816 ], [ 138.9669228, 37.68074 ], [ 138.9839178, 37.6789689 ], [ 138.992748399999982, 37.6797727 ], [ 138.9901059, 37.6853769 ], [ 138.992788099999984, 37.6956655 ], [ 139.000936, 37.7037277 ], [ 139.006470399999984, 37.703913 ], [ 139.0169191, 37.7106127 ], [ 139.024923300000012, 37.7058344 ], [ 139.0249916, 37.6946422 ], [ 139.032586899999984, 37.6934655 ], [ 139.0324966, 37.700678 ], [ 139.0420691, 37.7102988 ], [ 139.047242499999982, 37.7194583 ], [ 139.061682600000012, 37.7282457 ], [ 139.068657, 37.7306569 ], [ 139.0826807, 37.726678 ], [ 139.0878846, 37.7315343 ], [ 139.0991386, 37.7340043 ], [ 139.107924199999985, 37.725801 ], [ 139.111277299999983, 37.7343549 ], [ 139.1209015, 37.7329296 ], [ 139.131257399999981, 37.737989 ], [ 139.133351100000027, 37.7478146 ], [ 139.1404992, 37.7533006 ], [ 139.1475106, 37.7558264 ], [ 139.147424199999989, 37.7631559 ], [ 139.1549762, 37.76768 ], [ 139.1591965, 37.765302 ], [ 139.1708165, 37.7696636 ], [ 139.1689565, 37.7746067 ], [ 139.1804352, 37.7774655 ], [ 139.1878372, 37.77391 ], [ 139.188578, 37.778808 ], [ 139.177004399999987, 37.779813 ], [ 139.173748599999982, 37.7870886 ], [ 139.174925, 37.7933872 ], [ 139.180002799999983, 37.799498 ], [ 139.1784131, 37.8048139 ], [ 139.1639242, 37.8074036 ], [ 139.1553803, 37.8074597 ], [ 139.150912, 37.8150719 ], [ 139.152867499999985, 37.8181722 ], [ 139.16328009999998, 37.8232561 ], [ 139.1749185, 37.8216564 ], [ 139.1771196, 37.8294994 ], [ 139.173927099999986, 37.8320688 ], [ 139.1583968, 37.836173599999988 ], [ 139.1527087, 37.8421522 ], [ 139.1579499, 37.8456705 ], [ 139.1590491, 37.8504994 ], [ 139.178179699999987, 37.8648791 ], [ 139.1920528, 37.8620544 ], [ 139.1982037, 37.8661004 ], [ 139.205484499999983, 37.8669116 ], [ 139.2121415, 37.8646265 ], [ 139.233061599999985, 37.8645256 ], [ 139.2361766, 37.8749665 ], [ 139.2452247, 37.875707 ], [ 139.249096399999985, 37.8897815 ], [ 139.255447299999986, 37.883154 ], [ 139.260230899999982, 37.8836198 ], [ 139.260439599999984, 37.8921771 ], [ 139.2653507, 37.9018962 ], [ 139.262016, 37.9081826 ], [ 139.2552782, 37.9117912 ], [ 139.2531318, 37.9182879 ], [ 139.2476495, 37.9161707 ], [ 139.249686199999985, 37.9333051 ], [ 139.259286800000012, 37.9377276 ], [ 139.2484093, 37.9464854 ], [ 139.242384499999986, 37.9468101 ], [ 139.2316706, 37.9481321 ], [ 139.235574499999984, 37.9555937 ], [ 139.231224199999986, 37.963404 ], [ 139.2330708, 37.9657665 ], [ 139.2278206, 37.9711215 ], [ 139.228355300000032, 37.9754961 ], [ 139.221251699999982, 37.9894051 ], [ 139.215134, 37.9930356 ], [ 139.2048376, 37.9884905 ], [ 139.2043038, 37.9850503 ], [ 139.1923831, 37.9793543 ], [ 139.1320427, 37.9621442 ], [ 139.1232872, 37.9621641 ], [ 139.1092576, 37.958503 ], [ 139.0944079, 37.9585297 ], [ 139.0932259, 37.9553136 ], [ 139.0762272, 37.9514261 ], [ 139.0662616, 37.9443864 ], [ 139.058028399999984, 37.9464883 ], [ 139.0534112, 37.9413081 ], [ 139.0420566, 37.9332818 ], [ 139.0006996, 37.9083267 ], [ 138.9684584, 37.8917334 ], [ 138.9556122, 37.8839445 ], [ 138.9220626, 37.8690406 ], [ 138.917643699999985, 37.8652034 ], [ 138.892293599999988, 37.8530177 ], [ 138.8695735, 37.8390435 ], [ 138.859715900000026, 37.8318491 ], [ 138.8353481, 37.8105011 ], [ 138.8340292, 37.8073311 ], [ 138.816187499999984, 37.7880747 ], [ 138.809919399999984, 37.7698153 ], [ 138.801197699999989, 37.7553901 ], [ 138.796916899999985, 37.7450238 ], [ 138.7934721, 37.7310147 ], [ 138.7860871, 37.7209146 ], [ 138.785549799999984, 37.70724 ], [ 138.7912799, 37.705481 ], [ 138.7971704, 37.7102283 ], [ 138.8084129, 37.7068111 ], [ 138.8164457, 37.7184089 ], [ 138.833028, 37.714413 ], [ 138.8444227, 37.7146552 ], [ 138.851553599999988, 37.7090658 ], [ 138.8652444, 37.7067277 ], [ 138.8719506, 37.7113883 ], [ 138.8842759, 37.7134091 ], [ 138.900179, 37.7143063 ], [ 138.9119696, 37.7185377 ], [ 138.914978, 37.730300199999988 ], [ 138.9328547, 37.7304449 ], [ 138.930688799999984, 37.721196 ], [ 138.9404616, 37.720126 ], [ 138.9463972, 37.7158119 ], [ 138.9458933, 37.7046127 ], [ 138.9558379, 37.7031477 ], [ 138.966010499999982, 37.7053348 ], [ 138.9616005, 37.6926489 ] ] ] ] } },
{ "type": "Feature", "properties": { "hokenjo": "新津" }, "geometry": { "type": "MultiPolygon", "coordinates": [ [ [ [ 139.2760878, 37.5097033 ], [ 139.277935899999989, 37.506835 ], [ 139.2873712, 37.5075161 ], [ 139.290083400000015, 37.4976661 ], [ 139.295769299999989, 37.492531 ], [ 139.2981988, 37.484933 ], [ 139.2831272, 37.4837286 ], [ 139.276288, 37.475468899999989 ], [ 139.2572978, 37.4644568 ], [ 139.251219599999985, 37.4524401 ], [ 139.258916, 37.4470643 ], [ 139.2772201, 37.4528256 ], [ 139.286511599999983, 37.4522447 ], [ 139.30712459999998, 37.4586008 ], [ 139.3264711, 37.4623863 ], [ 139.335142600000012, 37.4577887 ], [ 139.3458296, 37.4602712 ], [ 139.3512536, 37.4655559 ], [ 139.362550299999981, 37.469968 ], [ 139.368535899999983, 37.4654067 ], [ 139.3855227, 37.4636136 ], [ 139.3975127, 37.4598392 ], [ 139.4063622, 37.4662061 ], [ 139.405786899999981, 37.4775718 ], [ 139.409850799999987, 37.483886 ], [ 139.4078908, 37.492461399999989 ], [ 139.41403219999998, 37.4968009 ], [ 139.410655, 37.5020203 ], [ 139.414216399999987, 37.5082975 ], [ 139.428429199999982, 37.5142497 ], [ 139.4389512, 37.5131894 ], [ 139.450646799999987, 37.5173584 ], [ 139.457198799999986, 37.5178676 ], [ 139.466098, 37.5083296 ], [ 139.475797699999987, 37.5025827 ], [ 139.4859863, 37.5103096 ], [ 139.496737199999984, 37.5125703 ], [ 139.513787799999989, 37.5086245 ], [ 139.5200954, 37.5138373 ], [ 139.5428464, 37.5120251 ], [ 139.5552347, 37.5060704 ], [ 139.567032, 37.5023457 ], [ 139.58510579999998, 37.5128971 ], [ 139.5905845, 37.5279406 ], [ 139.5785325, 37.5301581 ], [ 139.5701991, 37.5390639 ], [ 139.570224699999983, 37.5505311 ], [ 139.567590599999988, 37.5627497 ], [ 139.5718321, 37.5682697 ], [ 139.570403, 37.5795125 ], [ 139.5641536, 37.5888311 ], [ 139.5657055, 37.59281 ], [ 139.56235, 37.6001097 ], [ 139.5543666, 37.6023956 ], [ 139.548507799999982, 37.609865 ], [ 139.552149499999985, 37.6187539 ], [ 139.5478876, 37.6217603 ], [ 139.5460395, 37.6288909 ], [ 139.551690899999983, 37.6368225 ], [ 139.552597099999986, 37.6424917 ], [ 139.54932119999998, 37.6490934 ], [ 139.5630577, 37.6538136 ], [ 139.5684933, 37.6531339 ], [ 139.5886597, 37.6672478 ], [ 139.593831099999989, 37.6650758 ], [ 139.6009233, 37.6688306 ], [ 139.609411699999981, 37.6842711 ], [ 139.617833599999983, 37.6888261 ], [ 139.627277600000014, 37.6883647 ], [ 139.6283178, 37.6919461 ], [ 139.6217192, 37.6998211 ], [ 139.624487599999981, 37.7083495 ], [ 139.642947599999985, 37.7276081 ], [ 139.649612599999983, 37.729062 ], [ 139.652360499999986, 37.7379431 ], [ 139.657232, 37.7408503 ], [ 139.659101, 37.7504147 ], [ 139.6578877, 37.7550075 ], [ 139.6665011, 37.7569991 ], [ 139.6687064, 37.7632649 ], [ 139.677690499999983, 37.770088 ], [ 139.6801897, 37.7750444 ], [ 139.6965597, 37.785122099999988 ], [ 139.7049485, 37.795839 ], [ 139.71354, 37.7989923 ], [ 139.721621199999987, 37.8094228 ], [ 139.7415054, 37.8177128 ], [ 139.7359782, 37.8279194 ], [ 139.7289365, 37.8312803 ], [ 139.720555599999983, 37.839568 ], [ 139.7149698, 37.8525969 ], [ 139.710689799999983, 37.8543938 ], [ 139.6977513, 37.8476925 ], [ 139.6818528, 37.8467434 ], [ 139.673440199999987, 37.8381259 ], [ 139.6603064, 37.8328926 ], [ 139.6451016, 37.8294054 ], [ 139.633289, 37.8327262 ], [ 139.630039499999981, 37.8302534 ], [ 139.619828899999987, 37.8303143 ], [ 139.61064159999998, 37.8247287 ], [ 139.607696800000014, 37.8189785 ], [ 139.5939703, 37.815280199999989 ], [ 139.584918, 37.8108852 ], [ 139.5782008, 37.8125127 ], [ 139.5683099, 37.8112969 ], [ 139.5630301, 37.8061496 ], [ 139.5561734, 37.8039549 ], [ 139.550120600000014, 37.806528 ], [ 139.535307, 37.8041346 ], [ 139.533155599999986, 37.7966291 ], [ 139.524151099999983, 37.793146 ], [ 139.5070049, 37.7969571 ], [ 139.489616500000011, 37.7937357 ], [ 139.4817679, 37.7969715 ], [ 139.468088699999981, 37.7908265 ], [ 139.4548331, 37.7941862 ], [ 139.45451079999998, 37.7969078 ], [ 139.443176099999988, 37.8060767 ], [ 139.434013, 37.809702 ], [ 139.428918, 37.8151834 ], [ 139.4231691, 37.8167101 ], [ 139.4107251, 37.8141728 ], [ 139.389798900000017, 37.8266281 ], [ 139.373598, 37.8249821 ], [ 139.361637, 37.821801 ], [ 139.364120899999989, 37.8149132 ], [ 139.3555989, 37.8092676 ], [ 139.348399299999983, 37.8010128 ], [ 139.343404599999985, 37.7993059 ], [ 139.34052029999998, 37.7924392 ], [ 139.3335122, 37.7860297 ], [ 139.334270799999985, 37.7817972 ], [ 139.3273351, 37.7789664 ], [ 139.3243929, 37.7704022 ], [ 139.314593699999989, 37.7657831 ], [ 139.2988106, 37.7617633 ], [ 139.289366799999982, 37.7567944 ], [ 139.292124, 37.7437955 ], [ 139.287193699999989, 37.73759 ], [ 139.2847258, 37.7349764 ], [ 139.2617775, 37.7429922 ], [ 139.2377414, 37.7457717 ], [ 139.2314484, 37.7416726 ], [ 139.2234087, 37.7447199 ], [ 139.225631199999981, 37.7513099 ], [ 139.2208357, 37.7578613 ], [ 139.211446, 37.7640999 ], [ 139.1878372, 37.77391 ], [ 139.1804352, 37.7774655 ], [ 139.1689565, 37.7746067 ], [ 139.1708165, 37.7696636 ], [ 139.1591965, 37.765302 ], [ 139.1549762, 37.76768 ], [ 139.147424199999989, 37.7631559 ], [ 139.1475106, 37.7558264 ], [ 139.1404992, 37.7533006 ], [ 139.133351100000027, 37.7478146 ], [ 139.131257399999981, 37.737989 ], [ 139.1209015, 37.7329296 ], [ 139.111277299999983, 37.7343549 ], [ 139.107924199999985, 37.725801 ], [ 139.1000761, 37.7206483 ], [ 139.098043099999984, 37.7132913 ], [ 139.0933044, 37.7094971 ], [ 139.105015, 37.7003513 ], [ 139.1055108, 37.694668 ], [ 139.100003, 37.6889175 ], [ 139.1019866, 37.684433 ], [ 139.098300199999983, 37.6796169 ], [ 139.1010129, 37.6778989 ], [ 139.099875700000013, 37.6696539 ], [ 139.104111499999988, 37.66804 ], [ 139.1093804, 37.6607623 ], [ 139.104483099999982, 37.6567489 ], [ 139.1090029, 37.651869 ], [ 139.1205065, 37.6567923 ], [ 139.1341004, 37.6567848 ], [ 139.131574900000032, 37.6507929 ], [ 139.1338915, 37.6421549 ], [ 139.1394401, 37.6374741 ], [ 139.140230299999985, 37.6294672 ], [ 139.150441699999988, 37.6258792 ], [ 139.153440599999982, 37.6199212 ], [ 139.15177079999998, 37.6132881 ], [ 139.1543747, 37.6086415 ], [ 139.16753079999998, 37.6041404 ], [ 139.169793299999981, 37.599246 ], [ 139.180268, 37.5995763 ], [ 139.189503, 37.6070297 ], [ 139.194314900000023, 37.6141872 ], [ 139.204029099999985, 37.6110361 ], [ 139.2186159, 37.6022377 ], [ 139.2193106, 37.5943377 ], [ 139.224910099999988, 37.5822618 ], [ 139.2309976, 37.5777276 ], [ 139.233731, 37.5683725 ], [ 139.2324137, 37.5588686 ], [ 139.233980699999989, 37.5549558 ], [ 139.242279599999989, 37.5494561 ], [ 139.247633799999988, 37.5383468 ], [ 139.258717499999989, 37.5357407 ], [ 139.2556394, 37.5264434 ], [ 139.2601191, 37.519274 ], [ 139.259778499999982, 37.5120734 ], [ 139.2660641, 37.5123064 ], [ 139.2740431, 37.5158081 ], [ 139.2760878, 37.5097033 ] ] ] ] } },
{ "type": "Feature", "properties": { "hokenjo": "新発田" }, "geometry": { "type": "MultiPolygon", "coordinates": [ [ [ [ 139.364120899999989, 37.8149132 ], [ 139.361637, 37.821801 ], [ 139.373598, 37.8249821 ], [ 139.389798900000017, 37.8266281 ], [ 139.4107251, 37.8141728 ], [ 139.4231691, 37.8167101 ], [ 139.428918, 37.8151834 ], [ 139.434013, 37.809702 ], [ 139.443176099999988, 37.8060767 ], [ 139.45451079999998, 37.7969078 ], [ 139.4548331, 37.7941862 ], [ 139.468088699999981, 37.7908265 ], [ 139.4817679, 37.7969715 ], [ 139.489616500000011, 37.7937357 ], [ 139.5070049, 37.7969571 ], [ 139.524151099999983, 37.793146 ], [ 139.533155599999986, 37.7966291 ], [ 139.535307, 37.8041346 ], [ 139.550120600000014, 37.806528 ], [ 139.5561734, 37.8039549 ], [ 139.5630301, 37.8061496 ], [ 139.5683099, 37.8112969 ], [ 139.5782008, 37.8125127 ], [ 139.584918, 37.8108852 ], [ 139.5939703, 37.815280199999989 ], [ 139.607696800000014, 37.8189785 ], [ 139.61064159999998, 37.8247287 ], [ 139.619828899999987, 37.8303143 ], [ 139.630039499999981, 37.8302534 ], [ 139.633289, 37.8327262 ], [ 139.6451016, 37.8294054 ], [ 139.6603064, 37.8328926 ], [ 139.673440199999987, 37.8381259 ], [ 139.6818528, 37.8467434 ], [ 139.6790034, 37.8515297 ], [ 139.657131, 37.8635378 ], [ 139.656702199999984, 37.8717403 ], [ 139.6504452, 37.8758794 ], [ 139.638457599999981, 37.8800228 ], [ 139.637953499999981, 37.8837753 ], [ 139.62931709999998, 37.8936575 ], [ 139.6319741, 37.8989672 ], [ 139.6263444, 37.9091705 ], [ 139.628613299999984, 37.9124441 ], [ 139.6249899, 37.9183946 ], [ 139.610293499999983, 37.9263507 ], [ 139.606483699999984, 37.935259 ], [ 139.5987012, 37.9337388 ], [ 139.5851495, 37.9350802 ], [ 139.581234699999982, 37.9325696 ], [ 139.5679352, 37.9318527 ], [ 139.561370499999981, 37.9441548 ], [ 139.562428899999986, 37.9555193 ], [ 139.5564719, 37.9570131 ], [ 139.5570564, 37.962232 ], [ 139.562768299999988, 37.9658145 ], [ 139.5624947, 37.9764725 ], [ 139.5650698, 37.9841919 ], [ 139.5530475, 37.9955791 ], [ 139.54561, 37.9982035 ], [ 139.542718899999983, 38.0064238 ], [ 139.531028500000019, 38.0129863 ], [ 139.5351738, 38.0193632 ], [ 139.5336627, 38.0233621 ], [ 139.539567399999981, 38.0322701 ], [ 139.536553, 38.0410157 ], [ 139.5269471, 38.0496215 ], [ 139.528110699999985, 38.0519918 ], [ 139.5226304, 38.0625615 ], [ 139.523330099999981, 38.0703626 ], [ 139.526652899999988, 38.0743839 ], [ 139.5244653, 38.0826517 ], [ 139.5135175, 38.0830181 ], [ 139.5085057, 38.0886411 ], [ 139.497660599999989, 38.088392 ], [ 139.489924699999989, 38.084727 ], [ 139.4865292, 38.0787429 ], [ 139.4812197, 38.078231 ], [ 139.4698793, 38.0813762 ], [ 139.452505699999989, 38.0897017 ], [ 139.4439553, 38.09512 ], [ 139.4424156, 38.1025263 ], [ 139.430134899999985, 38.0974399 ], [ 139.4141832, 38.1089388 ], [ 139.4179408, 38.1128703 ], [ 139.4084315, 38.1205211 ], [ 139.407978499999984, 38.1301417 ], [ 139.410854299999983, 38.1354781 ], [ 139.408011, 38.1393517 ], [ 139.4120054, 38.1442143 ], [ 139.4090338, 38.149763 ], [ 139.406233, 38.1474826 ], [ 139.3866214, 38.1225486 ], [ 139.364308099999988, 38.097127799999988 ], [ 139.349832, 38.0815712 ], [ 139.335172, 38.0678092 ], [ 139.313573099999985, 38.0494677 ], [ 139.303208899999987, 38.0409402 ], [ 139.288312499999989, 38.0305685 ], [ 139.2769017, 38.0225289 ], [ 139.2459604, 38.0044977 ], [ 139.241315499999985, 38.0068569 ], [ 139.2274402, 37.9990263 ], [ 139.2255365, 37.991975 ], [ 139.230615699999987, 37.9819197 ], [ 139.2384911, 37.9720445 ], [ 139.2330708, 37.9657665 ], [ 139.231224199999986, 37.963404 ], [ 139.235574499999984, 37.9555937 ], [ 139.2316706, 37.9481321 ], [ 139.242384499999986, 37.9468101 ], [ 139.2484093, 37.9464854 ], [ 139.259286800000012, 37.9377276 ], [ 139.249686199999985, 37.9333051 ], [ 139.2476495, 37.9161707 ], [ 139.2531318, 37.9182879 ], [ 139.2552782, 37.9117912 ], [ 139.262016, 37.9081826 ], [ 139.2653507, 37.9018962 ], [ 139.260439599999984, 37.8921771 ], [ 139.260230899999982, 37.8836198 ], [ 139.255447299999986, 37.883154 ], [ 139.249096399999985, 37.8897815 ], [ 139.2452247, 37.875707 ], [ 139.2361766, 37.8749665 ], [ 139.233061599999985, 37.8645256 ], [ 139.2121415, 37.8646265 ], [ 139.205484499999983, 37.8669116 ], [ 139.1982037, 37.8661004 ], [ 139.1920528, 37.8620544 ], [ 139.178179699999987, 37.8648791 ], [ 139.1590491, 37.8504994 ], [ 139.1579499, 37.8456705 ], [ 139.1527087, 37.8421522 ], [ 139.1583968, 37.836173599999988 ], [ 139.173927099999986, 37.8320688 ], [ 139.1771196, 37.8294994 ], [ 139.1749185, 37.8216564 ], [ 139.16328009999998, 37.8232561 ], [ 139.152867499999985, 37.8181722 ], [ 139.150912, 37.8150719 ], [ 139.1553803, 37.8074597 ], [ 139.1639242, 37.8074036 ], [ 139.1784131, 37.8048139 ], [ 139.180002799999983, 37.799498 ], [ 139.174925, 37.7933872 ], [ 139.173748599999982, 37.7870886 ], [ 139.177004399999987, 37.779813 ], [ 139.188578, 37.778808 ], [ 139.1878372, 37.77391 ], [ 139.211446, 37.7640999 ], [ 139.2208357, 37.7578613 ], [ 139.225631199999981, 37.7513099 ], [ 139.2234087, 37.7447199 ], [ 139.2314484, 37.7416726 ], [ 139.2377414, 37.7457717 ], [ 139.2617775, 37.7429922 ], [ 139.2847258, 37.7349764 ], [ 139.287193699999989, 37.73759 ], [ 139.292124, 37.7437955 ], [ 139.289366799999982, 37.7567944 ], [ 139.2988106, 37.7617633 ], [ 139.314593699999989, 37.7657831 ], [ 139.3243929, 37.7704022 ], [ 139.3273351, 37.7789664 ], [ 139.334270799999985, 37.7817972 ], [ 139.3335122, 37.7860297 ], [ 139.34052029999998, 37.7924392 ], [ 139.343404599999985, 37.7993059 ], [ 139.348399299999983, 37.8010128 ], [ 139.3555989, 37.8092676 ], [ 139.364120899999989, 37.8149132 ] ] ] ] } },
{ "type": "Feature", "properties": { "hokenjo": "村上" }, "geometry": { "type": "MultiPolygon", "coordinates": [ [ [ [ 139.684727, 38.1594209 ], [ 139.6855295, 38.1664939 ], [ 139.6824556, 38.1696095 ], [ 139.687509799999987, 38.1780639 ], [ 139.6963721, 38.1865861 ], [ 139.698367400000024, 38.1950591 ], [ 139.7132239, 38.2066444 ], [ 139.731376600000033, 38.2008332 ], [ 139.7386519, 38.2021002 ], [ 139.7469039, 38.1963679 ], [ 139.7582449, 38.193036 ], [ 139.7637413, 38.1989579 ], [ 139.776058899999981, 38.1981515 ], [ 139.781171199999989, 38.1942409 ], [ 139.8001942, 38.2023809 ], [ 139.8109537, 38.2115158 ], [ 139.819281, 38.2127928 ], [ 139.8386248, 38.2235483 ], [ 139.8469752, 38.2245579 ], [ 139.860185299999983, 38.2310662 ], [ 139.868576499999989, 38.2479856 ], [ 139.875694899999985, 38.2521278 ], [ 139.876598299999984, 38.2617894 ], [ 139.8999047, 38.2758057 ], [ 139.8980249, 38.2780351 ], [ 139.898888, 38.2931523 ], [ 139.8885234, 38.300959 ], [ 139.879325599999987, 38.3034293 ], [ 139.8750336, 38.3166493 ], [ 139.8668796, 38.3216259 ], [ 139.865320199999985, 38.3257726 ], [ 139.8568934, 38.332279 ], [ 139.84773, 38.3365798 ], [ 139.8483783, 38.3427987 ], [ 139.838723499999986, 38.3427857 ], [ 139.8272356, 38.3450026 ], [ 139.8254512, 38.3503404 ], [ 139.8164913, 38.3560123 ], [ 139.803572299999985, 38.3550668 ], [ 139.7896433, 38.3487105 ], [ 139.7839396, 38.3529694 ], [ 139.7707217, 38.3529056 ], [ 139.7616286, 38.3610614 ], [ 139.7522832, 38.3589695 ], [ 139.732878299999982, 38.3714171 ], [ 139.728944899999988, 38.3768385 ], [ 139.731118899999984, 38.3814473 ], [ 139.72206319999998, 38.3940246 ], [ 139.7123267, 38.3869374 ], [ 139.70480139999998, 38.3935613 ], [ 139.7033892, 38.4002183 ], [ 139.7058853, 38.4075785 ], [ 139.7120434, 38.4127009 ], [ 139.7170409, 38.4209886 ], [ 139.7165087, 38.4321319 ], [ 139.720132899999982, 38.4506921 ], [ 139.7151472, 38.4594384 ], [ 139.7159653, 38.467207 ], [ 139.71203749999998, 38.4717287 ], [ 139.716046399999982, 38.4790259 ], [ 139.72575759999998, 38.4865639 ], [ 139.720722, 38.4963455 ], [ 139.7016226, 38.5016 ], [ 139.692911399999986, 38.5068297 ], [ 139.6828822, 38.5049589 ], [ 139.66711429999998, 38.5064981 ], [ 139.662027, 38.5084562 ], [ 139.6530636, 38.5069679 ], [ 139.64735779999998, 38.5105895 ], [ 139.64052049999998, 38.5108321 ], [ 139.6313921, 38.5217804 ], [ 139.6138928, 38.5262518 ], [ 139.599446, 38.522219 ], [ 139.595473699999985, 38.526821 ], [ 139.5828295, 38.5325337 ], [ 139.5771394, 38.5396204 ], [ 139.5717611, 38.5385137 ], [ 139.5565963, 38.5452437 ], [ 139.549908, 38.5432777 ], [ 139.537790799999982, 38.5242649 ], [ 139.5218329, 38.5056778 ], [ 139.520824799999986, 38.5007071 ], [ 139.5144296, 38.4906436 ], [ 139.507963499999988, 38.484477 ], [ 139.4972578, 38.4587501 ], [ 139.4818808, 38.439931 ], [ 139.482571899999982, 38.4336152 ], [ 139.472093699999988, 38.4231741 ], [ 139.4625059, 38.401123 ], [ 139.4572894, 38.3975358 ], [ 139.4550372, 38.3898205 ], [ 139.460115299999984, 38.3807077 ], [ 139.4509205, 38.3614784 ], [ 139.4525103, 38.3369937 ], [ 139.448819499999985, 38.3129416 ], [ 139.451191099999988, 38.30928 ], [ 139.447913799999981, 38.2842809 ], [ 139.448736, 38.2731639 ], [ 139.4455601, 38.2677634 ], [ 139.4466869, 38.2620141 ], [ 139.4413256, 38.2470266 ], [ 139.450153199999988, 38.2417454 ], [ 139.449333599999989, 38.2340797 ], [ 139.436771800000031, 38.2154883 ], [ 139.42804110000003, 38.1973676 ], [ 139.4300064, 38.1812928 ], [ 139.4142085, 38.1596619 ], [ 139.4090338, 38.149763 ], [ 139.4120054, 38.1442143 ], [ 139.408011, 38.1393517 ], [ 139.410854299999983, 38.1354781 ], [ 139.407978499999984, 38.1301417 ], [ 139.4084315, 38.1205211 ], [ 139.4179408, 38.1128703 ], [ 139.4141832, 38.1089388 ], [ 139.430134899999985, 38.0974399 ], [ 139.4424156, 38.1025263 ], [ 139.4439553, 38.09512 ], [ 139.452505699999989, 38.0897017 ], [ 139.4698793, 38.0813762 ], [ 139.4812197, 38.078231 ], [ 139.4865292, 38.0787429 ], [ 139.489924699999989, 38.084727 ], [ 139.497660599999989, 38.088392 ], [ 139.5085057, 38.0886411 ], [ 139.5135175, 38.0830181 ], [ 139.5244653, 38.0826517 ], [ 139.526652899999988, 38.0743839 ], [ 139.523330099999981, 38.0703626 ], [ 139.5226304, 38.0625615 ], [ 139.528110699999985, 38.0519918 ], [ 139.5269471, 38.0496215 ], [ 139.536553, 38.0410157 ], [ 139.539567399999981, 38.0322701 ], [ 139.5336627, 38.0233621 ], [ 139.5351738, 38.0193632 ], [ 139.531028500000019, 38.0129863 ], [ 139.542718899999983, 38.0064238 ], [ 139.54561, 37.9982035 ], [ 139.5530475, 37.9955791 ], [ 139.5650698, 37.9841919 ], [ 139.5624947, 37.9764725 ], [ 139.562768299999988, 37.9658145 ], [ 139.5570564, 37.962232 ], [ 139.5564719, 37.9570131 ], [ 139.562428899999986, 37.9555193 ], [ 139.561370499999981, 37.9441548 ], [ 139.5679352, 37.9318527 ], [ 139.581234699999982, 37.9325696 ], [ 139.5851495, 37.9350802 ], [ 139.5987012, 37.9337388 ], [ 139.606483699999984, 37.935259 ], [ 139.610293499999983, 37.9263507 ], [ 139.6249899, 37.9183946 ], [ 139.6317861, 37.9303049 ], [ 139.6393856, 37.9347165 ], [ 139.6429963, 37.9468343 ], [ 139.640101, 37.952339 ], [ 139.645246899999989, 37.962627 ], [ 139.63860649999998, 37.9686542 ], [ 139.6442558, 37.9797758 ], [ 139.6393402, 37.9843669 ], [ 139.64497, 37.9918877 ], [ 139.6542939, 37.9965074 ], [ 139.6526264, 38.0029619 ], [ 139.6544082, 38.0147441 ], [ 139.652390699999984, 38.0205646 ], [ 139.656764900000013, 38.0285176 ], [ 139.6575594, 38.0373987 ], [ 139.6626738, 38.0400148 ], [ 139.6748323, 38.0405845 ], [ 139.680149, 38.0432651 ], [ 139.6820526, 38.0495264 ], [ 139.6902744, 38.0524312 ], [ 139.6927255, 38.0570286 ], [ 139.686550499999981, 38.0659803 ], [ 139.6915655, 38.0711922 ], [ 139.6864658, 38.0768861 ], [ 139.681809099999981, 38.0753822 ], [ 139.672344, 38.0769328 ], [ 139.6747871, 38.0915769 ], [ 139.6826705, 38.108074099999989 ], [ 139.6921467, 38.113001 ], [ 139.6883686, 38.1346551 ], [ 139.691566699999981, 38.1452351 ], [ 139.6905212, 38.1552842 ], [ 139.684727, 38.1594209 ] ] ], [ [ [ 139.2642406, 38.4889231 ], [ 139.2560661, 38.4909754 ], [ 139.237344399999984, 38.4746615 ], [ 139.238522099999983, 38.4711212 ], [ 139.2317543, 38.4638187 ], [ 139.2233079, 38.4585899 ], [ 139.2250151, 38.454279299999989 ], [ 139.2228292, 38.4475129 ], [ 139.2149514, 38.4374788 ], [ 139.226458399999984, 38.4373468 ], [ 139.2479861, 38.4532863 ], [ 139.2542544, 38.4620834 ], [ 139.2537786, 38.4651826 ], [ 139.2586934, 38.4824809 ], [ 139.2642406, 38.4889231 ] ] ] ] } },
{ "type": "Feature", "properties": { "hokenjo": "長岡" }, "geometry": { "type": "MultiPolygon", "coordinates": [ [ [ [ 138.8988488, 37.2808968 ], [ 138.9013033, 37.2887424 ], [ 138.9053941, 37.2932551 ], [ 138.9110466, 37.2933563 ], [ 138.9145182, 37.2922793 ], [ 138.9263257, 37.2965276 ], [ 138.9335586, 37.304155099999988 ], [ 138.9316004, 37.3127634 ], [ 138.938974, 37.3181168 ], [ 138.93987, 37.3245901 ], [ 138.9329007, 37.3385981 ], [ 138.9404585, 37.3398815 ], [ 138.9514308, 37.3450826 ], [ 138.9549422, 37.3512917 ], [ 138.964137199999982, 37.3539234 ], [ 138.956909199999984, 37.3601578 ], [ 138.9568037, 37.3733447 ], [ 138.962046, 37.3740653 ], [ 138.9686702, 37.3838181 ], [ 138.9797552, 37.379725 ], [ 138.988383299999981, 37.372533 ], [ 138.994123299999984, 37.3715016 ], [ 139.0000289, 37.3745172 ], [ 139.014171399999981, 37.3782188 ], [ 139.018513399999989, 37.3886213 ], [ 139.0286183, 37.3977913 ], [ 139.0340372, 37.399859 ], [ 139.0492109, 37.4016529 ], [ 139.0466126, 37.408317 ], [ 139.055341, 37.413554499999989 ], [ 139.0618127, 37.405537 ], [ 139.08070859999998, 37.4034209 ], [ 139.0899198, 37.4057231 ], [ 139.0946831, 37.40953 ], [ 139.108287099999984, 37.4105297 ], [ 139.12325629999998, 37.4098708 ], [ 139.1240669, 37.4196819 ], [ 139.1223938, 37.4264461 ], [ 139.1087054, 37.4383733 ], [ 139.0933004, 37.4499941 ], [ 139.0875743, 37.4679641 ], [ 139.0884821, 37.4751286 ], [ 139.0954882, 37.4765897 ], [ 139.1058799, 37.4855449 ], [ 139.102696899999984, 37.4922427 ], [ 139.105241899999982, 37.5012161 ], [ 139.110082799999986, 37.5035999 ], [ 139.1122723, 37.5107399 ], [ 139.1102529, 37.5155522 ], [ 139.1036892, 37.5158008 ], [ 139.0926426, 37.5214633 ], [ 139.0842245, 37.5207291 ], [ 139.0807178, 37.5252547 ], [ 139.064290799999981, 37.5245374 ], [ 139.0476127, 37.5213522 ], [ 139.0275629, 37.529905 ], [ 139.000353, 37.525765 ], [ 139.000739399999986, 37.5329986 ], [ 138.9911478, 37.5382367 ], [ 138.98257049999998, 37.5402553 ], [ 138.9817917, 37.5470497 ], [ 138.9860969, 37.5500294 ], [ 138.9805667, 37.5602872 ], [ 138.976252599999981, 37.5621014 ], [ 138.9680706, 37.554885 ], [ 138.9656161, 37.54585 ], [ 138.9544613, 37.5407344 ], [ 138.9535208, 37.5475139 ], [ 138.946629100000024, 37.5485961 ], [ 138.9442697, 37.5557999 ], [ 138.9348153, 37.5543457 ], [ 138.928231399999987, 37.5635821 ], [ 138.922764699999988, 37.5627579 ], [ 138.910573900000031, 37.5654224 ], [ 138.9031008, 37.573966 ], [ 138.8986727, 37.5742732 ], [ 138.8910759, 37.583295 ], [ 138.878625299999982, 37.5935307 ], [ 138.873550199999983, 37.592166 ], [ 138.8751589, 37.5994182 ], [ 138.8807075, 37.6039146 ], [ 138.8822894, 37.6166984 ], [ 138.8809808, 37.6201053 ], [ 138.851597199999986, 37.6113773 ], [ 138.8408229, 37.6052207 ], [ 138.8310937, 37.5936707 ], [ 138.831148499999983, 37.6038612 ], [ 138.825644899999986, 37.608677 ], [ 138.8319199, 37.6164395 ], [ 138.8375097, 37.6181945 ], [ 138.8235159, 37.6357353 ], [ 138.822924, 37.64526 ], [ 138.813524, 37.6432658 ], [ 138.8081009, 37.636686399999988 ], [ 138.7872557, 37.6553138 ], [ 138.7881571, 37.6717216 ], [ 138.793617399999988, 37.6789044 ], [ 138.805611, 37.6779786 ], [ 138.8048124, 37.6859374 ], [ 138.808811, 37.6915158 ], [ 138.811389, 37.7008353 ], [ 138.8084129, 37.7068111 ], [ 138.7971704, 37.7102283 ], [ 138.7912799, 37.705481 ], [ 138.785549799999984, 37.70724 ], [ 138.7825509, 37.6922983 ], [ 138.7669018, 37.6441539 ], [ 138.759928800000012, 37.6350551 ], [ 138.7595609, 37.6296692 ], [ 138.750178799999986, 37.6121473 ], [ 138.74837, 37.6059714 ], [ 138.7327794, 37.5912845 ], [ 138.72666289999998, 37.578071 ], [ 138.7146311, 37.5602197 ], [ 138.7091115, 37.5554094 ], [ 138.6948692, 37.5468592 ], [ 138.676490199999989, 37.5381234 ], [ 138.665275100000031, 37.529847 ], [ 138.6602153, 37.523524 ], [ 138.6740437, 37.5235379 ], [ 138.67977639999998, 37.517141 ], [ 138.676042199999983, 37.5093435 ], [ 138.6723977, 37.5079521 ], [ 138.674902, 37.495265499999988 ], [ 138.697664600000024, 37.4983799 ], [ 138.7217723, 37.4874369 ], [ 138.7151522, 37.4765923 ], [ 138.70449739999998, 37.4655965 ], [ 138.6986157, 37.4561295 ], [ 138.695169, 37.4435282 ], [ 138.691117, 37.4381937 ], [ 138.697275099999985, 37.4323896 ], [ 138.697140599999983, 37.4255691 ], [ 138.7016629, 37.4207791 ], [ 138.708259, 37.419363 ], [ 138.698865, 37.4017038 ], [ 138.701092499999987, 37.3955547 ], [ 138.7058506, 37.3949566 ], [ 138.7179787, 37.3867792 ], [ 138.7144039, 37.3745734 ], [ 138.701020199999988, 37.3600167 ], [ 138.699228, 37.3521131 ], [ 138.689607099999989, 37.3504992 ], [ 138.681853099999984, 37.343815299999989 ], [ 138.6763086, 37.3346353 ], [ 138.676076699999982, 37.3299989 ], [ 138.6674511, 37.3292661 ], [ 138.661307099999988, 37.3231439 ], [ 138.663571599999983, 37.3190109 ], [ 138.6567968, 37.3146628 ], [ 138.658344299999982, 37.3100389 ], [ 138.6519331, 37.2988295 ], [ 138.644122, 37.2944273 ], [ 138.6439959, 37.2834003 ], [ 138.647334199999989, 37.277012 ], [ 138.6523067, 37.275937 ], [ 138.6538789, 37.2702704 ], [ 138.6612776, 37.2684754 ], [ 138.6608915, 37.2642709 ], [ 138.6747038, 37.2371907 ], [ 138.6826169, 37.2339552 ], [ 138.687429899999984, 37.2355672 ], [ 138.703009399999985, 37.2331425 ], [ 138.718782799999985, 37.2349186 ], [ 138.7251384, 37.2294897 ], [ 138.726249199999984, 37.2217281 ], [ 138.732172599999984, 37.2179679 ], [ 138.7549396, 37.2173487 ], [ 138.7594401, 37.2157826 ], [ 138.7759696, 37.2201473 ], [ 138.781428, 37.2257058 ], [ 138.7851061, 37.2196461 ], [ 138.794174100000021, 37.2170836 ], [ 138.807819199999983, 37.2175941 ], [ 138.8195031, 37.2156208 ], [ 138.8275461, 37.2084722 ], [ 138.8335969, 37.2059286 ], [ 138.833167799999984, 37.2015136 ], [ 138.836637599999989, 37.1880853 ], [ 138.8348743, 37.1764775 ], [ 138.8485162, 37.1846542 ], [ 138.852766299999985, 37.1898678 ], [ 138.85776690000003, 37.2030389 ], [ 138.8636205, 37.2026431 ], [ 138.8688599, 37.2079925 ], [ 138.8709336, 37.2201622 ], [ 138.880341099999981, 37.2241822 ], [ 138.88227, 37.2305769 ], [ 138.8814126, 37.2397966 ], [ 138.8877612, 37.2432727 ], [ 138.8883179, 37.2497586 ], [ 138.8929909, 37.2551216 ], [ 138.887547600000033, 37.2648335 ], [ 138.8913474, 37.2791443 ], [ 138.8988488, 37.2808968 ] ] ] ] } },
{ "type": "Feature", "properties": { "hokenjo": "南魚沼" }, "geometry": { "type": "MultiPolygon", "coordinates": [ [ [ [ 138.9324426, 36.8935509 ], [ 138.9403982, 36.8951226 ], [ 138.9496576, 36.8930584 ], [ 138.9537171, 36.8951951 ], [ 138.967048799999986, 36.8910485 ], [ 138.971554, 36.8872676 ], [ 138.979168499999986, 36.8911763 ], [ 138.9797347, 36.9044593 ], [ 138.974396399999989, 36.9131484 ], [ 138.9766909, 36.9207907 ], [ 138.9668015, 36.9307926 ], [ 138.963801599999982, 36.9527696 ], [ 138.966096599999986, 36.9576082 ], [ 138.966479599999985, 36.978840399999989 ], [ 138.969846499999989, 36.981414 ], [ 139.00064519999998, 36.9792129 ], [ 139.015498899999983, 36.9882862 ], [ 139.0303269, 36.9837026 ], [ 139.0477311, 36.9876704 ], [ 139.050117299999982, 36.9948673 ], [ 139.073541, 37.0085297 ], [ 139.0805043, 37.0086403 ], [ 139.091194900000033, 37.0199694 ], [ 139.0888358, 37.0289289 ], [ 139.091487199999989, 37.0398625 ], [ 139.0904056, 37.0449172 ], [ 139.097016199999985, 37.0586263 ], [ 139.0978515, 37.0663938 ], [ 139.0834657, 37.0745936 ], [ 139.0765868, 37.0863877 ], [ 139.0807074, 37.0918463 ], [ 139.078553, 37.0983894 ], [ 139.0778494, 37.1159685 ], [ 139.0756433, 37.1221904 ], [ 139.0801619, 37.1259246 ], [ 139.0783945, 37.1311874 ], [ 139.063204499999983, 37.1336111 ], [ 139.0544223, 37.1381561 ], [ 139.0550759, 37.1423344 ], [ 139.0394848, 37.1444695 ], [ 139.026550899999989, 37.1493146 ], [ 139.0253223, 37.1550518 ], [ 139.02776369999998, 37.1656134 ], [ 139.021192, 37.1678712 ], [ 139.022792899999985, 37.1803464 ], [ 139.025689299999982, 37.1835606 ], [ 139.017207899999988, 37.1876886 ], [ 139.0026447, 37.1874654 ], [ 138.992685, 37.1938473 ], [ 138.979656, 37.1946204 ], [ 138.968455399999982, 37.1913098 ], [ 138.963725399999987, 37.191874 ], [ 138.955613299999982, 37.185493099999988 ], [ 138.9533722, 37.1753309 ], [ 138.946313799999984, 37.1751179 ], [ 138.9389018, 37.1716598 ], [ 138.927955699999984, 37.1806589 ], [ 138.938412699999986, 37.1903401 ], [ 138.9444303, 37.1980439 ], [ 138.9358475, 37.2032867 ], [ 138.932755, 37.2086192 ], [ 138.914985299999984, 37.2008428 ], [ 138.907695, 37.1940823 ], [ 138.91174909999998, 37.1852106 ], [ 138.9046299, 37.1745006 ], [ 138.8966016, 37.1750501 ], [ 138.889880799999986, 37.1715131 ], [ 138.8854586, 37.1775167 ], [ 138.882144499999981, 37.1910684 ], [ 138.8725054, 37.1943475 ], [ 138.8677826, 37.1868078 ], [ 138.8568598, 37.1765006 ], [ 138.8478067, 37.173681699999989 ], [ 138.844901099999987, 37.1654764 ], [ 138.8456458, 37.1619006 ], [ 138.8542497, 37.1583726 ], [ 138.8607624, 37.148559 ], [ 138.868145699999985, 37.1489434 ], [ 138.8747454, 37.1404012 ], [ 138.87005259999998, 37.1331776 ], [ 138.8593268, 37.1311573 ], [ 138.857801199999983, 37.1250871 ], [ 138.840786399999985, 37.1185135 ], [ 138.8396031, 37.1122885 ], [ 138.8341102, 37.1032238 ], [ 138.8296225, 37.1019093 ], [ 138.8269952, 37.0913102 ], [ 138.8235268, 37.0869119 ], [ 138.8301437, 37.0765622 ], [ 138.819015, 37.0723019 ], [ 138.811217199999987, 37.0669653 ], [ 138.8115999, 37.0591689 ], [ 138.803393199999988, 37.053977 ], [ 138.8015437, 37.044357 ], [ 138.7919269, 37.0300201 ], [ 138.7880219, 37.0298443 ], [ 138.7815292, 37.0164154 ], [ 138.775412499999987, 37.0097451 ], [ 138.7785064, 37.0054829 ], [ 138.773712099999983, 37.0001645 ], [ 138.7710784, 36.9833951 ], [ 138.7646164, 36.977466199999988 ], [ 138.768601599999982, 36.9632437 ], [ 138.7789683, 36.9577828 ], [ 138.7729133, 36.9464142 ], [ 138.7628024, 36.9351884 ], [ 138.753190099999983, 36.9308945 ], [ 138.7525784, 36.9263021 ], [ 138.744235799999984, 36.9220421 ], [ 138.7381747, 36.912473 ], [ 138.730603299999984, 36.9091733 ], [ 138.7326013, 36.9023722 ], [ 138.7286335, 36.8964233 ], [ 138.7211581, 36.8901078 ], [ 138.714513399999987, 36.8816687 ], [ 138.71378, 36.8737718 ], [ 138.7004327, 36.8682224 ], [ 138.7064149, 36.8589966 ], [ 138.703080699999987, 36.8498885 ], [ 138.6903534, 36.8456588 ], [ 138.6900118, 36.8323504 ], [ 138.680672, 36.824161 ], [ 138.6802806, 36.8201468 ], [ 138.6871798, 36.8180515 ], [ 138.695788099999987, 36.8090562 ], [ 138.6891497, 36.7984392 ], [ 138.6894519, 36.7935714 ], [ 138.684211, 36.7879242 ], [ 138.6717143, 36.7835897 ], [ 138.6695437, 36.7736608 ], [ 138.680010899999985, 36.7664363 ], [ 138.688000099999982, 36.7658477 ], [ 138.691529, 36.758575199999989 ], [ 138.6919483, 36.7461185 ], [ 138.6973711, 36.7376404 ], [ 138.7052847, 36.7365763 ], [ 138.7130742, 36.7392182 ], [ 138.715776200000022, 36.7457502 ], [ 138.7218737, 36.7496902 ], [ 138.7213899, 36.7592361 ], [ 138.7270274, 36.7641688 ], [ 138.7533253, 36.7549827 ], [ 138.7612781, 36.7490569 ], [ 138.770344199999982, 36.7461646 ], [ 138.7779573, 36.7477019 ], [ 138.78941949999998, 36.7448738 ], [ 138.7927076, 36.7479371 ], [ 138.7953446, 36.7581371 ], [ 138.806286699999987, 36.7645327 ], [ 138.817770300000035, 36.7615857 ], [ 138.8269235, 36.7722913 ], [ 138.8250549, 36.7757747 ], [ 138.8297044, 36.7858902 ], [ 138.8291017, 36.7953698 ], [ 138.826152, 36.8053715 ], [ 138.8215923, 36.8130881 ], [ 138.8217443, 36.8176261 ], [ 138.839570100000032, 36.8171756 ], [ 138.850947099999985, 36.8120319 ], [ 138.8573118, 36.8120881 ], [ 138.8645799, 36.8163027 ], [ 138.8755835, 36.8185888 ], [ 138.8795302, 36.8249771 ], [ 138.902597499999985, 36.8271163 ], [ 138.9290672, 36.8326438 ], [ 138.9297956, 36.8375038 ], [ 138.9240484, 36.8472332 ], [ 138.9170504, 36.8489376 ], [ 138.9179399, 36.8568429 ], [ 138.9221149, 36.8610373 ], [ 138.917168299999986, 36.8703729 ], [ 138.923006099999981, 36.8833848 ], [ 138.9305301, 36.886967 ], [ 138.9324426, 36.8935509 ] ] ] ] } },
{ "type": "Feature", "properties": { "hokenjo": "柏崎" }, "geometry": { "type": "MultiPolygon", "coordinates": [ [ [ [ 138.698865, 37.4017038 ], [ 138.708259, 37.419363 ], [ 138.7016629, 37.4207791 ], [ 138.697140599999983, 37.4255691 ], [ 138.697275099999985, 37.4323896 ], [ 138.691117, 37.4381937 ], [ 138.695169, 37.4435282 ], [ 138.6986157, 37.4561295 ], [ 138.70449739999998, 37.4655965 ], [ 138.7151522, 37.4765923 ], [ 138.7217723, 37.4874369 ], [ 138.697664600000024, 37.4983799 ], [ 138.674902, 37.495265499999988 ], [ 138.6723977, 37.5079521 ], [ 138.676042199999983, 37.5093435 ], [ 138.67977639999998, 37.517141 ], [ 138.6740437, 37.5235379 ], [ 138.6602153, 37.523524 ], [ 138.6476107, 37.5062754 ], [ 138.638528399999984, 37.4972266 ], [ 138.6337167, 37.4951527 ], [ 138.6316053, 37.4887366 ], [ 138.6252567, 37.4848844 ], [ 138.617386899999985, 37.4841307 ], [ 138.6180947, 37.4751219 ], [ 138.6063972, 37.451392 ], [ 138.591548499999988, 37.428823 ], [ 138.5878444, 37.4208333 ], [ 138.559016600000035, 37.3833896 ], [ 138.543923799999988, 37.3686894 ], [ 138.5267948, 37.3656575 ], [ 138.5151778, 37.3567961 ], [ 138.500347, 37.3519337 ], [ 138.4886711, 37.3514644 ], [ 138.485763, 37.3462144 ], [ 138.4646019, 37.335646 ], [ 138.461201599999981, 37.3364841 ], [ 138.4462882, 37.3241638 ], [ 138.43704649999998, 37.3222177 ], [ 138.4180978, 37.3065863 ], [ 138.4229229, 37.2944007 ], [ 138.427940899999982, 37.3005057 ], [ 138.433571199999989, 37.3015646 ], [ 138.4371495, 37.2944171 ], [ 138.4439037, 37.2967174 ], [ 138.4521303, 37.2959143 ], [ 138.457963899999982, 37.2927018 ], [ 138.468912499999988, 37.2924016 ], [ 138.4733283, 37.2897957 ], [ 138.49010389999998, 37.2880741 ], [ 138.4995691, 37.2800135 ], [ 138.512144399999983, 37.2732707 ], [ 138.522929399999981, 37.2764671 ], [ 138.52975, 37.2729133 ], [ 138.534476100000035, 37.2668533 ], [ 138.5348525, 37.2620696 ], [ 138.5199605, 37.2525165 ], [ 138.5150505, 37.2464132 ], [ 138.5155202, 37.2383354 ], [ 138.504968, 37.2288979 ], [ 138.52175219999998, 37.2212915 ], [ 138.5266133, 37.2171259 ], [ 138.527869399999986, 37.2053209 ], [ 138.536515799999989, 37.198419 ], [ 138.5486022, 37.2018023 ], [ 138.5561103, 37.1985548 ], [ 138.55389, 37.1902804 ], [ 138.5634345, 37.1851854 ], [ 138.5688887, 37.1789941 ], [ 138.565767599999987, 37.1703591 ], [ 138.574400699999984, 37.1671681 ], [ 138.5842486, 37.1666538 ], [ 138.5939506, 37.1712131 ], [ 138.599859, 37.1715234 ], [ 138.6122624, 37.1643489 ], [ 138.618882499999984, 37.1642345 ], [ 138.6187727, 37.1776865 ], [ 138.623912100000013, 37.1794879 ], [ 138.6398522, 37.1745922 ], [ 138.6495558, 37.1771889 ], [ 138.6508213, 37.1888626 ], [ 138.655125699999985, 37.1943159 ], [ 138.6621121, 37.1973134 ], [ 138.6642216, 37.2024553 ], [ 138.672573299999982, 37.2075317 ], [ 138.6726588, 37.2181836 ], [ 138.6773782, 37.2221527 ], [ 138.6713641, 37.2290219 ], [ 138.6747038, 37.2371907 ], [ 138.6608915, 37.2642709 ], [ 138.6612776, 37.2684754 ], [ 138.6538789, 37.2702704 ], [ 138.6523067, 37.275937 ], [ 138.647334199999989, 37.277012 ], [ 138.6439959, 37.2834003 ], [ 138.644122, 37.2944273 ], [ 138.6519331, 37.2988295 ], [ 138.658344299999982, 37.3100389 ], [ 138.6567968, 37.3146628 ], [ 138.663571599999983, 37.3190109 ], [ 138.661307099999988, 37.3231439 ], [ 138.6674511, 37.3292661 ], [ 138.676076699999982, 37.3299989 ], [ 138.6763086, 37.3346353 ], [ 138.681853099999984, 37.343815299999989 ], [ 138.689607099999989, 37.3504992 ], [ 138.699228, 37.3521131 ], [ 138.701020199999988, 37.3600167 ], [ 138.7144039, 37.3745734 ], [ 138.7179787, 37.3867792 ], [ 138.7058506, 37.3949566 ], [ 138.701092499999987, 37.3955547 ], [ 138.698865, 37.4017038 ] ] ] ] } }
]
}
