{
"type": "FeatureCollection",
"name": "oita",
"crs": { "type": "name", "properties": { "name": "urn:ogc:def:crs:OGC:1.3:CRS84" } },
"features": [
{ "type": "Feature", "properties": { "hokenjo": "西部" }, "geometry": { "type": "MultiPolygon", "coordinates": [ [ [ [ 131.295074199999988, 33.2498536 ], [ 131.295932199999982, 33.2599252 ], [ 131.299408, 33.2650883 ], [ 131.31136859999998, 33.2728566 ], [ 131.329103299999986, 33.290077 ], [ 131.332495, 33.2949109 ], [ 131.316485299999982, 33.305975599999989 ], [ 131.3249447, 33.3079187 ], [ 131.3257825, 33.3113134 ], [ 131.3306019, 33.3133076 ], [ 131.332676599999985, 33.3175087 ], [ 131.3270097, 33.3204915 ], [ 131.3126747, 33.3228285 ], [ 131.3082942, 33.3275785 ], [ 131.308135599999986, 33.3318132 ], [ 131.303143899999981, 33.3371048 ], [ 131.2985797, 33.3354243 ], [ 131.2898639, 33.3362612 ], [ 131.2788981, 33.334694 ], [ 131.2718425, 33.3409785 ], [ 131.271806699999985, 33.3437635 ], [ 131.267859499999986, 33.3498335 ], [ 131.26095669999998, 33.352699 ], [ 131.259187, 33.356311 ], [ 131.2526473, 33.3578974 ], [ 131.2486484, 33.3608599 ], [ 131.2417111, 33.3622401 ], [ 131.240550300000024, 33.3572126 ], [ 131.2293886, 33.3569643 ], [ 131.2260731, 33.3615804 ], [ 131.2157722, 33.3614632 ], [ 131.205447199999981, 33.3582015 ], [ 131.204806099999985, 33.3537946 ], [ 131.1981792, 33.3483966 ], [ 131.192365, 33.3521982 ], [ 131.1898386, 33.3563882 ], [ 131.1846611, 33.356351 ], [ 131.178739399999984, 33.3539024 ], [ 131.174873, 33.3626936 ], [ 131.167864399999985, 33.3699725 ], [ 131.1578319, 33.3632967 ], [ 131.1533358, 33.365805 ], [ 131.1514125, 33.3705839 ], [ 131.147945, 33.3731133 ], [ 131.145562499999983, 33.3787295 ], [ 131.1344197, 33.3778006 ], [ 131.1282488, 33.3682975 ], [ 131.124750399999982, 33.3682132 ], [ 131.1151669, 33.3723534 ], [ 131.1162836, 33.3755828 ], [ 131.107907499999982, 33.3800698 ], [ 131.098939699999988, 33.3884457 ], [ 131.0904147, 33.3883173 ], [ 131.080209699999983, 33.3838209 ], [ 131.0682385, 33.3835943 ], [ 131.0603519, 33.3724562 ], [ 131.0570622, 33.3607942 ], [ 131.0516505, 33.3610761 ], [ 131.0407507, 33.3596895 ], [ 131.0327524, 33.3604534 ], [ 131.025116, 33.358554 ], [ 131.0220923, 33.3652129 ], [ 131.0213034, 33.3719687 ], [ 131.0130467, 33.3759329 ], [ 131.0098003, 33.380651 ], [ 131.0121651, 33.3863163 ], [ 131.008464799999985, 33.3896415 ], [ 131.0091309, 33.3923765 ], [ 130.9942456, 33.3983271 ], [ 130.984031099999982, 33.4103871 ], [ 130.977297199999981, 33.4118999 ], [ 130.9657111, 33.4230307 ], [ 130.9657389, 33.4289287 ], [ 130.959637499999985, 33.4298468 ], [ 130.9462589, 33.4336693 ], [ 130.9461623, 33.4411734 ], [ 130.9420859, 33.4424898 ], [ 130.9426756, 33.4460604 ], [ 130.936243099999984, 33.451589 ], [ 130.928742799999981, 33.4522065 ], [ 130.926285900000011, 33.4576245 ], [ 130.915724499999982, 33.454804 ], [ 130.910534499999983, 33.4497887 ], [ 130.8999301, 33.4490082 ], [ 130.8949207, 33.4461557 ], [ 130.8975762, 33.4385465 ], [ 130.8952698, 33.4331729 ], [ 130.8916934, 33.4299451 ], [ 130.8925256, 33.4199848 ], [ 130.889539499999984, 33.415179 ], [ 130.891995899999984, 33.4064456 ], [ 130.8876134, 33.4044636 ], [ 130.8876137, 33.4005006 ], [ 130.884578399999981, 33.3894328 ], [ 130.885839799999985, 33.3792317 ], [ 130.862427699999984, 33.3766644 ], [ 130.8597191, 33.3729622 ], [ 130.8617993, 33.3625999 ], [ 130.850195499999984, 33.3537682 ], [ 130.8422563, 33.3502576 ], [ 130.8401863, 33.3457937 ], [ 130.835348, 33.3435459 ], [ 130.8420855, 33.3366587 ], [ 130.8450288, 33.3386979 ], [ 130.8506011, 33.336659 ], [ 130.854776099999981, 33.3291457 ], [ 130.85437779999998, 33.3246621 ], [ 130.856306099999983, 33.3185393 ], [ 130.863040499999983, 33.3050324 ], [ 130.8615797, 33.3031896 ], [ 130.8663483, 33.2921121 ], [ 130.8571277, 33.2849733 ], [ 130.852074099999982, 33.2774697 ], [ 130.856489399999987, 33.2753488 ], [ 130.857379399999985, 33.2704294 ], [ 130.8606972, 33.266745 ], [ 130.867580299999986, 33.2679822 ], [ 130.868047499999989, 33.2640786 ], [ 130.8639053, 33.261167 ], [ 130.8553541, 33.2625684 ], [ 130.848739099999989, 33.2610292 ], [ 130.84526409999998, 33.257507 ], [ 130.8381221, 33.2582428 ], [ 130.8287029, 33.2574586 ], [ 130.8247498, 33.2510512 ], [ 130.8274773, 33.2449054 ], [ 130.8251895, 33.241011 ], [ 130.826261499999987, 33.2367633 ], [ 130.832929299999989, 33.2341702 ], [ 130.8525449, 33.2322553 ], [ 130.8595861, 33.2291264 ], [ 130.8493593, 33.2231078 ], [ 130.8450171, 33.2229101 ], [ 130.844462099999987, 33.2193095 ], [ 130.8388232, 33.2169287 ], [ 130.836489, 33.2105999 ], [ 130.8435546, 33.2072377 ], [ 130.8471946, 33.2031184 ], [ 130.8588751, 33.1980543 ], [ 130.8636774, 33.1930621 ], [ 130.869599099999988, 33.1938676 ], [ 130.8748655, 33.1892702 ], [ 130.887456899999989, 33.186271399999988 ], [ 130.8857183, 33.1762934 ], [ 130.8778471, 33.1741992 ], [ 130.8735279, 33.1678576 ], [ 130.8766182, 33.1646546 ], [ 130.8769585, 33.1594141 ], [ 130.8796463, 33.1529869 ], [ 130.871325399999989, 33.1475216 ], [ 130.8709591, 33.1424434 ], [ 130.86705569999998, 33.1337479 ], [ 130.8662249, 33.1268475 ], [ 130.8630134, 33.1226889 ], [ 130.861647299999987, 33.1175278 ], [ 130.855648699999989, 33.1130837 ], [ 130.853322, 33.1091412 ], [ 130.844120299999986, 33.1075075 ], [ 130.839837, 33.104845 ], [ 130.8398075, 33.1002315 ], [ 130.842958399999986, 33.0940941 ], [ 130.8559539, 33.0938134 ], [ 130.8639406, 33.0949862 ], [ 130.8670045, 33.0906603 ], [ 130.8767354, 33.0919278 ], [ 130.886196499999983, 33.0874575 ], [ 130.889733399999983, 33.0835863 ], [ 130.8906422, 33.0757749 ], [ 130.8967941, 33.072921 ], [ 130.900016099999988, 33.0640593 ], [ 130.906765899999982, 33.064929 ], [ 130.9108267, 33.0621923 ], [ 130.9165365, 33.0555879 ], [ 130.923442599999987, 33.0519442 ], [ 130.9286445, 33.0521905 ], [ 130.935151700000034, 33.0551106 ], [ 130.936985099999987, 33.0524387 ], [ 130.9468202, 33.0528374 ], [ 130.9569822, 33.0471365 ], [ 130.9591417, 33.0438204 ], [ 130.959210899999988, 33.0372166 ], [ 130.970273, 33.023766 ], [ 130.977051, 33.0249881 ], [ 130.990852099999984, 33.0238244 ], [ 131.0032947, 33.0328243 ], [ 131.004864699999985, 33.0398055 ], [ 131.011791099999982, 33.0431151 ], [ 131.0145421, 33.0476924 ], [ 131.0126735, 33.0524525 ], [ 131.0142832, 33.0589932 ], [ 131.017744, 33.0636938 ], [ 131.0107195, 33.0698549 ], [ 131.014453299999985, 33.0796797 ], [ 131.0189991, 33.080756799999989 ], [ 131.0240507, 33.0875445 ], [ 131.0192946, 33.0916766 ], [ 131.0162235, 33.0983946 ], [ 131.008981799999987, 33.1085879 ], [ 131.0046106, 33.1101937 ], [ 131.0003087, 33.1163346 ], [ 130.9940489, 33.1194159 ], [ 130.9915986, 33.1297703 ], [ 130.9845494, 33.1346133 ], [ 130.978520799999984, 33.1422351 ], [ 130.984523, 33.1439532 ], [ 130.981593299999986, 33.1479234 ], [ 130.9842602, 33.1523431 ], [ 130.9819339, 33.1561158 ], [ 130.98513029999998, 33.1610741 ], [ 130.9854881, 33.1683918 ], [ 130.9889509, 33.1760153 ], [ 130.9929364, 33.1773977 ], [ 130.9917801, 33.1822435 ], [ 130.9942431, 33.1838351 ], [ 131.0031132, 33.180591 ], [ 131.0057459, 33.1777405 ], [ 131.016565900000018, 33.1779268 ], [ 131.0282482, 33.1864173 ], [ 131.030936199999985, 33.1853587 ], [ 131.035941, 33.1883278 ], [ 131.038846299999989, 33.1941338 ], [ 131.0603476, 33.1951227 ], [ 131.0674606, 33.1914322 ], [ 131.08199639999998, 33.188794699999988 ], [ 131.095403299999987, 33.1851666 ], [ 131.0994953, 33.1878921 ], [ 131.1111775, 33.1833023 ], [ 131.115545, 33.1802712 ], [ 131.1183849, 33.170307 ], [ 131.12117360000002, 33.1677479 ], [ 131.128940799999981, 33.166959 ], [ 131.132833, 33.1644579 ], [ 131.1338714, 33.1600607 ], [ 131.1378872, 33.1595237 ], [ 131.147841299999982, 33.155029 ], [ 131.1479539, 33.1497845 ], [ 131.1576547, 33.1417845 ], [ 131.1612174, 33.1407676 ], [ 131.1669288, 33.1287383 ], [ 131.1659338, 33.1196314 ], [ 131.1635861, 33.11649 ], [ 131.1662638, 33.1110638 ], [ 131.1731843, 33.1048431 ], [ 131.172580499999981, 33.0999571 ], [ 131.174797399999989, 33.0967894 ], [ 131.1722524, 33.0897105 ], [ 131.174548499999986, 33.0830847 ], [ 131.178235699999988, 33.0791647 ], [ 131.1860418, 33.0738333 ], [ 131.193134, 33.0776485 ], [ 131.19856009999998, 33.083436 ], [ 131.200113099999982, 33.0877307 ], [ 131.205039199999987, 33.0904629 ], [ 131.2224717, 33.0884209 ], [ 131.2257797, 33.0864745 ], [ 131.2367534, 33.0894661 ], [ 131.2376289, 33.0932311 ], [ 131.2416373, 33.0961727 ], [ 131.2467859, 33.105823 ], [ 131.2536234, 33.1112646 ], [ 131.2532642, 33.1220149 ], [ 131.2569895, 33.1232227 ], [ 131.2592956, 33.1365738 ], [ 131.2690106, 33.1431869 ], [ 131.274879, 33.1486152 ], [ 131.288014, 33.1566957 ], [ 131.3003718, 33.1606347 ], [ 131.3053242, 33.1587452 ], [ 131.314916499999981, 33.1640712 ], [ 131.317182, 33.1684801 ], [ 131.323719, 33.1736001 ], [ 131.3181176, 33.1777893 ], [ 131.3083859, 33.1718941 ], [ 131.295605099999989, 33.1795594 ], [ 131.301981499999982, 33.181430399999989 ], [ 131.3065076, 33.1789736 ], [ 131.308731199999983, 33.1876606 ], [ 131.294785099999984, 33.1962995 ], [ 131.29063739999998, 33.1950436 ], [ 131.289465700000022, 33.1994703 ], [ 131.284033, 33.2091467 ], [ 131.2816919, 33.2153259 ], [ 131.2736855, 33.2234514 ], [ 131.269485, 33.2313889 ], [ 131.2798967, 33.2361809 ], [ 131.2851105, 33.2409914 ], [ 131.287178899999986, 33.2453153 ], [ 131.295074199999988, 33.2498536 ] ] ] ] } },
{ "type": "Feature", "properties": { "hokenjo": "大分市" }, "geometry": { "type": "MultiPolygon", "coordinates": [ [ [ [ 131.8491123, 33.188259 ], [ 131.8493274, 33.1902894 ], [ 131.8576076, 33.1959786 ], [ 131.861840199999989, 33.1949516 ], [ 131.869067199999989, 33.2012325 ], [ 131.8635434, 33.2019437 ], [ 131.8607127, 33.2045434 ], [ 131.8659298, 33.2130066 ], [ 131.871708499999983, 33.2159999 ], [ 131.8730564, 33.2214173 ], [ 131.877239100000025, 33.2258443 ], [ 131.871262299999984, 33.2322887 ], [ 131.879017299999987, 33.2442054 ], [ 131.889227, 33.2440037 ], [ 131.8993303, 33.2598859 ], [ 131.9031354, 33.2617991 ], [ 131.903037399999988, 33.2674851 ], [ 131.8967319, 33.2677891 ], [ 131.8835215, 33.2652427 ], [ 131.8756177, 33.2627583 ], [ 131.8672061, 33.2586038 ], [ 131.870380399999988, 33.2528912 ], [ 131.8708244, 33.2487747 ], [ 131.8604947, 33.252493099999988 ], [ 131.856544899999989, 33.2556745 ], [ 131.849802, 33.2520221 ], [ 131.8421788, 33.2518287 ], [ 131.8416463, 33.2487866 ], [ 131.823365, 33.2471112 ], [ 131.806284799999986, 33.2420643 ], [ 131.796738299999987, 33.2422076 ], [ 131.783461099999982, 33.2448068 ], [ 131.7786788, 33.2481415 ], [ 131.7695498, 33.2449783 ], [ 131.7695951, 33.2501827 ], [ 131.766182400000019, 33.2522773 ], [ 131.754588899999987, 33.2523474 ], [ 131.7545031, 33.2415136 ], [ 131.746771199999984, 33.2438359 ], [ 131.7512735, 33.2482922 ], [ 131.7415982, 33.2489768 ], [ 131.73445670000001, 33.2530034 ], [ 131.7344431, 33.2566894 ], [ 131.7185493, 33.2664585 ], [ 131.7127966, 33.2598109 ], [ 131.7097865, 33.2620103 ], [ 131.7153602, 33.2682982 ], [ 131.7052343, 33.2745753 ], [ 131.691914800000035, 33.2794278 ], [ 131.6806935, 33.2791739 ], [ 131.684846, 33.2662413 ], [ 131.6795967, 33.2681033 ], [ 131.676017400000035, 33.2779453 ], [ 131.666999299999986, 33.2747979 ], [ 131.672377899999987, 33.2601906 ], [ 131.66683519999998, 33.2579397 ], [ 131.660884399999986, 33.2734082 ], [ 131.658479699999987, 33.2731802 ], [ 131.624658499999981, 33.2643105 ], [ 131.614283799999981, 33.2620855 ], [ 131.600164899999982, 33.2565427 ], [ 131.6017173, 33.2530896 ], [ 131.5933095, 33.2502179 ], [ 131.5940315, 33.247056 ], [ 131.5892695, 33.2456499 ], [ 131.570641099999989, 33.2514222 ], [ 131.5609906, 33.2553603 ], [ 131.5514647, 33.2576731 ], [ 131.5477061, 33.2566117 ], [ 131.539540100000011, 33.2574856 ], [ 131.5240949, 33.2654316 ], [ 131.517811099999989, 33.2653512 ], [ 131.5160769, 33.2602733 ], [ 131.5163197, 33.2541917 ], [ 131.521076699999981, 33.2485053 ], [ 131.523007800000016, 33.2494075 ], [ 131.5286439, 33.2443214 ], [ 131.5366147, 33.2449886 ], [ 131.5406089, 33.2434875 ], [ 131.542810799999984, 33.2371556 ], [ 131.5375894, 33.2368631 ], [ 131.5364817, 33.2306281 ], [ 131.537873599999983, 33.2265303 ], [ 131.5325244, 33.2157981 ], [ 131.5376767, 33.2090297 ], [ 131.5323214, 33.2041347 ], [ 131.5360781, 33.1992081 ], [ 131.5294453, 33.1950478 ], [ 131.5201664, 33.1911267 ], [ 131.5122481, 33.1819339 ], [ 131.5082008, 33.1792503 ], [ 131.5044914, 33.1724736 ], [ 131.504115, 33.1685525 ], [ 131.489845799999983, 33.1659017 ], [ 131.4897011, 33.1604278 ], [ 131.4853853, 33.159977499999989 ], [ 131.4733219, 33.1534466 ], [ 131.4666327, 33.1459202 ], [ 131.4602108, 33.147463699999989 ], [ 131.4579747, 33.1389062 ], [ 131.4530839, 33.1429584 ], [ 131.4439233, 33.1426214 ], [ 131.438641099999984, 33.1353406 ], [ 131.4298775, 33.1315694 ], [ 131.4274747, 33.1276653 ], [ 131.4288602, 33.1234117 ], [ 131.4346916, 33.1196351 ], [ 131.430847699999987, 33.1132956 ], [ 131.433647399999984, 33.1088254 ], [ 131.4284726, 33.1009104 ], [ 131.418853400000017, 33.0957366 ], [ 131.418734199999989, 33.0920588 ], [ 131.421753599999988, 33.0897969 ], [ 131.419841, 33.081098 ], [ 131.423622099999989, 33.0792211 ], [ 131.4407161, 33.088021 ], [ 131.4440314, 33.0935885 ], [ 131.4565203, 33.0943213 ], [ 131.454469099999983, 33.0904416 ], [ 131.4568294, 33.079823 ], [ 131.4597124, 33.0754483 ], [ 131.465511, 33.0721941 ], [ 131.474891499999984, 33.0703608 ], [ 131.482862399999988, 33.0738578 ], [ 131.494823199999985, 33.0761575 ], [ 131.5019666, 33.0871086 ], [ 131.4965038, 33.0919283 ], [ 131.507738599999982, 33.1000536 ], [ 131.5151444, 33.1024289 ], [ 131.5219519, 33.1026717 ], [ 131.5256085, 33.1065525 ], [ 131.5323669, 33.1098831 ], [ 131.5393852, 33.1112101 ], [ 131.542219099999983, 33.1165848 ], [ 131.5544586, 33.1175642 ], [ 131.5594097, 33.1111531 ], [ 131.568281899999988, 33.1100331 ], [ 131.574718, 33.1020301 ], [ 131.5815849, 33.1011673 ], [ 131.5878433, 33.0975395 ], [ 131.593896299999983, 33.1021893 ], [ 131.59940659999998, 33.1033229 ], [ 131.604954100000015, 33.1024659 ], [ 131.6156669, 33.0957368 ], [ 131.6250641, 33.0926512 ], [ 131.6282027, 33.090109 ], [ 131.637765799999983, 33.0887487 ], [ 131.641208799999987, 33.0871374 ], [ 131.642961899999989, 33.0827129 ], [ 131.6462683, 33.0822124 ], [ 131.6541602, 33.0845001 ], [ 131.661123299999986, 33.0886948 ], [ 131.6784686, 33.0858657 ], [ 131.683477, 33.0818196 ], [ 131.68658689999998, 33.0828124 ], [ 131.692501599999986, 33.0766939 ], [ 131.7065819, 33.0785225 ], [ 131.7043597, 33.0847478 ], [ 131.7052128, 33.0938464 ], [ 131.7138228, 33.1020536 ], [ 131.710215, 33.1075825 ], [ 131.71193, 33.1131322 ], [ 131.7198261, 33.1299536 ], [ 131.7162644, 33.1359128 ], [ 131.72074, 33.1382733 ], [ 131.7209911, 33.1422433 ], [ 131.7241708, 33.1478447 ], [ 131.7228619, 33.1515403 ], [ 131.7180725, 33.1549775 ], [ 131.7274625, 33.1663458 ], [ 131.7286742, 33.1709819 ], [ 131.736840799999982, 33.1766292 ], [ 131.7432322, 33.1723819 ], [ 131.7516219, 33.1763294 ], [ 131.755867199999983, 33.1823069 ], [ 131.759540600000037, 33.1814753 ], [ 131.7809086, 33.1870403 ], [ 131.7843258, 33.1904553 ], [ 131.790864699999986, 33.1924461 ], [ 131.794879399999985, 33.18989 ], [ 131.8053986, 33.1967844 ], [ 131.8139061, 33.1997239 ], [ 131.8199744, 33.1998058 ], [ 131.8266008, 33.2049897 ], [ 131.833755, 33.2066775 ], [ 131.840197499999988, 33.2060694 ], [ 131.845289200000025, 33.1989247 ], [ 131.8491123, 33.188259 ] ] ], [ [ [ 131.9564722, 33.2792962 ], [ 131.9395461, 33.2773565 ], [ 131.9452286, 33.2715343 ], [ 131.9499006, 33.2741326 ], [ 131.9558917, 33.2749142 ], [ 131.9564722, 33.2792962 ] ] ] ] } },
{ "type": "Feature", "properties": { "hokenjo": "中部" }, "geometry": { "type": "MultiPolygon", "coordinates": [ [ [ [ 131.9146031, 33.1230865 ], [ 131.9109244, 33.1265614 ], [ 131.8994069, 33.1290872 ], [ 131.8928305, 33.1246076 ], [ 131.8857633, 33.1237772 ], [ 131.883012799999989, 33.121872 ], [ 131.874447799999984, 33.1237176 ], [ 131.8779664, 33.1306204 ], [ 131.86881, 33.13092 ], [ 131.8616807, 33.128029 ], [ 131.859707899999989, 33.1234126 ], [ 131.851916, 33.1183253 ], [ 131.8468374, 33.1181 ], [ 131.8458023, 33.1149614 ], [ 131.8353658, 33.1190873 ], [ 131.83892, 33.1229732 ], [ 131.8328913, 33.125142 ], [ 131.8277727, 33.121535 ], [ 131.8155869, 33.1226376 ], [ 131.810789799999981, 33.1273066 ], [ 131.8007744, 33.1258013 ], [ 131.8101622, 33.1348447 ], [ 131.8093969, 33.1381423 ], [ 131.819094299999989, 33.1444054 ], [ 131.819046, 33.1467291 ], [ 131.82856049999998, 33.1501149 ], [ 131.8238432, 33.1559388 ], [ 131.821791099999984, 33.1621547 ], [ 131.825550599999985, 33.1691508 ], [ 131.82865, 33.1697933 ], [ 131.829414899999989, 33.1744617 ], [ 131.8335251, 33.1777694 ], [ 131.8329325, 33.1812792 ], [ 131.838023099999987, 33.1829444 ], [ 131.8392457, 33.1865116 ], [ 131.8491123, 33.188259 ], [ 131.845289200000025, 33.1989247 ], [ 131.840197499999988, 33.2060694 ], [ 131.833755, 33.2066775 ], [ 131.8266008, 33.2049897 ], [ 131.8199744, 33.1998058 ], [ 131.8139061, 33.1997239 ], [ 131.8053986, 33.1967844 ], [ 131.794879399999985, 33.18989 ], [ 131.790864699999986, 33.1924461 ], [ 131.7843258, 33.1904553 ], [ 131.7809086, 33.1870403 ], [ 131.759540600000037, 33.1814753 ], [ 131.755867199999983, 33.1823069 ], [ 131.7516219, 33.1763294 ], [ 131.7432322, 33.1723819 ], [ 131.736840799999982, 33.1766292 ], [ 131.7286742, 33.1709819 ], [ 131.7274625, 33.1663458 ], [ 131.7180725, 33.1549775 ], [ 131.7228619, 33.1515403 ], [ 131.7241708, 33.1478447 ], [ 131.7209911, 33.1422433 ], [ 131.72074, 33.1382733 ], [ 131.7162644, 33.1359128 ], [ 131.7198261, 33.1299536 ], [ 131.71193, 33.1131322 ], [ 131.710215, 33.1075825 ], [ 131.7138228, 33.1020536 ], [ 131.7052128, 33.0938464 ], [ 131.7043597, 33.0847478 ], [ 131.7065819, 33.0785225 ], [ 131.692501599999986, 33.0766939 ], [ 131.68658689999998, 33.0828124 ], [ 131.683477, 33.0818196 ], [ 131.6784686, 33.0858657 ], [ 131.672231399999987, 33.0845671 ], [ 131.6691047, 33.0814796 ], [ 131.660938, 33.0787882 ], [ 131.6571888, 33.0694671 ], [ 131.6534897, 33.0663929 ], [ 131.6522488, 33.0584274 ], [ 131.653733599999981, 33.0533921 ], [ 131.6596099, 33.0498507 ], [ 131.660939899999988, 33.0445393 ], [ 131.658716, 33.0370913 ], [ 131.6501271, 33.0341052 ], [ 131.6465222, 33.0309913 ], [ 131.6373063, 33.0351202 ], [ 131.6353949, 33.0288466 ], [ 131.632338799999985, 33.0246146 ], [ 131.631671899999986, 33.0185743 ], [ 131.6352349, 33.0093866 ], [ 131.6328416, 33.0053777 ], [ 131.6386488, 33.004863 ], [ 131.643770499999988, 33.0015582 ], [ 131.6452655, 32.996250499999988 ], [ 131.649793, 32.9900583 ], [ 131.6508805, 32.984946 ], [ 131.6570543, 32.9793324 ], [ 131.6612782, 32.9678466 ], [ 131.661998, 32.9633591 ], [ 131.659166, 32.9602755 ], [ 131.6661483, 32.9520644 ], [ 131.6705732, 32.9508033 ], [ 131.6772542, 32.952265 ], [ 131.68116329999998, 32.9514278 ], [ 131.6850264, 32.9560747 ], [ 131.689528599999989, 32.9583522 ], [ 131.694035, 32.9575144 ], [ 131.6972458, 32.9622019 ], [ 131.701740299999983, 32.9652925 ], [ 131.713928899999985, 32.9692708 ], [ 131.721213299999988, 32.9703736 ], [ 131.7265697, 32.9682736 ], [ 131.734035299999988, 32.9679708 ], [ 131.741912499999984, 32.9697744 ], [ 131.7464239, 32.9689889 ], [ 131.751277499999986, 32.9717858 ], [ 131.7580844, 32.9673539 ], [ 131.7608286, 32.9698992 ], [ 131.774320800000027, 32.9760617 ], [ 131.7762392, 32.9785864 ], [ 131.7827069, 32.9790808 ], [ 131.777358099999987, 32.9904958 ], [ 131.77476249999998, 32.9921572 ], [ 131.777405, 32.9987203 ], [ 131.7744447, 33.0033783 ], [ 131.781319199999984, 33.0107056 ], [ 131.7852311, 33.0224444 ], [ 131.7925267, 33.0266478 ], [ 131.7900139, 33.0344428 ], [ 131.7999825, 33.0346053 ], [ 131.8039178, 33.0324542 ], [ 131.812955599999981, 33.0318439 ], [ 131.8148656, 33.0330714 ], [ 131.8220097, 33.0289811 ], [ 131.83458109999998, 33.0394986 ], [ 131.8399106, 33.0380806 ], [ 131.84595969999998, 33.0390736 ], [ 131.851038100000011, 33.0417319 ], [ 131.8621717, 33.0422636 ], [ 131.8834281, 33.0412303 ], [ 131.889612199999988, 33.0416367 ], [ 131.899473299999983, 33.0516117 ], [ 131.9075353, 33.0564775 ], [ 131.918326399999984, 33.0566828 ], [ 131.9285011, 33.0619528 ], [ 131.9377303, 33.0644686 ], [ 131.9442769, 33.0623144 ], [ 131.950733899999989, 33.0584314 ], [ 131.957054199999988, 33.0616542 ], [ 131.964183099999985, 33.0584169 ], [ 131.967728599999987, 33.0545325 ], [ 131.972645799999981, 33.0534961 ], [ 131.9871656, 33.0603172 ], [ 131.987889199999984, 33.0641003 ], [ 131.9958375, 33.0659231 ], [ 132.0025694, 33.0699233 ], [ 132.0007039, 33.0757208 ], [ 131.9963095, 33.0784521 ], [ 131.9961233, 33.0855039 ], [ 131.9988242, 33.0908772 ], [ 131.988881700000036, 33.0913922 ], [ 131.9866773, 33.0891554 ], [ 131.989081199999987, 33.085128 ], [ 131.9848634, 33.0794198 ], [ 131.988938099999984, 33.0738172 ], [ 131.988959199999982, 33.0683537 ], [ 131.9809631, 33.0655539 ], [ 131.9772907, 33.0673693 ], [ 131.974663199999981, 33.0625666 ], [ 131.9684911, 33.0624445 ], [ 131.96592769999998, 33.0653736 ], [ 131.967614699999984, 33.0715003 ], [ 131.9553852, 33.0720478 ], [ 131.9539589, 33.0663595 ], [ 131.9480432, 33.0663417 ], [ 131.944010599999984, 33.0688589 ], [ 131.9435789, 33.0735727 ], [ 131.939431399999989, 33.0764231 ], [ 131.9372517, 33.081258 ], [ 131.9375578, 33.0930217 ], [ 131.9316671, 33.0936495 ], [ 131.9346037, 33.0818547 ], [ 131.929359799999986, 33.0741136 ], [ 131.9284184, 33.0678324 ], [ 131.9215571, 33.0666687 ], [ 131.91927339999998, 33.0698542 ], [ 131.9120499, 33.0665867 ], [ 131.909983399999987, 33.0682565 ], [ 131.9134101, 33.0761293 ], [ 131.9071985, 33.0814274 ], [ 131.902039, 33.0753235 ], [ 131.8946451, 33.0767278 ], [ 131.8860776, 33.0832952 ], [ 131.8812297, 33.0779973 ], [ 131.8746428, 33.0786056 ], [ 131.8680934, 33.0763825 ], [ 131.861430900000016, 33.0773901 ], [ 131.8605499, 33.0815761 ], [ 131.8524783, 33.0887786 ], [ 131.8640556, 33.0894774 ], [ 131.869464, 33.0929246 ], [ 131.868427, 33.0962449 ], [ 131.8764659, 33.0999965 ], [ 131.8761793, 33.106109499999988 ], [ 131.87949, 33.1086963 ], [ 131.886587099999986, 33.1086946 ], [ 131.8934657, 33.1069844 ], [ 131.8971319, 33.1100102 ], [ 131.8972061, 33.1147597 ], [ 131.900611699999985, 33.1179364 ], [ 131.9146031, 33.1230865 ] ] ], [ [ [ 132.0128006, 33.10782 ], [ 132.010981099999981, 33.1114796 ], [ 132.0039243, 33.1075201 ], [ 132.0064449, 33.1035915 ], [ 132.0116504, 33.1013228 ], [ 132.0166753, 33.1067807 ], [ 132.0128006, 33.10782 ] ] ], [ [ [ 131.982532099999986, 33.164294 ], [ 131.988179699999989, 33.1663172 ], [ 131.9922139, 33.1713168 ], [ 131.982799799999981, 33.1695454 ], [ 131.982532099999986, 33.164294 ] ] ], [ [ [ 131.5286439, 33.2443214 ], [ 131.523007800000016, 33.2494075 ], [ 131.521076699999981, 33.2485053 ], [ 131.5155461, 33.24776 ], [ 131.509814399999982, 33.25182 ], [ 131.503894699999989, 33.2495447 ], [ 131.5061197, 33.2380211 ], [ 131.5062925, 33.2282828 ], [ 131.503128299999986, 33.2238925 ], [ 131.49936, 33.2279289 ], [ 131.4879225, 33.2304806 ], [ 131.4837872, 33.226222799999988 ], [ 131.476055299999985, 33.2286242 ], [ 131.4670667, 33.2350147 ], [ 131.4635731, 33.2361775 ], [ 131.461121099999986, 33.2424025 ], [ 131.4556883, 33.2424561 ], [ 131.450410799999986, 33.2392942 ], [ 131.4513494, 33.2357069 ], [ 131.441156399999983, 33.2341842 ], [ 131.4389664, 33.2392192 ], [ 131.434438299999982, 33.2386156 ], [ 131.430198599999983, 33.2356072 ], [ 131.4240122, 33.2353811 ], [ 131.415513299999986, 33.2328075 ], [ 131.4087864, 33.2281072 ], [ 131.4038319, 33.22671 ], [ 131.3948256, 33.2285206 ], [ 131.3917836, 33.2304897 ], [ 131.3816717, 33.232958599999989 ], [ 131.378928299999984, 33.2355017 ], [ 131.380257199999988, 33.2428397 ], [ 131.37846829999998, 33.2472169 ], [ 131.383998599999984, 33.25511 ], [ 131.3883156, 33.2568039 ], [ 131.3937022, 33.2641219 ], [ 131.3937111, 33.2695061 ], [ 131.390185, 33.2724453 ], [ 131.390503599999988, 33.2803036 ], [ 131.3949211, 33.2817722 ], [ 131.406292799999989, 33.2824658 ], [ 131.420492199999984, 33.2907428 ], [ 131.418360299999989, 33.2958444 ], [ 131.422889699999985, 33.3086975 ], [ 131.4337114, 33.3178333 ], [ 131.4341867, 33.3234244 ], [ 131.427746899999988, 33.3260189 ], [ 131.4205006, 33.3254603 ], [ 131.412689199999988, 33.3193483 ], [ 131.3992925, 33.3228175 ], [ 131.3990086, 33.3253944 ], [ 131.3878075, 33.3257508 ], [ 131.3820422, 33.3270908 ], [ 131.3746822, 33.3254956 ], [ 131.3749781, 33.3214264 ], [ 131.368009199999989, 33.3164008 ], [ 131.3589092, 33.3154667 ], [ 131.35518, 33.3103289 ], [ 131.350428099999988, 33.3134697 ], [ 131.3362191, 33.3159648 ], [ 131.332676599999985, 33.3175087 ], [ 131.3306019, 33.3133076 ], [ 131.3257825, 33.3113134 ], [ 131.3249447, 33.3079187 ], [ 131.316485299999982, 33.305975599999989 ], [ 131.332495, 33.2949109 ], [ 131.329103299999986, 33.290077 ], [ 131.31136859999998, 33.2728566 ], [ 131.299408, 33.2650883 ], [ 131.295932199999982, 33.2599252 ], [ 131.295074199999988, 33.2498536 ], [ 131.287178899999986, 33.2453153 ], [ 131.2851105, 33.2409914 ], [ 131.2798967, 33.2361809 ], [ 131.269485, 33.2313889 ], [ 131.2736855, 33.2234514 ], [ 131.2816919, 33.2153259 ], [ 131.284033, 33.2091467 ], [ 131.289465700000022, 33.1994703 ], [ 131.29063739999998, 33.1950436 ], [ 131.294785099999984, 33.1962995 ], [ 131.308731199999983, 33.1876606 ], [ 131.3065076, 33.1789736 ], [ 131.301981499999982, 33.181430399999989 ], [ 131.295605099999989, 33.1795594 ], [ 131.3083859, 33.1718941 ], [ 131.3181176, 33.1777893 ], [ 131.323719, 33.1736001 ], [ 131.317182, 33.1684801 ], [ 131.314916499999981, 33.1640712 ], [ 131.3053242, 33.1587452 ], [ 131.3003718, 33.1606347 ], [ 131.288014, 33.1566957 ], [ 131.274879, 33.1486152 ], [ 131.2690106, 33.1431869 ], [ 131.2592956, 33.1365738 ], [ 131.2569895, 33.1232227 ], [ 131.2711237, 33.125141 ], [ 131.2805056, 33.1181511 ], [ 131.2917855, 33.1206616 ], [ 131.310877299999987, 33.1052236 ], [ 131.3185904, 33.1071213 ], [ 131.332311799999985, 33.1090479 ], [ 131.3371076, 33.1048562 ], [ 131.3424501, 33.1069059 ], [ 131.3458134, 33.1054245 ], [ 131.3523968, 33.1061964 ], [ 131.3580562, 33.1113639 ], [ 131.3517574, 33.1167364 ], [ 131.3531735, 33.1194417 ], [ 131.358950199999981, 33.1190403 ], [ 131.365533199999987, 33.1234172 ], [ 131.3699843, 33.1246455 ], [ 131.3746538, 33.1324619 ], [ 131.3766416, 33.1395052 ], [ 131.380895, 33.1439844 ], [ 131.387924200000015, 33.1455946 ], [ 131.3909215, 33.1519376 ], [ 131.400376699999981, 33.1513419 ], [ 131.406662, 33.153095 ], [ 131.4168853, 33.153955 ], [ 131.4237153, 33.1533333 ], [ 131.428773399999983, 33.1495028 ], [ 131.435095599999983, 33.1491003 ], [ 131.441011700000018, 33.1512703 ], [ 131.4478675, 33.1500309 ], [ 131.453578, 33.1458389 ], [ 131.4579747, 33.1389062 ], [ 131.4602108, 33.147463699999989 ], [ 131.4666327, 33.1459202 ], [ 131.4733219, 33.1534466 ], [ 131.4853853, 33.159977499999989 ], [ 131.4897011, 33.1604278 ], [ 131.489845799999983, 33.1659017 ], [ 131.504115, 33.1685525 ], [ 131.5044914, 33.1724736 ], [ 131.5082008, 33.1792503 ], [ 131.5122481, 33.1819339 ], [ 131.5201664, 33.1911267 ], [ 131.5294453, 33.1950478 ], [ 131.5360781, 33.1992081 ], [ 131.5323214, 33.2041347 ], [ 131.5376767, 33.2090297 ], [ 131.5325244, 33.2157981 ], [ 131.537873599999983, 33.2265303 ], [ 131.5364817, 33.2306281 ], [ 131.5375894, 33.2368631 ], [ 131.542810799999984, 33.2371556 ], [ 131.5406089, 33.2434875 ], [ 131.5366147, 33.2449886 ], [ 131.5286439, 33.2443214 ] ] ] ] } },
{ "type": "Feature", "properties": { "hokenjo": "東部" }, "geometry": { "type": "MultiPolygon", "coordinates": [ [ [ [ 131.4973956, 33.3393867 ], [ 131.496416, 33.3463525 ], [ 131.4985213, 33.3500889 ], [ 131.498907, 33.3603115 ], [ 131.5059769, 33.3615608 ], [ 131.5228464, 33.3674374 ], [ 131.5389494, 33.3654623 ], [ 131.5431798, 33.3580399 ], [ 131.5433306, 33.3548979 ], [ 131.5527017, 33.3497564 ], [ 131.5620185, 33.3520944 ], [ 131.5748974, 33.3483382 ], [ 131.5849628, 33.346721 ], [ 131.5907128, 33.3472797 ], [ 131.596861499999989, 33.3497763 ], [ 131.598902899999985, 33.3595956 ], [ 131.5958546, 33.3631375 ], [ 131.5980654, 33.370097 ], [ 131.6022556, 33.3712782 ], [ 131.614460399999984, 33.3710827 ], [ 131.6170292, 33.3721003 ], [ 131.622870799999987, 33.3746539 ], [ 131.6341128, 33.3735417 ], [ 131.6366425, 33.3757978 ], [ 131.644052499999987, 33.3753331 ], [ 131.646353299999987, 33.3826922 ], [ 131.6466361, 33.3923169 ], [ 131.6381386, 33.3988806 ], [ 131.637428699999987, 33.4064551 ], [ 131.6271189, 33.4110131 ], [ 131.629161399999987, 33.4140697 ], [ 131.6346242, 33.4158128 ], [ 131.6355764, 33.4233939 ], [ 131.6408999, 33.4213126 ], [ 131.6534728, 33.4198161 ], [ 131.6559227, 33.423017 ], [ 131.660393699999986, 33.4226191 ], [ 131.671587, 33.4172179 ], [ 131.6715273, 33.4126899 ], [ 131.6811156, 33.4094119 ], [ 131.6864736, 33.4061811 ], [ 131.691642699999989, 33.4053503 ], [ 131.7013619, 33.4059514 ], [ 131.703744199999988, 33.4093761 ], [ 131.705823899999984, 33.4243311 ], [ 131.7098336, 33.4354222 ], [ 131.7134685, 33.4420368 ], [ 131.718751699999984, 33.4479844 ], [ 131.7222806, 33.4508906 ], [ 131.7227306, 33.4564839 ], [ 131.7271658, 33.466096199999988 ], [ 131.738642199999987, 33.4649522 ], [ 131.7389303, 33.4939442 ], [ 131.7305187, 33.4914967 ], [ 131.729062199999987, 33.500917199999989 ], [ 131.73234, 33.5166481 ], [ 131.7391218, 33.5349642 ], [ 131.742607599999985, 33.5372544 ], [ 131.74442209999998, 33.5432191 ], [ 131.740852700000033, 33.5463961 ], [ 131.7400648, 33.5627819 ], [ 131.7363851, 33.5667316 ], [ 131.7326253, 33.5747198 ], [ 131.733652399999983, 33.5808119 ], [ 131.7299874, 33.5875862 ], [ 131.7253882, 33.5887825 ], [ 131.7145031, 33.6045292 ], [ 131.7073145, 33.6048747 ], [ 131.7010314, 33.61388 ], [ 131.6973911, 33.6286856 ], [ 131.6956403, 33.6306878 ], [ 131.6931118, 33.6399754 ], [ 131.689412, 33.6415891 ], [ 131.684028399999988, 33.6396182 ], [ 131.6740247, 33.649812 ], [ 131.6712421, 33.6576003 ], [ 131.6664499, 33.6601997 ], [ 131.6672781, 33.6636389 ], [ 131.66080310000001, 33.6697953 ], [ 131.6542342, 33.6662917 ], [ 131.6516411, 33.6605948 ], [ 131.6470366, 33.6628757 ], [ 131.6462081, 33.6671367 ], [ 131.648170099999987, 33.6712099 ], [ 131.642937, 33.6727376 ], [ 131.6357103, 33.6822708 ], [ 131.6305097, 33.6793811 ], [ 131.63019749999998, 33.67432 ], [ 131.6245528, 33.6743517 ], [ 131.6202585, 33.680637 ], [ 131.6178799, 33.6767363 ], [ 131.612534899999986, 33.6765465 ], [ 131.6072352, 33.6786349 ], [ 131.6075161, 33.6869033 ], [ 131.601745199999982, 33.6855829 ], [ 131.5938746, 33.6869198 ], [ 131.5863975, 33.6922311 ], [ 131.5818231, 33.6920581 ], [ 131.5735507, 33.6867539 ], [ 131.5733539, 33.6804808 ], [ 131.575509899999986, 33.6750667 ], [ 131.5663396, 33.6747387 ], [ 131.5615856, 33.6864469 ], [ 131.5553439, 33.6856572 ], [ 131.54798, 33.678623 ], [ 131.544504700000033, 33.6773325 ], [ 131.5493983, 33.6672225 ], [ 131.54905, 33.6623461 ], [ 131.5519358, 33.650185 ], [ 131.5568231, 33.6450819 ], [ 131.5546119, 33.6423067 ], [ 131.55772170000003, 33.6369342 ], [ 131.5579583, 33.6306833 ], [ 131.5562239, 33.6269322 ], [ 131.56879, 33.6185192 ], [ 131.575985299999985, 33.61719 ], [ 131.578452199999987, 33.6137925 ], [ 131.57509109999998, 33.6067408 ], [ 131.5722525, 33.6039589 ], [ 131.5738997, 33.5939614 ], [ 131.5778578, 33.5911372 ], [ 131.579765, 33.58344 ], [ 131.58567, 33.582575 ], [ 131.588931699999989, 33.5841108 ], [ 131.5962903, 33.5774689 ], [ 131.591659199999981, 33.5612 ], [ 131.5889522, 33.5586767 ], [ 131.5863397, 33.5594792 ], [ 131.576855599999988, 33.5562969 ], [ 131.570279699999986, 33.5497297 ], [ 131.56454309999998, 33.5476997 ], [ 131.5589386, 33.5403808 ], [ 131.5541333, 33.5368081 ], [ 131.5540972, 33.5330431 ], [ 131.5466164, 33.5197028 ], [ 131.5372061, 33.5053558 ], [ 131.531734699999987, 33.5018639 ], [ 131.530536399999988, 33.4970789 ], [ 131.5333033, 33.4913153 ], [ 131.5354931, 33.4771122 ], [ 131.528203599999983, 33.4776742 ], [ 131.523, 33.4753042 ], [ 131.514750599999985, 33.4800767 ], [ 131.5059536, 33.4807825 ], [ 131.5061244, 33.4838533 ], [ 131.498737799999986, 33.4888322 ], [ 131.4939761, 33.4898281 ], [ 131.490153599999985, 33.4931019 ], [ 131.4834864, 33.4934728 ], [ 131.4735422, 33.5045017 ], [ 131.4650844, 33.5057811 ], [ 131.463220299999989, 33.5081939 ], [ 131.4575183, 33.5088833 ], [ 131.450227499999983, 33.5191942 ], [ 131.4484775, 33.5273139 ], [ 131.4443047, 33.52431 ], [ 131.4353219, 33.5223108 ], [ 131.428474199999982, 33.5184533 ], [ 131.4330975, 33.5150731 ], [ 131.433827799999989, 33.5105319 ], [ 131.438887199999982, 33.5097247 ], [ 131.4385536, 33.5004906 ], [ 131.4264195, 33.5045837 ], [ 131.4222058, 33.5047011 ], [ 131.417773899999986, 33.4988128 ], [ 131.411668599999985, 33.4970403 ], [ 131.406806099999983, 33.4850192 ], [ 131.4119483, 33.4821594 ], [ 131.4142558, 33.4768447 ], [ 131.4209397, 33.4751536 ], [ 131.425306899999981, 33.4689122 ], [ 131.423818899999986, 33.4629989 ], [ 131.4289461, 33.4519739 ], [ 131.4271142, 33.4480381 ], [ 131.431735, 33.4443311 ], [ 131.4331306, 33.4351208 ], [ 131.4280631, 33.4312603 ], [ 131.429448899999983, 33.4244406 ], [ 131.424583899999988, 33.4199533 ], [ 131.424731899999983, 33.4157161 ], [ 131.4174017, 33.4128264 ], [ 131.4198533, 33.4013528 ], [ 131.413554399999981, 33.3981864 ], [ 131.411478099999982, 33.3905983 ], [ 131.4060681, 33.3813203 ], [ 131.4075853, 33.3758681 ], [ 131.42525, 33.3727475 ], [ 131.430868100000026, 33.3649131 ], [ 131.432948100000033, 33.3573031 ], [ 131.4272717, 33.3542931 ], [ 131.4190208, 33.3520069 ], [ 131.4162814, 33.3493333 ], [ 131.412466099999989, 33.3485594 ], [ 131.407084699999984, 33.3510367 ], [ 131.401219699999984, 33.3500364 ], [ 131.4027214, 33.3434606 ], [ 131.3991153, 33.3405086 ], [ 131.400489199999981, 33.3376025 ], [ 131.396853599999986, 33.3336597 ], [ 131.3990086, 33.3253944 ], [ 131.3992925, 33.3228175 ], [ 131.412689199999988, 33.3193483 ], [ 131.4205006, 33.3254603 ], [ 131.427746899999988, 33.3260189 ], [ 131.4341867, 33.3234244 ], [ 131.4337114, 33.3178333 ], [ 131.422889699999985, 33.3086975 ], [ 131.418360299999989, 33.2958444 ], [ 131.420492199999984, 33.2907428 ], [ 131.406292799999989, 33.2824658 ], [ 131.3949211, 33.2817722 ], [ 131.390503599999988, 33.2803036 ], [ 131.390185, 33.2724453 ], [ 131.3937111, 33.2695061 ], [ 131.3937022, 33.2641219 ], [ 131.3883156, 33.2568039 ], [ 131.383998599999984, 33.25511 ], [ 131.37846829999998, 33.2472169 ], [ 131.380257199999988, 33.2428397 ], [ 131.378928299999984, 33.2355017 ], [ 131.3816717, 33.232958599999989 ], [ 131.3917836, 33.2304897 ], [ 131.3948256, 33.2285206 ], [ 131.4038319, 33.22671 ], [ 131.4087864, 33.2281072 ], [ 131.415513299999986, 33.2328075 ], [ 131.4240122, 33.2353811 ], [ 131.430198599999983, 33.2356072 ], [ 131.434438299999982, 33.2386156 ], [ 131.4389664, 33.2392192 ], [ 131.441156399999983, 33.2341842 ], [ 131.4513494, 33.2357069 ], [ 131.450410799999986, 33.2392942 ], [ 131.4556883, 33.2424561 ], [ 131.461121099999986, 33.2424025 ], [ 131.4635731, 33.2361775 ], [ 131.4670667, 33.2350147 ], [ 131.476055299999985, 33.2286242 ], [ 131.4837872, 33.226222799999988 ], [ 131.4879225, 33.2304806 ], [ 131.49936, 33.2279289 ], [ 131.503128299999986, 33.2238925 ], [ 131.5062925, 33.2282828 ], [ 131.5061197, 33.2380211 ], [ 131.503894699999989, 33.2495447 ], [ 131.509814399999982, 33.25182 ], [ 131.5155461, 33.24776 ], [ 131.521076699999981, 33.2485053 ], [ 131.5163197, 33.2541917 ], [ 131.5160769, 33.2602733 ], [ 131.517811099999989, 33.2653512 ], [ 131.5126232, 33.267488 ], [ 131.5084106, 33.2752937 ], [ 131.5031645, 33.3012875 ], [ 131.504241399999984, 33.3100788 ], [ 131.4959546, 33.3298021 ], [ 131.4973956, 33.3393867 ] ] ], [ [ [ 131.6842656, 33.7341923 ], [ 131.6832187, 33.7368414 ], [ 131.6715403, 33.73879 ], [ 131.667474700000014, 33.7402133 ], [ 131.6614097, 33.736701 ], [ 131.6549267, 33.7301646 ], [ 131.645192399999985, 33.7304583 ], [ 131.63809329999998, 33.7234828 ], [ 131.631203699999986, 33.7207421 ], [ 131.633187, 33.716796 ], [ 131.646143099999989, 33.7216719 ], [ 131.658136400000018, 33.7212614 ], [ 131.6657224, 33.7168268 ], [ 131.670745, 33.718164 ], [ 131.6761256, 33.725429399999989 ], [ 131.6850048, 33.7282282 ], [ 131.6903821, 33.7323668 ], [ 131.6842656, 33.7341923 ] ] ] ] } },
{ "type": "Feature", "properties": { "hokenjo": "南部" }, "geometry": { "type": "MultiPolygon", "coordinates": [ [ [ [ 131.9312008, 32.7216501 ], [ 131.927089099999989, 32.7269685 ], [ 131.9232374, 32.7242963 ], [ 131.921387399999986, 32.7198005 ], [ 131.92588, 32.7144681 ], [ 131.9296602, 32.7170803 ], [ 131.9312008, 32.7216501 ] ] ], [ [ [ 131.9157892, 32.7766467 ], [ 131.9087897, 32.7805744 ], [ 131.9107764, 32.7745739 ], [ 131.9079233, 32.7714025 ], [ 131.9112637, 32.769067 ], [ 131.9233975, 32.7698045 ], [ 131.923289399999987, 32.7752411 ], [ 131.9157892, 32.7766467 ] ] ], [ [ [ 131.4818937, 32.8389252 ], [ 131.475144799999981, 32.837228 ], [ 131.483779, 32.8251641 ], [ 131.4934489, 32.8158467 ], [ 131.5032453, 32.8136881 ], [ 131.501995, 32.8104958 ], [ 131.5077589, 32.8058167 ], [ 131.51746559999998, 32.8008042 ], [ 131.513525, 32.7922581 ], [ 131.5107725, 32.7901058 ], [ 131.5082414, 32.7814719 ], [ 131.510196899999983, 32.7777269 ], [ 131.50852, 32.7741875 ], [ 131.512085, 32.7696983 ], [ 131.5183381, 32.7676558 ], [ 131.5241019, 32.7638439 ], [ 131.532610799999986, 32.7628639 ], [ 131.5363236, 32.7588581 ], [ 131.5471736, 32.7582111 ], [ 131.555502499999989, 32.7553828 ], [ 131.56537, 32.7555139 ], [ 131.568917199999987, 32.7541639 ], [ 131.5792114, 32.7609808 ], [ 131.587982200000027, 32.7704489 ], [ 131.590067799999986, 32.7741261 ], [ 131.5966444, 32.7751339 ], [ 131.6007622, 32.77223 ], [ 131.605455, 32.7738961 ], [ 131.6179167, 32.7731086 ], [ 131.6253319, 32.7745186 ], [ 131.629752199999984, 32.7718025 ], [ 131.6406781, 32.7703394 ], [ 131.6482897, 32.7717494 ], [ 131.6608817, 32.7691492 ], [ 131.6763025, 32.7683756 ], [ 131.6792692, 32.7699881 ], [ 131.6910136, 32.7718397 ], [ 131.696263099999982, 32.7746503 ], [ 131.7068789, 32.7716122 ], [ 131.712469699999986, 32.7735428 ], [ 131.715398599999986, 32.7801692 ], [ 131.7151294, 32.7853369 ], [ 131.718303599999984, 32.7908656 ], [ 131.7279447, 32.7973722 ], [ 131.7310908, 32.8159347 ], [ 131.734665, 32.8180394 ], [ 131.736540599999984, 32.8255081 ], [ 131.735728099999989, 32.8311017 ], [ 131.7413333, 32.8342922 ], [ 131.747361399999988, 32.8331003 ], [ 131.75406719999998, 32.83642 ], [ 131.768813099999988, 32.8369292 ], [ 131.7872722, 32.833645 ], [ 131.7877992, 32.8279311 ], [ 131.7939006, 32.8219453 ], [ 131.7981517, 32.8248911 ], [ 131.806660599999987, 32.8221503 ], [ 131.8141539, 32.8263708 ], [ 131.824503099999987, 32.8298722 ], [ 131.825974699999989, 32.8262953 ], [ 131.8316242, 32.8235289 ], [ 131.834499699999981, 32.8196978 ], [ 131.840935, 32.8199139 ], [ 131.8481492, 32.8178467 ], [ 131.855088099999989, 32.8231678 ], [ 131.858796899999987, 32.8214367 ], [ 131.860078099999981, 32.8060706 ], [ 131.8536469, 32.7982353 ], [ 131.8544536, 32.7960725 ], [ 131.8493092, 32.79043 ], [ 131.848523299999982, 32.7831078 ], [ 131.844335299999983, 32.7769231 ], [ 131.8460747, 32.7738892 ], [ 131.846902199999988, 32.7662808 ], [ 131.848988099999985, 32.7645033 ], [ 131.849805299999986, 32.755958299999989 ], [ 131.8441239, 32.7476556 ], [ 131.8465736, 32.7421914 ], [ 131.8470092, 32.73593 ], [ 131.8579703, 32.7376608 ], [ 131.8614967, 32.7401914 ], [ 131.873544400000014, 32.7404481 ], [ 131.8823544, 32.745315 ], [ 131.88275, 32.7497677 ], [ 131.87384, 32.7491658 ], [ 131.8716675, 32.7518256 ], [ 131.876272, 32.754861399999989 ], [ 131.8764739, 32.7588983 ], [ 131.8797093, 32.7622891 ], [ 131.875067199999989, 32.76849 ], [ 131.8716873, 32.7693653 ], [ 131.8685166, 32.7748252 ], [ 131.8761338, 32.7789336 ], [ 131.876419699999985, 32.7823453 ], [ 131.873013499999985, 32.7860082 ], [ 131.8746983, 32.7904207 ], [ 131.880268199999989, 32.7909825 ], [ 131.884066099999984, 32.7806519 ], [ 131.888925, 32.7767189 ], [ 131.8946578, 32.7788706 ], [ 131.885391699999985, 32.7900179 ], [ 131.888614499999989, 32.8032997 ], [ 131.899584399999981, 32.802163299999989 ], [ 131.9002798, 32.7947907 ], [ 131.8947589, 32.7884761 ], [ 131.902711899999986, 32.7849333 ], [ 131.906455699999981, 32.7931409 ], [ 131.9119317, 32.7918342 ], [ 131.912811399999981, 32.7885333 ], [ 131.9199111, 32.7855311 ], [ 131.919920499999989, 32.7914792 ], [ 131.9171959, 32.7955051 ], [ 131.9205953, 32.8000188 ], [ 131.9252644, 32.8010651 ], [ 131.9234687, 32.7942057 ], [ 131.927081099999981, 32.791319699999988 ], [ 131.9292075, 32.7860311 ], [ 131.936423599999983, 32.7844447 ], [ 131.943638099999987, 32.7899099 ], [ 131.9486827, 32.7968754 ], [ 131.9461983, 32.8041567 ], [ 131.9476981, 32.8065394 ], [ 131.954170299999987, 32.8081281 ], [ 131.960749400000026, 32.80681 ], [ 131.9662203, 32.8022112 ], [ 131.9632033, 32.7943122 ], [ 131.9714956, 32.7918061 ], [ 131.976147199999986, 32.7947433 ], [ 131.9764544, 32.7995844 ], [ 131.971795, 32.8025864 ], [ 131.976453900000024, 32.8084611 ], [ 131.983965, 32.8122725 ], [ 131.9860919, 32.8161322 ], [ 131.9904042, 32.8184967 ], [ 132.0019825, 32.8223217 ], [ 132.007867799999985, 32.8267556 ], [ 132.0105739, 32.8338522 ], [ 132.0079575, 32.8368544 ], [ 131.9978025, 32.8382169 ], [ 131.9864397, 32.8461308 ], [ 131.980128899999983, 32.8447584 ], [ 131.9760181, 32.8412806 ], [ 131.9832891, 32.836592 ], [ 131.987504299999983, 32.831316 ], [ 131.9819709, 32.825 ], [ 131.9777454, 32.8248759 ], [ 131.9756716, 32.8284279 ], [ 131.9702031, 32.8308209 ], [ 131.9646622, 32.8203407 ], [ 131.961608600000034, 32.8209811 ], [ 131.9594219, 32.8286892 ], [ 131.9599039, 32.8334296 ], [ 131.957018, 32.8367744 ], [ 131.9490097, 32.8339517 ], [ 131.94420359999998, 32.8346599 ], [ 131.9532597, 32.8403028 ], [ 131.9541878, 32.8452373 ], [ 131.9494904, 32.8506462 ], [ 131.9496816, 32.855012 ], [ 131.9617328, 32.8469186 ], [ 131.971755299999984, 32.8567186 ], [ 131.9753714, 32.856865 ], [ 131.975992, 32.8635449 ], [ 131.9788536, 32.8672289 ], [ 131.9831843, 32.8626345 ], [ 131.986572199999983, 32.8655019 ], [ 131.9866453, 32.8702842 ], [ 131.9915294, 32.8730836 ], [ 131.9953592, 32.8778011 ], [ 132.0006967, 32.8786292 ], [ 132.000689699999981, 32.8854278 ], [ 132.0054936, 32.8891375 ], [ 132.0124117, 32.8908575 ], [ 132.0119178, 32.8934372 ], [ 132.0046058, 32.8912797 ], [ 131.9986706, 32.8948039 ], [ 131.9975464, 32.8979909 ], [ 131.988909799999988, 32.8901291 ], [ 131.9856292, 32.890897 ], [ 131.987955299999982, 32.8980146 ], [ 131.9844555, 32.89955 ], [ 131.98537, 32.906653399999989 ], [ 131.9840996, 32.9134852 ], [ 131.9792511, 32.9216705 ], [ 131.9945545, 32.9210264 ], [ 131.9934541, 32.9148636 ], [ 131.998887199999984, 32.9097753 ], [ 132.004024, 32.9096052 ], [ 132.0098025, 32.9058339 ], [ 132.00847109999998, 32.9214917 ], [ 132.0119569, 32.9247583 ], [ 132.0155761, 32.923705 ], [ 132.0179267, 32.9310781 ], [ 132.023681899999985, 32.9317144 ], [ 132.0260671, 32.9354116 ], [ 132.0350622, 32.9369133 ], [ 132.0409852, 32.933853 ], [ 132.0395633, 32.9272711 ], [ 132.044919199999981, 32.9261844 ], [ 132.0495195, 32.9321495 ], [ 132.0468507, 32.9362958 ], [ 132.058409399999988, 32.9361858 ], [ 132.0633099, 32.9344967 ], [ 132.067964599999982, 32.9368578 ], [ 132.076085800000016, 32.9314514 ], [ 132.084548399999989, 32.9316321 ], [ 132.082216099999982, 32.9365378 ], [ 132.082040799999987, 32.9432361 ], [ 132.075257, 32.9441229 ], [ 132.0711344, 32.9480011 ], [ 132.067572, 32.9462743 ], [ 132.059010799999982, 32.9454817 ], [ 132.0541481, 32.9473504 ], [ 132.0440427, 32.9471094 ], [ 132.033682199999987, 32.9523742 ], [ 132.034182099999981, 32.9398418 ], [ 132.026025, 32.938358 ], [ 132.022685, 32.9403094 ], [ 132.016828299999986, 32.9355916 ], [ 132.0100452, 32.9327403 ], [ 132.006701099999987, 32.9354606 ], [ 131.9971291, 32.9377268 ], [ 131.9999742, 32.9448609 ], [ 131.9975389, 32.9493151 ], [ 132.003676399999989, 32.9545081 ], [ 132.0024661, 32.9592025 ], [ 131.9971689, 32.9535444 ], [ 131.992809400000027, 32.9540042 ], [ 131.992158400000022, 32.9455405 ], [ 131.985728199999983, 32.9429499 ], [ 131.9818022, 32.9393963 ], [ 131.9771833, 32.9412081 ], [ 131.971907499999986, 32.9463892 ], [ 131.9736103, 32.950365 ], [ 131.963160599999981, 32.953829 ], [ 131.9647694, 32.9487921 ], [ 131.9593635, 32.9464009 ], [ 131.946075799999988, 32.9599439 ], [ 131.9448539, 32.9553425 ], [ 131.936653799999988, 32.953890799999989 ], [ 131.935527, 32.9617643 ], [ 131.923797799999988, 32.9648105 ], [ 131.926605400000028, 32.9728976 ], [ 131.9181653, 32.9760365 ], [ 131.916393299999982, 32.9700684 ], [ 131.912196, 32.9743182 ], [ 131.9045202, 32.9783868 ], [ 131.9016293, 32.9820856 ], [ 131.8960564, 32.9830675 ], [ 131.8981619, 32.9883841 ], [ 131.8930766, 32.9884984 ], [ 131.889621, 32.991809 ], [ 131.897746, 32.9988356 ], [ 131.9034925, 32.9923529 ], [ 131.9080732, 33.0000883 ], [ 131.9011004, 33.0101614 ], [ 131.906496, 33.0143245 ], [ 131.9129666, 33.0212962 ], [ 131.9192208, 33.0255848 ], [ 131.921557899999982, 33.0325612 ], [ 131.920441399999987, 33.0383536 ], [ 131.921542499999987, 33.0449313 ], [ 131.9260961, 33.0476808 ], [ 131.9277869, 33.0514489 ], [ 131.9317828, 33.0531577 ], [ 131.936805, 33.0483797 ], [ 131.9427326, 33.053772 ], [ 131.9497796, 33.0498847 ], [ 131.956478299999986, 33.0514275 ], [ 131.9640857, 33.0480341 ], [ 131.9740151, 33.0464437 ], [ 131.980316500000015, 33.046608299999988 ], [ 131.9857969, 33.0487867 ], [ 131.9880109, 33.0536773 ], [ 131.9958885, 33.0564456 ], [ 132.002296699999988, 33.0542897 ], [ 132.014534500000025, 33.0571874 ], [ 132.0147561, 33.0612583 ], [ 132.006723599999987, 33.0607614 ], [ 132.0025694, 33.0699233 ], [ 131.9958375, 33.0659231 ], [ 131.987889199999984, 33.0641003 ], [ 131.9871656, 33.0603172 ], [ 131.972645799999981, 33.0534961 ], [ 131.967728599999987, 33.0545325 ], [ 131.964183099999985, 33.0584169 ], [ 131.957054199999988, 33.0616542 ], [ 131.950733899999989, 33.0584314 ], [ 131.9442769, 33.0623144 ], [ 131.9377303, 33.0644686 ], [ 131.9285011, 33.0619528 ], [ 131.918326399999984, 33.0566828 ], [ 131.9075353, 33.0564775 ], [ 131.899473299999983, 33.0516117 ], [ 131.889612199999988, 33.0416367 ], [ 131.8834281, 33.0412303 ], [ 131.8621717, 33.0422636 ], [ 131.851038100000011, 33.0417319 ], [ 131.84595969999998, 33.0390736 ], [ 131.8399106, 33.0380806 ], [ 131.83458109999998, 33.0394986 ], [ 131.8220097, 33.0289811 ], [ 131.8148656, 33.0330714 ], [ 131.812955599999981, 33.0318439 ], [ 131.8039178, 33.0324542 ], [ 131.7999825, 33.0346053 ], [ 131.7900139, 33.0344428 ], [ 131.7925267, 33.0266478 ], [ 131.7852311, 33.0224444 ], [ 131.781319199999984, 33.0107056 ], [ 131.7744447, 33.0033783 ], [ 131.777405, 32.9987203 ], [ 131.77476249999998, 32.9921572 ], [ 131.777358099999987, 32.9904958 ], [ 131.7827069, 32.9790808 ], [ 131.7762392, 32.9785864 ], [ 131.774320800000027, 32.9760617 ], [ 131.7608286, 32.9698992 ], [ 131.7580844, 32.9673539 ], [ 131.751277499999986, 32.9717858 ], [ 131.7464239, 32.9689889 ], [ 131.741912499999984, 32.9697744 ], [ 131.734035299999988, 32.9679708 ], [ 131.7265697, 32.9682736 ], [ 131.721213299999988, 32.9703736 ], [ 131.713928899999985, 32.9692708 ], [ 131.701740299999983, 32.9652925 ], [ 131.6972458, 32.9622019 ], [ 131.694035, 32.9575144 ], [ 131.689528599999989, 32.9583522 ], [ 131.6850264, 32.9560747 ], [ 131.68116329999998, 32.9514278 ], [ 131.6772542, 32.952265 ], [ 131.6705732, 32.9508033 ], [ 131.6661483, 32.9520644 ], [ 131.659166, 32.9602755 ], [ 131.6439327, 32.9516533 ], [ 131.6444304, 32.948378 ], [ 131.6397093, 32.943358 ], [ 131.6389485, 32.9399744 ], [ 131.630785400000036, 32.9416224 ], [ 131.6190571, 32.930596 ], [ 131.6194932, 32.9265697 ], [ 131.6259954, 32.9282708 ], [ 131.629389, 32.9192858 ], [ 131.623524299999985, 32.9169505 ], [ 131.621913399999983, 32.9222847 ], [ 131.6148609, 32.9240202 ], [ 131.6091423, 32.9223049 ], [ 131.612258200000014, 32.9110452 ], [ 131.6069985, 32.9056941 ], [ 131.6069249, 32.8987083 ], [ 131.604921200000035, 32.8954683 ], [ 131.6001162, 32.8951905 ], [ 131.595132299999989, 32.8906527 ], [ 131.5905898, 32.8924219 ], [ 131.5895587, 32.8847808 ], [ 131.590544599999987, 32.8812683 ], [ 131.5818468, 32.8790086 ], [ 131.5642795, 32.884368 ], [ 131.5516898, 32.878495799999989 ], [ 131.549012299999987, 32.8753344 ], [ 131.5411825, 32.8712324 ], [ 131.5384334, 32.8646558 ], [ 131.5269556, 32.8597041 ], [ 131.5224723, 32.8560316 ], [ 131.514238399999982, 32.8538147 ], [ 131.502777, 32.8531947 ], [ 131.4996209, 32.8506016 ], [ 131.4941403, 32.8505949 ], [ 131.490147, 32.8454485 ], [ 131.4842703, 32.8427072 ], [ 131.4818937, 32.8389252 ] ] ], [ [ [ 132.078115, 32.9686986 ], [ 132.0804209, 32.970173599999988 ], [ 132.075, 32.9774782 ], [ 132.0762714, 32.974022 ], [ 132.0731754, 32.9715351 ], [ 132.073549899999989, 32.9679586 ], [ 132.067304399999983, 32.9644229 ], [ 132.0671803, 32.9588553 ], [ 132.0711503, 32.9551581 ], [ 132.076884399999983, 32.9591967 ], [ 132.079715599999986, 32.9636267 ], [ 132.078115, 32.9686986 ] ] ], [ [ [ 131.9418336, 33.0109981 ], [ 131.9437853, 33.0154361 ], [ 131.9353463, 33.0160451 ], [ 131.9297694, 33.0163066 ], [ 131.9235112, 33.0116975 ], [ 131.924801299999984, 32.9999952 ], [ 131.9191696, 32.9948511 ], [ 131.9130647, 32.9922925 ], [ 131.910588, 32.9894949 ], [ 131.911941499999983, 32.9840052 ], [ 131.9168215, 32.9813889 ], [ 131.924872199999982, 32.9822679 ], [ 131.9310654, 32.9903093 ], [ 131.9346994, 32.991098 ], [ 131.943187199999983, 32.9967256 ], [ 131.9406386, 32.9988492 ], [ 131.9334533, 32.9984433 ], [ 131.931209599999988, 33.0017649 ], [ 131.9367526, 33.0075421 ], [ 131.938127399999985, 33.0126088 ], [ 131.9418336, 33.0109981 ] ] ] ] } },
{ "type": "Feature", "properties": { "hokenjo": "豊肥" }, "geometry": { "type": "MultiPolygon", "coordinates": [ [ [ [ 131.418734199999989, 33.0920588 ], [ 131.418853400000017, 33.0957366 ], [ 131.4284726, 33.1009104 ], [ 131.433647399999984, 33.1088254 ], [ 131.430847699999987, 33.1132956 ], [ 131.4346916, 33.1196351 ], [ 131.4288602, 33.1234117 ], [ 131.4274747, 33.1276653 ], [ 131.4298775, 33.1315694 ], [ 131.438641099999984, 33.1353406 ], [ 131.4439233, 33.1426214 ], [ 131.4530839, 33.1429584 ], [ 131.4579747, 33.1389062 ], [ 131.453578, 33.1458389 ], [ 131.4478675, 33.1500309 ], [ 131.441011700000018, 33.1512703 ], [ 131.435095599999983, 33.1491003 ], [ 131.428773399999983, 33.1495028 ], [ 131.4237153, 33.1533333 ], [ 131.4168853, 33.153955 ], [ 131.406662, 33.153095 ], [ 131.400376699999981, 33.1513419 ], [ 131.3909215, 33.1519376 ], [ 131.387924200000015, 33.1455946 ], [ 131.380895, 33.1439844 ], [ 131.3766416, 33.1395052 ], [ 131.3746538, 33.1324619 ], [ 131.3699843, 33.1246455 ], [ 131.365533199999987, 33.1234172 ], [ 131.358950199999981, 33.1190403 ], [ 131.3531735, 33.1194417 ], [ 131.3517574, 33.1167364 ], [ 131.3580562, 33.1113639 ], [ 131.3523968, 33.1061964 ], [ 131.3458134, 33.1054245 ], [ 131.3424501, 33.1069059 ], [ 131.3371076, 33.1048562 ], [ 131.332311799999985, 33.1090479 ], [ 131.3185904, 33.1071213 ], [ 131.310877299999987, 33.1052236 ], [ 131.2917855, 33.1206616 ], [ 131.2805056, 33.1181511 ], [ 131.2711237, 33.125141 ], [ 131.2569895, 33.1232227 ], [ 131.2532642, 33.1220149 ], [ 131.2536234, 33.1112646 ], [ 131.2467859, 33.105823 ], [ 131.2416373, 33.0961727 ], [ 131.2376289, 33.0932311 ], [ 131.2367534, 33.0894661 ], [ 131.2257797, 33.0864745 ], [ 131.2224717, 33.0884209 ], [ 131.205039199999987, 33.0904629 ], [ 131.200113099999982, 33.0877307 ], [ 131.19856009999998, 33.083436 ], [ 131.193134, 33.0776485 ], [ 131.1986373, 33.0733735 ], [ 131.1965487, 33.0707682 ], [ 131.209817, 33.0578462 ], [ 131.216724199999987, 33.0534578 ], [ 131.2159945, 33.0510627 ], [ 131.2196524, 33.0391587 ], [ 131.2211859, 33.0299473 ], [ 131.225569399999983, 33.0237088 ], [ 131.2236249, 33.0171643 ], [ 131.2284287, 33.011812 ], [ 131.2353233, 33.0085242 ], [ 131.240505399999989, 33.000391 ], [ 131.2477112, 32.9952385 ], [ 131.2461625, 32.9885893 ], [ 131.247226899999987, 32.982438699999989 ], [ 131.256708, 32.9803584 ], [ 131.263213799999988, 32.977152 ], [ 131.2609074, 32.9694625 ], [ 131.2560004, 32.9634414 ], [ 131.246474299999988, 32.9619253 ], [ 131.2460781, 32.9587192 ], [ 131.2517717, 32.9568992 ], [ 131.2471923, 32.9532503 ], [ 131.2484081, 32.9479255 ], [ 131.2526291, 32.9464577 ], [ 131.245992699999988, 32.9403143 ], [ 131.2482048, 32.931481 ], [ 131.2529796, 32.9245116 ], [ 131.25303839999998, 32.9106794 ], [ 131.2544801, 32.9074344 ], [ 131.253220299999981, 32.89804 ], [ 131.257385600000021, 32.8874309 ], [ 131.263838199999981, 32.879396199999988 ], [ 131.273446299999989, 32.8816076 ], [ 131.2716227, 32.8769276 ], [ 131.2734369, 32.8709963 ], [ 131.279451099999989, 32.8699655 ], [ 131.2945056, 32.8569964 ], [ 131.3101565, 32.8528339 ], [ 131.322454, 32.8441553 ], [ 131.3231001, 32.8406533 ], [ 131.327483799999982, 32.8367155 ], [ 131.3286582, 32.832868 ], [ 131.3402691, 32.8334402 ], [ 131.3470592, 32.827973 ], [ 131.349784799999981, 32.8243546 ], [ 131.3506276, 32.8169127 ], [ 131.348635299999984, 32.8106821 ], [ 131.3564352, 32.8050268 ], [ 131.3639052, 32.8033585 ], [ 131.3782845, 32.8094706 ], [ 131.383930099999986, 32.8090104 ], [ 131.388700699999987, 32.811782 ], [ 131.394823, 32.8110784 ], [ 131.4002227, 32.8134882 ], [ 131.405656, 32.8121707 ], [ 131.4160446, 32.8132624 ], [ 131.421208799999988, 32.811916 ], [ 131.4255355, 32.8163582 ], [ 131.431271, 32.8183691 ], [ 131.436969900000037, 32.8286261 ], [ 131.443572599999982, 32.8300319 ], [ 131.4542262, 32.8290161 ], [ 131.463167299999981, 32.831143 ], [ 131.475144799999981, 32.837228 ], [ 131.4818937, 32.8389252 ], [ 131.4842703, 32.8427072 ], [ 131.490147, 32.8454485 ], [ 131.4941403, 32.8505949 ], [ 131.4996209, 32.8506016 ], [ 131.502777, 32.8531947 ], [ 131.514238399999982, 32.8538147 ], [ 131.5224723, 32.8560316 ], [ 131.5269556, 32.8597041 ], [ 131.5384334, 32.8646558 ], [ 131.5411825, 32.8712324 ], [ 131.549012299999987, 32.8753344 ], [ 131.5516898, 32.878495799999989 ], [ 131.5642795, 32.884368 ], [ 131.5818468, 32.8790086 ], [ 131.590544599999987, 32.8812683 ], [ 131.5895587, 32.8847808 ], [ 131.5905898, 32.8924219 ], [ 131.595132299999989, 32.8906527 ], [ 131.6001162, 32.8951905 ], [ 131.604921200000035, 32.8954683 ], [ 131.6069249, 32.8987083 ], [ 131.6069985, 32.9056941 ], [ 131.612258200000014, 32.9110452 ], [ 131.6091423, 32.9223049 ], [ 131.6148609, 32.9240202 ], [ 131.621913399999983, 32.9222847 ], [ 131.623524299999985, 32.9169505 ], [ 131.629389, 32.9192858 ], [ 131.6259954, 32.9282708 ], [ 131.6194932, 32.9265697 ], [ 131.6190571, 32.930596 ], [ 131.630785400000036, 32.9416224 ], [ 131.6389485, 32.9399744 ], [ 131.6397093, 32.943358 ], [ 131.6444304, 32.948378 ], [ 131.6439327, 32.9516533 ], [ 131.659166, 32.9602755 ], [ 131.661998, 32.9633591 ], [ 131.6612782, 32.9678466 ], [ 131.6570543, 32.9793324 ], [ 131.6508805, 32.984946 ], [ 131.649793, 32.9900583 ], [ 131.6452655, 32.996250499999988 ], [ 131.643770499999988, 33.0015582 ], [ 131.6386488, 33.004863 ], [ 131.6328416, 33.0053777 ], [ 131.6352349, 33.0093866 ], [ 131.631671899999986, 33.0185743 ], [ 131.632338799999985, 33.0246146 ], [ 131.6353949, 33.0288466 ], [ 131.6373063, 33.0351202 ], [ 131.6465222, 33.0309913 ], [ 131.6501271, 33.0341052 ], [ 131.658716, 33.0370913 ], [ 131.660939899999988, 33.0445393 ], [ 131.6596099, 33.0498507 ], [ 131.653733599999981, 33.0533921 ], [ 131.6522488, 33.0584274 ], [ 131.6534897, 33.0663929 ], [ 131.6571888, 33.0694671 ], [ 131.660938, 33.0787882 ], [ 131.6691047, 33.0814796 ], [ 131.672231399999987, 33.0845671 ], [ 131.6784686, 33.0858657 ], [ 131.661123299999986, 33.0886948 ], [ 131.6541602, 33.0845001 ], [ 131.6462683, 33.0822124 ], [ 131.642961899999989, 33.0827129 ], [ 131.641208799999987, 33.0871374 ], [ 131.637765799999983, 33.0887487 ], [ 131.6282027, 33.090109 ], [ 131.6250641, 33.0926512 ], [ 131.6156669, 33.0957368 ], [ 131.604954100000015, 33.1024659 ], [ 131.59940659999998, 33.1033229 ], [ 131.593896299999983, 33.1021893 ], [ 131.5878433, 33.0975395 ], [ 131.5815849, 33.1011673 ], [ 131.574718, 33.1020301 ], [ 131.568281899999988, 33.1100331 ], [ 131.5594097, 33.1111531 ], [ 131.5544586, 33.1175642 ], [ 131.542219099999983, 33.1165848 ], [ 131.5393852, 33.1112101 ], [ 131.5323669, 33.1098831 ], [ 131.5256085, 33.1065525 ], [ 131.5219519, 33.1026717 ], [ 131.5151444, 33.1024289 ], [ 131.507738599999982, 33.1000536 ], [ 131.4965038, 33.0919283 ], [ 131.5019666, 33.0871086 ], [ 131.494823199999985, 33.0761575 ], [ 131.482862399999988, 33.0738578 ], [ 131.474891499999984, 33.0703608 ], [ 131.465511, 33.0721941 ], [ 131.4597124, 33.0754483 ], [ 131.4568294, 33.079823 ], [ 131.454469099999983, 33.0904416 ], [ 131.4565203, 33.0943213 ], [ 131.4440314, 33.0935885 ], [ 131.4407161, 33.088021 ], [ 131.423622099999989, 33.0792211 ], [ 131.419841, 33.081098 ], [ 131.421753599999988, 33.0897969 ], [ 131.418734199999989, 33.0920588 ] ] ] ] } },
{ "type": "Feature", "properties": { "hokenjo": "北部" }, "geometry": { "type": "MultiPolygon", "coordinates": [ [ [ [ 131.4484775, 33.5273139 ], [ 131.450227499999983, 33.5191942 ], [ 131.4575183, 33.5088833 ], [ 131.463220299999989, 33.5081939 ], [ 131.4650844, 33.5057811 ], [ 131.4735422, 33.5045017 ], [ 131.4834864, 33.4934728 ], [ 131.490153599999985, 33.4931019 ], [ 131.4939761, 33.4898281 ], [ 131.498737799999986, 33.4888322 ], [ 131.5061244, 33.4838533 ], [ 131.5059536, 33.4807825 ], [ 131.514750599999985, 33.4800767 ], [ 131.523, 33.4753042 ], [ 131.528203599999983, 33.4776742 ], [ 131.5354931, 33.4771122 ], [ 131.5333033, 33.4913153 ], [ 131.530536399999988, 33.4970789 ], [ 131.531734699999987, 33.5018639 ], [ 131.5372061, 33.5053558 ], [ 131.5466164, 33.5197028 ], [ 131.5540972, 33.5330431 ], [ 131.5541333, 33.5368081 ], [ 131.5589386, 33.5403808 ], [ 131.56454309999998, 33.5476997 ], [ 131.570279699999986, 33.5497297 ], [ 131.576855599999988, 33.5562969 ], [ 131.5863397, 33.5594792 ], [ 131.5889522, 33.5586767 ], [ 131.591659199999981, 33.5612 ], [ 131.5962903, 33.5774689 ], [ 131.588931699999989, 33.5841108 ], [ 131.58567, 33.582575 ], [ 131.579765, 33.58344 ], [ 131.5778578, 33.5911372 ], [ 131.5738997, 33.5939614 ], [ 131.5722525, 33.6039589 ], [ 131.57509109999998, 33.6067408 ], [ 131.578452199999987, 33.6137925 ], [ 131.575985299999985, 33.61719 ], [ 131.56879, 33.6185192 ], [ 131.5562239, 33.6269322 ], [ 131.5579583, 33.6306833 ], [ 131.55772170000003, 33.6369342 ], [ 131.5546119, 33.6423067 ], [ 131.5568231, 33.6450819 ], [ 131.5519358, 33.650185 ], [ 131.54905, 33.6623461 ], [ 131.5493983, 33.6672225 ], [ 131.544504700000033, 33.6773325 ], [ 131.537331099999989, 33.6798921 ], [ 131.5356641, 33.6769034 ], [ 131.5269812, 33.6815224 ], [ 131.5297902, 33.6741143 ], [ 131.5151031, 33.6693318 ], [ 131.507567199999983, 33.6747522 ], [ 131.5055476, 33.6713301 ], [ 131.4999336, 33.6713068 ], [ 131.4968788, 33.6637887 ], [ 131.504975699999989, 33.6565376 ], [ 131.495215299999984, 33.6545821 ], [ 131.4977929, 33.6455764 ], [ 131.4945826, 33.6436764 ], [ 131.4868984, 33.6483561 ], [ 131.4858984, 33.644134099999988 ], [ 131.4821072, 33.6432184 ], [ 131.480167599999987, 33.6392167 ], [ 131.48430639999998, 33.6369914 ], [ 131.475087, 33.630562499999989 ], [ 131.4737566, 33.6207558 ], [ 131.4681003, 33.6135318 ], [ 131.4622518, 33.619191799999989 ], [ 131.4239665, 33.5918984 ], [ 131.4243916, 33.5826467 ], [ 131.4272037, 33.5770727 ], [ 131.430138299999982, 33.5763424 ], [ 131.434526799999986, 33.5703457 ], [ 131.428522499999985, 33.5679363 ], [ 131.421145599999988, 33.5691122 ], [ 131.4201181, 33.573228799999988 ], [ 131.412735699999985, 33.5736076 ], [ 131.405600599999985, 33.5722183 ], [ 131.393738, 33.5763392 ], [ 131.3809522, 33.5761412 ], [ 131.374290100000024, 33.5801994 ], [ 131.3719534, 33.5767102 ], [ 131.3581103, 33.5772478 ], [ 131.3491541, 33.5729628 ], [ 131.339218599999981, 33.5733271 ], [ 131.3352011, 33.5761474 ], [ 131.3348206, 33.5808776 ], [ 131.3205764, 33.583052099999989 ], [ 131.3173333, 33.5809409 ], [ 131.3109843, 33.5821117 ], [ 131.303528, 33.580797 ], [ 131.295399799999984, 33.5811353 ], [ 131.29085569999998, 33.579049 ], [ 131.2789153, 33.5808301 ], [ 131.273373099999986, 33.5835538 ], [ 131.272051, 33.5876794 ], [ 131.2670563, 33.5890115 ], [ 131.2680734, 33.5926429 ], [ 131.2557974, 33.599024899999989 ], [ 131.2586298, 33.6033653 ], [ 131.254444799999987, 33.6081661 ], [ 131.2510618, 33.6069235 ], [ 131.245345499999985, 33.6110199 ], [ 131.2386773, 33.6013934 ], [ 131.230482099999989, 33.6017425 ], [ 131.222243599999985, 33.6047743 ], [ 131.213858, 33.6051519 ], [ 131.2166097, 33.6088621 ], [ 131.2099522, 33.6124621 ], [ 131.2049853, 33.6169195 ], [ 131.1912691, 33.6175395 ], [ 131.1850967, 33.6157653 ], [ 131.177915600000034, 33.6048247 ], [ 131.1783797, 33.5968175 ], [ 131.1733317, 33.5909317 ], [ 131.1724064, 33.5822072 ], [ 131.1760242, 33.5747183 ], [ 131.1861625, 33.5678636 ], [ 131.189403299999981, 33.5630758 ], [ 131.1905697, 33.5580253 ], [ 131.1868992, 33.5440383 ], [ 131.176753599999984, 33.5343961 ], [ 131.166710599999988, 33.5287125 ], [ 131.1697111, 33.5211619 ], [ 131.1680614, 33.5161542 ], [ 131.1741386, 33.5126233 ], [ 131.1759544, 33.5065581 ], [ 131.1671561, 33.5055942 ], [ 131.163157499999983, 33.5084608 ], [ 131.1557992, 33.5078669 ], [ 131.1546592, 33.5060719 ], [ 131.1415839, 33.5046392 ], [ 131.1336253, 33.5057733 ], [ 131.1301928, 33.5024242 ], [ 131.1189719, 33.5020825 ], [ 131.105507499999987, 33.5077561 ], [ 131.100535, 33.5047553 ], [ 131.0937006, 33.5073664 ], [ 131.0796547, 33.5053456 ], [ 131.0697386, 33.5067878 ], [ 131.0630975, 33.5102033 ], [ 131.0533117, 33.5078919 ], [ 131.0423506, 33.5140106 ], [ 131.0357392, 33.5190731 ], [ 131.0298369, 33.5188333 ], [ 131.02679, 33.5139233 ], [ 131.0193769, 33.5126028 ], [ 131.0151578, 33.5090675 ], [ 131.0014381, 33.5121756 ], [ 130.9976239, 33.5101133 ], [ 130.990069200000022, 33.5092369 ], [ 130.9866328, 33.5073272 ], [ 130.9767669, 33.5070969 ], [ 130.9723158, 33.5051542 ], [ 130.9696911, 33.5005106 ], [ 130.962606099999988, 33.4976908 ], [ 130.961586899999986, 33.4935825 ], [ 130.9561022, 33.4919764 ], [ 130.9502603, 33.4878406 ], [ 130.942418299999986, 33.4856425 ], [ 130.9298219, 33.4667014 ], [ 130.929246399999982, 33.4606255 ], [ 130.926285900000011, 33.4576245 ], [ 130.928742799999981, 33.4522065 ], [ 130.936243099999984, 33.451589 ], [ 130.9426756, 33.4460604 ], [ 130.9420859, 33.4424898 ], [ 130.9461623, 33.4411734 ], [ 130.9462589, 33.4336693 ], [ 130.959637499999985, 33.4298468 ], [ 130.9657389, 33.4289287 ], [ 130.9657111, 33.4230307 ], [ 130.977297199999981, 33.4118999 ], [ 130.984031099999982, 33.4103871 ], [ 130.9942456, 33.3983271 ], [ 131.0091309, 33.3923765 ], [ 131.008464799999985, 33.3896415 ], [ 131.0121651, 33.3863163 ], [ 131.0098003, 33.380651 ], [ 131.0130467, 33.3759329 ], [ 131.0213034, 33.3719687 ], [ 131.0220923, 33.3652129 ], [ 131.025116, 33.358554 ], [ 131.0327524, 33.3604534 ], [ 131.0407507, 33.3596895 ], [ 131.0516505, 33.3610761 ], [ 131.0570622, 33.3607942 ], [ 131.0603519, 33.3724562 ], [ 131.0682385, 33.3835943 ], [ 131.080209699999983, 33.3838209 ], [ 131.0904147, 33.3883173 ], [ 131.098939699999988, 33.3884457 ], [ 131.107907499999982, 33.3800698 ], [ 131.1162836, 33.3755828 ], [ 131.1151669, 33.3723534 ], [ 131.124750399999982, 33.3682132 ], [ 131.1282488, 33.3682975 ], [ 131.1344197, 33.3778006 ], [ 131.145562499999983, 33.3787295 ], [ 131.147945, 33.3731133 ], [ 131.1514125, 33.3705839 ], [ 131.1533358, 33.365805 ], [ 131.1578319, 33.3632967 ], [ 131.167864399999985, 33.3699725 ], [ 131.174873, 33.3626936 ], [ 131.178739399999984, 33.3539024 ], [ 131.1846611, 33.356351 ], [ 131.1898386, 33.3563882 ], [ 131.192365, 33.3521982 ], [ 131.1981792, 33.3483966 ], [ 131.204806099999985, 33.3537946 ], [ 131.205447199999981, 33.3582015 ], [ 131.2157722, 33.3614632 ], [ 131.2260731, 33.3615804 ], [ 131.2293886, 33.3569643 ], [ 131.240550300000024, 33.3572126 ], [ 131.2417111, 33.3622401 ], [ 131.2486484, 33.3608599 ], [ 131.2526473, 33.3578974 ], [ 131.259187, 33.356311 ], [ 131.26095669999998, 33.352699 ], [ 131.267859499999986, 33.3498335 ], [ 131.271806699999985, 33.3437635 ], [ 131.2718425, 33.3409785 ], [ 131.2788981, 33.334694 ], [ 131.2898639, 33.3362612 ], [ 131.2985797, 33.3354243 ], [ 131.303143899999981, 33.3371048 ], [ 131.308135599999986, 33.3318132 ], [ 131.3082942, 33.3275785 ], [ 131.3126747, 33.3228285 ], [ 131.3270097, 33.3204915 ], [ 131.332676599999985, 33.3175087 ], [ 131.3362191, 33.3159648 ], [ 131.350428099999988, 33.3134697 ], [ 131.35518, 33.3103289 ], [ 131.3589092, 33.3154667 ], [ 131.368009199999989, 33.3164008 ], [ 131.3749781, 33.3214264 ], [ 131.3746822, 33.3254956 ], [ 131.3820422, 33.3270908 ], [ 131.3878075, 33.3257508 ], [ 131.3990086, 33.3253944 ], [ 131.396853599999986, 33.3336597 ], [ 131.400489199999981, 33.3376025 ], [ 131.3991153, 33.3405086 ], [ 131.4027214, 33.3434606 ], [ 131.401219699999984, 33.3500364 ], [ 131.407084699999984, 33.3510367 ], [ 131.412466099999989, 33.3485594 ], [ 131.4162814, 33.3493333 ], [ 131.4190208, 33.3520069 ], [ 131.4272717, 33.3542931 ], [ 131.432948100000033, 33.3573031 ], [ 131.430868100000026, 33.3649131 ], [ 131.42525, 33.3727475 ], [ 131.4075853, 33.3758681 ], [ 131.4060681, 33.3813203 ], [ 131.411478099999982, 33.3905983 ], [ 131.413554399999981, 33.3981864 ], [ 131.4198533, 33.4013528 ], [ 131.4174017, 33.4128264 ], [ 131.424731899999983, 33.4157161 ], [ 131.424583899999988, 33.4199533 ], [ 131.429448899999983, 33.4244406 ], [ 131.4280631, 33.4312603 ], [ 131.4331306, 33.4351208 ], [ 131.431735, 33.4443311 ], [ 131.4271142, 33.4480381 ], [ 131.4289461, 33.4519739 ], [ 131.423818899999986, 33.4629989 ], [ 131.425306899999981, 33.4689122 ], [ 131.4209397, 33.4751536 ], [ 131.4142558, 33.4768447 ], [ 131.4119483, 33.4821594 ], [ 131.406806099999983, 33.4850192 ], [ 131.411668599999985, 33.4970403 ], [ 131.417773899999986, 33.4988128 ], [ 131.4222058, 33.5047011 ], [ 131.4264195, 33.5045837 ], [ 131.4385536, 33.5004906 ], [ 131.438887199999982, 33.5097247 ], [ 131.433827799999989, 33.5105319 ], [ 131.4330975, 33.5150731 ], [ 131.428474199999982, 33.5184533 ], [ 131.4353219, 33.5223108 ], [ 131.4443047, 33.52431 ], [ 131.4484775, 33.5273139 ] ] ] ] } }
]
}
