{
"type": "FeatureCollection",
"name": "okayama",
"crs": { "type": "name", "properties": { "name": "urn:ogc:def:crs:OGC:1.3:CRS84" } },
"features": [
{ "type": "Feature", "properties": { "hokenjo": "岡山市" }, "geometry": { "type": "MultiPolygon", "coordinates": [ [ [ [ 133.9571856, 34.5969681 ], [ 133.97088549999998, 34.6017983 ], [ 133.977382299999988, 34.6003371 ], [ 133.9826899, 34.6074916 ], [ 133.9957968, 34.6135359 ], [ 134.0189825, 34.6097422 ], [ 134.0289737, 34.6063855 ], [ 134.032478699999984, 34.6091076 ], [ 134.0421512, 34.6083333 ], [ 134.047434, 34.5976173 ], [ 134.053206599999982, 34.5960349 ], [ 134.0543798, 34.5864338 ], [ 134.0689736, 34.5838126 ], [ 134.079750099999984, 34.586468599999989 ], [ 134.0844894, 34.5810823 ], [ 134.0966774, 34.5828182 ], [ 134.103524099999987, 34.5895771 ], [ 134.112186899999983, 34.5884678 ], [ 134.1128675, 34.6007889 ], [ 134.1096511, 34.6056303 ], [ 134.1163403, 34.6274369 ], [ 134.101294699999983, 34.6395125 ], [ 134.086308299999985, 34.6325186 ], [ 134.0800036, 34.6324719 ], [ 134.0730739, 34.6378561 ], [ 134.077309800000023, 34.6500975 ], [ 134.066836699999982, 34.6476983 ], [ 134.0582139, 34.6517903 ], [ 134.05193, 34.6592122 ], [ 134.060198899999989, 34.6701447 ], [ 134.072541699999988, 34.6766189 ], [ 134.077733599999988, 34.6819769 ], [ 134.084159699999987, 34.6989844 ], [ 134.083389399999987, 34.7061206 ], [ 134.0929903, 34.7143364 ], [ 134.102298099999985, 34.7266822 ], [ 134.106202199999984, 34.7420675 ], [ 134.1197339, 34.7476128 ], [ 134.1225239, 34.7529111 ], [ 134.1193436, 34.7572117 ], [ 134.1090725, 34.7608394 ], [ 134.0902178, 34.7626428 ], [ 134.0929103, 34.7701414 ], [ 134.0870453, 34.781955 ], [ 134.081042200000013, 34.7828847 ], [ 134.064552500000019, 34.7798383 ], [ 134.058246699999984, 34.7678119 ], [ 134.048876399999983, 34.7665522 ], [ 134.0512186, 34.7614747 ], [ 134.045313599999986, 34.7492067 ], [ 134.035470299999986, 34.7443203 ], [ 134.028703899999982, 34.7378206 ], [ 134.0004897, 34.7262278 ], [ 133.9935892, 34.7196414 ], [ 133.9939633, 34.7265397 ], [ 133.98653, 34.7334767 ], [ 133.984093900000033, 34.7394994 ], [ 133.9714219, 34.7494333 ], [ 133.985851699999984, 34.7613286 ], [ 133.9766214, 34.7692708 ], [ 133.980683299999981, 34.7786419 ], [ 133.970290299999988, 34.7842244 ], [ 133.961704199999986, 34.7860122 ], [ 133.9736706, 34.8025683 ], [ 133.9855508, 34.8070033 ], [ 133.9870867, 34.8182564 ], [ 133.9912036, 34.8270811 ], [ 133.9877425, 34.8357594 ], [ 133.99281689999998, 34.8412928 ], [ 133.9939853, 34.8500728 ], [ 133.9819314, 34.8550442 ], [ 133.977566699999983, 34.8471322 ], [ 133.968289700000014, 34.8531528 ], [ 133.9611094, 34.8680142 ], [ 133.955354699999987, 34.8727308 ], [ 133.9374622, 34.8709728 ], [ 133.9278431, 34.8746633 ], [ 133.9384986, 34.883939399999988 ], [ 133.9305558, 34.8878389 ], [ 133.922231899999986, 34.9008308 ], [ 133.9092306, 34.9066553 ], [ 133.902566399999984, 34.9014872 ], [ 133.8941728, 34.90959 ], [ 133.9062731, 34.9182211 ], [ 133.900536100000011, 34.9225847 ], [ 133.908581699999985, 34.9265772 ], [ 133.9063353, 34.9381825 ], [ 133.9101303, 34.9438422 ], [ 133.8880986, 34.9440383 ], [ 133.882938100000018, 34.9483408 ], [ 133.874876100000023, 34.9398231 ], [ 133.8638875, 34.9371247 ], [ 133.860708599999981, 34.9437133 ], [ 133.854014399999983, 34.9446517 ], [ 133.8502408, 34.9343803 ], [ 133.8517736, 34.9265686 ], [ 133.8472467, 34.9221347 ], [ 133.850315, 34.9159811 ], [ 133.858729399999987, 34.9124119 ], [ 133.8673206, 34.9053122 ], [ 133.874247199999985, 34.9070108 ], [ 133.8783958, 34.9031108 ], [ 133.864943899999986, 34.8964475 ], [ 133.8566031, 34.8952306 ], [ 133.8480744, 34.8837047 ], [ 133.8502211, 34.8794781 ], [ 133.8432383, 34.8692256 ], [ 133.847992799999986, 34.8536283 ], [ 133.8434833, 34.8446683 ], [ 133.82837, 34.8416953 ], [ 133.817609399999981, 34.8345261 ], [ 133.8188897, 34.8066339 ], [ 133.8076547, 34.8082831 ], [ 133.799347499999982, 34.8147208 ], [ 133.789047499999981, 34.8135647 ], [ 133.7809933, 34.8089158 ], [ 133.7741283, 34.7971219 ], [ 133.772916899999984, 34.7864047 ], [ 133.7528036, 34.7858944 ], [ 133.7400142, 34.7681317 ], [ 133.739835, 34.761515 ], [ 133.749401899999981, 34.7478686 ], [ 133.75623, 34.7494178 ], [ 133.7682025, 34.7416747 ], [ 133.772608099999985, 34.7421461 ], [ 133.790773299999984, 34.7313244 ], [ 133.796168599999987, 34.723255 ], [ 133.79975109999998, 34.7110253 ], [ 133.79166859999998, 34.6985136 ], [ 133.8041586, 34.6846586 ], [ 133.7956369, 34.6768797 ], [ 133.7971689, 34.6666286 ], [ 133.801276699999988, 34.6625989 ], [ 133.813161399999984, 34.6677603 ], [ 133.82493359999998, 34.6693506 ], [ 133.8350314, 34.6618078 ], [ 133.8376725, 34.6550242 ], [ 133.831821099999985, 34.6512428 ], [ 133.8375303, 34.6354121 ], [ 133.830272799999989, 34.6278786 ], [ 133.8360442, 34.6199194 ], [ 133.8343553, 34.61154 ], [ 133.838286399999987, 34.5992244 ], [ 133.8436011, 34.5900306 ], [ 133.8428936, 34.5796533 ], [ 133.833056699999986, 34.5684672 ], [ 133.8331722, 34.5548556 ], [ 133.8192756, 34.5506739 ], [ 133.8282764, 34.5345328 ], [ 133.83840859999998, 34.5354569 ], [ 133.849948899999987, 34.5269653 ], [ 133.8539897, 34.5199036 ], [ 133.8664911, 34.5185206 ], [ 133.8752433, 34.5241194 ], [ 133.886582799999985, 34.5247942 ], [ 133.884770299999985, 34.5378992 ], [ 133.893304699999987, 34.5428942 ], [ 133.902216399999986, 34.536948599999988 ], [ 133.9197111, 34.5449353 ], [ 133.9387528, 34.5764383 ], [ 133.961723299999989, 34.5662606 ], [ 133.966080799999986, 34.5585817 ], [ 133.9771122, 34.5598053 ], [ 133.9825161, 34.5669908 ], [ 133.9822433, 34.5721358 ], [ 133.9871861, 34.5775744 ], [ 134.010163299999988, 34.5749644 ], [ 134.0143706, 34.5777136 ], [ 134.0230675, 34.5752728 ], [ 134.028885799999983, 34.5784408 ], [ 134.0341784, 34.5737676 ], [ 134.0411392, 34.5764218 ], [ 134.0407214, 34.5874821 ], [ 134.026059600000025, 34.5989607 ], [ 134.0045369, 34.5949027 ], [ 133.9738499, 34.594473 ], [ 133.960442699999987, 34.587584 ], [ 133.948087099999981, 34.5936423 ], [ 133.9460516, 34.5989909 ], [ 133.9523543, 34.6024733 ], [ 133.9571856, 34.5969681 ] ] ] ] } },
{ "type": "Feature", "properties": { "hokenjo": "真庭" }, "geometry": { "type": "MultiPolygon", "coordinates": [ [ [ [ 133.566637499999985, 35.2555897 ], [ 133.55491, 35.24181 ], [ 133.5459469, 35.2436814 ], [ 133.53483079999998, 35.2367169 ], [ 133.5172272, 35.2407372 ], [ 133.514492499999989, 35.2354886 ], [ 133.505541099999988, 35.2281725 ], [ 133.515410299999985, 35.2205342 ], [ 133.5215136, 35.2105731 ], [ 133.5206825, 35.2060161 ], [ 133.5290756, 35.1869369 ], [ 133.52611109999998, 35.1828858 ], [ 133.541445, 35.1633717 ], [ 133.5357894, 35.1577664 ], [ 133.5385808, 35.1514347 ], [ 133.556726699999984, 35.1487603 ], [ 133.5680006, 35.1490786 ], [ 133.591192799999988, 35.1365686 ], [ 133.586228299999988, 35.1276611 ], [ 133.583796399999983, 35.1160381 ], [ 133.575687499999987, 35.1120028 ], [ 133.574242199999986, 35.1000478 ], [ 133.5762578, 35.0909106 ], [ 133.583173599999981, 35.0870336 ], [ 133.58936749999998, 35.0794931 ], [ 133.5895131, 35.0725003 ], [ 133.585143099999982, 35.0547908 ], [ 133.5907703, 35.0480664 ], [ 133.583656099999985, 35.0395578 ], [ 133.5838436, 35.0313992 ], [ 133.5875397, 35.0246958 ], [ 133.6003097, 35.0206536 ], [ 133.5997161, 35.0154114 ], [ 133.5937669, 35.0079872 ], [ 133.5873053, 35.0053633 ], [ 133.5841969, 34.9964361 ], [ 133.5905075, 34.9928997 ], [ 133.5946681, 35.0000097 ], [ 133.6078542, 34.9944386 ], [ 133.6069269, 34.9880711 ], [ 133.619157799999982, 34.9726961 ], [ 133.6216356, 34.961585 ], [ 133.607415799999984, 34.9590997 ], [ 133.6010244, 34.9528728 ], [ 133.603741899999989, 34.9463256 ], [ 133.6130311, 34.9333075 ], [ 133.616978099999983, 34.9321569 ], [ 133.6208767, 34.9157206 ], [ 133.619301899999982, 34.900202799999988 ], [ 133.6324117, 34.9039633 ], [ 133.633482500000014, 34.9093681 ], [ 133.649711699999983, 34.9151503 ], [ 133.6479728, 34.9406764 ], [ 133.6580706, 34.9382464 ], [ 133.6719344, 34.9430422 ], [ 133.6760586, 34.9504678 ], [ 133.680734199999989, 34.9520653 ], [ 133.687882799999983, 34.9474369 ], [ 133.7027508, 34.9537925 ], [ 133.70536, 34.959795799999988 ], [ 133.7169294, 34.9553581 ], [ 133.7238475, 34.9487472 ], [ 133.7337628, 34.950257199999989 ], [ 133.742225, 34.9456397 ], [ 133.7501067, 34.9455914 ], [ 133.7554125, 34.9520614 ], [ 133.7618933, 34.9524872 ], [ 133.7714694, 34.9602808 ], [ 133.7809947, 34.9613014 ], [ 133.7992, 34.9592511 ], [ 133.8006, 34.9532506 ], [ 133.808785799999981, 34.9514842 ], [ 133.8076225, 34.9590642 ], [ 133.802324199999987, 34.9657719 ], [ 133.805174699999981, 34.9686083 ], [ 133.803865299999984, 34.9781406 ], [ 133.794103899999982, 34.9825203 ], [ 133.7874606, 34.9890008 ], [ 133.785917499999982, 35.003085 ], [ 133.7895797, 35.0097161 ], [ 133.784735, 35.01959 ], [ 133.802383099999986, 35.0222575 ], [ 133.8051108, 35.0263422 ], [ 133.8193358, 35.0356744 ], [ 133.8168286, 35.0423147 ], [ 133.826095, 35.0446108 ], [ 133.8226358, 35.0468175 ], [ 133.8243419, 35.0587014 ], [ 133.8223614, 35.0664389 ], [ 133.8288236, 35.0774806 ], [ 133.8354425, 35.0823244 ], [ 133.832031699999987, 35.088252499999989 ], [ 133.8365478, 35.0986986 ], [ 133.8456014, 35.1015078 ], [ 133.843764199999981, 35.1166931 ], [ 133.8346975, 35.1209067 ], [ 133.833565, 35.1262544 ], [ 133.8215636, 35.1272486 ], [ 133.816845799999982, 35.1322675 ], [ 133.802566899999988, 35.1316019 ], [ 133.792701699999981, 35.1375833 ], [ 133.782001899999983, 35.1480147 ], [ 133.7809564, 35.1530247 ], [ 133.7700314, 35.1557472 ], [ 133.77048689999998, 35.1711214 ], [ 133.7792503, 35.1762086 ], [ 133.7773389, 35.1806217 ], [ 133.779751399999981, 35.1894778 ], [ 133.77849, 35.1972994 ], [ 133.7725356, 35.205858299999989 ], [ 133.7813492, 35.2127375 ], [ 133.778557799999987, 35.2224364 ], [ 133.8000472, 35.2144461 ], [ 133.8081125, 35.2197453 ], [ 133.8165706, 35.2190028 ], [ 133.8102844, 35.2291586 ], [ 133.8143244, 35.2309061 ], [ 133.8205806, 35.2421714 ], [ 133.8181461, 35.2526342 ], [ 133.815221899999983, 35.2648883 ], [ 133.8076064, 35.2702856 ], [ 133.8092792, 35.2769169 ], [ 133.8013794, 35.2848306 ], [ 133.7998739, 35.2926933 ], [ 133.79348, 35.2928514 ], [ 133.775705, 35.2995578 ], [ 133.767010299999981, 35.3086344 ], [ 133.7569603, 35.3081978 ], [ 133.750692499999985, 35.3113964 ], [ 133.748685, 35.3170622 ], [ 133.727134399999983, 35.3170103 ], [ 133.717205800000016, 35.3199203 ], [ 133.709022799999985, 35.3250597 ], [ 133.6960617, 35.3269239 ], [ 133.6917561, 35.3208442 ], [ 133.677361900000022, 35.3192933 ], [ 133.673965, 35.3233725 ], [ 133.6657389, 35.3240103 ], [ 133.6491772, 35.3363375 ], [ 133.6316133, 35.3395022 ], [ 133.6221914, 35.3367094 ], [ 133.6180019, 35.3396011 ], [ 133.6058114, 35.3410625 ], [ 133.596799399999981, 35.3450206 ], [ 133.589341099999984, 35.3378586 ], [ 133.592446099999989, 35.3308144 ], [ 133.5767864, 35.3144136 ], [ 133.5757644, 35.300815 ], [ 133.5775528, 35.2972611 ], [ 133.5705439, 35.2870861 ], [ 133.5688494, 35.2774947 ], [ 133.571915599999983, 35.2725694 ], [ 133.5667697, 35.2658097 ], [ 133.566637499999985, 35.2555897 ] ] ] ] } },
{ "type": "Feature", "properties": { "hokenjo": "倉敷市" }, "geometry": { "type": "MultiPolygon", "coordinates": [ [ [ [ 133.761165299999988, 34.4312928 ], [ 133.7639747, 34.4197707 ], [ 133.7700518, 34.4187798 ], [ 133.7749637, 34.4264993 ], [ 133.764375, 34.4272914 ], [ 133.761165299999988, 34.4312928 ] ] ], [ [ [ 133.68354, 34.4905251 ], [ 133.684416299999981, 34.5042667 ], [ 133.669193, 34.502028 ], [ 133.6690578, 34.490712 ], [ 133.68354, 34.4905251 ] ] ], [ [ [ 133.813161399999984, 34.6677603 ], [ 133.801276699999988, 34.6625989 ], [ 133.7987733, 34.6536989 ], [ 133.7988742, 34.6405283 ], [ 133.7932433, 34.6389469 ], [ 133.78049249999998, 34.6443839 ], [ 133.7707878, 34.6402383 ], [ 133.7625931, 34.6434503 ], [ 133.751308099999989, 34.6342194 ], [ 133.7571969, 34.6314111 ], [ 133.745899399999985, 34.6222981 ], [ 133.7390567, 34.6243931 ], [ 133.731122199999987, 34.6221581 ], [ 133.726303299999984, 34.6308211 ], [ 133.727239699999984, 34.6468492 ], [ 133.722958299999988, 34.6480447 ], [ 133.7167667, 34.6564975 ], [ 133.710738099999986, 34.6556658 ], [ 133.696697199999988, 34.6593469 ], [ 133.6931894, 34.6643964 ], [ 133.6816958, 34.6576856 ], [ 133.678856699999983, 34.6604008 ], [ 133.668541399999981, 34.6544822 ], [ 133.66656, 34.6494003 ], [ 133.658864199999982, 34.6499892 ], [ 133.6494722, 34.6451858 ], [ 133.6454625, 34.6465958 ], [ 133.6320756, 34.6418319 ], [ 133.633882199999988, 34.6376783 ], [ 133.6333981, 34.6234825 ], [ 133.6387614, 34.6060292 ], [ 133.6493772, 34.5962511 ], [ 133.632305, 34.5837089 ], [ 133.623275299999989, 34.5804836 ], [ 133.63671309999998, 34.5694375 ], [ 133.63968, 34.5606169 ], [ 133.647861899999981, 34.5573072 ], [ 133.6427306, 34.5481186 ], [ 133.648957199999984, 34.5451847 ], [ 133.6407936, 34.5394261 ], [ 133.629343299999988, 34.5205542 ], [ 133.6232081, 34.5187656 ], [ 133.6230008, 34.5128331 ], [ 133.6075983, 34.5060694 ], [ 133.6032217, 34.5010461 ], [ 133.6037394, 34.4951434 ], [ 133.6115541, 34.4953752 ], [ 133.6194037, 34.4919414 ], [ 133.6253442, 34.5009936 ], [ 133.638146500000033, 34.5013749 ], [ 133.6471684, 34.5037571 ], [ 133.6480314, 34.5121225 ], [ 133.658593699999983, 34.5203453 ], [ 133.6698213, 34.5177832 ], [ 133.670195, 34.5073459 ], [ 133.6840708, 34.507073 ], [ 133.690467, 34.5123774 ], [ 133.6908263, 34.5228224 ], [ 133.705334099999988, 34.5230635 ], [ 133.704030099999983, 34.4778267 ], [ 133.7193766, 34.4731182 ], [ 133.7433991, 34.4706015 ], [ 133.7371767, 34.4905753 ], [ 133.719046, 34.4964059 ], [ 133.7216895, 34.5008702 ], [ 133.735050299999983, 34.4985935 ], [ 133.7428837, 34.5012157 ], [ 133.7483286, 34.4894665 ], [ 133.759577799999988, 34.4858466 ], [ 133.7571247, 34.4817013 ], [ 133.7596206, 34.4702014 ], [ 133.7666329, 34.472319 ], [ 133.767493699999989, 34.4625057 ], [ 133.7713053, 34.4553023 ], [ 133.7805782, 34.4453784 ], [ 133.785172599999981, 34.4360804 ], [ 133.791677, 34.4393647 ], [ 133.8071321, 34.4358948 ], [ 133.8144057, 34.4379911 ], [ 133.8112122, 34.4453862 ], [ 133.808956599999988, 34.4611265 ], [ 133.8147643, 34.4600986 ], [ 133.817079399999983, 34.4668271 ], [ 133.8297375, 34.4725279 ], [ 133.867144, 34.4672762 ], [ 133.8801411, 34.4568415 ], [ 133.880998299999987, 34.4633778 ], [ 133.8764464, 34.4733233 ], [ 133.8635764, 34.4763614 ], [ 133.8616039, 34.4813058 ], [ 133.8649572, 34.4923136 ], [ 133.870415, 34.4930647 ], [ 133.8664336, 34.5106997 ], [ 133.8664911, 34.5185206 ], [ 133.8539897, 34.5199036 ], [ 133.849948899999987, 34.5269653 ], [ 133.83840859999998, 34.5354569 ], [ 133.8282764, 34.5345328 ], [ 133.8192756, 34.5506739 ], [ 133.8331722, 34.5548556 ], [ 133.833056699999986, 34.5684672 ], [ 133.8428936, 34.5796533 ], [ 133.8436011, 34.5900306 ], [ 133.838286399999987, 34.5992244 ], [ 133.828128599999985, 34.5916017 ], [ 133.8244119, 34.5962828 ], [ 133.8054567, 34.6004981 ], [ 133.8017975, 34.60898 ], [ 133.813938899999982, 34.61284 ], [ 133.81816809999998, 34.6211419 ], [ 133.830272799999989, 34.6278786 ], [ 133.8375303, 34.6354121 ], [ 133.831821099999985, 34.6512428 ], [ 133.8376725, 34.6550242 ], [ 133.8350314, 34.6618078 ], [ 133.82493359999998, 34.6693506 ], [ 133.813161399999984, 34.6677603 ] ] ] ] } },
{ "type": "Feature", "properties": { "hokenjo": "備前" }, "geometry": { "type": "MultiPolygon", "coordinates": [ [ [ [ 134.007561399999986, 34.499204399999989 ], [ 134.0189892, 34.4982103 ], [ 134.0214808, 34.5074475 ], [ 134.007561399999986, 34.499204399999989 ] ] ], [ [ [ 133.884770299999985, 34.5378992 ], [ 133.886582799999985, 34.5247942 ], [ 133.8752433, 34.5241194 ], [ 133.8664911, 34.5185206 ], [ 133.8664336, 34.5106997 ], [ 133.870415, 34.4930647 ], [ 133.8649572, 34.4923136 ], [ 133.8616039, 34.4813058 ], [ 133.8635764, 34.4763614 ], [ 133.8764464, 34.4733233 ], [ 133.880998299999987, 34.4633778 ], [ 133.8801411, 34.4568415 ], [ 133.89954, 34.4569875 ], [ 133.91017309999998, 34.4509414 ], [ 133.9347458, 34.4509125 ], [ 133.9432194, 34.4552339 ], [ 133.9436186, 34.4642936 ], [ 133.9343161, 34.4732531 ], [ 133.938029200000017, 34.4811689 ], [ 133.9476527, 34.4848325 ], [ 133.950168, 34.4927988 ], [ 133.9616347, 34.4920381 ], [ 133.9648106, 34.49522 ], [ 133.956477399999983, 34.5059708 ], [ 133.961660099999989, 34.5135262 ], [ 133.959473800000012, 34.5227151 ], [ 133.968796699999984, 34.5300685 ], [ 133.9778446, 34.533066 ], [ 133.987360599999988, 34.5306799 ], [ 133.993135099999989, 34.5184658 ], [ 133.9978649, 34.5210979 ], [ 133.9955109, 34.5337372 ], [ 134.0011753, 34.545524199999988 ], [ 134.0102181, 34.5507975 ], [ 134.0162339, 34.5447758 ], [ 134.028595599999989, 34.55484 ], [ 134.030981699999984, 34.5700237 ], [ 134.0341784, 34.5737676 ], [ 134.028885799999983, 34.5784408 ], [ 134.0230675, 34.5752728 ], [ 134.0143706, 34.5777136 ], [ 134.010163299999988, 34.5749644 ], [ 133.9871861, 34.5775744 ], [ 133.9822433, 34.5721358 ], [ 133.9825161, 34.5669908 ], [ 133.9771122, 34.5598053 ], [ 133.966080799999986, 34.5585817 ], [ 133.961723299999989, 34.5662606 ], [ 133.9387528, 34.5764383 ], [ 133.9197111, 34.5449353 ], [ 133.902216399999986, 34.536948599999988 ], [ 133.893304699999987, 34.5428942 ], [ 133.884770299999985, 34.5378992 ] ] ], [ [ [ 134.1163403, 34.6274369 ], [ 134.1096511, 34.6056303 ], [ 134.1128675, 34.6007889 ], [ 134.112186899999983, 34.5884678 ], [ 134.11842679999998, 34.5898116 ], [ 134.1279764, 34.5985472 ], [ 134.138378599999982, 34.5995459 ], [ 134.1343622, 34.6078217 ], [ 134.1413267, 34.60785 ], [ 134.1539061, 34.6153569 ], [ 134.16221969999998, 34.6164506 ], [ 134.1666286, 34.6130464 ], [ 134.173154399999987, 34.6173373 ], [ 134.1790733, 34.6317436 ], [ 134.174565, 34.6340891 ], [ 134.1720453, 34.6495797 ], [ 134.1766, 34.6537494 ], [ 134.1885264, 34.6508058 ], [ 134.195248099999986, 34.6582653 ], [ 134.1927981, 34.6649625 ], [ 134.202621900000025, 34.6636489 ], [ 134.2066821, 34.6701489 ], [ 134.2179094, 34.6758042 ], [ 134.2276779, 34.6879603 ], [ 134.235426099999984, 34.6915039 ], [ 134.2378553, 34.6976642 ], [ 134.245281399999982, 34.7010528 ], [ 134.229366, 34.714755 ], [ 134.2201632, 34.708593 ], [ 134.205537099999987, 34.7107256 ], [ 134.193936, 34.7201498 ], [ 134.2043798, 34.7227668 ], [ 134.207976799999983, 34.7300354 ], [ 134.22934, 34.7311042 ], [ 134.231979, 34.7226891 ], [ 134.2440569, 34.7152651 ], [ 134.251720299999988, 34.7184271 ], [ 134.2685873, 34.7191778 ], [ 134.271114899999986, 34.7262606 ], [ 134.2790355, 34.73394 ], [ 134.29811, 34.7365447 ], [ 134.3151298, 34.7322069 ], [ 134.313026899999983, 34.7383972 ], [ 134.3166197, 34.7441292 ], [ 134.318448599999982, 34.7562611 ], [ 134.321530599999988, 34.7617092 ], [ 134.3330664, 34.7657369 ], [ 134.329599699999989, 34.7742381 ], [ 134.3232681, 34.7742558 ], [ 134.3158278, 34.7810408 ], [ 134.3192094, 34.7881878 ], [ 134.3163614, 34.8025744 ], [ 134.31128529999998, 34.8025522 ], [ 134.3073508, 34.8109233 ], [ 134.2879314, 34.8215594 ], [ 134.283346699999981, 34.829745 ], [ 134.2662953, 34.825641399999988 ], [ 134.261730299999982, 34.8311486 ], [ 134.2646114, 34.8373128 ], [ 134.2609639, 34.8469675 ], [ 134.2545575, 34.8492625 ], [ 134.254000599999983, 34.8569583 ], [ 134.267075299999988, 34.8754778 ], [ 134.269292799999988, 34.8890911 ], [ 134.2777908, 34.8951408 ], [ 134.2891481, 34.8976911 ], [ 134.295015, 34.9074625 ], [ 134.284019199999989, 34.9169661 ], [ 134.2844917, 34.9210347 ], [ 134.2747994, 34.9242803 ], [ 134.2760964, 34.9296803 ], [ 134.2628842, 34.9376569 ], [ 134.253727199999986, 34.9390869 ], [ 134.2542025, 34.9460036 ], [ 134.2356361, 34.9374244 ], [ 134.2359883, 34.929555 ], [ 134.226398099999983, 34.9235358 ], [ 134.2264108, 34.9103228 ], [ 134.2239478, 34.9071847 ], [ 134.205320799999981, 34.9104703 ], [ 134.2022086, 34.9148822 ], [ 134.1949194, 34.9109681 ], [ 134.194938899999983, 34.9012581 ], [ 134.199692199999987, 34.8942964 ], [ 134.196925, 34.8910117 ], [ 134.1921381, 34.8902961 ], [ 134.1864053, 34.8973342 ], [ 134.171940299999989, 34.8987292 ], [ 134.1657583, 34.8809442 ], [ 134.160685799999982, 34.8810839 ], [ 134.15386, 34.8877356 ], [ 134.1386728, 34.8872189 ], [ 134.1243572, 34.8905594 ], [ 134.125426399999981, 34.9078061 ], [ 134.127355, 34.9135764 ], [ 134.120162199999982, 34.9160736 ], [ 134.110896699999984, 34.9108753 ], [ 134.1024358, 34.9226803 ], [ 134.0985906, 34.9233922 ], [ 134.088002499999988, 34.9293861 ], [ 134.091340299999985, 34.9364942 ], [ 134.08616139999998, 34.9426408 ], [ 134.0726536, 34.9412664 ], [ 134.0672922, 34.9368192 ], [ 134.058954199999988, 34.9394128 ], [ 134.0517456, 34.9370678 ], [ 134.0410617, 34.9433264 ], [ 134.0335983, 34.9441272 ], [ 134.0250936, 34.9508139 ], [ 134.0160311, 34.9383453 ], [ 134.0116219, 34.921430799999989 ], [ 134.0011653, 34.9022186 ], [ 134.004386899999986, 34.8960461 ], [ 133.999056699999983, 34.890595 ], [ 133.9878192, 34.8867417 ], [ 133.9794833, 34.8863197 ], [ 133.9762547, 34.8804411 ], [ 133.963693899999981, 34.8742578 ], [ 133.955354699999987, 34.8727308 ], [ 133.9611094, 34.8680142 ], [ 133.968289700000014, 34.8531528 ], [ 133.977566699999983, 34.8471322 ], [ 133.9819314, 34.8550442 ], [ 133.9939853, 34.8500728 ], [ 133.99281689999998, 34.8412928 ], [ 133.9877425, 34.8357594 ], [ 133.9912036, 34.8270811 ], [ 133.9870867, 34.8182564 ], [ 133.9855508, 34.8070033 ], [ 133.9736706, 34.8025683 ], [ 133.961704199999986, 34.7860122 ], [ 133.970290299999988, 34.7842244 ], [ 133.980683299999981, 34.7786419 ], [ 133.9766214, 34.7692708 ], [ 133.985851699999984, 34.7613286 ], [ 133.9714219, 34.7494333 ], [ 133.984093900000033, 34.7394994 ], [ 133.98653, 34.7334767 ], [ 133.9939633, 34.7265397 ], [ 133.9935892, 34.7196414 ], [ 134.0004897, 34.7262278 ], [ 134.028703899999982, 34.7378206 ], [ 134.035470299999986, 34.7443203 ], [ 134.045313599999986, 34.7492067 ], [ 134.0512186, 34.7614747 ], [ 134.048876399999983, 34.7665522 ], [ 134.058246699999984, 34.7678119 ], [ 134.064552500000019, 34.7798383 ], [ 134.081042200000013, 34.7828847 ], [ 134.0870453, 34.781955 ], [ 134.0929103, 34.7701414 ], [ 134.0902178, 34.7626428 ], [ 134.1090725, 34.7608394 ], [ 134.1193436, 34.7572117 ], [ 134.1225239, 34.7529111 ], [ 134.1197339, 34.7476128 ], [ 134.106202199999984, 34.7420675 ], [ 134.102298099999985, 34.7266822 ], [ 134.0929903, 34.7143364 ], [ 134.083389399999987, 34.7061206 ], [ 134.084159699999987, 34.6989844 ], [ 134.077733599999988, 34.6819769 ], [ 134.072541699999988, 34.6766189 ], [ 134.060198899999989, 34.6701447 ], [ 134.05193, 34.6592122 ], [ 134.0582139, 34.6517903 ], [ 134.066836699999982, 34.6476983 ], [ 134.077309800000023, 34.6500975 ], [ 134.0730739, 34.6378561 ], [ 134.0800036, 34.6324719 ], [ 134.086308299999985, 34.6325186 ], [ 134.101294699999983, 34.6395125 ], [ 134.1163403, 34.6274369 ] ] ], [ [ [ 133.850315, 34.9159811 ], [ 133.8472467, 34.9221347 ], [ 133.8517736, 34.9265686 ], [ 133.8502408, 34.9343803 ], [ 133.844171100000011, 34.9449686 ], [ 133.835567199999986, 34.9449917 ], [ 133.8313747, 34.9515583 ], [ 133.8223494, 34.9529906 ], [ 133.8113181, 34.9462794 ], [ 133.80686, 34.9400964 ], [ 133.798505299999988, 34.9393786 ], [ 133.7980828, 34.9331283 ], [ 133.7926089, 34.9289233 ], [ 133.775104199999987, 34.9334544 ], [ 133.7664864, 34.9371844 ], [ 133.7618933, 34.9524872 ], [ 133.7554125, 34.9520614 ], [ 133.7501067, 34.9455914 ], [ 133.742225, 34.9456397 ], [ 133.7337628, 34.950257199999989 ], [ 133.7238475, 34.9487472 ], [ 133.7169294, 34.9553581 ], [ 133.7140772, 34.9525236 ], [ 133.7189133, 34.9455392 ], [ 133.7203356, 34.9334858 ], [ 133.712005299999987, 34.9198675 ], [ 133.7175203, 34.9087186 ], [ 133.7115717, 34.9051083 ], [ 133.7046978, 34.8928078 ], [ 133.6937419, 34.89141 ], [ 133.6813603, 34.8815367 ], [ 133.6633061, 34.87416 ], [ 133.664571699999982, 34.8646903 ], [ 133.6544692, 34.85096 ], [ 133.64778530000001, 34.8475006 ], [ 133.640503599999988, 34.8363017 ], [ 133.6413897, 34.8294483 ], [ 133.648492799999985, 34.8236625 ], [ 133.647745, 34.8143519 ], [ 133.6565072, 34.8046283 ], [ 133.660615, 34.7962214 ], [ 133.6613169, 34.7816 ], [ 133.6664642, 34.773385 ], [ 133.6743947, 34.7662806 ], [ 133.6798847, 34.7514136 ], [ 133.6890036, 34.7452681 ], [ 133.6916283, 34.7556897 ], [ 133.719034199999982, 34.7697042 ], [ 133.7198364, 34.7753117 ], [ 133.7400142, 34.7681317 ], [ 133.7528036, 34.7858944 ], [ 133.772916899999984, 34.7864047 ], [ 133.7741283, 34.7971219 ], [ 133.7809933, 34.8089158 ], [ 133.789047499999981, 34.8135647 ], [ 133.799347499999982, 34.8147208 ], [ 133.8076547, 34.8082831 ], [ 133.8188897, 34.8066339 ], [ 133.817609399999981, 34.8345261 ], [ 133.82837, 34.8416953 ], [ 133.8434833, 34.8446683 ], [ 133.847992799999986, 34.8536283 ], [ 133.8432383, 34.8692256 ], [ 133.8502211, 34.8794781 ], [ 133.8480744, 34.8837047 ], [ 133.8566031, 34.8952306 ], [ 133.864943899999986, 34.8964475 ], [ 133.8783958, 34.9031108 ], [ 133.874247199999985, 34.9070108 ], [ 133.8673206, 34.9053122 ], [ 133.858729399999987, 34.9124119 ], [ 133.850315, 34.9159811 ] ] ], [ [ [ 134.1836581, 34.606131399999988 ], [ 134.1946753, 34.607071399999988 ], [ 134.198983299999981, 34.6172064 ], [ 134.188448599999987, 34.6147433 ], [ 134.17751, 34.6088061 ], [ 134.16791, 34.6102511 ], [ 134.167907499999984, 34.6022022 ], [ 134.1836581, 34.606131399999988 ] ] ], [ [ [ 134.2184933, 34.6757514 ], [ 134.224604199999987, 34.6678017 ], [ 134.237355800000017, 34.6732442 ], [ 134.242137499999984, 34.6783236 ], [ 134.228857799999986, 34.6789281 ], [ 134.2184933, 34.6757514 ] ] ], [ [ [ 134.256933299999986, 34.6873522 ], [ 134.2444064, 34.6808103 ], [ 134.2564022, 34.6796486 ], [ 134.256933299999986, 34.6873522 ] ] ], [ [ [ 134.2610675, 34.6924314 ], [ 134.26867919999998, 34.7011936 ], [ 134.2590061, 34.7070267 ], [ 134.2496614, 34.6955297 ], [ 134.2553212, 34.6902307 ], [ 134.2610675, 34.6924314 ] ] ], [ [ [ 134.3230394, 34.7141011 ], [ 134.3183908, 34.7160852 ], [ 134.3109643, 34.7272325 ], [ 134.298345, 34.730201699999988 ], [ 134.292851899999988, 34.7297123 ], [ 134.2803178, 34.7223369 ], [ 134.2747019, 34.7134572 ], [ 134.2819058, 34.7067056 ], [ 134.3028683, 34.7081658 ], [ 134.306677799999989, 34.7121197 ], [ 134.3130464, 34.7035392 ], [ 134.321382199999988, 34.703145 ], [ 134.3272144, 34.7121961 ], [ 134.3469614, 34.70813 ], [ 134.3388089, 34.7197292 ], [ 134.3317778, 34.7230339 ], [ 134.3230394, 34.7141011 ] ] ] ] } },
{ "type": "Feature", "properties": { "hokenjo": "備中" }, "geometry": { "type": "MultiPolygon", "coordinates": [ [ [ [ 133.533533899999981, 34.2983281 ], [ 133.536986700000028, 34.3006169 ], [ 133.5382414, 34.3097256 ], [ 133.5259714, 34.3044958 ], [ 133.533533899999981, 34.2983281 ] ] ], [ [ [ 133.4972483, 34.3403244 ], [ 133.506906099999981, 34.3351972 ], [ 133.509476899999981, 34.3405561 ], [ 133.4982742, 34.3506261 ], [ 133.4972483, 34.3403244 ] ] ], [ [ [ 133.5449955, 34.3773745 ], [ 133.5511478, 34.3919157 ], [ 133.547134799999981, 34.4005313 ], [ 133.542638399999987, 34.4020226 ], [ 133.5274972, 34.3880421 ], [ 133.5191461, 34.3895158 ], [ 133.5176133, 34.3825128 ], [ 133.5477851, 34.369034 ], [ 133.5586181, 34.3670236 ], [ 133.557320299999986, 34.37547 ], [ 133.5449955, 34.3773745 ] ] ], [ [ [ 133.525956399999984, 34.3998839 ], [ 133.5235089, 34.4059314 ], [ 133.5247942, 34.416423099999989 ], [ 133.518667199999982, 34.4084758 ], [ 133.505839399999985, 34.4066358 ], [ 133.5051608, 34.403355 ], [ 133.513767, 34.3896895 ], [ 133.520238399999982, 34.3975611 ], [ 133.525956399999984, 34.3998839 ] ] ], [ [ [ 133.4997511, 34.42619 ], [ 133.511703600000033, 34.4260914 ], [ 133.516376899999983, 34.4319428 ], [ 133.5121532, 34.4352568 ], [ 133.5067492, 34.4333576 ], [ 133.4997511, 34.42619 ] ] ], [ [ [ 133.573241200000012, 34.4659046 ], [ 133.5787379, 34.4705182 ], [ 133.592108599999989, 34.4707311 ], [ 133.596182199999987, 34.4756275 ], [ 133.5887271, 34.4824808 ], [ 133.594155199999989, 34.4910654 ], [ 133.6037394, 34.4951434 ], [ 133.6032217, 34.5010461 ], [ 133.6075983, 34.5060694 ], [ 133.6230008, 34.5128331 ], [ 133.6232081, 34.5187656 ], [ 133.629343299999988, 34.5205542 ], [ 133.6407936, 34.5394261 ], [ 133.648957199999984, 34.5451847 ], [ 133.6427306, 34.5481186 ], [ 133.647861899999981, 34.5573072 ], [ 133.63968, 34.5606169 ], [ 133.63671309999998, 34.5694375 ], [ 133.623275299999989, 34.5804836 ], [ 133.632305, 34.5837089 ], [ 133.6493772, 34.5962511 ], [ 133.6387614, 34.6060292 ], [ 133.6333981, 34.6234825 ], [ 133.633882199999988, 34.6376783 ], [ 133.6320756, 34.6418319 ], [ 133.6454625, 34.6465958 ], [ 133.6494722, 34.6451858 ], [ 133.658864199999982, 34.6499892 ], [ 133.66656, 34.6494003 ], [ 133.668541399999981, 34.6544822 ], [ 133.678856699999983, 34.6604008 ], [ 133.6816958, 34.6576856 ], [ 133.6931894, 34.6643964 ], [ 133.696697199999988, 34.6593469 ], [ 133.710738099999986, 34.6556658 ], [ 133.7167667, 34.6564975 ], [ 133.722958299999988, 34.6480447 ], [ 133.727239699999984, 34.6468492 ], [ 133.726303299999984, 34.6308211 ], [ 133.731122199999987, 34.6221581 ], [ 133.7390567, 34.6243931 ], [ 133.745899399999985, 34.6222981 ], [ 133.7571969, 34.6314111 ], [ 133.751308099999989, 34.6342194 ], [ 133.7625931, 34.6434503 ], [ 133.7707878, 34.6402383 ], [ 133.78049249999998, 34.6443839 ], [ 133.7932433, 34.6389469 ], [ 133.7988742, 34.6405283 ], [ 133.7987733, 34.6536989 ], [ 133.801276699999988, 34.6625989 ], [ 133.7971689, 34.6666286 ], [ 133.7956369, 34.6768797 ], [ 133.8041586, 34.6846586 ], [ 133.79166859999998, 34.6985136 ], [ 133.79975109999998, 34.7110253 ], [ 133.796168599999987, 34.723255 ], [ 133.790773299999984, 34.7313244 ], [ 133.772608099999985, 34.7421461 ], [ 133.7682025, 34.7416747 ], [ 133.75623, 34.7494178 ], [ 133.749401899999981, 34.7478686 ], [ 133.739835, 34.761515 ], [ 133.7400142, 34.7681317 ], [ 133.7198364, 34.7753117 ], [ 133.719034199999982, 34.7697042 ], [ 133.6916283, 34.7556897 ], [ 133.6890036, 34.7452681 ], [ 133.6798847, 34.7514136 ], [ 133.6743947, 34.7662806 ], [ 133.6664642, 34.773385 ], [ 133.6613169, 34.7816 ], [ 133.6549839, 34.7809172 ], [ 133.648615, 34.7748192 ], [ 133.64641, 34.765915 ], [ 133.636196899999987, 34.7588496 ], [ 133.6294356, 34.7615164 ], [ 133.6203447, 34.7538325 ], [ 133.6218886, 34.750445 ], [ 133.6000386, 34.7346978 ], [ 133.5914642, 34.7256875 ], [ 133.586041100000017, 34.7253517 ], [ 133.5818189, 34.7192467 ], [ 133.5719267, 34.7195189 ], [ 133.5611975, 34.7230142 ], [ 133.55452889999998, 34.7326372 ], [ 133.55899, 34.7383747 ], [ 133.546678899999989, 34.7395733 ], [ 133.536280299999987, 34.7426456 ], [ 133.5268611, 34.7392222 ], [ 133.5202769, 34.7332794 ], [ 133.521005, 34.7262167 ], [ 133.5299833, 34.7177472 ], [ 133.5174058, 34.7093142 ], [ 133.5084278, 34.7082617 ], [ 133.5025839, 34.7037997 ], [ 133.500347799999986, 34.6948428 ], [ 133.4898892, 34.6957469 ], [ 133.4725953, 34.6900544 ], [ 133.462130799999983, 34.6838989 ], [ 133.4468192, 34.6859378 ], [ 133.4380136, 34.6904392 ], [ 133.433504699999986, 34.6960883 ], [ 133.4268042, 34.6962733 ], [ 133.418939699999981, 34.7097911 ], [ 133.4130233, 34.7136814 ], [ 133.4099467, 34.7259942 ], [ 133.3978783, 34.7355689 ], [ 133.3877283, 34.7380853 ], [ 133.3844828, 34.7434433 ], [ 133.3696483, 34.7445864 ], [ 133.3608664, 34.7345267 ], [ 133.3614567, 34.7271286 ], [ 133.369131899999985, 34.7235536 ], [ 133.3730831, 34.7079867 ], [ 133.3741747, 34.6953567 ], [ 133.3864106, 34.6853792 ], [ 133.385486899999989, 34.6775381 ], [ 133.4014106, 34.6740453 ], [ 133.4027869, 34.6670656 ], [ 133.388483899999983, 34.6434311 ], [ 133.387190299999986, 34.6363819 ], [ 133.3919156, 34.6311339 ], [ 133.3849764, 34.6253686 ], [ 133.3847728, 34.6167578 ], [ 133.39586079999998, 34.6053458 ], [ 133.3970061, 34.594884199999989 ], [ 133.40578, 34.589285 ], [ 133.4231692, 34.5855439 ], [ 133.42313249999998, 34.5786597 ], [ 133.4267328, 34.5691447 ], [ 133.4350772, 34.5657728 ], [ 133.4460297, 34.5564336 ], [ 133.4494367, 34.5427644 ], [ 133.4539297, 34.5301664 ], [ 133.447272199999986, 34.519398599999988 ], [ 133.453374699999983, 34.506735 ], [ 133.4554389, 34.4949014 ], [ 133.445872500000036, 34.4830567 ], [ 133.4492161, 34.4775177 ], [ 133.4552234, 34.4773739 ], [ 133.4563236, 34.4545381 ], [ 133.462779899999987, 34.4544662 ], [ 133.4840241, 34.4647455 ], [ 133.4902907, 34.4599628 ], [ 133.4730487, 34.4475415 ], [ 133.4778848, 34.4434156 ], [ 133.4890983, 34.4409614 ], [ 133.5009354, 34.4517253 ], [ 133.5144037, 34.4491827 ], [ 133.5241455, 34.4512159 ], [ 133.5280206, 34.4682961 ], [ 133.5193841, 34.4731312 ], [ 133.5183647, 34.479116399999988 ], [ 133.5294984, 34.4770517 ], [ 133.5320173, 34.4689424 ], [ 133.540384499999988, 34.4613836 ], [ 133.5536468, 34.4644364 ], [ 133.5606574, 34.4683046 ], [ 133.573241200000012, 34.4659046 ] ] ], [ [ [ 133.5670877, 34.3510516 ], [ 133.5724564, 34.3480717 ], [ 133.58087279999998, 34.3511344 ], [ 133.587135599999982, 34.3637283 ], [ 133.581557799999985, 34.3618764 ], [ 133.5670877, 34.3510516 ] ] ], [ [ [ 133.838286399999987, 34.5992244 ], [ 133.8343553, 34.61154 ], [ 133.8360442, 34.6199194 ], [ 133.830272799999989, 34.6278786 ], [ 133.81816809999998, 34.6211419 ], [ 133.813938899999982, 34.61284 ], [ 133.8017975, 34.60898 ], [ 133.8054567, 34.6004981 ], [ 133.8244119, 34.5962828 ], [ 133.828128599999985, 34.5916017 ], [ 133.838286399999987, 34.5992244 ] ] ] ] } },
{ "type": "Feature", "properties": { "hokenjo": "備北" }, "geometry": { "type": "MultiPolygon", "coordinates": [ [ [ [ 133.6010244, 34.9528728 ], [ 133.607415799999984, 34.9590997 ], [ 133.6216356, 34.961585 ], [ 133.619157799999982, 34.9726961 ], [ 133.6069269, 34.9880711 ], [ 133.6078542, 34.9944386 ], [ 133.5946681, 35.0000097 ], [ 133.5905075, 34.9928997 ], [ 133.5841969, 34.9964361 ], [ 133.5873053, 35.0053633 ], [ 133.5937669, 35.0079872 ], [ 133.5997161, 35.0154114 ], [ 133.6003097, 35.0206536 ], [ 133.5875397, 35.0246958 ], [ 133.5838436, 35.0313992 ], [ 133.583656099999985, 35.0395578 ], [ 133.5907703, 35.0480664 ], [ 133.585143099999982, 35.0547908 ], [ 133.5895131, 35.0725003 ], [ 133.58936749999998, 35.0794931 ], [ 133.583173599999981, 35.0870336 ], [ 133.5762578, 35.0909106 ], [ 133.574242199999986, 35.1000478 ], [ 133.575687499999987, 35.1120028 ], [ 133.583796399999983, 35.1160381 ], [ 133.586228299999988, 35.1276611 ], [ 133.591192799999988, 35.1365686 ], [ 133.5680006, 35.1490786 ], [ 133.556726699999984, 35.1487603 ], [ 133.5385808, 35.1514347 ], [ 133.5357894, 35.1577664 ], [ 133.541445, 35.1633717 ], [ 133.52611109999998, 35.1828858 ], [ 133.5191819, 35.1829106 ], [ 133.5163406, 35.1905172 ], [ 133.5080514, 35.1930917 ], [ 133.49846, 35.1882289 ], [ 133.485438099999982, 35.1864006 ], [ 133.4748453, 35.1820186 ], [ 133.466971699999988, 35.1751567 ], [ 133.459826099999987, 35.1777872 ], [ 133.4565153, 35.1731086 ], [ 133.4475564, 35.1712961 ], [ 133.438052199999987, 35.1730747 ], [ 133.4155733, 35.1847242 ], [ 133.4074392, 35.1858822 ], [ 133.3961014, 35.1805961 ], [ 133.3933619, 35.1691447 ], [ 133.398515299999985, 35.1635806 ], [ 133.400359399999985, 35.1532714 ], [ 133.405138099999988, 35.1429278 ], [ 133.4112242, 35.1387525 ], [ 133.4118258, 35.1211461 ], [ 133.4033628, 35.1143208 ], [ 133.3869939, 35.1131153 ], [ 133.3787878, 35.1146661 ], [ 133.366680799999983, 35.1101547 ], [ 133.3548739, 35.1007711 ], [ 133.347271399999983, 35.105595 ], [ 133.3382225, 35.1065628 ], [ 133.3281403, 35.0949981 ], [ 133.3194278, 35.0938561 ], [ 133.299032200000028, 35.1038044 ], [ 133.2909397, 35.1003589 ], [ 133.28826250000003, 35.095914199999989 ], [ 133.290660299999985, 35.0844239 ], [ 133.290823900000021, 35.0709439 ], [ 133.2834206, 35.0659503 ], [ 133.276911899999988, 35.0661092 ], [ 133.26692749999998, 35.0524306 ], [ 133.2744667, 35.0449767 ], [ 133.2852361, 35.0406586 ], [ 133.3029981, 35.0206506 ], [ 133.3049983, 35.0151933 ], [ 133.315703899999988, 35.0124314 ], [ 133.3212111, 35.0036286 ], [ 133.3192225, 34.9983128 ], [ 133.3217258, 34.9879256 ], [ 133.3132769, 34.98007 ], [ 133.310838099999984, 34.9746442 ], [ 133.303079199999985, 34.9720444 ], [ 133.3048925, 34.9649619 ], [ 133.2972617, 34.9560039 ], [ 133.3094456, 34.937045 ], [ 133.301873299999983, 34.9289136 ], [ 133.304631699999987, 34.9217169 ], [ 133.3029694, 34.9130844 ], [ 133.2957939, 34.9040083 ], [ 133.2980106, 34.8893394 ], [ 133.3056992, 34.8820619 ], [ 133.3094058, 34.8740428 ], [ 133.3168111, 34.8671781 ], [ 133.3240286, 34.8643558 ], [ 133.3231147, 34.8592725 ], [ 133.330664399999989, 34.855925 ], [ 133.3325906, 34.8407422 ], [ 133.3422297, 34.8302767 ], [ 133.3529864, 34.8306428 ], [ 133.358879699999989, 34.8196442 ], [ 133.367897199999987, 34.8190061 ], [ 133.3780858, 34.8083597 ], [ 133.377592199999981, 34.7970828 ], [ 133.3697967, 34.7897739 ], [ 133.3723836, 34.7800186 ], [ 133.36466, 34.7671142 ], [ 133.3659781, 34.75455 ], [ 133.3696483, 34.7445864 ], [ 133.3844828, 34.7434433 ], [ 133.3877283, 34.7380853 ], [ 133.3978783, 34.7355689 ], [ 133.4099467, 34.7259942 ], [ 133.4130233, 34.7136814 ], [ 133.418939699999981, 34.7097911 ], [ 133.4268042, 34.6962733 ], [ 133.433504699999986, 34.6960883 ], [ 133.4380136, 34.6904392 ], [ 133.4468192, 34.6859378 ], [ 133.462130799999983, 34.6838989 ], [ 133.4725953, 34.6900544 ], [ 133.4898892, 34.6957469 ], [ 133.500347799999986, 34.6948428 ], [ 133.5025839, 34.7037997 ], [ 133.5084278, 34.7082617 ], [ 133.5174058, 34.7093142 ], [ 133.5299833, 34.7177472 ], [ 133.521005, 34.7262167 ], [ 133.5202769, 34.7332794 ], [ 133.5268611, 34.7392222 ], [ 133.536280299999987, 34.7426456 ], [ 133.546678899999989, 34.7395733 ], [ 133.55899, 34.7383747 ], [ 133.55452889999998, 34.7326372 ], [ 133.5611975, 34.7230142 ], [ 133.5719267, 34.7195189 ], [ 133.5818189, 34.7192467 ], [ 133.586041100000017, 34.7253517 ], [ 133.5914642, 34.7256875 ], [ 133.6000386, 34.7346978 ], [ 133.6218886, 34.750445 ], [ 133.6203447, 34.7538325 ], [ 133.6294356, 34.7615164 ], [ 133.636196899999987, 34.7588496 ], [ 133.64641, 34.765915 ], [ 133.648615, 34.7748192 ], [ 133.6549839, 34.7809172 ], [ 133.6613169, 34.7816 ], [ 133.660615, 34.7962214 ], [ 133.6565072, 34.8046283 ], [ 133.647745, 34.8143519 ], [ 133.648492799999985, 34.8236625 ], [ 133.6413897, 34.8294483 ], [ 133.640503599999988, 34.8363017 ], [ 133.64778530000001, 34.8475006 ], [ 133.6544692, 34.85096 ], [ 133.664571699999982, 34.8646903 ], [ 133.6633061, 34.87416 ], [ 133.6813603, 34.8815367 ], [ 133.6937419, 34.89141 ], [ 133.7046978, 34.8928078 ], [ 133.7115717, 34.9051083 ], [ 133.7175203, 34.9087186 ], [ 133.712005299999987, 34.9198675 ], [ 133.7203356, 34.9334858 ], [ 133.7189133, 34.9455392 ], [ 133.7140772, 34.9525236 ], [ 133.7169294, 34.9553581 ], [ 133.70536, 34.959795799999988 ], [ 133.7027508, 34.9537925 ], [ 133.687882799999983, 34.9474369 ], [ 133.680734199999989, 34.9520653 ], [ 133.6760586, 34.9504678 ], [ 133.6719344, 34.9430422 ], [ 133.6580706, 34.9382464 ], [ 133.6479728, 34.9406764 ], [ 133.649711699999983, 34.9151503 ], [ 133.633482500000014, 34.9093681 ], [ 133.6324117, 34.9039633 ], [ 133.619301899999982, 34.900202799999988 ], [ 133.6208767, 34.9157206 ], [ 133.616978099999983, 34.9321569 ], [ 133.6130311, 34.9333075 ], [ 133.603741899999989, 34.9463256 ], [ 133.6010244, 34.9528728 ] ] ] ] } },
{ "type": "Feature", "properties": { "hokenjo": "美作" }, "geometry": { "type": "MultiPolygon", "coordinates": [ [ [ [ 134.0011653, 34.9022186 ], [ 134.0116219, 34.921430799999989 ], [ 134.0160311, 34.9383453 ], [ 134.0250936, 34.9508139 ], [ 134.0335983, 34.9441272 ], [ 134.0410617, 34.9433264 ], [ 134.0517456, 34.9370678 ], [ 134.058954199999988, 34.9394128 ], [ 134.0672922, 34.9368192 ], [ 134.0726536, 34.9412664 ], [ 134.08616139999998, 34.9426408 ], [ 134.091340299999985, 34.9364942 ], [ 134.088002499999988, 34.9293861 ], [ 134.0985906, 34.9233922 ], [ 134.1024358, 34.9226803 ], [ 134.110896699999984, 34.9108753 ], [ 134.120162199999982, 34.9160736 ], [ 134.127355, 34.9135764 ], [ 134.125426399999981, 34.9078061 ], [ 134.1243572, 34.8905594 ], [ 134.1386728, 34.8872189 ], [ 134.15386, 34.8877356 ], [ 134.160685799999982, 34.8810839 ], [ 134.1657583, 34.8809442 ], [ 134.171940299999989, 34.8987292 ], [ 134.1864053, 34.8973342 ], [ 134.1921381, 34.8902961 ], [ 134.196925, 34.8910117 ], [ 134.199692199999987, 34.8942964 ], [ 134.194938899999983, 34.9012581 ], [ 134.1949194, 34.9109681 ], [ 134.2022086, 34.9148822 ], [ 134.205320799999981, 34.9104703 ], [ 134.2239478, 34.9071847 ], [ 134.2264108, 34.9103228 ], [ 134.226398099999983, 34.9235358 ], [ 134.2359883, 34.929555 ], [ 134.2356361, 34.9374244 ], [ 134.2542025, 34.9460036 ], [ 134.25999, 34.9523064 ], [ 134.2769556, 34.9633303 ], [ 134.274295599999988, 34.9657508 ], [ 134.2770753, 34.9757886 ], [ 134.2710889, 34.9839022 ], [ 134.2778372, 34.9871075 ], [ 134.282364699999988, 34.9965931 ], [ 134.2789711, 35.001015 ], [ 134.265762199999983, 35.0049669 ], [ 134.2644383, 35.016691699999988 ], [ 134.267598099999987, 35.0215375 ], [ 134.275208099999986, 35.0233097 ], [ 134.2815881, 35.0336161 ], [ 134.297787199999988, 35.0431067 ], [ 134.305305299999986, 35.0401692 ], [ 134.3077356, 35.0455019 ], [ 134.3163319, 35.0431997 ], [ 134.3145403, 35.0609044 ], [ 134.3211594, 35.0674972 ], [ 134.319083299999988, 35.0834425 ], [ 134.3365394, 35.0887508 ], [ 134.349551099999985, 35.0902228 ], [ 134.35503079999998, 35.0994278 ], [ 134.3522839, 35.1111003 ], [ 134.3607303, 35.1203492 ], [ 134.3564303, 35.1248242 ], [ 134.3632939, 35.1355261 ], [ 134.362475599999982, 35.1400925 ], [ 134.3673933, 35.146961399999988 ], [ 134.383084699999984, 35.1524903 ], [ 134.3974719, 35.1521414 ], [ 134.4070214, 35.1473306 ], [ 134.4131611, 35.1586186 ], [ 134.4061839, 35.1657769 ], [ 134.412633299999982, 35.1776497 ], [ 134.411083099999985, 35.1869669 ], [ 134.3996742, 35.1876247 ], [ 134.39475, 35.1913539 ], [ 134.3829925, 35.1944389 ], [ 134.3813164, 35.2063469 ], [ 134.382516899999985, 35.2217244 ], [ 134.39699779999998, 35.2276183 ], [ 134.402814399999983, 35.2410244 ], [ 134.4016933, 35.2458244 ], [ 134.3897269, 35.2521219 ], [ 134.373163299999987, 35.2458806 ], [ 134.374671899999981, 35.2372442 ], [ 134.3689, 35.2317194 ], [ 134.3546603, 35.2265472 ], [ 134.3503986, 35.2228183 ], [ 134.3365536, 35.2194833 ], [ 134.3346822, 35.212892499999988 ], [ 134.3226975, 35.2027542 ], [ 134.3137944, 35.2005944 ], [ 134.298996099999982, 35.2018603 ], [ 134.281335, 35.1967033 ], [ 134.2685397, 35.2039269 ], [ 134.2609019, 35.2104567 ], [ 134.254099199999985, 35.2082925 ], [ 134.249758899999989, 35.2006806 ], [ 134.227628899999985, 35.197115 ], [ 134.2216178, 35.1904219 ], [ 134.216520299999985, 35.1894886 ], [ 134.2126436, 35.1907233 ], [ 134.192850599999986, 35.1885617 ], [ 134.1899367, 35.1758653 ], [ 134.1775983, 35.1691714 ], [ 134.1675344, 35.1718258 ], [ 134.1688936, 35.1801669 ], [ 134.1649514, 35.1879806 ], [ 134.153976699999987, 35.1946408 ], [ 134.1543436, 35.2055531 ], [ 134.1621639, 35.2164533 ], [ 134.1641842, 35.2279756 ], [ 134.1582464, 35.2345631 ], [ 134.144461899999982, 35.2313011 ], [ 134.1374753, 35.2392456 ], [ 134.1454197, 35.2428369 ], [ 134.142762799999986, 35.2494264 ], [ 134.1505789, 35.2579564 ], [ 134.1376014, 35.2695642 ], [ 134.1412975, 35.2749397 ], [ 134.135684199999986, 35.2823353 ], [ 134.1223028, 35.2810739 ], [ 134.1027928, 35.2963936 ], [ 134.0979144, 35.3032986 ], [ 134.0862975, 35.3073256 ], [ 134.08168, 35.3022569 ], [ 134.0706606, 35.2992592 ], [ 134.062198599999988, 35.3030428 ], [ 134.054656099999988, 35.2981892 ], [ 134.0441361, 35.3027556 ], [ 134.0301419, 35.3054211 ], [ 134.0078356, 35.3083978 ], [ 133.9994683, 35.3146506 ], [ 134.0041606, 35.325283299999988 ], [ 134.0153647, 35.3338642 ], [ 134.01082169999998, 35.3403961 ], [ 134.01572059999998, 35.3486953 ], [ 133.997667799999988, 35.3529003 ], [ 133.97978, 35.343409699999988 ], [ 133.9696328, 35.3478344 ], [ 133.9540711, 35.3406975 ], [ 133.945321399999983, 35.3326156 ], [ 133.9371261, 35.3355661 ], [ 133.931535300000036, 35.3332061 ], [ 133.9278233, 35.3220967 ], [ 133.9320194, 35.3179211 ], [ 133.92522169999998, 35.3068989 ], [ 133.9068375, 35.3066414 ], [ 133.8813778, 35.2939453 ], [ 133.8620086, 35.2923611 ], [ 133.8651286, 35.2858636 ], [ 133.8634631, 35.2770953 ], [ 133.8659433, 35.2722589 ], [ 133.8555567, 35.2681169 ], [ 133.8437294, 35.253485 ], [ 133.8320756, 35.2488325 ], [ 133.8181461, 35.2526342 ], [ 133.8205806, 35.2421714 ], [ 133.8143244, 35.2309061 ], [ 133.8102844, 35.2291586 ], [ 133.8165706, 35.2190028 ], [ 133.8081125, 35.2197453 ], [ 133.8000472, 35.2144461 ], [ 133.778557799999987, 35.2224364 ], [ 133.7813492, 35.2127375 ], [ 133.7725356, 35.205858299999989 ], [ 133.77849, 35.1972994 ], [ 133.779751399999981, 35.1894778 ], [ 133.7773389, 35.1806217 ], [ 133.7792503, 35.1762086 ], [ 133.77048689999998, 35.1711214 ], [ 133.7700314, 35.1557472 ], [ 133.7809564, 35.1530247 ], [ 133.782001899999983, 35.1480147 ], [ 133.792701699999981, 35.1375833 ], [ 133.802566899999988, 35.1316019 ], [ 133.816845799999982, 35.1322675 ], [ 133.8215636, 35.1272486 ], [ 133.833565, 35.1262544 ], [ 133.8346975, 35.1209067 ], [ 133.843764199999981, 35.1166931 ], [ 133.8456014, 35.1015078 ], [ 133.8365478, 35.0986986 ], [ 133.832031699999987, 35.088252499999989 ], [ 133.8354425, 35.0823244 ], [ 133.8288236, 35.0774806 ], [ 133.8223614, 35.0664389 ], [ 133.8243419, 35.0587014 ], [ 133.8226358, 35.0468175 ], [ 133.826095, 35.0446108 ], [ 133.8168286, 35.0423147 ], [ 133.8193358, 35.0356744 ], [ 133.8051108, 35.0263422 ], [ 133.802383099999986, 35.0222575 ], [ 133.784735, 35.01959 ], [ 133.7895797, 35.0097161 ], [ 133.785917499999982, 35.003085 ], [ 133.7874606, 34.9890008 ], [ 133.794103899999982, 34.9825203 ], [ 133.803865299999984, 34.9781406 ], [ 133.805174699999981, 34.9686083 ], [ 133.802324199999987, 34.9657719 ], [ 133.8076225, 34.9590642 ], [ 133.808785799999981, 34.9514842 ], [ 133.8006, 34.9532506 ], [ 133.7992, 34.9592511 ], [ 133.7809947, 34.9613014 ], [ 133.7714694, 34.9602808 ], [ 133.7618933, 34.9524872 ], [ 133.7664864, 34.9371844 ], [ 133.775104199999987, 34.9334544 ], [ 133.7926089, 34.9289233 ], [ 133.7980828, 34.9331283 ], [ 133.798505299999988, 34.9393786 ], [ 133.80686, 34.9400964 ], [ 133.8113181, 34.9462794 ], [ 133.8223494, 34.9529906 ], [ 133.8313747, 34.9515583 ], [ 133.835567199999986, 34.9449917 ], [ 133.844171100000011, 34.9449686 ], [ 133.8502408, 34.9343803 ], [ 133.854014399999983, 34.9446517 ], [ 133.860708599999981, 34.9437133 ], [ 133.8638875, 34.9371247 ], [ 133.874876100000023, 34.9398231 ], [ 133.882938100000018, 34.9483408 ], [ 133.8880986, 34.9440383 ], [ 133.9101303, 34.9438422 ], [ 133.9063353, 34.9381825 ], [ 133.908581699999985, 34.9265772 ], [ 133.900536100000011, 34.9225847 ], [ 133.9062731, 34.9182211 ], [ 133.8941728, 34.90959 ], [ 133.902566399999984, 34.9014872 ], [ 133.9092306, 34.9066553 ], [ 133.922231899999986, 34.9008308 ], [ 133.9305558, 34.8878389 ], [ 133.9384986, 34.883939399999988 ], [ 133.9278431, 34.8746633 ], [ 133.9374622, 34.8709728 ], [ 133.955354699999987, 34.8727308 ], [ 133.963693899999981, 34.8742578 ], [ 133.9762547, 34.8804411 ], [ 133.9794833, 34.8863197 ], [ 133.9878192, 34.8867417 ], [ 133.999056699999983, 34.890595 ], [ 134.004386899999986, 34.8960461 ], [ 134.0011653, 34.9022186 ] ] ] ] } }
]
}
