{
"type": "FeatureCollection",
"name": "osaka_block",
"crs": { "type": "name", "properties": { "name": "urn:ogc:def:crs:OGC:1.3:CRS84" } },
"features": [
{ "type": "Feature", "properties": { "hokenjo": "堺市" }, "geometry": { "type": "MultiPolygon", "coordinates": [ [ [ [ 135.5349689, 34.4929158 ], [ 135.5397058, 34.5010867 ], [ 135.5343205, 34.5079805 ], [ 135.532643899999982, 34.5146111 ], [ 135.5407033, 34.5111428 ], [ 135.5463839, 34.5180081 ], [ 135.5531308, 34.518026399999989 ], [ 135.555048299999982, 34.5279578 ], [ 135.5628553, 34.5252197 ], [ 135.566536899999988, 34.5135422 ], [ 135.5821372, 34.5106675 ], [ 135.582216099999982, 34.5187764 ], [ 135.5871975, 34.5317978 ], [ 135.5725875, 34.5484378 ], [ 135.5672022, 34.5600094 ], [ 135.5531856, 34.5538975 ], [ 135.5490983, 34.5598572 ], [ 135.5480375, 34.5659103 ], [ 135.5372606, 34.5655883 ], [ 135.5317603, 34.5766411 ], [ 135.522424699999988, 34.5766556 ], [ 135.52199, 34.5943353 ], [ 135.5027776, 34.5861607 ], [ 135.4952514, 34.5943108 ], [ 135.486961899999983, 34.5960142 ], [ 135.4465386, 34.6083286 ], [ 135.4375547, 34.6081708 ], [ 135.4465658, 34.6018612 ], [ 135.4438279, 34.5976607 ], [ 135.4235421, 34.6049174 ], [ 135.4255494, 34.5933448 ], [ 135.44939, 34.5869707 ], [ 135.4533305, 34.5664897 ], [ 135.445297399999987, 34.5674106 ], [ 135.4415094, 34.5829493 ], [ 135.4261899, 34.5896237 ], [ 135.4294295, 34.5707042 ], [ 135.4208171, 34.5696791 ], [ 135.4157625, 34.5937287 ], [ 135.402066, 34.5996726 ], [ 135.410539, 34.5607473 ], [ 135.430487299999982, 34.5607697 ], [ 135.444786, 34.5572208 ], [ 135.4376968, 34.5410605 ], [ 135.446089199999989, 34.5368792 ], [ 135.4482286, 34.5294808 ], [ 135.4595014, 34.5198781 ], [ 135.454654399999981, 34.51514 ], [ 135.460699200000022, 34.5121058 ], [ 135.4650256, 34.499745 ], [ 135.4662003, 34.4830094 ], [ 135.478201399999989, 34.4709039 ], [ 135.4785133, 34.4648989 ], [ 135.4896272, 34.4603464 ], [ 135.4972553, 34.4515742 ], [ 135.50077779999998, 34.4336783 ], [ 135.519589699999983, 34.4311708 ], [ 135.5220364, 34.4401472 ], [ 135.533635299999986, 34.448615 ], [ 135.545386399999984, 34.462325 ], [ 135.5420614, 34.4665042 ], [ 135.5352658, 34.4798467 ], [ 135.5349689, 34.4929158 ] ] ], [ [ [ 135.430662899999987, 34.5538161 ], [ 135.426247499999988, 34.5470905 ], [ 135.4363635, 34.5425832 ], [ 135.440958699999982, 34.5542586 ], [ 135.430662899999987, 34.5538161 ] ] ] ] } },
{ "type": "Feature", "properties": { "hokenjo": "三島" }, "geometry": { "type": "MultiPolygon", "coordinates": [ [ [ [ 135.602274699999981, 34.7805083 ], [ 135.6142581, 34.7915067 ], [ 135.6200375, 34.8057722 ], [ 135.6403258, 34.8161283 ], [ 135.646323099999989, 34.8298172 ], [ 135.6473758, 34.841855599999988 ], [ 135.6517906, 34.8492694 ], [ 135.6652306, 34.8554428 ], [ 135.672755599999988, 34.8700311 ], [ 135.6799222, 34.8813414 ], [ 135.6826944, 34.8878422 ], [ 135.6746372, 34.9001781 ], [ 135.6485022, 34.9095475 ], [ 135.6485356, 34.9259861 ], [ 135.642765, 34.9306622 ], [ 135.6281083, 34.9337333 ], [ 135.6151994, 34.9276247 ], [ 135.6011111, 34.9297169 ], [ 135.610801399999986, 34.93974 ], [ 135.618792499999984, 34.9588164 ], [ 135.613263599999982, 34.9711953 ], [ 135.6033189, 34.9711486 ], [ 135.5892422, 34.967221099999989 ], [ 135.584667500000023, 34.97514 ], [ 135.5709267, 34.9697883 ], [ 135.571231100000034, 34.9639156 ], [ 135.5785778, 34.955885 ], [ 135.5631314, 34.9536639 ], [ 135.5618436, 34.9377647 ], [ 135.5810533, 34.9370358 ], [ 135.581258099999985, 34.9224517 ], [ 135.5731164, 34.9168308 ], [ 135.5533283, 34.9155483 ], [ 135.5360072, 34.9209164 ], [ 135.525376699999981, 34.9288017 ], [ 135.5249069, 34.9202553 ], [ 135.516977199999985, 34.9113722 ], [ 135.5112519, 34.9000444 ], [ 135.5028489, 34.8959581 ], [ 135.49590139999998, 34.8811483 ], [ 135.4995264, 34.8775175 ], [ 135.503254199999986, 34.8700319 ], [ 135.5117258, 34.8743622 ], [ 135.5144656, 34.8600714 ], [ 135.5228219, 34.8520011 ], [ 135.5262219, 34.8307925 ], [ 135.5239861, 34.82624 ], [ 135.5299942, 34.8163444 ], [ 135.5531872, 34.8088639 ], [ 135.551933599999984, 34.7935622 ], [ 135.5368128, 34.7865472 ], [ 135.548772499999984, 34.7684531 ], [ 135.550763599999982, 34.7571522 ], [ 135.5605286, 34.7539919 ], [ 135.57305359999998, 34.7575997 ], [ 135.5870061, 34.7675222 ], [ 135.602274699999981, 34.7805083 ] ] ] ] } },
{ "type": "Feature", "properties": { "hokenjo": "泉州" }, "geometry": { "type": "MultiPolygon", "coordinates": [ [ [ [ 135.1806617, 34.2798878 ], [ 135.1916114, 34.286465 ], [ 135.202652799999981, 34.2876219 ], [ 135.2080431, 34.3082025 ], [ 135.225005600000031, 34.3008614 ], [ 135.235523299999983, 34.3036356 ], [ 135.2465958, 34.3132861 ], [ 135.2579244, 34.3156786 ], [ 135.2727367, 34.3122075 ], [ 135.2825522, 34.3178756 ], [ 135.291635600000035, 34.2995481 ], [ 135.302643599999982, 34.3048781 ], [ 135.3039675, 34.3137147 ], [ 135.3131603, 34.3140936 ], [ 135.324198599999988, 34.3191319 ], [ 135.3391356, 34.3294297 ], [ 135.3388942, 34.3349617 ], [ 135.3461939, 34.3305031 ], [ 135.3589772, 34.3330397 ], [ 135.3617056, 34.3293461 ], [ 135.374138099999982, 34.3309631 ], [ 135.3803447, 34.3284442 ], [ 135.4054275, 34.3338544 ], [ 135.4092214, 34.3419381 ], [ 135.4247867, 34.3399703 ], [ 135.434290299999986, 34.3482264 ], [ 135.4531278, 34.3498611 ], [ 135.457585, 34.347335 ], [ 135.4777397, 34.3535539 ], [ 135.4853761, 34.3628325 ], [ 135.490785599999981, 34.3729133 ], [ 135.511792499999984, 34.3816119 ], [ 135.5197114, 34.3883439 ], [ 135.5202761, 34.3987317 ], [ 135.5253672, 34.40843 ], [ 135.5265392, 34.4248889 ], [ 135.519589699999983, 34.4311708 ], [ 135.50077779999998, 34.4336783 ], [ 135.4972553, 34.4515742 ], [ 135.4896272, 34.4603464 ], [ 135.4785133, 34.4648989 ], [ 135.478201399999989, 34.4709039 ], [ 135.4662003, 34.4830094 ], [ 135.4650256, 34.499745 ], [ 135.460699200000022, 34.5121058 ], [ 135.454654399999981, 34.51514 ], [ 135.4595014, 34.5198781 ], [ 135.4482286, 34.5294808 ], [ 135.446089199999989, 34.5368792 ], [ 135.4376968, 34.5410605 ], [ 135.431942099999986, 34.5323321 ], [ 135.4188762, 34.5194822 ], [ 135.4103643, 34.5229125 ], [ 135.406475299999983, 34.5169858 ], [ 135.3875246, 34.5143691 ], [ 135.3783348, 34.5318931 ], [ 135.367161399999986, 34.5170446 ], [ 135.37783, 34.507845 ], [ 135.370873, 34.5003996 ], [ 135.37027759999998, 34.490189 ], [ 135.3773721, 34.4865116 ], [ 135.374318599999981, 34.4758842 ], [ 135.3638044, 34.4776151 ], [ 135.359418, 34.4597992 ], [ 135.353465299999982, 34.4513539 ], [ 135.337155199999984, 34.4457639 ], [ 135.32904990000003, 34.434326899999988 ], [ 135.3248998, 34.4369373 ], [ 135.313772199999988, 34.4266207 ], [ 135.3095419, 34.4170689 ], [ 135.293383799999987, 34.4140517 ], [ 135.288818, 34.4036239 ], [ 135.2798013, 34.3953928 ], [ 135.2637904, 34.3810791 ], [ 135.2507042, 34.3769632 ], [ 135.2255701, 34.3494776 ], [ 135.2159988, 34.3439506 ], [ 135.202796899999981, 34.342574899999988 ], [ 135.193123899999989, 34.3381317 ], [ 135.176681799999983, 34.3378582 ], [ 135.163817699999981, 34.3315126 ], [ 135.1529409, 34.3311473 ], [ 135.14131949999998, 34.3182184 ], [ 135.1301391, 34.3204803 ], [ 135.1305566, 34.3261737 ], [ 135.1014616, 34.3192866 ], [ 135.106412799999987, 34.3058008 ], [ 135.0969342, 34.2971036 ], [ 135.0986969, 34.2890364 ], [ 135.1090725, 34.2826658 ], [ 135.1102956, 34.2737864 ], [ 135.1320878, 34.2723517 ], [ 135.14648219999998, 34.2836483 ], [ 135.1574067, 34.2770842 ], [ 135.171524399999981, 34.2805942 ], [ 135.1806617, 34.2798878 ] ] ], [ [ [ 135.230462499999987, 34.4298292 ], [ 135.2191228, 34.4222237 ], [ 135.2276872, 34.4134758 ], [ 135.24034, 34.4228948 ], [ 135.251999899999987, 34.4298548 ], [ 135.2651325, 34.4377991 ], [ 135.251759, 34.4441224 ], [ 135.241604199999983, 34.4373001 ], [ 135.2399196, 34.4385033 ], [ 135.2524152, 34.4469268 ], [ 135.241582599999987, 34.4552244 ], [ 135.2293252, 34.4460493 ], [ 135.2180488, 34.4384959 ], [ 135.2011645, 34.4280918 ], [ 135.206170899999989, 34.4231067 ], [ 135.2216259, 34.4334872 ], [ 135.228890700000022, 34.4309257 ], [ 135.230462499999987, 34.4298292 ] ] ], [ [ [ 135.33300890000001, 34.4447267 ], [ 135.342126899999982, 34.4508441 ], [ 135.3472078, 34.458686 ], [ 135.3390747, 34.4692983 ], [ 135.3407867, 34.4669292 ], [ 135.3280728, 34.4497942 ], [ 135.33300890000001, 34.4447267 ] ] ], [ [ [ 135.3491018, 34.4680679 ], [ 135.3595709, 34.4737023 ], [ 135.3529452, 34.4801661 ], [ 135.3547801, 34.4887039 ], [ 135.3491018, 34.4680679 ] ] ], [ [ [ 135.393845299999981, 34.531429 ], [ 135.3883574, 34.5240049 ], [ 135.3950433, 34.5173226 ], [ 135.4011089, 34.5274203 ], [ 135.393845299999981, 34.531429 ] ] ], [ [ [ 135.4363635, 34.5425832 ], [ 135.426247499999988, 34.5470905 ], [ 135.420231699999988, 34.5379782 ], [ 135.4121994, 34.5435342 ], [ 135.4052619, 34.5472339 ], [ 135.399165899999986, 34.5364896 ], [ 135.404598600000014, 34.5301364 ], [ 135.417714499999988, 34.5242419 ], [ 135.430669199999983, 34.5340033 ], [ 135.4363635, 34.5425832 ] ] ] ] } },
{ "type": "Feature", "properties": { "hokenjo": "大阪市西部" }, "geometry": { "type": "MultiPolygon", "coordinates": [ [ [ [ 135.3532904, 34.6324109 ], [ 135.3439817, 34.6227253 ], [ 135.349357, 34.6200696 ], [ 135.3586359, 34.6275913 ], [ 135.3532904, 34.6324109 ] ] ], [ [ [ 135.481078900000028, 34.6550181 ], [ 135.480536699999988, 34.6681375 ], [ 135.4967328, 34.6690089 ], [ 135.4974708, 34.6928664 ], [ 135.481191699999982, 34.6846461 ], [ 135.491003299999988, 34.6936733 ], [ 135.474437199999983, 34.7069722 ], [ 135.4739289, 34.7066825 ], [ 135.4543792, 34.727077799999989 ], [ 135.4455561, 34.7290819 ], [ 135.4458128, 34.7180864 ], [ 135.4295789, 34.7113472 ], [ 135.424565799999982, 34.7058967 ], [ 135.407294, 34.697096099999989 ], [ 135.4220702, 34.6833333 ], [ 135.4166667, 34.6732101 ], [ 135.418082699999985, 34.6595218 ], [ 135.4263053, 34.6557449 ], [ 135.42813289999998, 34.6511501 ], [ 135.444121900000027, 34.644460099999989 ], [ 135.4504121, 34.6459183 ], [ 135.4485019, 34.6264658 ], [ 135.454133899999988, 34.6247078 ], [ 135.473683099999988, 34.6294592 ], [ 135.4789317, 34.6403383 ], [ 135.481078900000028, 34.6550181 ] ] ], [ [ [ 135.404523499999982, 34.6537181 ], [ 135.399728, 34.6569436 ], [ 135.379625299999987, 34.6609181 ], [ 135.372900099999981, 34.6520762 ], [ 135.37893889999998, 34.6431892 ], [ 135.3927957, 34.6418386 ], [ 135.404523499999982, 34.6537181 ] ] ], [ [ [ 135.4097842, 34.6590491 ], [ 135.409390400000035, 34.6687873 ], [ 135.4026207, 34.6731802 ], [ 135.3880494, 34.6678356 ], [ 135.387922, 34.6627464 ], [ 135.4097842, 34.6590491 ] ] ] ] } },
{ "type": "Feature", "properties": { "hokenjo": "大阪市東部" }, "geometry": { "type": "MultiPolygon", "coordinates": [ [ [ [ 135.557074199999988, 34.6642717 ], [ 135.5622028, 34.6679139 ], [ 135.5634014, 34.6780222 ], [ 135.5656378, 34.6877517 ], [ 135.579520299999984, 34.6896647 ], [ 135.584836699999983, 34.6986194 ], [ 135.5949939, 34.7034994 ], [ 135.59935, 34.7146922 ], [ 135.589848599999982, 34.7137011 ], [ 135.58426, 34.7223714 ], [ 135.58287, 34.7173886 ], [ 135.5676258, 34.7177783 ], [ 135.56025, 34.71504 ], [ 135.546845599999983, 34.7153442 ], [ 135.54085139999998, 34.7114197 ], [ 135.5364017, 34.7080503 ], [ 135.5348156, 34.6954686 ], [ 135.5200822, 34.6919292 ], [ 135.4974708, 34.6928664 ], [ 135.4967328, 34.6690089 ], [ 135.480536699999988, 34.6681375 ], [ 135.481078900000028, 34.6550181 ], [ 135.484929699999981, 34.6564492 ], [ 135.506550299999986, 34.6480117 ], [ 135.5083606, 34.6476022 ], [ 135.51834359999998, 34.6451297 ], [ 135.524533900000023, 34.6484578 ], [ 135.529477499999985, 34.6444592 ], [ 135.547731699999986, 34.6363922 ], [ 135.5611433, 34.6435508 ], [ 135.557074199999988, 34.6642717 ] ] ] ] } },
{ "type": "Feature", "properties": { "hokenjo": "大阪市南部" }, "geometry": { "type": "MultiPolygon", "coordinates": [ [ [ [ 135.529477499999985, 34.6444592 ], [ 135.524533900000023, 34.6484578 ], [ 135.51834359999998, 34.6451297 ], [ 135.5083606, 34.6476022 ], [ 135.506550299999986, 34.6480117 ], [ 135.484929699999981, 34.6564492 ], [ 135.481078900000028, 34.6550181 ], [ 135.4789317, 34.6403383 ], [ 135.473683099999988, 34.6294592 ], [ 135.454133899999988, 34.6247078 ], [ 135.4485019, 34.6264658 ], [ 135.4312874, 34.6218068 ], [ 135.4375547, 34.6081708 ], [ 135.4465386, 34.6083286 ], [ 135.486961899999983, 34.5960142 ], [ 135.4952514, 34.5943108 ], [ 135.5027776, 34.5861607 ], [ 135.52199, 34.5943353 ], [ 135.5225031, 34.594575 ], [ 135.543462799999986, 34.5994242 ], [ 135.5435783, 34.5951953 ], [ 135.56716, 34.5955356 ], [ 135.5768344, 34.5930725 ], [ 135.586929699999985, 34.6091397 ], [ 135.5751819, 34.6182358 ], [ 135.5746842, 34.6321814 ], [ 135.5611433, 34.6435508 ], [ 135.547731699999986, 34.6363922 ], [ 135.529477499999985, 34.6444592 ] ] ], [ [ [ 135.4184296, 34.6195464 ], [ 135.399501099999981, 34.6207189 ], [ 135.389658699999984, 34.6282764 ], [ 135.399441599999989, 34.6206555 ], [ 135.4026652, 34.6121116 ], [ 135.420427599999982, 34.6129164 ], [ 135.4184296, 34.6195464 ] ] ], [ [ [ 135.4393005, 34.6412128 ], [ 135.4323468, 34.6440203 ], [ 135.416943799999984, 34.6446371 ], [ 135.3985113, 34.6381675 ], [ 135.4104298, 34.6258657 ], [ 135.4221015, 34.6219506 ], [ 135.441696, 34.6292068 ], [ 135.4393005, 34.6412128 ] ] ] ] } },
{ "type": "Feature", "properties": { "hokenjo": "大阪市北部" }, "geometry": { "type": "MultiPolygon", "coordinates": [ [ [ [ 135.4974708, 34.6928664 ], [ 135.5200822, 34.6919292 ], [ 135.5348156, 34.6954686 ], [ 135.5364017, 34.7080503 ], [ 135.54085139999998, 34.7114197 ], [ 135.546845599999983, 34.7153442 ], [ 135.56025, 34.71504 ], [ 135.5676258, 34.7177783 ], [ 135.5534006, 34.733095 ], [ 135.560286100000013, 34.7368342 ], [ 135.5564353, 34.7460808 ], [ 135.5605286, 34.7539919 ], [ 135.550763599999982, 34.7571522 ], [ 135.548772499999984, 34.7684531 ], [ 135.532364699999988, 34.7594172 ], [ 135.5316081, 34.7523389 ], [ 135.5250997, 34.74785 ], [ 135.5157931, 34.7496814 ], [ 135.5067142, 34.7447294 ], [ 135.4951858, 34.7513656 ], [ 135.487912199999982, 34.74981 ], [ 135.48105, 34.7381414 ], [ 135.4669597, 34.7306956 ], [ 135.460295, 34.7331356 ], [ 135.4489869, 34.7340972 ], [ 135.4455561, 34.7290819 ], [ 135.4543792, 34.727077799999989 ], [ 135.4739289, 34.7066825 ], [ 135.474437199999983, 34.7069722 ], [ 135.491003299999988, 34.6936733 ], [ 135.481191699999982, 34.6846461 ], [ 135.4974708, 34.6928664 ] ] ] ] } },
{ "type": "Feature", "properties": { "hokenjo": "中河内" }, "geometry": { "type": "MultiPolygon", "coordinates": [ [ [ [ 135.6517925, 34.60681 ], [ 135.6567958, 34.6117367 ], [ 135.6631961, 34.6295208 ], [ 135.6642872, 34.6432758 ], [ 135.6642636, 34.6499769 ], [ 135.671154699999988, 34.6610622 ], [ 135.6710536, 34.6669197 ], [ 135.6787047, 34.6777594 ], [ 135.6730981, 34.6901461 ], [ 135.6731356, 34.7000806 ], [ 135.66337249999998, 34.6988783 ], [ 135.6527911, 34.702585 ], [ 135.617835800000023, 34.7009836 ], [ 135.6078694, 34.6982011 ], [ 135.5949939, 34.7034994 ], [ 135.584836699999983, 34.6986194 ], [ 135.579520299999984, 34.6896647 ], [ 135.5656378, 34.6877517 ], [ 135.5634014, 34.6780222 ], [ 135.5622028, 34.6679139 ], [ 135.557074199999988, 34.6642717 ], [ 135.5611433, 34.6435508 ], [ 135.5746842, 34.6321814 ], [ 135.5751819, 34.6182358 ], [ 135.586929699999985, 34.6091397 ], [ 135.5768344, 34.5930725 ], [ 135.584695, 34.5884378 ], [ 135.6011561, 34.5834869 ], [ 135.608436899999987, 34.5887161 ], [ 135.627593099999984, 34.5776847 ], [ 135.6216389, 34.5642783 ], [ 135.6220428, 34.5537608 ], [ 135.6531867, 34.54699 ], [ 135.657780299999985, 34.5613192 ], [ 135.6733542, 34.5716314 ], [ 135.6706003, 34.5762011 ], [ 135.6817589, 34.5847783 ], [ 135.674907499999989, 34.6017153 ], [ 135.6611686, 34.6019125 ], [ 135.6517925, 34.60681 ] ] ] ] } },
{ "type": "Feature", "properties": { "hokenjo": "南河内" }, "geometry": { "type": "MultiPolygon", "coordinates": [ [ [ [ 135.631947199999985, 34.3830439 ], [ 135.6547147, 34.3838347 ], [ 135.6633819, 34.3965414 ], [ 135.6755528, 34.3994581 ], [ 135.680178899999987, 34.4089036 ], [ 135.6694219, 34.4136753 ], [ 135.6653294, 34.4242406 ], [ 135.6786119, 34.4323567 ], [ 135.6869781, 34.4514608 ], [ 135.6824081, 34.4560453 ], [ 135.6821675, 34.4652453 ], [ 135.6848056, 34.4835981 ], [ 135.678976399999982, 34.4930558 ], [ 135.6753167, 34.505735 ], [ 135.6769275, 34.5255314 ], [ 135.6679489, 34.5310486 ], [ 135.660142799999988, 34.5410708 ], [ 135.6531867, 34.54699 ], [ 135.6220428, 34.5537608 ], [ 135.6216389, 34.5642783 ], [ 135.627593099999984, 34.5776847 ], [ 135.608436899999987, 34.5887161 ], [ 135.6011561, 34.5834869 ], [ 135.584695, 34.5884378 ], [ 135.5768344, 34.5930725 ], [ 135.56716, 34.5955356 ], [ 135.5435783, 34.5951953 ], [ 135.543462799999986, 34.5994242 ], [ 135.5225031, 34.594575 ], [ 135.52199, 34.5943353 ], [ 135.522424699999988, 34.5766556 ], [ 135.5317603, 34.5766411 ], [ 135.5372606, 34.5655883 ], [ 135.5480375, 34.5659103 ], [ 135.5490983, 34.5598572 ], [ 135.5531856, 34.5538975 ], [ 135.5672022, 34.5600094 ], [ 135.5725875, 34.5484378 ], [ 135.5871975, 34.5317978 ], [ 135.582216099999982, 34.5187764 ], [ 135.5821372, 34.5106675 ], [ 135.566536899999988, 34.5135422 ], [ 135.5628553, 34.5252197 ], [ 135.555048299999982, 34.5279578 ], [ 135.5531308, 34.518026399999989 ], [ 135.5463839, 34.5180081 ], [ 135.5407033, 34.5111428 ], [ 135.532643899999982, 34.5146111 ], [ 135.5343205, 34.5079805 ], [ 135.5397058, 34.5010867 ], [ 135.5349689, 34.4929158 ], [ 135.5352658, 34.4798467 ], [ 135.5420614, 34.4665042 ], [ 135.545386399999984, 34.462325 ], [ 135.533635299999986, 34.448615 ], [ 135.5220364, 34.4401472 ], [ 135.519589699999983, 34.4311708 ], [ 135.5265392, 34.4248889 ], [ 135.5253672, 34.40843 ], [ 135.5202761, 34.3987317 ], [ 135.5197114, 34.3883439 ], [ 135.511792499999984, 34.3816119 ], [ 135.490785599999981, 34.3729133 ], [ 135.4853761, 34.3628325 ], [ 135.4886986, 34.3563667 ], [ 135.501745, 34.3502022 ], [ 135.504895299999987, 34.3412172 ], [ 135.51204, 34.3383289 ], [ 135.5270697, 34.3511819 ], [ 135.541458299999988, 34.3576306 ], [ 135.5544394, 34.3594347 ], [ 135.563403099999988, 34.3693292 ], [ 135.577120799999989, 34.3760494 ], [ 135.594986899999981, 34.3753808 ], [ 135.5959497, 34.3792136 ], [ 135.6132656, 34.3765811 ], [ 135.6199111, 34.3844825 ], [ 135.631947199999985, 34.3830439 ] ] ] ] } },
{ "type": "Feature", "properties": { "hokenjo": "豊能" }, "geometry": { "type": "MultiPolygon", "coordinates": [ [ [ [ 135.5239861, 34.82624 ], [ 135.5262219, 34.8307925 ], [ 135.5228219, 34.8520011 ], [ 135.5144656, 34.8600714 ], [ 135.5117258, 34.8743622 ], [ 135.503254199999986, 34.8700319 ], [ 135.4995264, 34.8775175 ], [ 135.49590139999998, 34.8811483 ], [ 135.5028489, 34.8959581 ], [ 135.5112519, 34.9000444 ], [ 135.516977199999985, 34.9113722 ], [ 135.5249069, 34.9202553 ], [ 135.525376699999981, 34.9288017 ], [ 135.515021099999984, 34.9369225 ], [ 135.514702199999988, 34.943725799999989 ], [ 135.50402889999998, 34.9462869 ], [ 135.499674699999986, 34.941345 ], [ 135.490417799999989, 34.9417944 ], [ 135.484626099999986, 34.9474094 ], [ 135.4819364, 34.9652297 ], [ 135.48845559999998, 34.9665717 ], [ 135.4831628, 34.9818683 ], [ 135.4930558, 34.98767 ], [ 135.4818856, 34.9951456 ], [ 135.4712217, 34.9948047 ], [ 135.459873099999982, 35.0015869 ], [ 135.4519697, 35.001751399999989 ], [ 135.4361883, 35.0084067 ], [ 135.4228178, 35.0021094 ], [ 135.4097672, 35.0115256 ], [ 135.381550799999985, 35.0103753 ], [ 135.377693099999988, 35.0206386 ], [ 135.381688900000029, 35.0261925 ], [ 135.3800444, 35.0391064 ], [ 135.3594781, 35.0501119 ], [ 135.337895, 35.0426497 ], [ 135.3335797, 35.0351581 ], [ 135.3398028, 35.0258772 ], [ 135.3547192, 35.0246114 ], [ 135.355763599999989, 35.0165175 ], [ 135.352562799999987, 34.9903889 ], [ 135.359532799999982, 34.9825156 ], [ 135.3522442, 34.9795272 ], [ 135.345068600000019, 34.9668461 ], [ 135.3639236, 34.9562353 ], [ 135.3818858, 34.9562297 ], [ 135.3871706, 34.9466067 ], [ 135.4157558, 34.9407939 ], [ 135.4184847, 34.9338944 ], [ 135.441592499999985, 34.9393792 ], [ 135.4528186, 34.9297189 ], [ 135.4670944, 34.9287656 ], [ 135.465407199999987, 34.9195881 ], [ 135.4567103, 34.9179056 ], [ 135.4393028, 34.9205044 ], [ 135.4191003, 34.9097533 ], [ 135.4256825, 34.9067408 ], [ 135.4310822, 34.8972417 ], [ 135.4451319, 34.8954406 ], [ 135.4409382, 34.8904565 ], [ 135.437489199999987, 34.8771247 ], [ 135.4300575, 34.8610556 ], [ 135.4313583, 34.8564153 ], [ 135.4186372, 34.8494692 ], [ 135.4242286, 34.83822 ], [ 135.4237994, 34.8299475 ], [ 135.415990599999986, 34.8176928 ], [ 135.4237403, 34.8020533 ], [ 135.4291072, 34.8015228 ], [ 135.4411433, 34.791888299999989 ], [ 135.446179199999989, 34.7752872 ], [ 135.44469669999998, 34.7685292 ], [ 135.459352199999984, 34.7520319 ], [ 135.460295, 34.7331356 ], [ 135.4669597, 34.7306956 ], [ 135.48105, 34.7381414 ], [ 135.487912199999982, 34.74981 ], [ 135.4951858, 34.7513656 ], [ 135.5067142, 34.7447294 ], [ 135.5157931, 34.7496814 ], [ 135.5250997, 34.74785 ], [ 135.5316081, 34.7523389 ], [ 135.532364699999988, 34.7594172 ], [ 135.548772499999984, 34.7684531 ], [ 135.5368128, 34.7865472 ], [ 135.551933599999984, 34.7935622 ], [ 135.5531872, 34.8088639 ], [ 135.5299942, 34.8163444 ], [ 135.5239861, 34.82624 ] ] ] ] } },
{ "type": "Feature", "properties": { "hokenjo": "北河内" }, "geometry": { "type": "MultiPolygon", "coordinates": [ [ [ [ 135.6731356, 34.7000806 ], [ 135.6730819, 34.7017714 ], [ 135.6830789, 34.7112922 ], [ 135.7016917, 34.7216808 ], [ 135.7027364, 34.7251036 ], [ 135.6968278, 34.7438822 ], [ 135.7068022, 34.7486456 ], [ 135.710194699999988, 34.7559053 ], [ 135.706615, 34.7723375 ], [ 135.711968899999988, 34.7813319 ], [ 135.720233300000018, 34.7746219 ], [ 135.727752800000019, 34.7765786 ], [ 135.740674399999989, 34.7883672 ], [ 135.7465886, 34.8012444 ], [ 135.731875, 34.822669399999988 ], [ 135.7242689, 34.8232183 ], [ 135.7101711, 34.8466297 ], [ 135.7022567, 34.85173 ], [ 135.691642799999983, 34.8532922 ], [ 135.69106, 34.8684842 ], [ 135.682552200000032, 34.8721514 ], [ 135.6799222, 34.8813414 ], [ 135.672755599999988, 34.8700311 ], [ 135.6652306, 34.8554428 ], [ 135.6517906, 34.8492694 ], [ 135.6473758, 34.841855599999988 ], [ 135.646323099999989, 34.8298172 ], [ 135.6403258, 34.8161283 ], [ 135.6200375, 34.8057722 ], [ 135.6142581, 34.7915067 ], [ 135.602274699999981, 34.7805083 ], [ 135.5870061, 34.7675222 ], [ 135.57305359999998, 34.7575997 ], [ 135.5605286, 34.7539919 ], [ 135.5564353, 34.7460808 ], [ 135.560286100000013, 34.7368342 ], [ 135.5534006, 34.733095 ], [ 135.5676258, 34.7177783 ], [ 135.58287, 34.7173886 ], [ 135.58426, 34.7223714 ], [ 135.589848599999982, 34.7137011 ], [ 135.59935, 34.7146922 ], [ 135.5949939, 34.7034994 ], [ 135.6078694, 34.6982011 ], [ 135.617835800000023, 34.7009836 ], [ 135.6527911, 34.702585 ], [ 135.66337249999998, 34.6988783 ], [ 135.6731356, 34.7000806 ] ] ] ] } }
]
}
