{
"type": "FeatureCollection",
"name": "saga",
"crs": { "type": "name", "properties": { "name": "urn:ogc:def:crs:OGC:1.3:CRS84" } },
"features": [
{ "type": "Feature", "properties": { "hokenjo": "伊万里" }, "geometry": { "type": "MultiPolygon", "coordinates": [ [ [ [ 129.8973933, 33.2236556 ], [ 129.9045836, 33.2278031 ], [ 129.9216489, 33.2268244 ], [ 129.9312014, 33.2299244 ], [ 129.9363017, 33.2384817 ], [ 129.9448108, 33.2463794 ], [ 129.952905, 33.2571511 ], [ 129.9611356, 33.2547933 ], [ 129.9652867, 33.2604111 ], [ 129.9706683, 33.2614083 ], [ 129.9723922, 33.2684622 ], [ 129.9814275, 33.2749275 ], [ 130.0021428, 33.2808392 ], [ 130.0084325, 33.2795164 ], [ 130.013087499999983, 33.2820372 ], [ 130.0222597, 33.2809694 ], [ 130.0254172, 33.2830314 ], [ 130.020605, 33.2911764 ], [ 130.0151764, 33.2939819 ], [ 130.0095383, 33.3027803 ], [ 130.0090583, 33.3153072 ], [ 129.9994725, 33.3208967 ], [ 129.9933019, 33.3270383 ], [ 129.9820856, 33.3264139 ], [ 129.9678025, 33.336165 ], [ 129.9627942, 33.3462864 ], [ 129.956086699999986, 33.3462011 ], [ 129.9552522, 33.3416111 ], [ 129.9597661, 33.3285556 ], [ 129.9544033, 33.3235214 ], [ 129.9502139, 33.3352439 ], [ 129.944218299999989, 33.3448186 ], [ 129.9358772, 33.3474581 ], [ 129.9301111, 33.3572622 ], [ 129.925896099999989, 33.3575472 ], [ 129.914920599999988, 33.3782153 ], [ 129.9204722, 33.39305 ], [ 129.9131539, 33.4027319 ], [ 129.9055386, 33.4069439 ], [ 129.9042369, 33.4118286 ], [ 129.8908897, 33.4062611 ], [ 129.8818683, 33.4073814 ], [ 129.880304699999982, 33.3965475 ], [ 129.8836867, 33.3906333 ], [ 129.876312499999983, 33.3871975 ], [ 129.8650174, 33.3931867 ], [ 129.8647667, 33.3851582 ], [ 129.866891899999985, 33.3759476 ], [ 129.862808199999989, 33.3759288 ], [ 129.8591403, 33.3697552 ], [ 129.8492851, 33.3650192 ], [ 129.8510461, 33.3593203 ], [ 129.8454429, 33.3539969 ], [ 129.8439798, 33.3486213 ], [ 129.8478254, 33.3435612 ], [ 129.830484499999983, 33.3358564 ], [ 129.833354200000031, 33.3289114 ], [ 129.8409778, 33.3323599 ], [ 129.846834199999989, 33.3278264 ], [ 129.8418102, 33.323398499999989 ], [ 129.841041, 33.3168586 ], [ 129.8360955, 33.3117573 ], [ 129.828239599999989, 33.3124341 ], [ 129.8310787, 33.3042224 ], [ 129.8389286, 33.3044099 ], [ 129.8466095, 33.3008863 ], [ 129.853614100000016, 33.2937085 ], [ 129.8509422, 33.2897856 ], [ 129.8440631, 33.2931773 ], [ 129.842425599999984, 33.2868167 ], [ 129.831365799999986, 33.2936626 ], [ 129.8312827, 33.2966022 ], [ 129.8178369, 33.3149533 ], [ 129.8134288, 33.314829 ], [ 129.8028166, 33.3320018 ], [ 129.804154399999987, 33.3383597 ], [ 129.7941994, 33.3372505 ], [ 129.7893589, 33.3404775 ], [ 129.7765794, 33.3328572 ], [ 129.7691106, 33.3190558 ], [ 129.758967499999983, 33.2908511 ], [ 129.7638619, 33.2898781 ], [ 129.772471699999983, 33.2802642 ], [ 129.7800992, 33.2671633 ], [ 129.79095, 33.2573614 ], [ 129.7983997, 33.2533125 ], [ 129.8100475, 33.2426461 ], [ 129.814085799999987, 33.2363731 ], [ 129.809913599999987, 33.2303636 ], [ 129.813074699999987, 33.2212061 ], [ 129.806896699999982, 33.2111694 ], [ 129.810032799999988, 33.2023472 ], [ 129.8169892, 33.1922664 ], [ 129.817147799999987, 33.1845356 ], [ 129.8373306, 33.1741944 ], [ 129.8428678, 33.1768467 ], [ 129.853485, 33.1763381 ], [ 129.857771899999989, 33.1709283 ], [ 129.8693661, 33.1690786 ], [ 129.8789825, 33.1620381 ], [ 129.886073899999985, 33.1614564 ], [ 129.888124399999981, 33.1561672 ], [ 129.89517, 33.1597258 ], [ 129.9059403, 33.1580981 ], [ 129.911531699999983, 33.1621664 ], [ 129.9177464, 33.1600375 ], [ 129.92800889999998, 33.1640228 ], [ 129.938615299999981, 33.165375 ], [ 129.9265619, 33.174135 ], [ 129.917154399999987, 33.1715464 ], [ 129.9182217, 33.1825586 ], [ 129.912002199999989, 33.1862678 ], [ 129.9123258, 33.1975333 ], [ 129.9071519, 33.1987047 ], [ 129.9003272, 33.2203397 ], [ 129.8973933, 33.2236556 ] ] ] ] } },
{ "type": "Feature", "properties": { "hokenjo": "杵藤" }, "geometry": { "type": "MultiPolygon", "coordinates": [ [ [ [ 130.214785, 32.9523678 ], [ 130.2227312, 32.9539339 ], [ 130.2239758, 32.9582728 ], [ 130.2167652, 32.9590874 ], [ 130.214785, 32.9523678 ] ] ], [ [ [ 130.171492199999989, 33.0354558 ], [ 130.1697261, 33.0510306 ], [ 130.1615333, 33.0549125 ], [ 130.158960799999988, 33.0605778 ], [ 130.1498728, 33.0672406 ], [ 130.1461794, 33.0768678 ], [ 130.142931, 33.0795236 ], [ 130.1456574, 33.0861932 ], [ 130.1404959, 33.0944558 ], [ 130.1357247, 33.0954091 ], [ 130.1319969, 33.1042811 ], [ 130.1276569, 33.103579 ], [ 130.1295097, 33.1178301 ], [ 130.1498488, 33.1126014 ], [ 130.1688211, 33.1297363 ], [ 130.1922568, 33.1415996 ], [ 130.1901248, 33.1460717 ], [ 130.222217799999981, 33.1650273 ], [ 130.2322098, 33.1832536 ], [ 130.2312064, 33.1921419 ], [ 130.229815799999983, 33.1928778 ], [ 130.2163822, 33.1969786 ], [ 130.206685600000014, 33.1943433 ], [ 130.2004397, 33.1952314 ], [ 130.1906519, 33.2060125 ], [ 130.2000239, 33.2064572 ], [ 130.19943, 33.2140642 ], [ 130.193381099999982, 33.2143397 ], [ 130.1884667, 33.2217058 ], [ 130.1845731, 33.2198894 ], [ 130.1789575, 33.2277781 ], [ 130.1618631, 33.2290422 ], [ 130.1598114, 33.2374392 ], [ 130.1657056, 33.2437164 ], [ 130.16025, 33.2522844 ], [ 130.1444799, 33.2465192 ], [ 130.139083299999982, 33.2467355 ], [ 130.1255581, 33.2342575 ], [ 130.11197, 33.2392194 ], [ 130.1034928, 33.23508 ], [ 130.09572559999998, 33.2387572 ], [ 130.0790739, 33.2370967 ], [ 130.0694178, 33.2395642 ], [ 130.0632258, 33.2437611 ], [ 130.0554931, 33.2386689 ], [ 130.0480806, 33.2470578 ], [ 130.040052799999984, 33.2512472 ], [ 130.0274522, 33.2498333 ], [ 130.028356699999989, 33.2535394 ], [ 130.022952799999985, 33.2581258 ], [ 130.023613899999987, 33.2682344 ], [ 130.0276317, 33.2808436 ], [ 130.0254172, 33.2830314 ], [ 130.0222597, 33.2809694 ], [ 130.013087499999983, 33.2820372 ], [ 130.0084325, 33.2795164 ], [ 130.0021428, 33.2808392 ], [ 129.9814275, 33.2749275 ], [ 129.9723922, 33.2684622 ], [ 129.9706683, 33.2614083 ], [ 129.9652867, 33.2604111 ], [ 129.9611356, 33.2547933 ], [ 129.952905, 33.2571511 ], [ 129.9448108, 33.2463794 ], [ 129.9363017, 33.2384817 ], [ 129.9312014, 33.2299244 ], [ 129.9216489, 33.2268244 ], [ 129.9045836, 33.2278031 ], [ 129.8973933, 33.2236556 ], [ 129.9003272, 33.2203397 ], [ 129.9071519, 33.1987047 ], [ 129.9123258, 33.1975333 ], [ 129.912002199999989, 33.1862678 ], [ 129.9182217, 33.1825586 ], [ 129.917154399999987, 33.1715464 ], [ 129.9265619, 33.174135 ], [ 129.938615299999981, 33.165375 ], [ 129.941446899999988, 33.1599456 ], [ 129.9488536, 33.1340708 ], [ 129.9562847, 33.1286275 ], [ 129.956692799999985, 33.1182267 ], [ 129.9512853, 33.1099642 ], [ 129.9407267, 33.1128647 ], [ 129.932842199999982, 33.1110822 ], [ 129.9252725, 33.1059 ], [ 129.926763099999988, 33.1018558 ], [ 129.9223567, 33.0904933 ], [ 129.933074399999981, 33.0883442 ], [ 129.938833099999982, 33.0741639 ], [ 129.954746699999987, 33.065970299999989 ], [ 129.9640286, 33.0643511 ], [ 129.9780375, 33.0574167 ], [ 129.983288099999982, 33.0567992 ], [ 129.987586099999987, 33.0513317 ], [ 129.9941231, 33.0479833 ], [ 129.9944992, 33.0371267 ], [ 129.999697, 33.0317621 ], [ 130.0011022, 33.0256947 ], [ 130.008202499999982, 33.0198217 ], [ 130.0149519, 33.0174789 ], [ 130.027382499999987, 33.0203142 ], [ 130.0280139, 33.0124456 ], [ 130.0379158, 33.0086703 ], [ 130.0444886, 33.0041083 ], [ 130.054032399999983, 32.9916776 ], [ 130.0612269, 32.9858511 ], [ 130.0760606, 32.9875608 ], [ 130.085805, 32.9792167 ], [ 130.0888661, 32.9740572 ], [ 130.1030261, 32.97474 ], [ 130.1309197, 32.9683206 ], [ 130.1390486, 32.9686175 ], [ 130.1440561, 32.9716844 ], [ 130.1496625, 32.9627908 ], [ 130.16165669999998, 32.9612303 ], [ 130.1730608, 32.9621478 ], [ 130.1874178, 32.9588969 ], [ 130.2011611, 32.9590619 ], [ 130.2103123, 32.9565114 ], [ 130.2243748, 32.9621544 ], [ 130.222683099999983, 32.9737683 ], [ 130.2152394, 32.9799217 ], [ 130.209355599999981, 32.9795339 ], [ 130.2101208, 32.9860731 ], [ 130.2007831, 32.9916125 ], [ 130.195662199999987, 32.98857 ], [ 130.1874611, 33.0053109 ], [ 130.187978099999981, 33.0109686 ], [ 130.182873799999982, 33.0129338 ], [ 130.1789636, 33.0296436 ], [ 130.171492199999989, 33.0354558 ] ] ] ] } },
{ "type": "Feature", "properties": { "hokenjo": "佐賀中部" }, "geometry": { "type": "MultiPolygon", "coordinates": [ [ [ [ 130.229815799999983, 33.1928778 ], [ 130.2312064, 33.1921419 ], [ 130.2334466, 33.1942076 ], [ 130.2467211, 33.1917446 ], [ 130.2464297, 33.2029012 ], [ 130.2539643, 33.2025155 ], [ 130.2555763, 33.1970753 ], [ 130.2513333, 33.1901849 ], [ 130.259989499999989, 33.1799936 ], [ 130.2785845, 33.1688885 ], [ 130.2787716, 33.1637986 ], [ 130.2857253, 33.1617028 ], [ 130.2839744, 33.1560164 ], [ 130.2885196, 33.1466937 ], [ 130.307206, 33.1460007 ], [ 130.3407737, 33.1414621 ], [ 130.3557841, 33.1403569 ], [ 130.355926399999987, 33.1538175 ], [ 130.3521211, 33.1695056 ], [ 130.35312, 33.1804622 ], [ 130.347056399999985, 33.181955 ], [ 130.340555, 33.1884458 ], [ 130.3397022, 33.2050172 ], [ 130.34268609999998, 33.2082814 ], [ 130.3550292, 33.2092311 ], [ 130.362058599999983, 33.2152028 ], [ 130.3761747, 33.2199217 ], [ 130.3790483, 33.2291788 ], [ 130.3706477, 33.2360863 ], [ 130.3739396, 33.2443612 ], [ 130.385390699999988, 33.2405404 ], [ 130.3903082, 33.2453037 ], [ 130.388965399999989, 33.2571192 ], [ 130.391979599999985, 33.2602287 ], [ 130.4000182, 33.2590998 ], [ 130.402096199999988, 33.2486515 ], [ 130.4148959, 33.252649 ], [ 130.4195092, 33.2616034 ], [ 130.417462, 33.2683448 ], [ 130.4096812, 33.2689375 ], [ 130.407123499999983, 33.2735519 ], [ 130.4061739, 33.2850264 ], [ 130.401534699999985, 33.2860911 ], [ 130.4054042, 33.2903131 ], [ 130.4061519, 33.2966122 ], [ 130.405785, 33.3027317 ], [ 130.4133367, 33.3152294 ], [ 130.4153117, 33.3285764 ], [ 130.4188164, 33.3358744 ], [ 130.4110583, 33.3600144 ], [ 130.4195892, 33.3754411 ], [ 130.419682199999983, 33.3836058 ], [ 130.4109708, 33.3950403 ], [ 130.407683099999986, 33.3986042 ], [ 130.415093300000024, 33.4092889 ], [ 130.404766099999989, 33.4162414 ], [ 130.397951399999982, 33.4265858 ], [ 130.387393299999985, 33.4281158 ], [ 130.3782189, 33.4249592 ], [ 130.375298099999981, 33.4302019 ], [ 130.3634931, 33.4348953 ], [ 130.3557869, 33.4332397 ], [ 130.3454281, 33.4450214 ], [ 130.3397497, 33.4446131 ], [ 130.3349992, 33.4503722 ], [ 130.319656899999984, 33.4587322 ], [ 130.311120599999981, 33.4619756 ], [ 130.3032569, 33.4613033 ], [ 130.2958817, 33.4635525 ], [ 130.2767067, 33.4788814 ], [ 130.271119199999987, 33.4799267 ], [ 130.2575047, 33.4760731 ], [ 130.2523703, 33.4709636 ], [ 130.2442006, 33.4744056 ], [ 130.238231399999989, 33.4740261 ], [ 130.233427500000033, 33.4788692 ], [ 130.2233422, 33.4782794 ], [ 130.2055867, 33.4814042 ], [ 130.18867, 33.4747044 ], [ 130.1886303, 33.4708236 ], [ 130.1827992, 33.4666481 ], [ 130.168786399999988, 33.4676458 ], [ 130.1700014, 33.4633725 ], [ 130.1658031, 33.458915 ], [ 130.1693311, 33.4515067 ], [ 130.1679431, 33.4315942 ], [ 130.1637436, 33.4234653 ], [ 130.157802799999985, 33.4220886 ], [ 130.1595303, 33.4158506 ], [ 130.1702042, 33.4149936 ], [ 130.1648314, 33.4095692 ], [ 130.156453299999981, 33.4093406 ], [ 130.157718599999981, 33.4006422 ], [ 130.154228599999982, 33.3926067 ], [ 130.1413767, 33.3810494 ], [ 130.139431699999989, 33.3721972 ], [ 130.1446075, 33.3644522 ], [ 130.145740599999982, 33.3520342 ], [ 130.140893299999988, 33.3464739 ], [ 130.1428114, 33.3388783 ], [ 130.1274669, 33.3397578 ], [ 130.119795, 33.3332483 ], [ 130.1167733, 33.3269008 ], [ 130.1122236, 33.325215 ], [ 130.09778, 33.3144403 ], [ 130.086113899999987, 33.3122281 ], [ 130.08234969999998, 33.3066692 ], [ 130.0739969, 33.2997664 ], [ 130.0633178, 33.2972153 ], [ 130.0542356, 33.2884031 ], [ 130.0449597, 33.2861147 ], [ 130.034508099999982, 33.2775872 ], [ 130.0276317, 33.2808436 ], [ 130.023613899999987, 33.2682344 ], [ 130.022952799999985, 33.2581258 ], [ 130.028356699999989, 33.2535394 ], [ 130.0274522, 33.2498333 ], [ 130.040052799999984, 33.2512472 ], [ 130.0480806, 33.2470578 ], [ 130.0554931, 33.2386689 ], [ 130.0632258, 33.2437611 ], [ 130.0694178, 33.2395642 ], [ 130.0790739, 33.2370967 ], [ 130.09572559999998, 33.2387572 ], [ 130.1034928, 33.23508 ], [ 130.11197, 33.2392194 ], [ 130.1255581, 33.2342575 ], [ 130.139083299999982, 33.2467355 ], [ 130.1444799, 33.2465192 ], [ 130.16025, 33.2522844 ], [ 130.1657056, 33.2437164 ], [ 130.1598114, 33.2374392 ], [ 130.1618631, 33.2290422 ], [ 130.1789575, 33.2277781 ], [ 130.1845731, 33.2198894 ], [ 130.1884667, 33.2217058 ], [ 130.193381099999982, 33.2143397 ], [ 130.19943, 33.2140642 ], [ 130.2000239, 33.2064572 ], [ 130.1906519, 33.2060125 ], [ 130.2004397, 33.1952314 ], [ 130.206685600000014, 33.1943433 ], [ 130.2163822, 33.1969786 ], [ 130.229815799999983, 33.1928778 ] ] ] ] } },
{ "type": "Feature", "properties": { "hokenjo": "鳥栖" }, "geometry": { "type": "MultiPolygon", "coordinates": [ [ [ [ 130.4287572, 33.3968758 ], [ 130.422591399999988, 33.3984606 ], [ 130.419005800000036, 33.401120299999988 ], [ 130.4109708, 33.3950403 ], [ 130.419682199999983, 33.3836058 ], [ 130.4195892, 33.3754411 ], [ 130.4110583, 33.3600144 ], [ 130.4188164, 33.3358744 ], [ 130.4153117, 33.3285764 ], [ 130.4133367, 33.3152294 ], [ 130.405785, 33.3027317 ], [ 130.4061519, 33.2966122 ], [ 130.4054042, 33.2903131 ], [ 130.401534699999985, 33.2860911 ], [ 130.4061739, 33.2850264 ], [ 130.407123499999983, 33.2735519 ], [ 130.4096812, 33.2689375 ], [ 130.417462, 33.2683448 ], [ 130.4263234, 33.2706148 ], [ 130.4309461, 33.2805323 ], [ 130.4268703, 33.2901437 ], [ 130.43378, 33.2924503 ], [ 130.438495, 33.2893769 ], [ 130.4350842, 33.2758837 ], [ 130.4362298, 33.2697942 ], [ 130.442458099999982, 33.264027 ], [ 130.4497461, 33.2650976 ], [ 130.4487253, 33.2784078 ], [ 130.4529547, 33.2829481 ], [ 130.4648647, 33.2848565 ], [ 130.466226399999982, 33.2903303 ], [ 130.4562345, 33.2937915 ], [ 130.4556112, 33.3008109 ], [ 130.466710899999981, 33.3047515 ], [ 130.4782559, 33.3043412 ], [ 130.4849012, 33.306217 ], [ 130.489394799999985, 33.3159292 ], [ 130.4769918, 33.3260037 ], [ 130.4799454, 33.3308731 ], [ 130.487050899999986, 33.3327095 ], [ 130.4994556, 33.3255759 ], [ 130.505649799999986, 33.3310667 ], [ 130.506744, 33.3411592 ], [ 130.5120959, 33.3440623 ], [ 130.5195512, 33.3404906 ], [ 130.5268012, 33.3402151 ], [ 130.5359785, 33.3429623 ], [ 130.540258099999988, 33.3652172 ], [ 130.5419592, 33.3663414 ], [ 130.5418214, 33.3942531 ], [ 130.5410642, 33.4212228 ], [ 130.5373678, 33.4262986 ], [ 130.533685, 33.44146 ], [ 130.5111322, 33.4491128 ], [ 130.49591, 33.4447669 ], [ 130.491116399999981, 33.4397061 ], [ 130.4743761, 33.435465 ], [ 130.462372499999987, 33.4279244 ], [ 130.45800939999998, 33.425015 ], [ 130.4582608, 33.4199753 ], [ 130.446683900000011, 33.4185753 ], [ 130.442213899999985, 33.4156336 ], [ 130.4370358, 33.4048522 ], [ 130.438280599999985, 33.4006219 ], [ 130.4287572, 33.3968758 ] ] ] ] } },
{ "type": "Feature", "properties": { "hokenjo": "唐津" }, "geometry": { "type": "MultiPolygon", "coordinates": [ [ [ [ 129.8564528, 33.5331972 ], [ 129.8488281, 33.5156167 ], [ 129.8568553, 33.5114094 ], [ 129.850452599999983, 33.5123934 ], [ 129.8431436, 33.5174617 ], [ 129.830747799999983, 33.5197936 ], [ 129.8331231, 33.5118619 ], [ 129.8296375, 33.5052094 ], [ 129.8403681, 33.4946961 ], [ 129.8367381, 33.4872208 ], [ 129.844490799999988, 33.4809372 ], [ 129.834499699999981, 33.4760364 ], [ 129.835138299999983, 33.4720564 ], [ 129.84297, 33.4710589 ], [ 129.848146899999989, 33.4755126 ], [ 129.8572179, 33.4647945 ], [ 129.85669009999998, 33.4586136 ], [ 129.8506208, 33.4528114 ], [ 129.8515131, 33.4472478 ], [ 129.843275, 33.4449006 ], [ 129.8416264, 33.449395 ], [ 129.8349394, 33.4508417 ], [ 129.8389176, 33.4583742 ], [ 129.837370599999986, 33.4642658 ], [ 129.826032199999986, 33.4684169 ], [ 129.8236522, 33.4735575 ], [ 129.8266097, 33.479315 ], [ 129.806433299999981, 33.4856642 ], [ 129.7999436, 33.4745831 ], [ 129.7937753, 33.4722922 ], [ 129.798515, 33.4636336 ], [ 129.80621, 33.4619201 ], [ 129.8035228, 33.4549991 ], [ 129.790481900000032, 33.4590786 ], [ 129.784492199999988, 33.4560344 ], [ 129.783289699999983, 33.4506809 ], [ 129.791429, 33.4423637 ], [ 129.8017667, 33.4404183 ], [ 129.80275469999998, 33.4361175 ], [ 129.8116341, 33.4351349 ], [ 129.81541, 33.4270486 ], [ 129.8249925, 33.4240103 ], [ 129.8221292, 33.4144383 ], [ 129.8331519, 33.4139767 ], [ 129.8472597, 33.4057858 ], [ 129.859976099999983, 33.4065828 ], [ 129.8640828, 33.4106572 ], [ 129.86866329999998, 33.400945 ], [ 129.8650174, 33.3931867 ], [ 129.876312499999983, 33.3871975 ], [ 129.8836867, 33.3906333 ], [ 129.880304699999982, 33.3965475 ], [ 129.8818683, 33.4073814 ], [ 129.8908897, 33.4062611 ], [ 129.9042369, 33.4118286 ], [ 129.9055386, 33.4069439 ], [ 129.9131539, 33.4027319 ], [ 129.9204722, 33.39305 ], [ 129.914920599999988, 33.3782153 ], [ 129.925896099999989, 33.3575472 ], [ 129.9301111, 33.3572622 ], [ 129.9358772, 33.3474581 ], [ 129.944218299999989, 33.3448186 ], [ 129.9502139, 33.3352439 ], [ 129.9544033, 33.3235214 ], [ 129.9597661, 33.3285556 ], [ 129.9552522, 33.3416111 ], [ 129.956086699999986, 33.3462011 ], [ 129.9627942, 33.3462864 ], [ 129.9678025, 33.336165 ], [ 129.9820856, 33.3264139 ], [ 129.9933019, 33.3270383 ], [ 129.9994725, 33.3208967 ], [ 130.0090583, 33.3153072 ], [ 130.0095383, 33.3027803 ], [ 130.0151764, 33.2939819 ], [ 130.020605, 33.2911764 ], [ 130.0254172, 33.2830314 ], [ 130.0276317, 33.2808436 ], [ 130.034508099999982, 33.2775872 ], [ 130.0449597, 33.2861147 ], [ 130.0542356, 33.2884031 ], [ 130.0633178, 33.2972153 ], [ 130.0739969, 33.2997664 ], [ 130.08234969999998, 33.3066692 ], [ 130.086113899999987, 33.3122281 ], [ 130.09778, 33.3144403 ], [ 130.1122236, 33.325215 ], [ 130.1167733, 33.3269008 ], [ 130.119795, 33.3332483 ], [ 130.1274669, 33.3397578 ], [ 130.1428114, 33.3388783 ], [ 130.140893299999988, 33.3464739 ], [ 130.145740599999982, 33.3520342 ], [ 130.1446075, 33.3644522 ], [ 130.139431699999989, 33.3721972 ], [ 130.1413767, 33.3810494 ], [ 130.154228599999982, 33.3926067 ], [ 130.157718599999981, 33.4006422 ], [ 130.156453299999981, 33.4093406 ], [ 130.1648314, 33.4095692 ], [ 130.1702042, 33.4149936 ], [ 130.1595303, 33.4158506 ], [ 130.157802799999985, 33.4220886 ], [ 130.1637436, 33.4234653 ], [ 130.1679431, 33.4315942 ], [ 130.1693311, 33.4515067 ], [ 130.1658031, 33.458915 ], [ 130.1700014, 33.4633725 ], [ 130.168786399999988, 33.4676458 ], [ 130.1567672, 33.4767225 ], [ 130.148496699999981, 33.4772897 ], [ 130.1388006, 33.4704356 ], [ 130.129739699999988, 33.4755536 ], [ 130.1031303, 33.4758867 ], [ 130.098417499999982, 33.4698411 ], [ 130.088920799999983, 33.4686742 ], [ 130.073554699999988, 33.4691536 ], [ 130.0680692, 33.4725042 ], [ 130.044925, 33.4674372 ], [ 130.0393445, 33.4692644 ], [ 130.035539699999987, 33.4657634 ], [ 130.040702399999986, 33.4577369 ], [ 130.038272299999988, 33.4531455 ], [ 130.0266497, 33.4476057 ], [ 130.016150899999985, 33.4460932 ], [ 129.9989099, 33.4467857 ], [ 129.9855417, 33.4522108 ], [ 129.9707254, 33.4547756 ], [ 129.959970199999987, 33.4687146 ], [ 129.9669322, 33.4700943 ], [ 129.971149500000024, 33.4754736 ], [ 129.9652166, 33.4831785 ], [ 129.9596608, 33.4831315 ], [ 129.9566324, 33.4761832 ], [ 129.9477115, 33.4724411 ], [ 129.9424941, 33.4745566 ], [ 129.9374195, 33.4816379 ], [ 129.945629699999984, 33.4847545 ], [ 129.9439577, 33.4930253 ], [ 129.958326699999986, 33.5058421 ], [ 129.964726899999988, 33.5057569 ], [ 129.969294, 33.511465 ], [ 129.95706450000003, 33.5175138 ], [ 129.9527541, 33.5296811 ], [ 129.9459407, 33.528373 ], [ 129.9295109, 33.5368366 ], [ 129.9306346, 33.5452486 ], [ 129.9141382, 33.5423776 ], [ 129.9092522, 33.5493534 ], [ 129.9010481, 33.5454419 ], [ 129.8976534, 33.5492408 ], [ 129.8861013, 33.5416731 ], [ 129.8819211, 33.5343224 ], [ 129.873243299999984, 33.5361703 ], [ 129.8584233, 33.5438031 ], [ 129.8580258, 33.5514244 ], [ 129.8514006, 33.5534681 ], [ 129.847286699999984, 33.5474392 ], [ 129.848074199999985, 33.5378839 ], [ 129.8564528, 33.5331972 ] ] ], [ [ [ 129.9864694, 33.4733664 ], [ 129.9942394, 33.4728524 ], [ 129.9916667, 33.4803445 ], [ 129.985224499999987, 33.477999 ], [ 129.9864694, 33.4733664 ] ] ], [ [ [ 129.9739952, 33.5286713 ], [ 129.97800909999998, 33.538426099999988 ], [ 129.9737562, 33.5435664 ], [ 129.9646409, 33.5291687 ], [ 129.9739952, 33.5286713 ] ] ], [ [ [ 129.890457699999985, 33.5522117 ], [ 129.889547599999986, 33.5599705 ], [ 129.8818924, 33.5677544 ], [ 129.873878499999989, 33.5594518 ], [ 129.8758263, 33.5507428 ], [ 129.873485499999987, 33.5443236 ], [ 129.8810593, 33.5445104 ], [ 129.890457699999985, 33.5522117 ] ] ], [ [ [ 129.7730331, 33.5719878 ], [ 129.7686794, 33.5820561 ], [ 129.760658600000028, 33.5826703 ], [ 129.7539636, 33.5778108 ], [ 129.747496899999987, 33.5825856 ], [ 129.7402031, 33.5728556 ], [ 129.7503639, 33.5689433 ], [ 129.7553633, 33.5638811 ], [ 129.76292669999998, 33.5636894 ], [ 129.7659879, 33.5689418 ], [ 129.7730331, 33.5719878 ] ] ], [ [ [ 129.836856899999987, 33.5895994 ], [ 129.844145, 33.5848589 ], [ 129.8456328, 33.5920122 ], [ 129.836856899999987, 33.5895994 ] ] ], [ [ [ 129.895194799999985, 33.5943463 ], [ 129.903221799999983, 33.595771299999988 ], [ 129.9031087, 33.6021503 ], [ 129.8983944, 33.6041624 ], [ 129.892977799999983, 33.5978 ], [ 129.895194799999985, 33.5943463 ] ] ], [ [ [ 129.8622344, 33.59685 ], [ 129.8594794, 33.6033497 ], [ 129.8648944, 33.6147878 ], [ 129.8629544, 33.617674199999989 ], [ 129.8524003, 33.6070025 ], [ 129.8481367, 33.5993467 ], [ 129.851794399999989, 33.59504 ], [ 129.8648208, 33.5879656 ], [ 129.8667606, 33.597115 ], [ 129.8622344, 33.59685 ] ] ] ] } }
]
}
