{
"type": "FeatureCollection",
"name": "saitama",
"crs": { "type": "name", "properties": { "name": "urn:ogc:def:crs:OGC:1.3:CRS84" } },
"features": [
{ "type": "Feature", "properties": { "hokenjo": "さいたま市" }, "geometry": { "type": "Polygon", "coordinates": [ [ [ 139.6957146, 35.8485754 ], [ 139.6980572, 35.8574032 ], [ 139.704108599999984, 35.8623157 ], [ 139.717862599999989, 35.8622929 ], [ 139.7202146, 35.8703159 ], [ 139.7135443, 35.8767137 ], [ 139.7408083, 35.8763028 ], [ 139.743360599999988, 35.885936699999988 ], [ 139.7522889, 35.8802928 ], [ 139.7452381, 35.8937225 ], [ 139.7534767, 35.8957841 ], [ 139.7545091, 35.9104822 ], [ 139.7451227, 35.917493 ], [ 139.754275299999989, 35.9354577 ], [ 139.75194590000001, 35.9405285 ], [ 139.7457612, 35.9522571 ], [ 139.720568300000025, 35.9583785 ], [ 139.7133811, 35.9655752 ], [ 139.724647299999987, 35.9727199 ], [ 139.7244868, 35.9857263 ], [ 139.7078573, 35.9953054 ], [ 139.6919681, 35.9990337 ], [ 139.695601399999987, 35.9910826 ], [ 139.6843438, 35.9756096 ], [ 139.666079, 35.9756001 ], [ 139.657879799999989, 35.9639415 ], [ 139.6488761, 35.9622226 ], [ 139.645289599999984, 35.9513626 ], [ 139.636994099999981, 35.9551831 ], [ 139.6257004, 35.9524143 ], [ 139.6136163, 35.9660242 ], [ 139.600069499999989, 35.9594801 ], [ 139.588222, 35.9603011 ], [ 139.59896, 35.9441223 ], [ 139.5972708, 35.9366329 ], [ 139.5863966, 35.9457764 ], [ 139.5749408, 35.9441239 ], [ 139.55667459999998, 35.9353804 ], [ 139.5477584, 35.9342023 ], [ 139.546191099999987, 35.9219132 ], [ 139.554912400000035, 35.9036849 ], [ 139.5494665, 35.8872311 ], [ 139.55956759999998, 35.8805497 ], [ 139.5589062, 35.8741044 ], [ 139.576472599999988, 35.87146 ], [ 139.585139, 35.8605019 ], [ 139.6073992, 35.8347634 ], [ 139.6165685, 35.8339947 ], [ 139.618703399999987, 35.829091399999989 ], [ 139.6500024, 35.8328053 ], [ 139.6632894, 35.8290112 ], [ 139.6771048, 35.8326948 ], [ 139.675229299999984, 35.850504799999989 ], [ 139.6957146, 35.8485754 ] ] ] } },
{ "type": "Feature", "properties": { "hokenjo": "越谷市" }, "geometry": { "type": "Polygon", "coordinates": [ [ [ 139.7522889, 35.8802928 ], [ 139.769851099999983, 35.8663142 ], [ 139.7795597, 35.8587295 ], [ 139.787122499999981, 35.8610275 ], [ 139.807155, 35.8558894 ], [ 139.818426599999981, 35.8690691 ], [ 139.8399272, 35.8700035 ], [ 139.838635399999987, 35.8938985 ], [ 139.8286168, 35.8980499 ], [ 139.8372774, 35.9061368 ], [ 139.8232291, 35.9086424 ], [ 139.819873799999982, 35.9145135 ], [ 139.8074824, 35.9166415 ], [ 139.805076, 35.9236346 ], [ 139.818250899999981, 35.931759 ], [ 139.802434200000022, 35.9414279 ], [ 139.786953899999986, 35.9550729 ], [ 139.7760988, 35.9477502 ], [ 139.7792091, 35.9381077 ], [ 139.7655858, 35.935522 ], [ 139.75194590000001, 35.9405285 ], [ 139.754275299999989, 35.9354577 ], [ 139.7451227, 35.917493 ], [ 139.7545091, 35.9104822 ], [ 139.7534767, 35.8957841 ], [ 139.7452381, 35.8937225 ], [ 139.7522889, 35.8802928 ] ] ] } },
{ "type": "Feature", "properties": { "hokenjo": "加須" }, "geometry": { "type": "Polygon", "coordinates": [ [ [ 139.609883599999989, 36.1968081 ], [ 139.6037864, 36.2034154 ], [ 139.5877717, 36.2103693 ], [ 139.573465199999987, 36.2042202 ], [ 139.5547379, 36.2008285 ], [ 139.5352186, 36.1929429 ], [ 139.5211697, 36.1912204 ], [ 139.4955168, 36.1925786 ], [ 139.474425, 36.1894575 ], [ 139.4543486, 36.1914103 ], [ 139.4442046, 36.1967897 ], [ 139.4230696, 36.1976347 ], [ 139.4189006, 36.1894414 ], [ 139.421494199999984, 36.17147 ], [ 139.4350275, 36.1703861 ], [ 139.4320544, 36.1586336 ], [ 139.433580399999983, 36.1472073 ], [ 139.422383699999983, 36.1476131 ], [ 139.4226812, 36.1387297 ], [ 139.4311401, 36.1316134 ], [ 139.431778300000019, 36.1106908 ], [ 139.441212299999989, 36.1174222 ], [ 139.4585204, 36.111619399999988 ], [ 139.4659815, 36.1127944 ], [ 139.4791851, 36.1034983 ], [ 139.487702899999988, 36.0915216 ], [ 139.493489, 36.0919163 ], [ 139.5025052, 36.1038208 ], [ 139.4967811, 36.1116858 ], [ 139.5061134, 36.115275 ], [ 139.5104301, 36.1246753 ], [ 139.5309412, 36.1176714 ], [ 139.537822299999988, 36.1057561 ], [ 139.5511679, 36.100675 ], [ 139.54001, 36.081871 ], [ 139.5530382, 36.079201 ], [ 139.559570899999983, 36.071773 ], [ 139.5761654, 36.0713572 ], [ 139.586268499999989, 36.0777006 ], [ 139.5932549, 36.0728028 ], [ 139.603632500000032, 36.0871325 ], [ 139.6280893, 36.0798206 ], [ 139.6396527, 36.087112 ], [ 139.64575, 36.0976545 ], [ 139.6683404, 36.107027 ], [ 139.6642554, 36.1166309 ], [ 139.6854088, 36.1265959 ], [ 139.6846205, 36.1368478 ], [ 139.703030899999987, 36.1451011 ], [ 139.6961173, 36.1563964 ], [ 139.6908879, 36.175255299999989 ], [ 139.6936469, 36.1916752 ], [ 139.686573, 36.2033091 ], [ 139.6749111, 36.208288 ], [ 139.662621, 36.2071225 ], [ 139.6493985, 36.2111911 ], [ 139.6515043, 36.1983742 ], [ 139.637245399999983, 36.1972089 ], [ 139.6186208, 36.1898029 ], [ 139.609883599999989, 36.1968081 ] ] ] } },
{ "type": "Feature", "properties": { "hokenjo": "狭山" }, "geometry": { "type": "Polygon", "coordinates": [ [ [ 139.4760541, 35.8399257 ], [ 139.458780599999983, 35.8590448 ], [ 139.465789, 35.8670767 ], [ 139.4620007, 35.8778614 ], [ 139.4539776, 35.876157 ], [ 139.441300700000028, 35.8848862 ], [ 139.411706, 35.9009106 ], [ 139.401551, 35.8956697 ], [ 139.3925868, 35.9082461 ], [ 139.3844377, 35.9085159 ], [ 139.3794819, 35.9199256 ], [ 139.3664746, 35.9277708 ], [ 139.352396299999981, 35.9281881 ], [ 139.341445099999987, 35.9204223 ], [ 139.3275262, 35.9230975 ], [ 139.3096239, 35.9154587 ], [ 139.3084011, 35.9086834 ], [ 139.2771894, 35.9005587 ], [ 139.2731053, 35.912897 ], [ 139.2632692, 35.9242012 ], [ 139.2533597, 35.9221031 ], [ 139.2368667, 35.9302426 ], [ 139.2281228, 35.9456528 ], [ 139.212927, 35.9564442 ], [ 139.2015312, 35.9657708 ], [ 139.1786148, 35.9697347 ], [ 139.1680575, 35.9496361 ], [ 139.1438076, 35.9420683 ], [ 139.1167447, 35.9308133 ], [ 139.10276159999998, 35.9272247 ], [ 139.1124972, 35.919775 ], [ 139.111963299999985, 35.9078364 ], [ 139.1208091, 35.8953636 ], [ 139.1105767, 35.8820667 ], [ 139.1081159, 35.8727327 ], [ 139.1002819, 35.8671887 ], [ 139.1117342, 35.8646803 ], [ 139.135360599999984, 35.865387 ], [ 139.1594007, 35.8570651 ], [ 139.1632471, 35.8509704 ], [ 139.192441500000029, 35.8402715 ], [ 139.2126494, 35.8466113 ], [ 139.2325349, 35.836636 ], [ 139.2522555, 35.8382491 ], [ 139.2605044, 35.8360013 ], [ 139.281845799999985, 35.8395196 ], [ 139.301168599999983, 35.8349599 ], [ 139.302591799999988, 35.824050199999988 ], [ 139.316106, 35.818766 ], [ 139.322245899999984, 35.799608 ], [ 139.332783299999988, 35.7918902 ], [ 139.3467078, 35.7964052 ], [ 139.368714399999988, 35.7902888 ], [ 139.3699107, 35.7815416 ], [ 139.3814793, 35.7742708 ], [ 139.3802231, 35.766375 ], [ 139.3984504, 35.764405 ], [ 139.404884899999985, 35.769159699999989 ], [ 139.4195608, 35.765905 ], [ 139.4449683, 35.76666 ], [ 139.4711551, 35.7734038 ], [ 139.479499299999986, 35.7799374 ], [ 139.506703, 35.7827702 ], [ 139.5292637, 35.7941288 ], [ 139.5416952, 35.8073068 ], [ 139.5455414, 35.8125684 ], [ 139.5345447, 35.8191796 ], [ 139.5322664, 35.8250126 ], [ 139.503163199999989, 35.8143093 ], [ 139.4824467, 35.8387298 ], [ 139.477898899999985, 35.837584 ], [ 139.4760541, 35.8399257 ] ] ] } },
{ "type": "Feature", "properties": { "hokenjo": "熊谷" }, "geometry": { "type": "Polygon", "coordinates": [ [ [ 139.288173699999987, 36.1066901 ], [ 139.3012243, 36.1103507 ], [ 139.309232899999984, 36.1052259 ], [ 139.320912599999986, 36.0905568 ], [ 139.3422296, 36.0899854 ], [ 139.3438888, 36.1036171 ], [ 139.3758631, 36.099254 ], [ 139.387150099999985, 36.1017681 ], [ 139.3948481, 36.1012298 ], [ 139.4127987, 36.090237 ], [ 139.4084581, 36.0761153 ], [ 139.4215934, 36.0696434 ], [ 139.4454366, 36.0805416 ], [ 139.4466199, 36.083588 ], [ 139.4329477, 36.0926258 ], [ 139.431778300000019, 36.1106908 ], [ 139.4311401, 36.1316134 ], [ 139.4226812, 36.1387297 ], [ 139.422383699999983, 36.1476131 ], [ 139.433580399999983, 36.1472073 ], [ 139.4320544, 36.1586336 ], [ 139.4350275, 36.1703861 ], [ 139.421494199999984, 36.17147 ], [ 139.4189006, 36.1894414 ], [ 139.4230696, 36.1976347 ], [ 139.4442046, 36.1967897 ], [ 139.4190719, 36.2164453 ], [ 139.393431599999985, 36.2276241 ], [ 139.376673, 36.2445049 ], [ 139.358233, 36.253328 ], [ 139.3278803, 36.2398764 ], [ 139.31514869999998, 36.236614 ], [ 139.2949788, 36.2435866 ], [ 139.266815200000025, 36.2504206 ], [ 139.2437487, 36.2445111 ], [ 139.2476048, 36.2325106 ], [ 139.241635, 36.2241961 ], [ 139.218907799999982, 36.2282659 ], [ 139.196725499999985, 36.2160261 ], [ 139.194097699999986, 36.2082431 ], [ 139.196892599999984, 36.1974503 ], [ 139.2086371, 36.1950984 ], [ 139.2039009, 36.1842 ], [ 139.190243399999986, 36.1766684 ], [ 139.197741399999984, 36.159048399999989 ], [ 139.1928524, 36.1444153 ], [ 139.1767415, 36.1348106 ], [ 139.1606199, 36.1349725 ], [ 139.148175399999985, 36.1331494 ], [ 139.139666399999982, 36.1134377 ], [ 139.1392846, 36.0907658 ], [ 139.151512699999984, 36.0883836 ], [ 139.15747829999998, 36.0925869 ], [ 139.173718799999989, 36.0853528 ], [ 139.190041799999989, 36.0692473 ], [ 139.197696, 36.0686945 ], [ 139.209911399999982, 36.0875259 ], [ 139.2274744, 36.0880265 ], [ 139.2520467, 36.083549 ], [ 139.2709323, 36.0986451 ], [ 139.280011799999983, 36.0930432 ], [ 139.288175699999982, 36.0989526 ], [ 139.288173699999987, 36.1066901 ] ] ] } },
{ "type": "Feature", "properties": { "hokenjo": "幸手" }, "geometry": { "type": "Polygon", "coordinates": [ [ [ 139.695601399999987, 35.9910826 ], [ 139.6919681, 35.9990337 ], [ 139.7078573, 35.9953054 ], [ 139.7137741, 36.0048479 ], [ 139.7246185, 35.9980779 ], [ 139.743788099999989, 36.0005449 ], [ 139.7575309, 35.9995993 ], [ 139.7600143, 36.0048351 ], [ 139.7771555, 36.0065882 ], [ 139.7834997, 36.0126898 ], [ 139.7780798, 36.0260523 ], [ 139.8069491, 36.0431678 ], [ 139.7895116, 36.0618289 ], [ 139.7833363, 36.0695019 ], [ 139.779867199999984, 36.0827572 ], [ 139.765761, 36.0804277 ], [ 139.7467585, 36.0870794 ], [ 139.728305399999982, 36.0901394 ], [ 139.7270605, 36.1075394 ], [ 139.7263786, 36.1125191 ], [ 139.713584699999984, 36.1262492 ], [ 139.703030899999987, 36.1451011 ], [ 139.6846205, 36.1368478 ], [ 139.6854088, 36.1265959 ], [ 139.6642554, 36.1166309 ], [ 139.6683404, 36.107027 ], [ 139.64575, 36.0976545 ], [ 139.6396527, 36.087112 ], [ 139.6280893, 36.0798206 ], [ 139.603632500000032, 36.0871325 ], [ 139.5932549, 36.0728028 ], [ 139.586268499999989, 36.0777006 ], [ 139.5761654, 36.0713572 ], [ 139.559570899999983, 36.071773 ], [ 139.5651977, 36.0572941 ], [ 139.5621932, 36.0479338 ], [ 139.5703574, 36.0405188 ], [ 139.5707726, 36.0356257 ], [ 139.588191, 36.0288947 ], [ 139.5956171, 36.0272364 ], [ 139.611646899999982, 36.021197799999989 ], [ 139.6222852, 36.0092834 ], [ 139.6350769, 36.0062153 ], [ 139.644809, 35.9936789 ], [ 139.6422394, 35.9696979 ], [ 139.6488761, 35.9622226 ], [ 139.657879799999989, 35.9639415 ], [ 139.666079, 35.9756001 ], [ 139.6843438, 35.9756096 ], [ 139.695601399999987, 35.9910826 ] ] ] } },
{ "type": "Feature", "properties": { "hokenjo": "鴻巣" }, "geometry": { "type": "Polygon", "coordinates": [ [ [ 139.6488761, 35.9622226 ], [ 139.6422394, 35.9696979 ], [ 139.644809, 35.9936789 ], [ 139.6350769, 36.0062153 ], [ 139.6222852, 36.0092834 ], [ 139.611646899999982, 36.021197799999989 ], [ 139.5956171, 36.0272364 ], [ 139.588191, 36.0288947 ], [ 139.5707726, 36.0356257 ], [ 139.5703574, 36.0405188 ], [ 139.5621932, 36.0479338 ], [ 139.5651977, 36.0572941 ], [ 139.559570899999983, 36.071773 ], [ 139.5530382, 36.079201 ], [ 139.54001, 36.081871 ], [ 139.5511679, 36.100675 ], [ 139.537822299999988, 36.1057561 ], [ 139.5309412, 36.1176714 ], [ 139.5104301, 36.1246753 ], [ 139.5061134, 36.115275 ], [ 139.4967811, 36.1116858 ], [ 139.5025052, 36.1038208 ], [ 139.493489, 36.0919163 ], [ 139.487702899999988, 36.0915216 ], [ 139.4791851, 36.1034983 ], [ 139.4659815, 36.1127944 ], [ 139.4585204, 36.111619399999988 ], [ 139.441212299999989, 36.1174222 ], [ 139.431778300000019, 36.1106908 ], [ 139.4329477, 36.0926258 ], [ 139.4466199, 36.083588 ], [ 139.4560569, 36.0798347 ], [ 139.4728188, 36.0603769 ], [ 139.483039599999984, 36.0590582 ], [ 139.4942964, 36.0350667 ], [ 139.5041625, 36.0237362 ], [ 139.499639699999989, 36.0135545 ], [ 139.500387099999983, 36.0018873 ], [ 139.5077746, 35.9960168 ], [ 139.5123949, 35.9839743 ], [ 139.5229479, 35.9679755 ], [ 139.534843199999983, 35.9607142 ], [ 139.5453349, 35.9511073 ], [ 139.5365851, 35.9481339 ], [ 139.5435431, 35.9377693 ], [ 139.5477584, 35.9342023 ], [ 139.55667459999998, 35.9353804 ], [ 139.5749408, 35.9441239 ], [ 139.5863966, 35.9457764 ], [ 139.5972708, 35.9366329 ], [ 139.59896, 35.9441223 ], [ 139.588222, 35.9603011 ], [ 139.600069499999989, 35.9594801 ], [ 139.6136163, 35.9660242 ], [ 139.6257004, 35.9524143 ], [ 139.636994099999981, 35.9551831 ], [ 139.645289599999984, 35.9513626 ], [ 139.6488761, 35.9622226 ] ] ] } },
{ "type": "Feature", "properties": { "hokenjo": "坂戸" }, "geometry": { "type": "Polygon", "coordinates": [ [ [ 139.2731053, 35.912897 ], [ 139.2771894, 35.9005587 ], [ 139.3084011, 35.9086834 ], [ 139.3096239, 35.9154587 ], [ 139.3275262, 35.9230975 ], [ 139.341445099999987, 35.9204223 ], [ 139.352396299999981, 35.9281881 ], [ 139.3664746, 35.9277708 ], [ 139.3794819, 35.9199256 ], [ 139.38918959999998, 35.9142331 ], [ 139.4119308, 35.9239997 ], [ 139.428820699999989, 35.940243 ], [ 139.4214604, 35.9557713 ], [ 139.4311457, 35.9588921 ], [ 139.4347463, 35.9451183 ], [ 139.45067659999998, 35.9483388 ], [ 139.4676983, 35.960074 ], [ 139.450322799999981, 35.9792239 ], [ 139.4401589, 35.9842492 ], [ 139.430194200000017, 35.9980026 ], [ 139.404395699999981, 35.9853663 ], [ 139.3793624, 35.9816054 ], [ 139.3690488, 35.9962413 ], [ 139.3427235, 36.0090085 ], [ 139.3355473, 36.0066144 ], [ 139.3166015, 36.0091027 ], [ 139.290573, 35.9983627 ], [ 139.288197199999985, 35.9912533 ], [ 139.2717141, 35.9849186 ], [ 139.2598596, 35.986445 ], [ 139.2305907, 35.9745283 ], [ 139.212927, 35.9564442 ], [ 139.2281228, 35.9456528 ], [ 139.2368667, 35.9302426 ], [ 139.2533597, 35.9221031 ], [ 139.2632692, 35.9242012 ], [ 139.2731053, 35.912897 ] ] ] } },
{ "type": "Feature", "properties": { "hokenjo": "春日部" }, "geometry": { "type": "Polygon", "coordinates": [ [ [ 139.8333314, 35.968967 ], [ 139.8252359, 35.9755307 ], [ 139.8267448, 35.9831459 ], [ 139.814259199999981, 35.9970612 ], [ 139.816912299999984, 36.0023895 ], [ 139.8134016, 36.0231323 ], [ 139.81536939999998, 36.0368275 ], [ 139.8069491, 36.0431678 ], [ 139.7780798, 36.0260523 ], [ 139.7834997, 36.0126898 ], [ 139.7771555, 36.0065882 ], [ 139.7600143, 36.0048351 ], [ 139.7575309, 35.9995993 ], [ 139.743788099999989, 36.0005449 ], [ 139.7246185, 35.9980779 ], [ 139.7137741, 36.0048479 ], [ 139.7078573, 35.9953054 ], [ 139.7244868, 35.9857263 ], [ 139.724647299999987, 35.9727199 ], [ 139.7133811, 35.9655752 ], [ 139.720568300000025, 35.9583785 ], [ 139.7457612, 35.9522571 ], [ 139.75194590000001, 35.9405285 ], [ 139.7655858, 35.935522 ], [ 139.7792091, 35.9381077 ], [ 139.7760988, 35.9477502 ], [ 139.786953899999986, 35.9550729 ], [ 139.802434200000022, 35.9414279 ], [ 139.818250899999981, 35.931759 ], [ 139.805076, 35.9236346 ], [ 139.8074824, 35.9166415 ], [ 139.819873799999982, 35.9145135 ], [ 139.8232291, 35.9086424 ], [ 139.8372774, 35.9061368 ], [ 139.846970299999981, 35.9110484 ], [ 139.837144, 35.9270332 ], [ 139.849291, 35.9383484 ], [ 139.8377733, 35.9539059 ], [ 139.8333314, 35.968967 ] ] ] } },
{ "type": "Feature", "properties": { "hokenjo": "川越市" }, "geometry": { "type": "Polygon", "coordinates": [ [ [ 139.5435431, 35.9377693 ], [ 139.5365851, 35.9481339 ], [ 139.502818099999985, 35.9555225 ], [ 139.47947, 35.9563759 ], [ 139.4676983, 35.960074 ], [ 139.45067659999998, 35.9483388 ], [ 139.4347463, 35.9451183 ], [ 139.4311457, 35.9588921 ], [ 139.4214604, 35.9557713 ], [ 139.428820699999989, 35.940243 ], [ 139.4119308, 35.9239997 ], [ 139.38918959999998, 35.9142331 ], [ 139.3794819, 35.9199256 ], [ 139.3844377, 35.9085159 ], [ 139.3925868, 35.9082461 ], [ 139.401551, 35.8956697 ], [ 139.411706, 35.9009106 ], [ 139.441300700000028, 35.8848862 ], [ 139.4539776, 35.876157 ], [ 139.4620007, 35.8778614 ], [ 139.465789, 35.8670767 ], [ 139.458780599999983, 35.8590448 ], [ 139.4760541, 35.8399257 ], [ 139.477898899999985, 35.837584 ], [ 139.4870975, 35.8420337 ], [ 139.485007300000035, 35.8495473 ], [ 139.474629199999981, 35.8551765 ], [ 139.495578, 35.864392 ], [ 139.510957499999989, 35.8797797 ], [ 139.5144201, 35.8880686 ], [ 139.5280587, 35.8812289 ], [ 139.5471101, 35.8810905 ], [ 139.5494665, 35.8872311 ], [ 139.554912400000035, 35.9036849 ], [ 139.546191099999987, 35.9219132 ], [ 139.5477584, 35.9342023 ], [ 139.5435431, 35.9377693 ] ] ] } },
{ "type": "Feature", "properties": { "hokenjo": "川口市" }, "geometry": { "type": "Polygon", "coordinates": [ [ [ 139.6771048, 35.8326948 ], [ 139.7098488, 35.826309 ], [ 139.699518399999988, 35.8153218 ], [ 139.697671899999989, 35.7984446 ], [ 139.7091955, 35.7920173 ], [ 139.733871599999986, 35.7900471 ], [ 139.737833, 35.7805279 ], [ 139.7550008, 35.7868957 ], [ 139.7607692, 35.7974104 ], [ 139.750655699999982, 35.8066687 ], [ 139.767614899999984, 35.817684 ], [ 139.7882873, 35.8246737 ], [ 139.7790743, 35.8330648 ], [ 139.7786654, 35.8421631 ], [ 139.771337099999982, 35.8484842 ], [ 139.7636058, 35.8633756 ], [ 139.769851099999983, 35.8663142 ], [ 139.7522889, 35.8802928 ], [ 139.743360599999988, 35.885936699999988 ], [ 139.7408083, 35.8763028 ], [ 139.7135443, 35.8767137 ], [ 139.7202146, 35.8703159 ], [ 139.717862599999989, 35.8622929 ], [ 139.704108599999984, 35.8623157 ], [ 139.6980572, 35.8574032 ], [ 139.6957146, 35.8485754 ], [ 139.675229299999984, 35.850504799999989 ], [ 139.6771048, 35.8326948 ] ] ] } },
{ "type": "Feature", "properties": { "hokenjo": "草加" }, "geometry": { "type": "Polygon", "coordinates": [ [ [ 139.8992093, 35.8668565 ], [ 139.889919700000036, 35.8925609 ], [ 139.860919699999982, 35.9324937 ], [ 139.849291, 35.9383484 ], [ 139.837144, 35.9270332 ], [ 139.846970299999981, 35.9110484 ], [ 139.8372774, 35.9061368 ], [ 139.8286168, 35.8980499 ], [ 139.838635399999987, 35.8938985 ], [ 139.8399272, 35.8700035 ], [ 139.818426599999981, 35.8690691 ], [ 139.807155, 35.8558894 ], [ 139.787122499999981, 35.8610275 ], [ 139.7795597, 35.8587295 ], [ 139.769851099999983, 35.8663142 ], [ 139.7636058, 35.8633756 ], [ 139.771337099999982, 35.8484842 ], [ 139.7786654, 35.8421631 ], [ 139.7790743, 35.8330648 ], [ 139.7882873, 35.8246737 ], [ 139.767614899999984, 35.817684 ], [ 139.779234299999985, 35.8082487 ], [ 139.792431, 35.8052909 ], [ 139.813297799999987, 35.8083209 ], [ 139.8210556, 35.815077 ], [ 139.8204863, 35.7975393 ], [ 139.8260502, 35.7933604 ], [ 139.838007799999986, 35.8008064 ], [ 139.852648, 35.792157 ], [ 139.858799200000021, 35.794438899999989 ], [ 139.870770599999986, 35.7973167 ], [ 139.871341100000024, 35.7855767 ], [ 139.877249399999982, 35.7811661 ], [ 139.8937781, 35.7827464 ], [ 139.8885234, 35.7964508 ], [ 139.8915342, 35.8193386 ], [ 139.887992199999985, 35.8243327 ], [ 139.8900363, 35.8440024 ], [ 139.8961406, 35.8529326 ], [ 139.8992093, 35.8668565 ] ] ] } },
{ "type": "Feature", "properties": { "hokenjo": "秩父" }, "geometry": { "type": "Polygon", "coordinates": [ [ [ 139.1701851, 35.9861196 ], [ 139.1746087, 35.9890457 ], [ 139.176200699999981, 35.9977304 ], [ 139.1671057, 36.005759 ], [ 139.1527447, 36.0268912 ], [ 139.1568622, 36.0318278 ], [ 139.15594059999998, 36.0532614 ], [ 139.1593901, 36.0588678 ], [ 139.155788199999989, 36.0827403 ], [ 139.151512699999984, 36.0883836 ], [ 139.1392846, 36.0907658 ], [ 139.139666399999982, 36.1134377 ], [ 139.148175399999985, 36.1331494 ], [ 139.1606199, 36.1349725 ], [ 139.1537007, 36.1416222 ], [ 139.1366615, 36.1456597 ], [ 139.12653229999998, 36.1483489 ], [ 139.1152543, 36.1431255 ], [ 139.1059712, 36.1437072 ], [ 139.088026899999988, 36.1314829 ], [ 139.082548799999984, 36.1216304 ], [ 139.071242899999987, 36.1189107 ], [ 139.0568437, 36.1261968 ], [ 139.0449353, 36.1161909 ], [ 139.043293399999982, 36.1074559 ], [ 139.034341399999988, 36.1005422 ], [ 139.0077607, 36.0974605 ], [ 138.993242899999984, 36.0952952 ], [ 138.976492899999982, 36.1172106 ], [ 138.970012, 36.124239 ], [ 138.9584523, 36.1240904 ], [ 138.9565534, 36.105702 ], [ 138.944795299999981, 36.0944887 ], [ 138.9310763, 36.0881195 ], [ 138.9163141, 36.093749 ], [ 138.8978588, 36.0906546 ], [ 138.8867129, 36.084178 ], [ 138.8643329, 36.0770858 ], [ 138.8615232, 36.071408 ], [ 138.8460371, 36.066625 ], [ 138.842827, 36.0558178 ], [ 138.8321928, 36.0477294 ], [ 138.8283947, 36.0373025 ], [ 138.802190599999989, 36.0334023 ], [ 138.7909755, 36.0293998 ], [ 138.780632199999985, 36.0368507 ], [ 138.7691413, 36.0388126 ], [ 138.7544112, 36.034526 ], [ 138.7437698, 36.0100999 ], [ 138.732168, 35.9983321 ], [ 138.716809, 35.9929044 ], [ 138.7119114, 35.9791683 ], [ 138.7141837, 35.9655153 ], [ 138.7255998, 35.9576111 ], [ 138.7311355, 35.9451453 ], [ 138.7392543, 35.9391081 ], [ 138.738507, 35.9290192 ], [ 138.729106799999983, 35.9172281 ], [ 138.7288888, 35.909727 ], [ 138.749107, 35.9016075 ], [ 138.7771553, 35.9004192 ], [ 138.7891151, 35.8932417 ], [ 138.7969703, 35.87213 ], [ 138.8084049, 35.8700195 ], [ 138.8136049, 35.8623678 ], [ 138.8454487, 35.8673909 ], [ 138.8566284, 35.8646164 ], [ 138.8588112, 35.8575744 ], [ 138.8694315, 35.8572492 ], [ 138.8797026, 35.8469225 ], [ 138.892038499999984, 35.8398453 ], [ 138.9109461, 35.8527275 ], [ 138.9263761, 35.8489183 ], [ 138.9439334, 35.8548188 ], [ 138.9428676, 35.8601621 ], [ 138.9543946, 35.8741785 ], [ 138.97892779999998, 35.8850107 ], [ 138.9852589, 35.8811849 ], [ 139.0007628, 35.8840004 ], [ 139.0105479, 35.8970998 ], [ 139.02356039999998, 35.8973584 ], [ 139.0498421, 35.8788329 ], [ 139.0725529, 35.8717238 ], [ 139.0825394, 35.874873 ], [ 139.1002819, 35.8671887 ], [ 139.1081159, 35.8727327 ], [ 139.1105767, 35.8820667 ], [ 139.1208091, 35.8953636 ], [ 139.111963299999985, 35.9078364 ], [ 139.1124972, 35.919775 ], [ 139.10276159999998, 35.9272247 ], [ 139.1167447, 35.9308133 ], [ 139.1438076, 35.9420683 ], [ 139.1680575, 35.9496361 ], [ 139.1786148, 35.9697347 ], [ 139.1701851, 35.9861196 ] ] ] } },
{ "type": "Feature", "properties": { "hokenjo": "朝霞" }, "geometry": { "type": "Polygon", "coordinates": [ [ [ 139.5822426, 35.7712071 ], [ 139.5941435, 35.7787035 ], [ 139.5972008, 35.778366 ], [ 139.603166499999986, 35.7708596 ], [ 139.617233, 35.7703482 ], [ 139.6245267, 35.7808113 ], [ 139.646301699999981, 35.7978693 ], [ 139.6233705, 35.8098412 ], [ 139.618703399999987, 35.829091399999989 ], [ 139.6165685, 35.8339947 ], [ 139.6073992, 35.8347634 ], [ 139.585139, 35.8605019 ], [ 139.576472599999988, 35.87146 ], [ 139.5589062, 35.8741044 ], [ 139.55956759999998, 35.8805497 ], [ 139.5494665, 35.8872311 ], [ 139.5471101, 35.8810905 ], [ 139.5280587, 35.8812289 ], [ 139.5144201, 35.8880686 ], [ 139.510957499999989, 35.8797797 ], [ 139.495578, 35.864392 ], [ 139.474629199999981, 35.8551765 ], [ 139.485007300000035, 35.8495473 ], [ 139.4870975, 35.8420337 ], [ 139.477898899999985, 35.837584 ], [ 139.4824467, 35.8387298 ], [ 139.503163199999989, 35.8143093 ], [ 139.5322664, 35.8250126 ], [ 139.5345447, 35.8191796 ], [ 139.5455414, 35.8125684 ], [ 139.5416952, 35.8073068 ], [ 139.547199399999982, 35.8026582 ], [ 139.537579, 35.7907588 ], [ 139.547837499999986, 35.7739805 ], [ 139.547158199999984, 35.7533841 ], [ 139.5822426, 35.7712071 ] ] ] } },
{ "type": "Feature", "properties": { "hokenjo": "東松山" }, "geometry": { "type": "Polygon", "coordinates": [ [ [ 139.47947, 35.9563759 ], [ 139.502818099999985, 35.9555225 ], [ 139.5365851, 35.9481339 ], [ 139.5453349, 35.9511073 ], [ 139.534843199999983, 35.9607142 ], [ 139.5229479, 35.9679755 ], [ 139.5123949, 35.9839743 ], [ 139.5077746, 35.9960168 ], [ 139.500387099999983, 36.0018873 ], [ 139.499639699999989, 36.0135545 ], [ 139.5041625, 36.0237362 ], [ 139.4942964, 36.0350667 ], [ 139.483039599999984, 36.0590582 ], [ 139.4728188, 36.0603769 ], [ 139.4560569, 36.0798347 ], [ 139.4466199, 36.083588 ], [ 139.4454366, 36.0805416 ], [ 139.4215934, 36.0696434 ], [ 139.4084581, 36.0761153 ], [ 139.4127987, 36.090237 ], [ 139.3948481, 36.1012298 ], [ 139.387150099999985, 36.1017681 ], [ 139.3758631, 36.099254 ], [ 139.3438888, 36.1036171 ], [ 139.3422296, 36.0899854 ], [ 139.320912599999986, 36.0905568 ], [ 139.309232899999984, 36.1052259 ], [ 139.3012243, 36.1103507 ], [ 139.288173699999987, 36.1066901 ], [ 139.288175699999982, 36.0989526 ], [ 139.280011799999983, 36.0930432 ], [ 139.2709323, 36.0986451 ], [ 139.2520467, 36.083549 ], [ 139.2274744, 36.0880265 ], [ 139.209911399999982, 36.0875259 ], [ 139.197696, 36.0686945 ], [ 139.190041799999989, 36.0692473 ], [ 139.173718799999989, 36.0853528 ], [ 139.15747829999998, 36.0925869 ], [ 139.151512699999984, 36.0883836 ], [ 139.155788199999989, 36.0827403 ], [ 139.1593901, 36.0588678 ], [ 139.15594059999998, 36.0532614 ], [ 139.1568622, 36.0318278 ], [ 139.1527447, 36.0268912 ], [ 139.1671057, 36.005759 ], [ 139.176200699999981, 35.9977304 ], [ 139.1746087, 35.9890457 ], [ 139.1701851, 35.9861196 ], [ 139.1786148, 35.9697347 ], [ 139.2015312, 35.9657708 ], [ 139.212927, 35.9564442 ], [ 139.2305907, 35.9745283 ], [ 139.2598596, 35.986445 ], [ 139.2717141, 35.9849186 ], [ 139.288197199999985, 35.9912533 ], [ 139.290573, 35.9983627 ], [ 139.3166015, 36.0091027 ], [ 139.3355473, 36.0066144 ], [ 139.3427235, 36.0090085 ], [ 139.3690488, 35.9962413 ], [ 139.3793624, 35.9816054 ], [ 139.404395699999981, 35.9853663 ], [ 139.430194200000017, 35.9980026 ], [ 139.4401589, 35.9842492 ], [ 139.450322799999981, 35.9792239 ], [ 139.4676983, 35.960074 ], [ 139.47947, 35.9563759 ] ] ] } },
{ "type": "Feature", "properties": { "hokenjo": "南部" }, "geometry": { "type": "Polygon", "coordinates": [ [ [ 139.699518399999988, 35.8153218 ], [ 139.7098488, 35.826309 ], [ 139.6771048, 35.8326948 ], [ 139.6632894, 35.8290112 ], [ 139.6500024, 35.8328053 ], [ 139.618703399999987, 35.829091399999989 ], [ 139.6233705, 35.8098412 ], [ 139.646301699999981, 35.7978693 ], [ 139.6533623, 35.8002259 ], [ 139.697671899999989, 35.7984446 ], [ 139.699518399999988, 35.8153218 ] ] ] } },
{ "type": "Feature", "properties": { "hokenjo": "本庄" }, "geometry": { "type": "Polygon", "coordinates": [ [ [ 138.993242899999984, 36.0952952 ], [ 139.0077607, 36.0974605 ], [ 139.034341399999988, 36.1005422 ], [ 139.043293399999982, 36.1074559 ], [ 139.0449353, 36.1161909 ], [ 139.0568437, 36.1261968 ], [ 139.071242899999987, 36.1189107 ], [ 139.082548799999984, 36.1216304 ], [ 139.088026899999988, 36.1314829 ], [ 139.1059712, 36.1437072 ], [ 139.1152543, 36.1431255 ], [ 139.12653229999998, 36.1483489 ], [ 139.1366615, 36.1456597 ], [ 139.1537007, 36.1416222 ], [ 139.1606199, 36.1349725 ], [ 139.1767415, 36.1348106 ], [ 139.1928524, 36.1444153 ], [ 139.197741399999984, 36.159048399999989 ], [ 139.190243399999986, 36.1766684 ], [ 139.2039009, 36.1842 ], [ 139.2086371, 36.1950984 ], [ 139.196892599999984, 36.1974503 ], [ 139.194097699999986, 36.2082431 ], [ 139.196725499999985, 36.2160261 ], [ 139.218907799999982, 36.2282659 ], [ 139.241635, 36.2241961 ], [ 139.2476048, 36.2325106 ], [ 139.2437487, 36.2445111 ], [ 139.224004, 36.2583017 ], [ 139.2121454, 36.2563364 ], [ 139.169470099999984, 36.2747528 ], [ 139.1590234, 36.2778237 ], [ 139.1269964, 36.2785351 ], [ 139.107803499999989, 36.2617053 ], [ 139.1111951, 36.258497 ], [ 139.0965147, 36.2382478 ], [ 139.081726, 36.2148873 ], [ 139.06332279999998, 36.1957122 ], [ 139.0630495, 36.1858105 ], [ 139.056385799999987, 36.1805197 ], [ 139.060561299999989, 36.1522632 ], [ 139.0427221, 36.1480274 ], [ 139.042404299999987, 36.1284595 ], [ 139.0311978, 36.127727 ], [ 139.015621899999985, 36.1340693 ], [ 139.001958, 36.1253295 ], [ 138.9930424, 36.1244648 ], [ 138.9856907, 36.1155714 ], [ 138.976492899999982, 36.1172106 ], [ 138.993242899999984, 36.0952952 ] ] ] } }
]
}
