{
"type": "FeatureCollection",
"name": "shiga",
"crs": { "type": "name", "properties": { "name": "urn:ogc:def:crs:OGC:1.3:CRS84" } },
"features": [
{ "type": "Feature", "properties": { "hokenjo": "甲賀" }, "geometry": { "type": "Polygon", "coordinates": [ [ [ 136.14218, 35.025045 ], [ 136.1195583, 35.0352014 ], [ 136.1010408, 35.0216306 ], [ 136.0866347, 35.0299642 ], [ 136.0731686, 35.0523003 ], [ 136.0563319, 35.0567458 ], [ 136.0508931, 35.0324708 ], [ 136.0388864, 35.02617 ], [ 136.036289399999987, 35.0119444 ], [ 136.0426206, 34.9874867 ], [ 136.061239199999989, 34.9641703 ], [ 136.0488297, 34.9583658 ], [ 136.041073899999986, 34.9452714 ], [ 136.0331089, 34.9382264 ], [ 136.041799699999984, 34.9234775 ], [ 136.011574699999983, 34.9201836 ], [ 135.992736399999984, 34.908655 ], [ 135.9874931, 34.8898375 ], [ 135.9674575, 34.8912178 ], [ 135.964306099999988, 34.8800158 ], [ 135.943235, 34.8781775 ], [ 135.940988299999987, 34.8637389 ], [ 135.9720544, 34.8460489 ], [ 135.971471399999984, 34.8384944 ], [ 136.005269699999985, 34.8431103 ], [ 136.0053825, 34.8265556 ], [ 136.0290339, 34.81739 ], [ 136.0150514, 34.8091458 ], [ 136.0113311, 34.7958056 ], [ 136.0284294, 34.7906803 ], [ 136.0411714, 34.7984578 ], [ 136.0729931, 34.8042125 ], [ 136.095186899999987, 34.8191042 ], [ 136.0875547, 34.8304503 ], [ 136.104402800000031, 34.8405661 ], [ 136.1083006, 34.8528239 ], [ 136.1263817, 34.8620225 ], [ 136.1221319, 34.8727519 ], [ 136.098891899999984, 34.8705814 ], [ 136.0869803, 34.8763556 ], [ 136.1017847, 34.8961439 ], [ 136.1315328, 34.8831342 ], [ 136.1485458, 34.8820164 ], [ 136.166897799999987, 34.8878944 ], [ 136.1807786, 34.8857897 ], [ 136.198074400000024, 34.8698622 ], [ 136.227831899999984, 34.860971700000015 ], [ 136.250675, 34.8577281 ], [ 136.2759675, 34.8718269 ], [ 136.28906139999998, 34.8695728 ], [ 136.3394092, 34.8954719 ], [ 136.3660975, 34.9050064 ], [ 136.373913099999982, 34.9237792 ], [ 136.3726897, 34.9422575 ], [ 136.394787799999989, 34.9514228 ], [ 136.403146099999987, 34.9691525 ], [ 136.4158744, 34.9808011 ], [ 136.421364399999987, 35.0000564 ], [ 136.4181667, 35.0181228 ], [ 136.404578099999981, 35.0137728 ], [ 136.387910799999986, 35.0224525 ], [ 136.3638664, 35.0168036 ], [ 136.342484399999989, 35.0165739 ], [ 136.3409111, 34.9892536 ], [ 136.320565599999981, 34.978275 ], [ 136.3012003, 34.9835936 ], [ 136.2696972, 34.9613739 ], [ 136.237955, 34.9592369 ], [ 136.219189699999987, 34.9802989 ], [ 136.1828203, 35.0044567 ], [ 136.1806753, 35.0164328 ], [ 136.1635494, 35.03063 ], [ 136.153404699999982, 35.019255 ], [ 136.14218, 35.025045 ] ] ] } },
{ "type": "Feature", "properties": { "hokenjo": "高島" }, "geometry": { "type": "Polygon", "coordinates": [ [ [ 136.0163947, 35.2667024 ], [ 136.02610869999998, 35.2772995 ], [ 136.0340565, 35.2923121 ], [ 136.0679084, 35.307619 ], [ 136.074384399999985, 35.3214541 ], [ 136.0428875, 35.3865086 ], [ 136.043181799999985, 35.3976944 ], [ 136.051424, 35.4109408 ], [ 136.0584888, 35.4365505 ], [ 136.0708521, 35.4542123 ], [ 136.0949899, 35.444204 ], [ 136.103207032237634, 35.458554869590053 ], [ 136.0942858, 35.4613797 ], [ 136.1012256, 35.4902572 ], [ 136.0986067, 35.5001156 ], [ 136.1056231, 35.5288184 ], [ 136.0832285, 35.5405584 ], [ 136.0692335, 35.526247300000016 ], [ 136.0483466, 35.5345317 ], [ 136.0282755, 35.5290678 ], [ 136.0066649, 35.4918194 ], [ 135.989506899999981, 35.4926819 ], [ 135.9518201, 35.5112236 ], [ 135.9380218, 35.5111619 ], [ 135.916009799999983, 35.4705783 ], [ 135.9141622, 35.4321061 ], [ 135.8929815, 35.4198475 ], [ 135.8905701, 35.403175 ], [ 135.8645319, 35.3944228 ], [ 135.8553714, 35.409497 ], [ 135.8383729, 35.4142231 ], [ 135.8132144, 35.412977800000014 ], [ 135.8075292, 35.385361700000011 ], [ 135.779145699999987, 35.3735247 ], [ 135.76407279999998, 35.3445575 ], [ 135.780818499999981, 35.340562 ], [ 135.7908711, 35.3238028 ], [ 135.811248899999981, 35.3135303 ], [ 135.820053299999984, 35.29107 ], [ 135.8346086, 35.2740794 ], [ 135.8607553, 35.28296 ], [ 135.8829872, 35.2846417 ], [ 135.906147799999985, 35.2751006 ], [ 135.9103044, 35.2641433 ], [ 135.9369697, 35.2605144 ], [ 135.9565322, 35.2776472 ], [ 135.9835142, 35.2723333 ], [ 135.9937289, 35.2643878 ], [ 136.00074574446225, 35.254098063545499 ], [ 136.0163947, 35.2667024 ] ] ] } },
{ "type": "Feature", "properties": { "hokenjo": "草津" }, "geometry": { "type": "Polygon", "coordinates": [ [ [ 136.0184552, 35.135416 ], [ 135.999910299999982, 35.1318836 ], [ 135.983131499999985, 35.1254076 ], [ 135.970768199999981, 35.115988 ], [ 135.9645866, 35.1233471 ], [ 135.957227499999988, 35.1036247 ], [ 135.9531064, 35.0783094 ], [ 135.945158599999985, 35.0568208 ], [ 135.9266136, 35.0476955 ], [ 135.9192545, 35.0388646 ], [ 135.9192545, 34.996256579254833 ], [ 135.9397897, 34.9924161 ], [ 135.9501094, 34.9721778 ], [ 135.9669878, 34.9830975 ], [ 135.9894128, 34.9799967 ], [ 136.0102522, 34.9755442 ], [ 136.010108299999985, 34.9545508 ], [ 136.016937499999983, 34.9438003 ], [ 136.041073899999986, 34.9452714 ], [ 136.0488297, 34.9583658 ], [ 136.061239199999989, 34.9641703 ], [ 136.0426206, 34.9874867 ], [ 136.036289399999987, 35.0119444 ], [ 136.0388864, 35.02617 ], [ 136.0508931, 35.0324708 ], [ 136.0563319, 35.0567458 ], [ 136.0731686, 35.0523003 ], [ 136.0786253, 35.0619608 ], [ 136.0779547, 35.0920189 ], [ 136.0647008, 35.105075299999989 ], [ 136.0332369, 35.1144175 ], [ 136.024980598321235, 35.135844182635793 ], [ 136.0184552, 35.135416 ] ] ] } },
{ "type": "Feature", "properties": { "hokenjo": "大津市" }, "geometry": { "type": "Polygon", "coordinates": [ [ [ 135.9192545, 34.9952987 ], [ 135.9095405, 34.9788143 ], [ 135.8983547, 34.9799917 ], [ 135.884813899999983, 34.9902945 ], [ 135.873333699999989, 35.0058958 ], [ 135.868329499999987, 35.0235576 ], [ 135.8736281, 35.038864599999982 ], [ 135.9216094, 35.1050965 ], [ 135.92808549999998, 35.119226 ], [ 135.9322065, 35.1713284 ], [ 135.9369164, 35.186341 ], [ 135.957227499999988, 35.2190154 ], [ 136.00074574446225, 35.254098063545499 ], [ 135.9937289, 35.2643878 ], [ 135.9835142, 35.2723333 ], [ 135.9565322, 35.2776472 ], [ 135.9369697, 35.2605144 ], [ 135.9103044, 35.2641433 ], [ 135.906147799999985, 35.2751006 ], [ 135.8829872, 35.2846417 ], [ 135.8607553, 35.28296 ], [ 135.8446672, 35.2613075 ], [ 135.8308642, 35.2227614 ], [ 135.8310869, 35.2104172 ], [ 135.841908099999984, 35.1898397 ], [ 135.8468131, 35.1623869 ], [ 135.8561531, 35.1594369 ], [ 135.84871, 35.1418522 ], [ 135.852294199999989, 35.1342669 ], [ 135.8398397, 35.0861369 ], [ 135.831891899999988, 35.0714556 ], [ 135.834852499999982, 35.0555539 ], [ 135.8159014, 35.0473692 ], [ 135.834517799999986, 35.0220806 ], [ 135.8326817, 35.0094253 ], [ 135.8423003, 34.9899419 ], [ 135.85676, 34.9800022 ], [ 135.8522753, 34.9713475 ], [ 135.8754267, 34.9536653 ], [ 135.8799244, 34.934525 ], [ 135.8707133, 34.9260039 ], [ 135.8675206, 34.8933367 ], [ 135.8996694, 34.8714044 ], [ 135.9126556, 34.8835164 ], [ 135.9360261, 34.891640599999988 ], [ 135.943235, 34.8781775 ], [ 135.964306099999988, 34.8800158 ], [ 135.9674575, 34.8912178 ], [ 135.9874931, 34.8898375 ], [ 135.992736399999984, 34.908655 ], [ 136.011574699999983, 34.9201836 ], [ 136.041799699999984, 34.9234775 ], [ 136.0331089, 34.9382264 ], [ 136.041073899999986, 34.9452714 ], [ 136.016937499999983, 34.9438003 ], [ 136.010108299999985, 34.9545508 ], [ 136.0102522, 34.9755442 ], [ 135.9894128, 34.9799967 ], [ 135.9669878, 34.9830975 ], [ 135.9501094, 34.9721778 ], [ 135.9397897, 34.9924161 ], [ 135.9192545, 34.996256579254833 ], [ 135.9192545, 34.9952987 ] ] ] } },
{ "type": "Feature", "properties": { "hokenjo": "長浜" }, "geometry": { "type": "Polygon", "coordinates": [ [ [ 136.220977799999986, 35.3850368 ], [ 136.248942299999982, 35.3767946 ], [ 136.2786731, 35.364725599999986 ], [ 136.2766126, 35.3367611 ], [ 136.258367378937521, 35.296447994740795 ], [ 136.300815299999982, 35.2990097 ], [ 136.34624, 35.2862606 ], [ 136.3515253, 35.2741303 ], [ 136.37771859999998, 35.2872849 ], [ 136.3917286, 35.2871113 ], [ 136.412264199999981, 35.3155627 ], [ 136.4111739, 35.3279421 ], [ 136.4223251, 35.348389600000012 ], [ 136.411911799999984, 35.369896 ], [ 136.4368934, 35.3791324 ], [ 136.4441429, 35.3886554 ], [ 136.4118081, 35.4185981 ], [ 136.426169099999981, 35.448161 ], [ 136.420363899999984, 35.4662348 ], [ 136.4017672, 35.4699406 ], [ 136.387833699999987, 35.4968327 ], [ 136.40229, 35.5132524 ], [ 136.4004045, 35.5300818 ], [ 136.384252799999985, 35.5330913 ], [ 136.3735642, 35.5593942 ], [ 136.3625161, 35.5584814 ], [ 136.3566621, 35.5399145 ], [ 136.345882099999983, 35.5361087 ], [ 136.3373201, 35.5502545 ], [ 136.3221002, 35.5443472 ], [ 136.316262599999988, 35.5559393 ], [ 136.3227504, 35.5700071 ], [ 136.323675899999984, 35.6165164 ], [ 136.3155612, 35.6233956 ], [ 136.2885594, 35.6205882 ], [ 136.2791642, 35.6366856 ], [ 136.280534099999983, 35.6612753 ], [ 136.269359899999984, 35.6687278 ], [ 136.2446498, 35.673788200000011 ], [ 136.234407, 35.6824621 ], [ 136.198502499999989, 35.6895737 ], [ 136.185284699999983, 35.7037262 ], [ 136.1513569, 35.6984299 ], [ 136.1344938, 35.669823 ], [ 136.1478151, 35.6625199 ], [ 136.177485499999989, 35.5949839 ], [ 136.166466, 35.5826545 ], [ 136.1703298, 35.5710881 ], [ 136.138686799999988, 35.5756726 ], [ 136.112599099999983, 35.5734109 ], [ 136.1056231, 35.5288184 ], [ 136.0986067, 35.5001156 ], [ 136.1012256, 35.4902572 ], [ 136.0942858, 35.4613797 ], [ 136.103207032237634, 35.458554869590053 ], [ 136.1135349, 35.476584 ], [ 136.122365799999983, 35.4865924 ], [ 136.1264869, 35.4715798 ], [ 136.1282531, 35.4556842 ], [ 136.134729099999987, 35.4433209 ], [ 136.1526853, 35.4380223 ], [ 136.1573951, 35.4453814 ], [ 136.160338699999983, 35.4624545 ], [ 136.163282399999986, 35.4995444 ], [ 136.177706199999989, 35.495129 ], [ 136.189775199999985, 35.4868868 ], [ 136.196839899999986, 35.4748178 ], [ 136.1974286, 35.4586278 ], [ 136.1974286, 35.4659869 ], [ 136.198900399999985, 35.4350787 ], [ 136.2053765, 35.406231 ], [ 136.220977799999986, 35.3850368 ] ] ] } },
{ "type": "Feature", "properties": { "hokenjo": "東近江" }, "geometry": { "type": "Polygon", "coordinates": [ [ [ 136.1049983, 35.205474700000011 ], [ 136.0779168, 35.1904621 ], [ 136.0602549, 35.164558 ], [ 136.0785055, 35.1586708 ], [ 136.0737957, 35.1492511 ], [ 136.0564282, 35.1404202 ], [ 136.036411499999986, 35.1365934 ], [ 136.024980598321235, 35.135844182635793 ], [ 136.0332369, 35.1144175 ], [ 136.0647008, 35.105075299999989 ], [ 136.0779547, 35.0920189 ], [ 136.0786253, 35.0619608 ], [ 136.0731686, 35.0523003 ], [ 136.0866347, 35.0299642 ], [ 136.1010408, 35.0216306 ], [ 136.1195583, 35.0352014 ], [ 136.14218, 35.025045 ], [ 136.153404699999982, 35.019255 ], [ 136.1635494, 35.03063 ], [ 136.1806753, 35.0164328 ], [ 136.1828203, 35.0044567 ], [ 136.219189699999987, 34.9802989 ], [ 136.237955, 34.9592369 ], [ 136.2696972, 34.9613739 ], [ 136.3012003, 34.9835936 ], [ 136.320565599999981, 34.978275 ], [ 136.3409111, 34.9892536 ], [ 136.342484399999989, 35.0165739 ], [ 136.3638664, 35.0168036 ], [ 136.387910799999986, 35.0224525 ], [ 136.404578099999981, 35.0137728 ], [ 136.4181667, 35.0181228 ], [ 136.4238278, 35.0297714 ], [ 136.4178531, 35.0495025 ], [ 136.441598299999981, 35.0667194 ], [ 136.4352667, 35.0824872 ], [ 136.4480231, 35.1238414 ], [ 136.435638899999987, 35.1306553 ], [ 136.4546531, 35.1614178 ], [ 136.4244608, 35.1845103 ], [ 136.4086533, 35.1871828 ], [ 136.389084699999984, 35.1967958 ], [ 136.3745386, 35.1769831 ], [ 136.390103899999986, 35.1553819 ], [ 136.3867128, 35.1446578 ], [ 136.3547236, 35.1311039 ], [ 136.3356825, 35.1429542 ], [ 136.321626399999985, 35.1458703 ], [ 136.3033797, 35.1577233 ], [ 136.2817014, 35.1524525 ], [ 136.263622199999986, 35.1565731 ], [ 136.246834700000022, 35.1510028 ], [ 136.2366678, 35.1587122 ], [ 136.2269844, 35.1435111 ], [ 136.204261699999989, 35.1480492 ], [ 136.19163, 35.1901636 ], [ 136.1669933, 35.20444 ], [ 136.1397489, 35.2072114 ], [ 136.124542834583934, 35.212289911262388 ], [ 136.1049983, 35.205474700000011 ] ] ] } },
{ "type": "Feature", "properties": { "hokenjo": "彦根" }, "geometry": { "type": "Polygon", "coordinates": [ [ [ 136.2527691, 35.2840699 ], [ 136.239817099999982, 35.2708235 ], [ 136.163282399999986, 35.2257858 ], [ 136.124542834583934, 35.212289911262388 ], [ 136.1397489, 35.2072114 ], [ 136.1669933, 35.20444 ], [ 136.19163, 35.1901636 ], [ 136.204261699999989, 35.1480492 ], [ 136.2269844, 35.1435111 ], [ 136.2366678, 35.1587122 ], [ 136.246834700000022, 35.1510028 ], [ 136.263622199999986, 35.1565731 ], [ 136.2817014, 35.1524525 ], [ 136.3033797, 35.1577233 ], [ 136.321626399999985, 35.1458703 ], [ 136.3356825, 35.1429542 ], [ 136.3547236, 35.1311039 ], [ 136.3867128, 35.1446578 ], [ 136.390103899999986, 35.1553819 ], [ 136.3745386, 35.1769831 ], [ 136.389084699999984, 35.1967958 ], [ 136.4086533, 35.1871828 ], [ 136.4167994, 35.2143889 ], [ 136.3797433, 35.2409375 ], [ 136.3891544, 35.2497666 ], [ 136.395735299999984, 35.2809452 ], [ 136.3917286, 35.2871113 ], [ 136.37771859999998, 35.2872849 ], [ 136.3515253, 35.2741303 ], [ 136.34624, 35.2862606 ], [ 136.300815299999982, 35.2990097 ], [ 136.258367378937521, 35.296447994740795 ], [ 136.2527691, 35.2840699 ] ] ] } }
]
}
