{
"type": "FeatureCollection",
"name": "tochigi",
"crs": { "type": "name", "properties": { "name": "urn:ogc:def:crs:OGC:1.3:CRS84" } },
"features": [
{ "type": "Feature", "properties": { "hokenjo": "安足" }, "geometry": { "type": "MultiPolygon", "coordinates": [ [ [ [ 139.5364631, 36.2817256 ], [ 139.549172299999981, 36.2804461 ], [ 139.5612701, 36.2671298 ], [ 139.584573799999987, 36.2692185 ], [ 139.608602499999989, 36.2680954 ], [ 139.6169545, 36.274044 ], [ 139.6135751, 36.2876976 ], [ 139.62571939999998, 36.3028712 ], [ 139.626922799999988, 36.3133604 ], [ 139.634195399999982, 36.3274845 ], [ 139.6170478, 36.3272498 ], [ 139.6179315, 36.3435459 ], [ 139.6131543, 36.3454586 ], [ 139.610098, 36.3707753 ], [ 139.6169492, 36.3776259 ], [ 139.630612, 36.3810884 ], [ 139.6304509, 36.3891878 ], [ 139.646290199999981, 36.4146795 ], [ 139.637482399999982, 36.4208864 ], [ 139.636038899999988, 36.4354509 ], [ 139.6130733, 36.4502384 ], [ 139.5986931, 36.4655228 ], [ 139.582228, 36.4714209 ], [ 139.5638486, 36.4962664 ], [ 139.5492572, 36.5038637 ], [ 139.535833599999989, 36.5167281 ], [ 139.5304978, 36.5381798 ], [ 139.5249181, 36.5415187 ], [ 139.5136037, 36.5634554 ], [ 139.5065387, 36.5690223 ], [ 139.4826344, 36.5781634 ], [ 139.473909099999986, 36.5731321 ], [ 139.4607579, 36.5532467 ], [ 139.4522359, 36.5495951 ], [ 139.439298899999983, 36.5509631 ], [ 139.4362892, 36.5380653 ], [ 139.4399125, 36.5254012 ], [ 139.4276774, 36.5106353 ], [ 139.4216846, 36.5087439 ], [ 139.417928099999983, 36.4946392 ], [ 139.4296598, 36.4819462 ], [ 139.4364747, 36.4659753 ], [ 139.4278378, 36.459112 ], [ 139.4110996, 36.4584345 ], [ 139.406504, 36.4457098 ], [ 139.402526500000022, 36.4368154 ], [ 139.3943909, 36.434222 ], [ 139.3917375, 36.4243104 ], [ 139.3768632, 36.4110282 ], [ 139.3609777, 36.3836803 ], [ 139.368599099999983, 36.3673179 ], [ 139.3884358, 36.3546446 ], [ 139.3969375, 36.3458212 ], [ 139.422792499999986, 36.3322562 ], [ 139.4148605, 36.3243179 ], [ 139.415699599999982, 36.3158696 ], [ 139.4267154, 36.3039501 ], [ 139.44353289999998, 36.2936937 ], [ 139.457065199999988, 36.2891929 ], [ 139.4674588, 36.280494499999989 ], [ 139.4638779, 36.2715209 ], [ 139.482548799999989, 36.2720276 ], [ 139.520549499999987, 36.2808992 ], [ 139.5364631, 36.2817256 ] ] ], [ [ [ 139.607905800000026, 36.4564873 ], [ 139.6148809, 36.4670061 ], [ 139.605662199999983, 36.4715828 ], [ 139.600295599999981, 36.4645703 ], [ 139.607905800000026, 36.4564873 ] ] ] ] } },
{ "type": "Feature", "properties": { "hokenjo": "宇都宮市" }, "geometry": { "type": "MultiPolygon", "coordinates": [ [ [ [ 139.9068801, 36.721431 ], [ 139.887797100000029, 36.7245713 ], [ 139.881741, 36.7226205 ], [ 139.8603276, 36.7300797 ], [ 139.8527844, 36.7245408 ], [ 139.8422871, 36.7196253 ], [ 139.8411117, 36.7058116 ], [ 139.8234852, 36.7060442 ], [ 139.8176686, 36.7157842 ], [ 139.808107399999983, 36.7131256 ], [ 139.79661969999998, 36.7039281 ], [ 139.7860222, 36.7026181 ], [ 139.783514199999985, 36.6793464 ], [ 139.7910219, 36.6697839 ], [ 139.7942246, 36.6531456 ], [ 139.7924286, 36.6412189 ], [ 139.7683079, 36.6344934 ], [ 139.743067199999984, 36.6164551 ], [ 139.7476802, 36.6067927 ], [ 139.762797399999982, 36.5951424 ], [ 139.7734628, 36.599907099999989 ], [ 139.7923907, 36.5907098 ], [ 139.797206499999987, 36.5703046 ], [ 139.8118685, 36.5558835 ], [ 139.8265044, 36.5551673 ], [ 139.8205391, 36.5405646 ], [ 139.829282399999983, 36.5352026 ], [ 139.831801899999988, 36.5256397 ], [ 139.8212978, 36.5111393 ], [ 139.8306184, 36.5099754 ], [ 139.834528299999988, 36.4963026 ], [ 139.8419261, 36.4873529 ], [ 139.8518344, 36.4790721 ], [ 139.8673709, 36.4747684 ], [ 139.8740867, 36.465015099999988 ], [ 139.8846384, 36.4645809 ], [ 139.911609799999979, 36.4908387 ], [ 139.929686, 36.4832178 ], [ 139.9472897, 36.4836316 ], [ 139.948365, 36.4776983 ], [ 139.9630498, 36.4718277 ], [ 139.9678002, 36.4978199 ], [ 139.9723675, 36.5030682 ], [ 139.9971046, 36.5026149 ], [ 140.0004127, 36.4967821 ], [ 140.0073164, 36.5041129 ], [ 140.0062486, 36.5132659 ], [ 140.0096565, 36.5339187 ], [ 139.9983959, 36.5508534 ], [ 140.002700799999985, 36.565082 ], [ 139.99338419999998, 36.601695 ], [ 139.9907843, 36.6086522 ], [ 139.9707511, 36.6075714 ], [ 139.955371, 36.6400698 ], [ 139.952038, 36.6599843 ], [ 139.954667, 36.6693564 ], [ 139.939838899999984, 36.6922093 ], [ 139.9184793, 36.7131896 ], [ 139.9068801, 36.721431 ] ] ] ] } },
{ "type": "Feature", "properties": { "hokenjo": "県西" }, "geometry": { "type": "MultiPolygon", "coordinates": [ [ [ [ 139.743067199999984, 36.6164551 ], [ 139.7683079, 36.6344934 ], [ 139.7924286, 36.6412189 ], [ 139.7942246, 36.6531456 ], [ 139.7910219, 36.6697839 ], [ 139.783514199999985, 36.6793464 ], [ 139.7860222, 36.7026181 ], [ 139.79661969999998, 36.7039281 ], [ 139.808107399999983, 36.7131256 ], [ 139.8176686, 36.7157842 ], [ 139.8234852, 36.7060442 ], [ 139.8411117, 36.7058116 ], [ 139.8422871, 36.7196253 ], [ 139.8527844, 36.7245408 ], [ 139.83890660000003, 36.734763 ], [ 139.8120237, 36.7389194 ], [ 139.7644575, 36.7591406 ], [ 139.751525, 36.7680773 ], [ 139.7370808, 36.7672398 ], [ 139.72968480000003, 36.7963531 ], [ 139.731645, 36.8217381 ], [ 139.7278828, 36.8330748 ], [ 139.736808699999983, 36.8333667 ], [ 139.7714557, 36.8550947 ], [ 139.7733967, 36.8684923 ], [ 139.770614, 36.8872794 ], [ 139.776328899999982, 36.9013611 ], [ 139.769468099999983, 36.9068331 ], [ 139.7717859, 36.9206703 ], [ 139.748059200000029, 36.9369987 ], [ 139.7379542, 36.9525937 ], [ 139.746851599999985, 36.9628095 ], [ 139.747338, 36.9780993 ], [ 139.7408297, 36.988567 ], [ 139.7550837, 37.0027259 ], [ 139.7548789, 37.0271207 ], [ 139.7585451, 37.0383587 ], [ 139.791661299999987, 37.0415254 ], [ 139.8004272, 37.046406 ], [ 139.8139778, 37.0635877 ], [ 139.823314899999986, 37.0809274 ], [ 139.822093, 37.085136899999988 ], [ 139.809505699999988, 37.0848446 ], [ 139.787951, 37.0907023 ], [ 139.7778582, 37.0888293 ], [ 139.76285919999998, 37.0756856 ], [ 139.75271189999998, 37.0705873 ], [ 139.711005799999981, 37.0684217 ], [ 139.700531, 37.0593751 ], [ 139.6920637, 37.0625484 ], [ 139.6767289, 37.0567387 ], [ 139.664954, 37.040531 ], [ 139.635647899999981, 37.0318752 ], [ 139.611628199999984, 37.0137953 ], [ 139.5986943, 37.012045 ], [ 139.581893399999984, 37.014902 ], [ 139.579534699999982, 37.0049462 ], [ 139.5544641, 36.9924924 ], [ 139.5447268, 36.9908877 ], [ 139.5327206, 36.9817591 ], [ 139.515136399999989, 36.9778444 ], [ 139.5038616, 36.9695684 ], [ 139.494286599999981, 36.9679334 ], [ 139.4843324, 36.9754373 ], [ 139.4611653, 36.9707206 ], [ 139.4566752, 36.9538359 ], [ 139.4344486, 36.9418536 ], [ 139.426900599999982, 36.9241664 ], [ 139.4121911, 36.9276055 ], [ 139.3991426, 36.9200911 ], [ 139.3939033, 36.9032788 ], [ 139.379421, 36.8979866 ], [ 139.370632, 36.8895955 ], [ 139.3678722, 36.8771802 ], [ 139.358205699999985, 36.8722102 ], [ 139.352618299999989, 36.8490716 ], [ 139.366460599999982, 36.8420535 ], [ 139.3866684, 36.8355163 ], [ 139.3973384, 36.8346943 ], [ 139.4066996, 36.8269401 ], [ 139.3910727, 36.8144334 ], [ 139.3886118, 36.8052681 ], [ 139.377934499999981, 36.804449 ], [ 139.374331, 36.7842909 ], [ 139.3622839, 36.7807273 ], [ 139.3508204, 36.7634497 ], [ 139.3560761, 36.7504533 ], [ 139.3702772, 36.7449519 ], [ 139.3563423, 36.7070976 ], [ 139.3369184, 36.6921298 ], [ 139.3392598, 36.6783337 ], [ 139.334522099999987, 36.6656913 ], [ 139.326701899999989, 36.6571124 ], [ 139.3305344, 36.6422639 ], [ 139.3296545, 36.627588599999989 ], [ 139.3457328, 36.6233469 ], [ 139.3522884, 36.6150903 ], [ 139.3866888, 36.6119833 ], [ 139.3987036, 36.6021895 ], [ 139.4123734, 36.6081242 ], [ 139.4268648, 36.6011331 ], [ 139.4450419, 36.6072926 ], [ 139.465357499999982, 36.6064937 ], [ 139.4714459, 36.6028907 ], [ 139.47384, 36.5904562 ], [ 139.4826344, 36.5781634 ], [ 139.5065387, 36.5690223 ], [ 139.5136037, 36.5634554 ], [ 139.5249181, 36.5415187 ], [ 139.5304978, 36.5381798 ], [ 139.535833599999989, 36.5167281 ], [ 139.5492572, 36.5038637 ], [ 139.5638486, 36.4962664 ], [ 139.5869387, 36.4927381 ], [ 139.605662199999983, 36.4715828 ], [ 139.6148809, 36.4670061 ], [ 139.6246976, 36.46598 ], [ 139.6241274, 36.4781803 ], [ 139.6306538, 36.4889911 ], [ 139.642687199999983, 36.4863956 ], [ 139.6674018, 36.4954486 ], [ 139.7145094, 36.4822475 ], [ 139.726578099999983, 36.4876623 ], [ 139.746744799999988, 36.4810131 ], [ 139.756787299999985, 36.4672864 ], [ 139.7672298, 36.4712225 ], [ 139.7687924, 36.486838 ], [ 139.7788439, 36.493168 ], [ 139.7888644, 36.4870055 ], [ 139.7925826, 36.4984469 ], [ 139.8056038, 36.5021735 ], [ 139.8212978, 36.5111393 ], [ 139.831801899999988, 36.5256397 ], [ 139.829282399999983, 36.5352026 ], [ 139.8205391, 36.5405646 ], [ 139.8265044, 36.5551673 ], [ 139.8118685, 36.5558835 ], [ 139.797206499999987, 36.5703046 ], [ 139.7923907, 36.5907098 ], [ 139.7734628, 36.599907099999989 ], [ 139.762797399999982, 36.5951424 ], [ 139.7476802, 36.6067927 ], [ 139.743067199999984, 36.6164551 ] ] ] ] } },
{ "type": "Feature", "properties": { "hokenjo": "県東" }, "geometry": { "type": "MultiPolygon", "coordinates": [ [ [ [ 140.069139800000016, 36.3890318 ], [ 140.0665037, 36.4038135 ], [ 140.0922864, 36.4016431 ], [ 140.111221199999989, 36.3980553 ], [ 140.114096499999988, 36.4108086 ], [ 140.1318331, 36.4149205 ], [ 140.1442615, 36.4140447 ], [ 140.156197, 36.3981536 ], [ 140.165602899999982, 36.4001052 ], [ 140.1851575, 36.3983377 ], [ 140.2032611, 36.4207432 ], [ 140.201346699999988, 36.4381437 ], [ 140.2061874, 36.4464798 ], [ 140.2028766, 36.4544373 ], [ 140.2166188, 36.4789781 ], [ 140.2295703, 36.4908847 ], [ 140.2306437, 36.5029741 ], [ 140.2489314, 36.5076621 ], [ 140.2476131, 36.5150668 ], [ 140.2601757, 36.5176298 ], [ 140.24774739999998, 36.5344901 ], [ 140.246969399999983, 36.5480165 ], [ 140.251539799999989, 36.5545801 ], [ 140.2433744, 36.5845809 ], [ 140.2491398, 36.5994036 ], [ 140.2483918, 36.6109372 ], [ 140.2395371, 36.6250081 ], [ 140.2346957, 36.6238508 ], [ 140.227544699999982, 36.6127761 ], [ 140.2020506, 36.6077704 ], [ 140.2034294, 36.6002362 ], [ 140.1843256, 36.5906143 ], [ 140.175091899999984, 36.596043 ], [ 140.168142499999988, 36.6112194 ], [ 140.1506526, 36.6086553 ], [ 140.1391272, 36.6112497 ], [ 140.1415217, 36.6191277 ], [ 140.1060319, 36.6239342 ], [ 140.099619, 36.611577 ], [ 140.0846683, 36.601402 ], [ 140.085237799999987, 36.5998998 ], [ 140.067043499999983, 36.615240899999989 ], [ 140.0604284, 36.6055501 ], [ 140.0444745, 36.6068031 ], [ 140.0476314, 36.5955021 ], [ 140.0449769, 36.5861496 ], [ 140.0302857, 36.5850213 ], [ 140.013909499999983, 36.5797119 ], [ 139.99338419999998, 36.601695 ], [ 140.002700799999985, 36.565082 ], [ 139.9983959, 36.5508534 ], [ 140.0096565, 36.5339187 ], [ 140.0062486, 36.5132659 ], [ 140.0073164, 36.5041129 ], [ 140.0004127, 36.4967821 ], [ 139.9971046, 36.5026149 ], [ 139.9723675, 36.5030682 ], [ 139.9678002, 36.4978199 ], [ 139.9630498, 36.4718277 ], [ 139.9616953, 36.462173 ], [ 139.9477932, 36.450915 ], [ 139.9338066, 36.4270909 ], [ 139.9310717, 36.4018448 ], [ 139.9222911, 36.3946315 ], [ 139.9189987, 36.3754381 ], [ 139.912312499999985, 36.3622824 ], [ 139.9074077, 36.3565127 ], [ 139.9145077, 36.3478213 ], [ 139.913026799999983, 36.3349844 ], [ 139.9226539, 36.3415821 ], [ 139.9461674, 36.3491871 ], [ 139.964501399999989, 36.3509417 ], [ 139.9652848, 36.3674787 ], [ 139.974569699999989, 36.3745437 ], [ 139.9899288, 36.3672078 ], [ 140.001564799999983, 36.3680653 ], [ 140.0127846, 36.3764156 ], [ 140.0355203, 36.3777636 ], [ 140.0481657, 36.375583 ], [ 140.0636122, 36.3820577 ], [ 140.069139800000016, 36.3890318 ] ] ] ] } },
{ "type": "Feature", "properties": { "hokenjo": "県南" }, "geometry": { "type": "MultiPolygon", "coordinates": [ [ [ [ 139.7600402, 36.2192354 ], [ 139.7856998, 36.2277973 ], [ 139.8218067, 36.2397695 ], [ 139.831861, 36.2650623 ], [ 139.841733299999987, 36.2773303 ], [ 139.8352108, 36.2918028 ], [ 139.849952699999989, 36.3117895 ], [ 139.8724776, 36.315078899999989 ], [ 139.8966424, 36.3097544 ], [ 139.89428909999998, 36.3019339 ], [ 139.9107544, 36.3012013 ], [ 139.913026799999983, 36.3349844 ], [ 139.9145077, 36.3478213 ], [ 139.9074077, 36.3565127 ], [ 139.912312499999985, 36.3622824 ], [ 139.9189987, 36.3754381 ], [ 139.9222911, 36.3946315 ], [ 139.9310717, 36.4018448 ], [ 139.9338066, 36.4270909 ], [ 139.9477932, 36.450915 ], [ 139.9616953, 36.462173 ], [ 139.9630498, 36.4718277 ], [ 139.948365, 36.4776983 ], [ 139.9472897, 36.4836316 ], [ 139.929686, 36.4832178 ], [ 139.911609799999979, 36.4908387 ], [ 139.8846384, 36.4645809 ], [ 139.8740867, 36.465015099999988 ], [ 139.8673709, 36.4747684 ], [ 139.8518344, 36.4790721 ], [ 139.8419261, 36.4873529 ], [ 139.834528299999988, 36.4963026 ], [ 139.8306184, 36.5099754 ], [ 139.8212978, 36.5111393 ], [ 139.8056038, 36.5021735 ], [ 139.7925826, 36.4984469 ], [ 139.7888644, 36.4870055 ], [ 139.7788439, 36.493168 ], [ 139.7687924, 36.486838 ], [ 139.7672298, 36.4712225 ], [ 139.756787299999985, 36.4672864 ], [ 139.746744799999988, 36.4810131 ], [ 139.726578099999983, 36.4876623 ], [ 139.7145094, 36.4822475 ], [ 139.6674018, 36.4954486 ], [ 139.642687199999983, 36.4863956 ], [ 139.6306538, 36.4889911 ], [ 139.6241274, 36.4781803 ], [ 139.6246976, 36.46598 ], [ 139.6148809, 36.4670061 ], [ 139.607905800000026, 36.4564873 ], [ 139.600295599999981, 36.4645703 ], [ 139.605662199999983, 36.4715828 ], [ 139.5869387, 36.4927381 ], [ 139.5638486, 36.4962664 ], [ 139.582228, 36.4714209 ], [ 139.5986931, 36.4655228 ], [ 139.6130733, 36.4502384 ], [ 139.636038899999988, 36.4354509 ], [ 139.637482399999982, 36.4208864 ], [ 139.646290199999981, 36.4146795 ], [ 139.6304509, 36.3891878 ], [ 139.630612, 36.3810884 ], [ 139.6169492, 36.3776259 ], [ 139.610098, 36.3707753 ], [ 139.6131543, 36.3454586 ], [ 139.6179315, 36.3435459 ], [ 139.6170478, 36.3272498 ], [ 139.634195399999982, 36.3274845 ], [ 139.626922799999988, 36.3133604 ], [ 139.62571939999998, 36.3028712 ], [ 139.6135751, 36.2876976 ], [ 139.6169545, 36.274044 ], [ 139.6339082, 36.2702277 ], [ 139.636530599999986, 36.2618794 ], [ 139.63071979999998, 36.2548413 ], [ 139.6423853, 36.2413469 ], [ 139.6589444, 36.2314133 ], [ 139.6749111, 36.208288 ], [ 139.6773355, 36.2014814 ], [ 139.688846899999987, 36.202073 ], [ 139.6936222, 36.2064894 ], [ 139.706473099999982, 36.2018566 ], [ 139.7074945, 36.2108357 ], [ 139.727542, 36.2058427 ], [ 139.748278, 36.2110876 ], [ 139.7600402, 36.2192354 ] ] ] ] } },
{ "type": "Feature", "properties": { "hokenjo": "県北" }, "geometry": { "type": "MultiPolygon", "coordinates": [ [ [ [ 140.067043499999983, 36.615240899999989 ], [ 140.085237799999987, 36.5998998 ], [ 140.0846683, 36.601402 ], [ 140.099619, 36.611577 ], [ 140.1060319, 36.6239342 ], [ 140.1415217, 36.6191277 ], [ 140.1391272, 36.6112497 ], [ 140.1506526, 36.6086553 ], [ 140.168142499999988, 36.6112194 ], [ 140.175091899999984, 36.596043 ], [ 140.1843256, 36.5906143 ], [ 140.2034294, 36.6002362 ], [ 140.2020506, 36.6077704 ], [ 140.227544699999982, 36.6127761 ], [ 140.2346957, 36.6238508 ], [ 140.2343141, 36.6346278 ], [ 140.242715, 36.6365592 ], [ 140.2409303, 36.6509228 ], [ 140.2293086, 36.6622784 ], [ 140.231417599999986, 36.6701176 ], [ 140.2215658, 36.6742862 ], [ 140.2204203, 36.6871465 ], [ 140.2333916, 36.7002471 ], [ 140.267818600000027, 36.7022706 ], [ 140.2823065, 36.7081127 ], [ 140.287671099999983, 36.7253697 ], [ 140.2833363, 36.7341386 ], [ 140.262206300000031, 36.7482837 ], [ 140.2549449, 36.7602217 ], [ 140.261067199999985, 36.7675931 ], [ 140.2536719, 36.7745159 ], [ 140.2538147, 36.7836551 ], [ 140.266441499999985, 36.7910592 ], [ 140.265691799999985, 36.8289783 ], [ 140.254988699999984, 36.8419137 ], [ 140.251536, 36.852457 ], [ 140.2567148, 36.8730995 ], [ 140.2542808, 36.891142 ], [ 140.2487181, 36.9088596 ], [ 140.2483852, 36.9213149 ], [ 140.2617368, 36.9375271 ], [ 140.2430373, 36.9434863 ], [ 140.2406349, 36.9498463 ], [ 140.253089800000026, 36.9629679 ], [ 140.2439046, 36.9731779 ], [ 140.250976399999985, 36.9833748 ], [ 140.2402132, 37.0002751 ], [ 140.2512692, 37.0090814 ], [ 140.2489324, 37.0258739 ], [ 140.224654500000014, 37.0238046 ], [ 140.219735, 37.0185113 ], [ 140.199271899999985, 37.0284133 ], [ 140.1997829, 37.0476927 ], [ 140.1906507, 37.0566663 ], [ 140.1930621, 37.0655035 ], [ 140.172827, 37.070255 ], [ 140.153535, 37.087125 ], [ 140.15623309999998, 37.0913894 ], [ 140.1370216, 37.1064642 ], [ 140.1280492, 37.1041717 ], [ 140.1026721, 37.1210479 ], [ 140.0893589, 37.1215882 ], [ 140.065962499999983, 37.1273438 ], [ 140.0575107, 37.1260341 ], [ 140.0470743, 37.135437499999988 ], [ 140.0244486, 37.143007 ], [ 140.0145546, 37.1401241 ], [ 139.967322, 37.1477946 ], [ 139.954614599999985, 37.1549407 ], [ 139.9337959, 37.1537366 ], [ 139.9163355, 37.147626 ], [ 139.894644199999988, 37.1532587 ], [ 139.877567699999986, 37.1461268 ], [ 139.8662894, 37.1472279 ], [ 139.8609649, 37.1408201 ], [ 139.8478357, 37.1394518 ], [ 139.8317731, 37.1336409 ], [ 139.827928899999989, 37.126291 ], [ 139.815188799999987, 37.1161507 ], [ 139.8211274, 37.1087368 ], [ 139.818254199999984, 37.0966657 ], [ 139.822093, 37.085136899999988 ], [ 139.823314899999986, 37.0809274 ], [ 139.8139778, 37.0635877 ], [ 139.8004272, 37.046406 ], [ 139.791661299999987, 37.0415254 ], [ 139.7585451, 37.0383587 ], [ 139.7548789, 37.0271207 ], [ 139.7550837, 37.0027259 ], [ 139.7408297, 36.988567 ], [ 139.747338, 36.9780993 ], [ 139.746851599999985, 36.9628095 ], [ 139.7379542, 36.9525937 ], [ 139.748059200000029, 36.9369987 ], [ 139.7717859, 36.9206703 ], [ 139.769468099999983, 36.9068331 ], [ 139.776328899999982, 36.9013611 ], [ 139.770614, 36.8872794 ], [ 139.7733967, 36.8684923 ], [ 139.7714557, 36.8550947 ], [ 139.736808699999983, 36.8333667 ], [ 139.7278828, 36.8330748 ], [ 139.731645, 36.8217381 ], [ 139.72968480000003, 36.7963531 ], [ 139.7370808, 36.7672398 ], [ 139.751525, 36.7680773 ], [ 139.7644575, 36.7591406 ], [ 139.8120237, 36.7389194 ], [ 139.83890660000003, 36.734763 ], [ 139.8527844, 36.7245408 ], [ 139.8603276, 36.7300797 ], [ 139.881741, 36.7226205 ], [ 139.887797100000029, 36.7245713 ], [ 139.9068801, 36.721431 ], [ 139.9184793, 36.7131896 ], [ 139.939838899999984, 36.6922093 ], [ 139.954667, 36.6693564 ], [ 139.952038, 36.6599843 ], [ 139.955371, 36.6400698 ], [ 139.9707511, 36.6075714 ], [ 139.9907843, 36.6086522 ], [ 139.99338419999998, 36.601695 ], [ 140.013909499999983, 36.5797119 ], [ 140.0302857, 36.5850213 ], [ 140.0449769, 36.5861496 ], [ 140.0476314, 36.5955021 ], [ 140.0444745, 36.6068031 ], [ 140.0604284, 36.6055501 ], [ 140.067043499999983, 36.615240899999989 ] ] ] ] } }
]
}
