{
"type": "FeatureCollection",
"name": "tokushima",
"crs": { "type": "name", "properties": { "name": "urn:ogc:def:crs:OGC:1.3:CRS84" } },
"features": [
{ "type": "Feature", "properties": { "hokenjo": "阿南" }, "geometry": { "type": "MultiPolygon", "coordinates": [ [ [ [ 134.5281536, 33.8040786 ], [ 134.53143559999998, 33.8030122 ], [ 134.5379347, 33.8041583 ], [ 134.54048419999998, 33.8040714 ], [ 134.5425219, 33.8056539 ], [ 134.54874, 33.8060489 ], [ 134.548904199999981, 33.8048556 ], [ 134.553078100000022, 33.8018417 ], [ 134.556910599999981, 33.801098599999989 ], [ 134.5576728, 33.7983861 ], [ 134.5599011, 33.7966611 ], [ 134.5619719, 33.7935431 ], [ 134.5707667, 33.7931453 ], [ 134.5720947, 33.7894622 ], [ 134.5756308, 33.7897556 ], [ 134.5773533, 33.7884147 ], [ 134.577379399999984, 33.7862972 ], [ 134.5822633, 33.78562 ], [ 134.5881858, 33.7858781 ], [ 134.5892311, 33.7870381 ], [ 134.5964289, 33.7895994 ], [ 134.5986833, 33.7872875 ], [ 134.601720299999982, 33.7895092 ], [ 134.6055919, 33.7882833 ], [ 134.6101669, 33.7892514 ], [ 134.6112842, 33.7917775 ], [ 134.615096699999981, 33.7951425 ], [ 134.619014199999981, 33.7968292 ], [ 134.6196583, 33.7980908 ], [ 134.6230342, 33.7997725 ], [ 134.626826099999988, 33.7992014 ], [ 134.63072, 33.8000839 ], [ 134.6332239, 33.8014403 ], [ 134.6447217, 33.8049844 ], [ 134.6461631, 33.8060422 ], [ 134.6508642, 33.8053981 ], [ 134.6548089, 33.8083281 ], [ 134.659796400000033, 33.8096244 ], [ 134.6622492, 33.8094881 ], [ 134.66461, 33.8135992 ], [ 134.6665722, 33.8145972 ], [ 134.6697917, 33.8137911 ], [ 134.6722342, 33.8158722 ], [ 134.6747689, 33.8163964 ], [ 134.6777942, 33.8108781 ], [ 134.677477200000027, 33.8095519 ], [ 134.6799508, 33.8066989 ], [ 134.6789394, 33.8044789 ], [ 134.682498899999985, 33.8060597 ], [ 134.68478, 33.8053356 ], [ 134.6889742, 33.8055131 ], [ 134.691052499999984, 33.8087406 ], [ 134.695358299999981, 33.8124983 ], [ 134.700456699999989, 33.8131064 ], [ 134.704269399999987, 33.8141889 ], [ 134.7067561, 33.816100299999988 ], [ 134.719153600000027, 33.8202361 ], [ 134.721689699999985, 33.8238511 ], [ 134.728918599999986, 33.8235917 ], [ 134.7321959, 33.8257867 ], [ 134.733858199999986, 33.8258849 ], [ 134.7372277, 33.829399 ], [ 134.743558299999989, 33.8305878 ], [ 134.7482183, 33.8322958 ], [ 134.749717799999985, 33.8345596 ], [ 134.744128499999988, 33.8369235 ], [ 134.743070499999988, 33.8379618 ], [ 134.7435987, 33.840622 ], [ 134.741971899999982, 33.8421218 ], [ 134.737876299999982, 33.8397982 ], [ 134.7360785, 33.8401927 ], [ 134.7302621, 33.8385491 ], [ 134.7259427, 33.8345751 ], [ 134.7223247, 33.8348272 ], [ 134.721154899999988, 33.8322556 ], [ 134.7192298, 33.8312978 ], [ 134.7167978, 33.832286 ], [ 134.7167207, 33.8356597 ], [ 134.7124887, 33.8343218 ], [ 134.7083017, 33.8354598 ], [ 134.707353399999988, 33.8347113 ], [ 134.700823499999984, 33.8361898 ], [ 134.6975816, 33.83473 ], [ 134.698155499999984, 33.8333229 ], [ 134.6931011, 33.8320107 ], [ 134.6915358, 33.8332328 ], [ 134.687291499999986, 33.8324613 ], [ 134.683867, 33.8304488 ], [ 134.679751, 33.8304925 ], [ 134.6784184, 33.8320141 ], [ 134.6793911, 33.8343592 ], [ 134.684786799999983, 33.8339887 ], [ 134.6842414, 33.8357358 ], [ 134.6880228, 33.8389542 ], [ 134.6924028, 33.8393689 ], [ 134.692896, 33.8409023 ], [ 134.697651799999988, 33.8420153 ], [ 134.700158499999986, 33.8412912 ], [ 134.702458899999982, 33.8423408 ], [ 134.7083433, 33.8423451 ], [ 134.714883499999985, 33.8443193 ], [ 134.718248099999983, 33.8441381 ], [ 134.718570199999988, 33.8475471 ], [ 134.7115613, 33.850321099999988 ], [ 134.707803499999983, 33.850566 ], [ 134.7039145, 33.8481337 ], [ 134.70028929999998, 33.849682 ], [ 134.6924903, 33.8482004 ], [ 134.6903385, 33.8516435 ], [ 134.6854189, 33.8500235 ], [ 134.683687099999986, 33.8511365 ], [ 134.6817461, 33.8495617 ], [ 134.6792734, 33.8494534 ], [ 134.6777507, 33.8472503 ], [ 134.67481, 33.846733 ], [ 134.67441, 33.8501829 ], [ 134.671778499999988, 33.8490825 ], [ 134.6705172, 33.8451262 ], [ 134.6683102, 33.8439596 ], [ 134.667703099999983, 33.847952 ], [ 134.6659373, 33.8484498 ], [ 134.6629953, 33.8473056 ], [ 134.6634513, 33.8447417 ], [ 134.660171, 33.8445484 ], [ 134.6600249, 33.8476514 ], [ 134.6577834, 33.848732 ], [ 134.6560959, 33.8462886 ], [ 134.6536778, 33.844634299999989 ], [ 134.6491608, 33.8449623 ], [ 134.647507600000012, 33.8431338 ], [ 134.6428454, 33.8430223 ], [ 134.6393249, 33.845495299999989 ], [ 134.6424429, 33.8487813 ], [ 134.646164299999981, 33.8501553 ], [ 134.6468883, 33.8531375 ], [ 134.6434887, 33.8521323 ], [ 134.642687099999989, 33.8532983 ], [ 134.6452429, 33.855216299999988 ], [ 134.6440739, 33.8573478 ], [ 134.6449633, 33.8653469 ], [ 134.641114099999982, 33.8645601 ], [ 134.638536, 33.8591763 ], [ 134.6356351, 33.8591749 ], [ 134.6311888, 33.8567309 ], [ 134.628792, 33.8569482 ], [ 134.629719, 33.8608046 ], [ 134.635737, 33.8687417 ], [ 134.6399868, 33.8695057 ], [ 134.643508699999984, 33.870903 ], [ 134.644095599999986, 33.8736883 ], [ 134.6475383, 33.8739854 ], [ 134.650037, 33.8707267 ], [ 134.656205, 33.8724029 ], [ 134.660766599999988, 33.875837 ], [ 134.659289299999983, 33.8773152 ], [ 134.6534285, 33.880848 ], [ 134.656426499999981, 33.8815843 ], [ 134.661228699999981, 33.8815166 ], [ 134.6622042, 33.879705 ], [ 134.667373199999986, 33.8792634 ], [ 134.669275299999981, 33.885262 ], [ 134.672694899999982, 33.8862345 ], [ 134.6755954, 33.8859418 ], [ 134.6818744, 33.8901176 ], [ 134.6841028, 33.8921453 ], [ 134.6835544, 33.8938324 ], [ 134.686082, 33.8984533 ], [ 134.6884714, 33.9010335 ], [ 134.6925865, 33.9032351 ], [ 134.695889400000027, 33.9035514 ], [ 134.697054899999983, 33.9052687 ], [ 134.6978427, 33.909903 ], [ 134.700669799999986, 33.9132295 ], [ 134.6995661, 33.9180798 ], [ 134.7016322, 33.9221103 ], [ 134.705633399999982, 33.9259388 ], [ 134.7013202, 33.9384623 ], [ 134.697032, 33.9483561 ], [ 134.6959755, 33.9517183 ], [ 134.69312739999998, 33.9516996 ], [ 134.6898794, 33.9536044 ], [ 134.6861491, 33.9572941 ], [ 134.6811667, 33.9593593 ], [ 134.670732099999981, 33.9610795 ], [ 134.6683047, 33.9620851 ], [ 134.664941199999987, 33.9650777 ], [ 134.6576791, 33.9753757 ], [ 134.6546535, 33.9803399 ], [ 134.6520797, 33.985816 ], [ 134.6445411, 33.9822311 ], [ 134.6416102, 33.9778009 ], [ 134.6414302, 33.9748135 ], [ 134.639781699999986, 33.9739402 ], [ 134.638808899999987, 33.9693379 ], [ 134.63534439999998, 33.9673419 ], [ 134.6352444, 33.9636817 ], [ 134.6279647, 33.9669025 ], [ 134.625305, 33.9686153 ], [ 134.622023899999988, 33.9684 ], [ 134.619966399999981, 33.9651917 ], [ 134.6154364, 33.9635022 ], [ 134.6137186, 33.9614581 ], [ 134.613338299999981, 33.9574647 ], [ 134.6113267, 33.9568289 ], [ 134.611868099999981, 33.9506161 ], [ 134.608663899999982, 33.9493756 ], [ 134.5982439, 33.9494619 ], [ 134.594065299999983, 33.9479403 ], [ 134.5907283, 33.94778 ], [ 134.5880194, 33.9461744 ], [ 134.58486689999998, 33.9465511 ], [ 134.580717199999981, 33.9450967 ], [ 134.5750981, 33.9442247 ], [ 134.5726539, 33.9417047 ], [ 134.5700606, 33.9409747 ], [ 134.5678356, 33.9390117 ], [ 134.565841399999982, 33.9386275 ], [ 134.5605969, 33.9396592 ], [ 134.5577058, 33.9354683 ], [ 134.5578619, 33.9334631 ], [ 134.548715, 33.931375 ], [ 134.543313899999987, 33.9311517 ], [ 134.5386622, 33.9288136 ], [ 134.5362661, 33.9282308 ], [ 134.5345533, 33.9241 ], [ 134.531696399999987, 33.9239389 ], [ 134.5306425, 33.9203669 ], [ 134.5308283, 33.9179814 ], [ 134.5213, 33.9157978 ], [ 134.5187561, 33.9183486 ], [ 134.51651, 33.9176161 ], [ 134.51473, 33.9139689 ], [ 134.5111033, 33.9115 ], [ 134.505484199999984, 33.909444199999989 ], [ 134.5039969, 33.907935 ], [ 134.498546399999981, 33.9108622 ], [ 134.492554399999989, 33.9108739 ], [ 134.4873317, 33.9075486 ], [ 134.484165, 33.9061875 ], [ 134.4802253, 33.9021803 ], [ 134.4752083, 33.9012375 ], [ 134.4740572, 33.8969694 ], [ 134.47256059999998, 33.895155599999988 ], [ 134.468571699999984, 33.8924339 ], [ 134.4678069, 33.8893967 ], [ 134.4689994, 33.8858072 ], [ 134.473531399999985, 33.8815733 ], [ 134.472141099999988, 33.8784092 ], [ 134.468637799999982, 33.8740108 ], [ 134.4672558, 33.8714672 ], [ 134.4678739, 33.8698553 ], [ 134.4628947, 33.8676731 ], [ 134.4626083, 33.8661717 ], [ 134.4551078, 33.8647483 ], [ 134.4506369, 33.8623253 ], [ 134.4378853, 33.8597481 ], [ 134.4361039, 33.8577242 ], [ 134.4320917, 33.8558275 ], [ 134.4291261, 33.8588286 ], [ 134.421013599999981, 33.8576311 ], [ 134.4165878, 33.8600625 ], [ 134.4147025, 33.8600111 ], [ 134.410202199999986, 33.857666099999989 ], [ 134.406728099999981, 33.8552083 ], [ 134.403140799999989, 33.8551631 ], [ 134.4017294, 33.8560311 ], [ 134.395364199999989, 33.8535711 ], [ 134.393074399999989, 33.8542233 ], [ 134.3895167, 33.8515414 ], [ 134.387064399999986, 33.8511981 ], [ 134.3807881, 33.8526936 ], [ 134.378483599999981, 33.8544214 ], [ 134.377970299999987, 33.8561242 ], [ 134.373494699999981, 33.855285 ], [ 134.3651994, 33.8501108 ], [ 134.360615, 33.8485669 ], [ 134.356955299999981, 33.8510364 ], [ 134.3508717, 33.8517517 ], [ 134.3523061, 33.8567339 ], [ 134.3505447, 33.8581969 ], [ 134.3462214, 33.8594672 ], [ 134.3418322, 33.8595325 ], [ 134.3371861, 33.8623061 ], [ 134.335766899999982, 33.8646925 ], [ 134.3270106, 33.8638114 ], [ 134.327423899999985, 33.8667864 ], [ 134.3260517, 33.8697561 ], [ 134.3262019, 33.8745289 ], [ 134.3220792, 33.8777861 ], [ 134.325985799999984, 33.8826508 ], [ 134.3252714, 33.8867444 ], [ 134.3229842, 33.8875494 ], [ 134.3222886, 33.8895672 ], [ 134.318337499999984, 33.8939667 ], [ 134.3165206, 33.8945836 ], [ 134.3164014, 33.8976161 ], [ 134.3125478, 33.8994456 ], [ 134.3107772, 33.9041744 ], [ 134.308026399999989, 33.9063964 ], [ 134.3038972, 33.9076667 ], [ 134.3010981, 33.9100022 ], [ 134.2987253, 33.9103797 ], [ 134.2962344, 33.9094453 ], [ 134.2943544, 33.9066608 ], [ 134.290390299999984, 33.9067947 ], [ 134.2862978, 33.9151589 ], [ 134.2822428, 33.9157961 ], [ 134.2779797, 33.9150394 ], [ 134.2748844, 33.9157072 ], [ 134.2725733, 33.9172267 ], [ 134.2666975, 33.9170258 ], [ 134.2621325, 33.9176592 ], [ 134.2576247, 33.9162825 ], [ 134.253708599999982, 33.9161564 ], [ 134.2499478, 33.9169639 ], [ 134.2489639, 33.9153489 ], [ 134.237838899999986, 33.9100014 ], [ 134.2355953, 33.9098189 ], [ 134.231442499999986, 33.9079358 ], [ 134.23262889999998, 33.904305 ], [ 134.236770299999989, 33.901785 ], [ 134.236578899999984, 33.8996319 ], [ 134.2385094, 33.8978817 ], [ 134.2390383, 33.89169 ], [ 134.234837199999987, 33.8907181 ], [ 134.231461699999983, 33.8887111 ], [ 134.226484199999987, 33.8880044 ], [ 134.224850299999986, 33.889125 ], [ 134.221765799999986, 33.8890619 ], [ 134.2181042, 33.8878606 ], [ 134.216518899999983, 33.8864386 ], [ 134.211401699999982, 33.8852458 ], [ 134.2091261, 33.8811781 ], [ 134.206225, 33.8808453 ], [ 134.1978119, 33.8850028 ], [ 134.1937189, 33.8859706 ], [ 134.1904561, 33.88539 ], [ 134.1874311, 33.8824428 ], [ 134.1833167, 33.8813403 ], [ 134.1804372, 33.8782894 ], [ 134.177234199999987, 33.8776414 ], [ 134.1721872, 33.8720708 ], [ 134.1727589, 33.8700186 ], [ 134.1692914, 33.8672514 ], [ 134.1647394, 33.8656675 ], [ 134.1550425, 33.8658025 ], [ 134.1505608, 33.8676431 ], [ 134.1480903, 33.8693981 ], [ 134.1434419, 33.8687411 ], [ 134.1398614, 33.8656633 ], [ 134.135202199999981, 33.8655464 ], [ 134.131578599999983, 33.8619911 ], [ 134.127350799999988, 33.8600744 ], [ 134.1251883, 33.8574778 ], [ 134.118056699999983, 33.8559858 ], [ 134.1120089, 33.8554869 ], [ 134.1105217, 33.8527472 ], [ 134.101312799999988, 33.853904199999988 ], [ 134.095978299999985, 33.8549839 ], [ 134.0921792, 33.8524719 ], [ 134.090429199999988, 33.8497861 ], [ 134.0885878, 33.8487775 ], [ 134.0853664, 33.8439689 ], [ 134.0784844, 33.8459811 ], [ 134.0650425, 33.8409725 ], [ 134.064596699999981, 33.8397622 ], [ 134.0612222, 33.8380308 ], [ 134.0541778, 33.8369986 ], [ 134.0494928, 33.8342836 ], [ 134.0449825, 33.8338789 ], [ 134.0397706, 33.835035 ], [ 134.037684399999989, 33.8337942 ], [ 134.035700599999984, 33.8304025 ], [ 134.0328283, 33.8283997 ], [ 134.0351722, 33.8245683 ], [ 134.036879699999986, 33.8203394 ], [ 134.0369781, 33.8149797 ], [ 134.0338822, 33.8121233 ], [ 134.0333114, 33.8092781 ], [ 134.0392047, 33.8045761 ], [ 134.0407381, 33.801887199999989 ], [ 134.04658, 33.7990706 ], [ 134.0468228, 33.7961147 ], [ 134.0457667, 33.7946353 ], [ 134.045868899999988, 33.7899972 ], [ 134.04942029999998, 33.7873011 ], [ 134.050271899999984, 33.7856367 ], [ 134.0553222, 33.7846906 ], [ 134.0587883, 33.7766669 ], [ 134.058353899999986, 33.7721217 ], [ 134.0589158, 33.7662533 ], [ 134.057766099999981, 33.7647169 ], [ 134.058954199999988, 33.7610003 ], [ 134.05689719999998, 33.7578456 ], [ 134.0560956, 33.7519492 ], [ 134.057785300000035, 33.7505264 ], [ 134.0594869, 33.7459247 ], [ 134.059046699999982, 33.7432214 ], [ 134.0614936, 33.74044 ], [ 134.0617811, 33.7352153 ], [ 134.066193299999981, 33.7340669 ], [ 134.06841750000001, 33.7283519 ], [ 134.067560800000024, 33.7250842 ], [ 134.06628139999998, 33.7242406 ], [ 134.065037499999988, 33.7194522 ], [ 134.067015, 33.7155128 ], [ 134.0695969, 33.7138742 ], [ 134.070101699999981, 33.7111958 ], [ 134.066422499999987, 33.709513099999988 ], [ 134.064715, 33.7065544 ], [ 134.064715, 33.70367 ], [ 134.0635236, 33.7001425 ], [ 134.0647736, 33.6985381 ], [ 134.0615875, 33.6961489 ], [ 134.05819, 33.69532 ], [ 134.0565997, 33.6939117 ], [ 134.05805669999998, 33.6910333 ], [ 134.066335, 33.688625 ], [ 134.073128900000029, 33.6896136 ], [ 134.0763983, 33.6906136 ], [ 134.081400299999984, 33.6904692 ], [ 134.090440799999982, 33.69307 ], [ 134.0950925, 33.69242 ], [ 134.099899199999982, 33.694621399999988 ], [ 134.10602, 33.6935875 ], [ 134.1119908, 33.6956594 ], [ 134.1169381, 33.6959408 ], [ 134.119912199999987, 33.6949525 ], [ 134.122334199999983, 33.6960236 ], [ 134.126263099999989, 33.6958853 ], [ 134.1317647, 33.6938606 ], [ 134.1333828, 33.6939611 ], [ 134.135784199999989, 33.6909333 ], [ 134.1401353, 33.6895106 ], [ 134.1425869, 33.687475 ], [ 134.148550799999981, 33.6857061 ], [ 134.154535, 33.6859853 ], [ 134.1609661, 33.6868353 ], [ 134.1638453, 33.6881239 ], [ 134.1644119, 33.6909475 ], [ 134.162737199999981, 33.6966306 ], [ 134.170666899999986, 33.6993267 ], [ 134.17379440000002, 33.7034092 ], [ 134.1762325, 33.7037497 ], [ 134.1832728, 33.7074428 ], [ 134.186340799999982, 33.7077986 ], [ 134.1902761, 33.7108136 ], [ 134.1936033, 33.71095 ], [ 134.197620299999983, 33.7126278 ], [ 134.2016514, 33.7163081 ], [ 134.2055789, 33.7166083 ], [ 134.20889889999998, 33.7182272 ], [ 134.2110558, 33.7217028 ], [ 134.219865299999981, 33.7217808 ], [ 134.2230031, 33.7223914 ], [ 134.2248483, 33.7210689 ], [ 134.230164699999989, 33.7214464 ], [ 134.233494399999984, 33.7193061 ], [ 134.2367111, 33.7198883 ], [ 134.2470725, 33.7239992 ], [ 134.248887199999984, 33.7208625 ], [ 134.2531444, 33.7189756 ], [ 134.2567114, 33.7188194 ], [ 134.2587081, 33.7204889 ], [ 134.2636086, 33.720695 ], [ 134.2661186, 33.7239478 ], [ 134.2684219, 33.7246306 ], [ 134.271222199999983, 33.7275958 ], [ 134.2760128, 33.7281061 ], [ 134.2822597, 33.7310214 ], [ 134.2839133, 33.7288472 ], [ 134.2883803, 33.7274983 ], [ 134.2946039, 33.7305111 ], [ 134.305401100000012, 33.7322422 ], [ 134.3102547, 33.7307983 ], [ 134.313015, 33.7320025 ], [ 134.3162553, 33.7312944 ], [ 134.320335299999982, 33.7325094 ], [ 134.322478599999982, 33.7302825 ], [ 134.3274256, 33.7296414 ], [ 134.329544, 33.7277027 ], [ 134.3343492, 33.7275203 ], [ 134.3365358, 33.73043 ], [ 134.338936099999984, 33.7298283 ], [ 134.341356099999985, 33.7275428 ], [ 134.3475636, 33.7286186 ], [ 134.349076699999983, 33.7301794 ], [ 134.3519669, 33.7286939 ], [ 134.3556372, 33.7284014 ], [ 134.3583442, 33.7312944 ], [ 134.362400799999989, 33.7309294 ], [ 134.3657375, 33.7272864 ], [ 134.3684208, 33.7263972 ], [ 134.3747158, 33.7275717 ], [ 134.3776358, 33.7259361 ], [ 134.3818975, 33.725335799999989 ], [ 134.383853599999981, 33.7258253 ], [ 134.389731399999988, 33.725375 ], [ 134.3945789, 33.7243717 ], [ 134.399880599999989, 33.7290886 ], [ 134.3997197, 33.7311033 ], [ 134.4018936, 33.7349197 ], [ 134.401945, 33.73983 ], [ 134.4046769, 33.7414247 ], [ 134.4091836, 33.742065 ], [ 134.4130494, 33.7416217 ], [ 134.414639699999981, 33.7440844 ], [ 134.4195147, 33.7483267 ], [ 134.4197211, 33.7499892 ], [ 134.422460299999983, 33.7527533 ], [ 134.420957800000025, 33.7571397 ], [ 134.4272825, 33.7619383 ], [ 134.4299881, 33.7633133 ], [ 134.432940799999983, 33.7636275 ], [ 134.43794029999998, 33.7624094 ], [ 134.439403299999981, 33.7632647 ], [ 134.443911899999989, 33.7635997 ], [ 134.449735, 33.7662864 ], [ 134.447667500000023, 33.7686558 ], [ 134.4464008, 33.7723983 ], [ 134.4473822, 33.7738875 ], [ 134.4505644, 33.7739489 ], [ 134.453168299999987, 33.7750925 ], [ 134.4598164, 33.7752856 ], [ 134.463281099999989, 33.7766733 ], [ 134.4656258, 33.7794492 ], [ 134.475155799999982, 33.7778669 ], [ 134.47916859999998, 33.7800578 ], [ 134.480586700000032, 33.78211 ], [ 134.480315, 33.7865956 ], [ 134.4833922, 33.7884939 ], [ 134.485624699999988, 33.7910328 ], [ 134.4907733, 33.7941917 ], [ 134.4993036, 33.79236 ], [ 134.5052308, 33.7937864 ], [ 134.5065828, 33.7950117 ], [ 134.516727799999984, 33.7979919 ], [ 134.519420599999989, 33.7994158 ], [ 134.5266461, 33.8009194 ], [ 134.5281536, 33.8040786 ] ] ], [ [ [ 134.8050275, 33.8400733 ], [ 134.804401, 33.843515 ], [ 134.802511, 33.8436329 ], [ 134.8031469, 33.8393122 ], [ 134.8050275, 33.8400733 ] ] ], [ [ [ 134.798872499999987, 33.8425789 ], [ 134.8012583, 33.8441356 ], [ 134.797018899999983, 33.8486361 ], [ 134.7931667, 33.847632499999989 ], [ 134.7924711, 33.8461981 ], [ 134.7973431, 33.8457808 ], [ 134.798872499999987, 33.8425789 ] ] ], [ [ [ 134.8204297, 33.8546033 ], [ 134.8213786, 33.856266399999988 ], [ 134.8196936, 33.8577125 ], [ 134.8180156, 33.8570044 ], [ 134.8117633, 33.8508853 ], [ 134.8090522, 33.8509978 ], [ 134.8086069, 33.8476289 ], [ 134.806338399999987, 33.8463038 ], [ 134.8061511, 33.8430031 ], [ 134.810007499999983, 33.8404342 ], [ 134.8118239, 33.8403692 ], [ 134.8185897, 33.8441153 ], [ 134.8161858, 33.8460769 ], [ 134.820480299999986, 33.8489886 ], [ 134.8197983, 33.8503219 ], [ 134.8204297, 33.8546033 ] ] ], [ [ [ 134.73687289999998, 33.8483541 ], [ 134.741509899999983, 33.8503091 ], [ 134.7402913, 33.8528918 ], [ 134.736725399999983, 33.8498877 ], [ 134.7330508, 33.8504479 ], [ 134.7324979, 33.8485994 ], [ 134.73687289999998, 33.8483541 ] ] ], [ [ [ 134.7097192, 33.852807 ], [ 134.714557899999988, 33.855877299999989 ], [ 134.710337399999986, 33.8577769 ], [ 134.7088435, 33.8554449 ], [ 134.7097192, 33.852807 ] ] ], [ [ [ 134.661528, 33.8631552 ], [ 134.6581713, 33.8679269 ], [ 134.6567344, 33.8675119 ], [ 134.6531224, 33.8676277 ], [ 134.65283789999998, 33.8647085 ], [ 134.6481948, 33.8638785 ], [ 134.6457534, 33.858786 ], [ 134.649394, 33.8562504 ], [ 134.649367499999983, 33.8540253 ], [ 134.6544682, 33.8536838 ], [ 134.6571491, 33.8560593 ], [ 134.659418, 33.8609704 ], [ 134.6619748, 33.8600065 ], [ 134.6639697, 33.8613384 ], [ 134.661528, 33.8631552 ] ] ], [ [ [ 134.6753559, 33.860224 ], [ 134.677276, 33.8616131 ], [ 134.6783285, 33.8661906 ], [ 134.6797626, 33.8696799 ], [ 134.678503899999981, 33.869655 ], [ 134.6758467, 33.8656182 ], [ 134.672121799999985, 33.8649068 ], [ 134.6724314, 33.8625792 ], [ 134.6753559, 33.860224 ] ] ] ] } },
{ "type": "Feature", "properties": { "hokenjo": "吉野川" }, "geometry": { "type": "MultiPolygon", "coordinates": [ [ [ [ 134.3958461, 34.0924606 ], [ 134.3944286, 34.0975186 ], [ 134.3941461, 34.1041647 ], [ 134.3970569, 34.1047517 ], [ 134.398128899999989, 34.1036967 ], [ 134.4014953, 34.1059625 ], [ 134.4016097, 34.1089669 ], [ 134.398924199999982, 34.1162858 ], [ 134.386340599999983, 34.1137989 ], [ 134.3845767, 34.1183067 ], [ 134.3826919, 34.1193322 ], [ 134.3795203, 34.1236422 ], [ 134.377882199999988, 34.1299461 ], [ 134.3831322, 34.1385342 ], [ 134.379525799999982, 34.1433964 ], [ 134.3775881, 34.1441453 ], [ 134.3752958, 34.1481714 ], [ 134.37135360000002, 34.1510056 ], [ 134.3691522, 34.1514647 ], [ 134.367860799999988, 34.1556208 ], [ 134.371139199999988, 34.1632956 ], [ 134.3705047, 34.1644539 ], [ 134.372867499999984, 34.168505 ], [ 134.375658300000026, 34.1717858 ], [ 134.374977799999982, 34.1733461 ], [ 134.370143899999988, 34.1759617 ], [ 134.3686931, 34.178255 ], [ 134.363190300000014, 34.1817869 ], [ 134.3602589, 34.1820931 ], [ 134.3579933, 34.1846536 ], [ 134.35553, 34.18529 ], [ 134.349842199999983, 34.1853217 ], [ 134.348064199999982, 34.1838742 ], [ 134.346516399999985, 34.178458299999988 ], [ 134.3464147, 34.1757386 ], [ 134.3441933, 34.1723797 ], [ 134.3363422, 34.1744589 ], [ 134.3340733, 34.1755394 ], [ 134.330738599999989, 34.1747014 ], [ 134.328313899999984, 34.1731667 ], [ 134.321576099999987, 34.1751775 ], [ 134.3188222, 34.1753039 ], [ 134.31444639999998, 34.1772172 ], [ 134.3106119, 34.1747086 ], [ 134.308067199999982, 34.1707597 ], [ 134.3052475, 34.1701914 ], [ 134.3002428, 34.1702811 ], [ 134.2975744, 34.1686775 ], [ 134.2960914, 34.1727608 ], [ 134.2922331, 34.1791428 ], [ 134.287737199999981, 34.1792617 ], [ 134.287156399999986, 34.1800706 ], [ 134.2824986, 34.1787128 ], [ 134.2816186, 34.1773989 ], [ 134.2771525, 34.1764811 ], [ 134.2743744, 34.178761099999988 ], [ 134.273440599999986, 34.1811339 ], [ 134.2602636, 34.1835578 ], [ 134.25657529999998, 34.1809542 ], [ 134.2508403, 34.18051 ], [ 134.2474278, 34.17873 ], [ 134.244488599999983, 34.1796836 ], [ 134.237026899999989, 34.1804511 ], [ 134.2349997, 34.1797081 ], [ 134.232425, 34.1805547 ], [ 134.227966100000032, 34.1804814 ], [ 134.2271331, 34.1778203 ], [ 134.2237025, 34.1798422 ], [ 134.2206472, 34.17986 ], [ 134.216008099999982, 34.1763764 ], [ 134.208726399999989, 34.1747256 ], [ 134.209973599999984, 34.1725444 ], [ 134.2126953, 34.1712983 ], [ 134.220788299999981, 34.1639586 ], [ 134.220747499999987, 34.1612544 ], [ 134.221855299999987, 34.1568758 ], [ 134.2213922, 34.1548811 ], [ 134.2171808, 34.1516339 ], [ 134.2182339, 34.1462758 ], [ 134.2174589, 34.1403781 ], [ 134.2156003, 34.137615 ], [ 134.2111217, 34.1333308 ], [ 134.211701399999981, 34.1309911 ], [ 134.2107139, 34.1280783 ], [ 134.2101925, 34.1210981 ], [ 134.2085294, 34.1172169 ], [ 134.2092017, 34.1154031 ], [ 134.2052883, 34.1122675 ], [ 134.2023733, 34.1083164 ], [ 134.1980692, 34.1060569 ], [ 134.1962483, 34.1009181 ], [ 134.196303100000023, 34.0993853 ], [ 134.192541399999982, 34.0968283 ], [ 134.1912519, 34.0937736 ], [ 134.188402199999985, 34.0932394 ], [ 134.184811699999983, 34.0904211 ], [ 134.1829597, 34.0901067 ], [ 134.180068899999981, 34.0872633 ], [ 134.178790300000031, 34.0821761 ], [ 134.1812692, 34.0749606 ], [ 134.1819281, 34.0717683 ], [ 134.184832199999988, 34.0696081 ], [ 134.1863242, 34.0635506 ], [ 134.1884053, 34.0621214 ], [ 134.191301899999985, 34.0584239 ], [ 134.1921975, 34.0549633 ], [ 134.189897799999983, 34.0521878 ], [ 134.1896358, 34.0492669 ], [ 134.191597799999982, 34.0488372 ], [ 134.195039399999985, 34.0443914 ], [ 134.1969703, 34.0438864 ], [ 134.1984186, 34.0399897 ], [ 134.197274199999981, 34.0364406 ], [ 134.19843419999998, 34.0355881 ], [ 134.1978425, 34.0297336 ], [ 134.182769400000012, 34.0161617 ], [ 134.1853386, 34.0153978 ], [ 134.189332799999988, 34.0127072 ], [ 134.18934059999998, 34.0111792 ], [ 134.1867714, 34.0066447 ], [ 134.1897136, 34.0037917 ], [ 134.1931189, 34.002565 ], [ 134.1977994, 33.9993297 ], [ 134.198145, 33.9952117 ], [ 134.1995978, 33.9935636 ], [ 134.1957903, 33.989115 ], [ 134.1993544, 33.9884747 ], [ 134.2019458, 33.9860531 ], [ 134.204163099999988, 33.9826686 ], [ 134.2122033, 33.9809214 ], [ 134.2171467, 33.9803161 ], [ 134.2189256, 33.9792758 ], [ 134.2248892, 33.9788228 ], [ 134.2290994, 33.9802683 ], [ 134.238061099999982, 33.9797111 ], [ 134.2404125, 33.9805889 ], [ 134.242546399999981, 33.9798125 ], [ 134.2482517, 33.9805975 ], [ 134.2514214, 33.9805222 ], [ 134.253535, 33.982475 ], [ 134.253933099999983, 33.9846769 ], [ 134.256353599999983, 33.9861839 ], [ 134.261212799999981, 33.9863842 ], [ 134.26278, 33.987627499999988 ], [ 134.2691308, 33.9890711 ], [ 134.2748047, 33.9928431 ], [ 134.282678299999986, 33.9912942 ], [ 134.2867094, 33.9942128 ], [ 134.288641899999988, 34.0002919 ], [ 134.2912514, 34.0025358 ], [ 134.2955925, 34.0024728 ], [ 134.2989322, 34.0064811 ], [ 134.3019161, 34.0050647 ], [ 134.308759399999985, 34.0053839 ], [ 134.3108044, 34.0072853 ], [ 134.317248299999989, 34.0064008 ], [ 134.3251378, 34.0028883 ], [ 134.323256099999981, 34.0087044 ], [ 134.33001, 34.0134008 ], [ 134.3307183, 34.0181656 ], [ 134.3342214, 34.0205228 ], [ 134.3352997, 34.0242289 ], [ 134.3349164, 34.0300497 ], [ 134.3381961, 34.0317147 ], [ 134.342935, 34.0313994 ], [ 134.3485289, 34.0357172 ], [ 134.349783299999984, 34.0387744 ], [ 134.3545222, 34.0395028 ], [ 134.3557289, 34.0371056 ], [ 134.3588411, 34.0354364 ], [ 134.3608558, 34.0326094 ], [ 134.3667917, 34.0290881 ], [ 134.3704864, 34.0320131 ], [ 134.372307799999987, 34.0347178 ], [ 134.37249970000002, 34.0391531 ], [ 134.379364200000026, 34.0423136 ], [ 134.379807199999988, 34.0436072 ], [ 134.385130799999985, 34.0446858 ], [ 134.3876717, 34.0474569 ], [ 134.3916022, 34.0495547 ], [ 134.394348899999983, 34.0528869 ], [ 134.3963981, 34.0525553 ], [ 134.399616399999985, 34.0505794 ], [ 134.4032661, 34.0499992 ], [ 134.4040403, 34.0523522 ], [ 134.4027436, 34.0659578 ], [ 134.4019347, 34.0691583 ], [ 134.4018883, 34.0763014 ], [ 134.4004674, 34.0750414 ], [ 134.3973811, 34.0872317 ], [ 134.3958461, 34.0924606 ] ] ] ] } },
{ "type": "Feature", "properties": { "hokenjo": "三好" }, "geometry": { "type": "MultiPolygon", "coordinates": [ [ [ [ 133.972229199999987, 33.9602422 ], [ 133.9759914, 33.9626708 ], [ 133.9789886, 33.9673472 ], [ 133.9814892, 33.9686147 ], [ 133.984250799999984, 33.9731236 ], [ 133.9887311, 33.9735547 ], [ 133.9956458, 33.97862 ], [ 133.9961094, 33.9822653 ], [ 133.9979094, 33.9834675 ], [ 133.9986553, 33.9879089 ], [ 134.0016872, 33.9904872 ], [ 134.0016708, 33.9965275 ], [ 134.001002199999988, 33.9974314 ], [ 134.001935799999984, 34.0013325 ], [ 133.9990086, 34.0029264 ], [ 133.998102499999987, 34.0046333 ], [ 133.998698599999983, 34.0105428 ], [ 134.0007472, 34.0114044 ], [ 134.0006569, 34.0163747 ], [ 134.002034399999985, 34.0181875 ], [ 134.002625599999988, 34.0239992 ], [ 134.0038931, 34.0261125 ], [ 134.0029611, 34.0297903 ], [ 134.0012783, 34.0328628 ], [ 133.9989692, 34.035155 ], [ 133.999396099999984, 34.0371772 ], [ 134.000059199999981, 34.03732 ], [ 133.9989214, 34.0450078 ], [ 134.001031399999988, 34.058145 ], [ 134.0006367, 34.065145 ], [ 133.9985269, 34.0668247 ], [ 133.9985442, 34.06846 ], [ 134.0005258, 34.0717294 ], [ 133.9996333, 34.0747875 ], [ 133.993934199999984, 34.0726175 ], [ 133.991055, 34.0731803 ], [ 133.9887455, 34.0748675 ], [ 133.9857185, 34.0734572 ], [ 133.9840217, 34.0744399 ], [ 133.9769431, 34.0757604 ], [ 133.973048, 34.0730213 ], [ 133.97147720000001, 34.0778336 ], [ 133.969046099999986, 34.0812522 ], [ 133.9668414, 34.0819753 ], [ 133.96277809999998, 34.0811664 ], [ 133.9591247, 34.082495 ], [ 133.9592308, 34.0859164 ], [ 133.9564781, 34.0880992 ], [ 133.95241249999998, 34.0895575 ], [ 133.948648599999984, 34.0920061 ], [ 133.946079199999986, 34.0919325 ], [ 133.943887499999988, 34.094495 ], [ 133.9443181, 34.0961072 ], [ 133.943421699999988, 34.0999542 ], [ 133.9444308, 34.1017539 ], [ 133.94189, 34.1040956 ], [ 133.93956559999998, 34.1046575 ], [ 133.937635799999981, 34.1081764 ], [ 133.9388625, 34.1104781 ], [ 133.9397672, 34.1148936 ], [ 133.9319667, 34.1160108 ], [ 133.9299842, 34.1152011 ], [ 133.922296099999983, 34.1144119 ], [ 133.919405, 34.1122508 ], [ 133.9155486, 34.1079022 ], [ 133.911564199999987, 34.1044097 ], [ 133.903093600000034, 34.1000706 ], [ 133.901339299999989, 34.1000653 ], [ 133.8970486, 34.1039886 ], [ 133.8942697, 34.1074942 ], [ 133.892854699999987, 34.1081969 ], [ 133.884905, 34.1046306 ], [ 133.88012, 34.1040886 ], [ 133.8739153, 34.1011381 ], [ 133.870583899999986, 34.1014264 ], [ 133.867084399999982, 34.1001528 ], [ 133.8652203, 34.1039008 ], [ 133.8630169, 34.1053383 ], [ 133.858725, 34.1052564 ], [ 133.8548375, 34.1041647 ], [ 133.849490299999985, 34.0991514 ], [ 133.8453078, 34.0963675 ], [ 133.8421531, 34.0949664 ], [ 133.838336699999985, 34.0952119 ], [ 133.834132499999981, 34.0977408 ], [ 133.830649699999981, 34.095566399999989 ], [ 133.82601889999998, 34.0944292 ], [ 133.8217706, 34.0917086 ], [ 133.8229878, 34.0848067 ], [ 133.818533299999984, 34.0797025 ], [ 133.8190639, 34.0752289 ], [ 133.82015, 34.0740203 ], [ 133.8176911, 34.0722372 ], [ 133.815047199999981, 34.0733056 ], [ 133.8103319, 34.0725872 ], [ 133.8050356, 34.0707197 ], [ 133.80005079999998, 34.0695461 ], [ 133.795848899999982, 34.0703625 ], [ 133.7904097, 34.0752981 ], [ 133.788792799999982, 34.0777889 ], [ 133.7852981, 34.0798103 ], [ 133.782022499999982, 34.0801361 ], [ 133.777955599999984, 34.0789342 ], [ 133.77799779999998, 34.0772914 ], [ 133.7750419, 34.0742644 ], [ 133.7677836, 34.0723239 ], [ 133.763404700000024, 34.0698397 ], [ 133.7633797, 34.0668097 ], [ 133.7603006, 34.0645508 ], [ 133.758776900000015, 34.0612933 ], [ 133.7564839, 34.0592897 ], [ 133.754296899999986, 34.0587444 ], [ 133.7509967, 34.0565872 ], [ 133.7494975, 34.0542703 ], [ 133.74444, 34.0523239 ], [ 133.740451399999984, 34.0501919 ], [ 133.7385328, 34.0483064 ], [ 133.7329906, 34.0448967 ], [ 133.728994199999988, 34.0441597 ], [ 133.7277547, 34.0410639 ], [ 133.7252086, 34.037765 ], [ 133.7230719, 34.036462799999988 ], [ 133.72181, 34.0298106 ], [ 133.72298, 34.0254497 ], [ 133.721319699999981, 34.0222925 ], [ 133.7186589, 34.0214756 ], [ 133.71472559999998, 34.0190372 ], [ 133.7136961, 34.0174464 ], [ 133.710659199999981, 34.0169733 ], [ 133.7087625, 34.0153517 ], [ 133.703670599999981, 34.0162856 ], [ 133.7002717, 34.0178028 ], [ 133.6974011, 34.0156836 ], [ 133.69355969999998, 34.0149894 ], [ 133.6919322, 34.0134967 ], [ 133.6885117, 34.0123786 ], [ 133.685474699999986, 34.0131528 ], [ 133.6795486, 34.01252 ], [ 133.6833272, 34.0074094 ], [ 133.6849583, 34.0072253 ], [ 133.6857369, 34.0036564 ], [ 133.6830119, 34.0018303 ], [ 133.6806858, 33.9962958 ], [ 133.6777175, 33.994825 ], [ 133.6764775, 33.9924914 ], [ 133.676458599999989, 33.9883969 ], [ 133.6750917, 33.9836825 ], [ 133.6806292, 33.9841742 ], [ 133.681380599999983, 33.9787886 ], [ 133.6841311, 33.9763911 ], [ 133.6814608, 33.9738878 ], [ 133.6803219, 33.970225 ], [ 133.6829372, 33.9688853 ], [ 133.6829775, 33.9645928 ], [ 133.684947199999982, 33.9638914 ], [ 133.686647199999982, 33.9653758 ], [ 133.6923639, 33.962455 ], [ 133.691836099999989, 33.9604997 ], [ 133.6871344, 33.9553314 ], [ 133.689129399999985, 33.953399399999988 ], [ 133.692626099999984, 33.9478389 ], [ 133.692565799999983, 33.9439914 ], [ 133.68644, 33.9389764 ], [ 133.6817594, 33.9380817 ], [ 133.6800567, 33.9343686 ], [ 133.6764844, 33.9329447 ], [ 133.67654, 33.9281019 ], [ 133.675683599999985, 33.92638 ], [ 133.6856297, 33.9257161 ], [ 133.6885069, 33.9216297 ], [ 133.690517199999988, 33.9162906 ], [ 133.687946899999986, 33.9162556 ], [ 133.685645, 33.9133592 ], [ 133.68214279999998, 33.9104397 ], [ 133.6775778, 33.9095508 ], [ 133.676545300000015, 33.9050797 ], [ 133.6745139, 33.903185799999989 ], [ 133.6774658, 33.8987936 ], [ 133.677945599999987, 33.8930844 ], [ 133.6729786, 33.8901953 ], [ 133.6706489, 33.8894344 ], [ 133.668885599999982, 33.8875125 ], [ 133.666259699999983, 33.8880361 ], [ 133.66191809999998, 33.8857842 ], [ 133.6607481, 33.8818092 ], [ 133.662045799999987, 33.8794258 ], [ 133.661289399999987, 33.8767544 ], [ 133.6629103, 33.8703453 ], [ 133.6658008, 33.8684586 ], [ 133.666411399999987, 33.8660114 ], [ 133.6717739, 33.8649894 ], [ 133.6744847, 33.8629631 ], [ 133.6743444, 33.8608497 ], [ 133.677695, 33.8585392 ], [ 133.6808111, 33.8595117 ], [ 133.6873017, 33.8565278 ], [ 133.69018, 33.8570739 ], [ 133.6948586, 33.8562767 ], [ 133.6976211, 33.8520486 ], [ 133.7017361, 33.8497911 ], [ 133.707598099999984, 33.8516817 ], [ 133.7152844, 33.8509444 ], [ 133.71946939999998, 33.8492786 ], [ 133.723724399999981, 33.8500639 ], [ 133.7265056, 33.8498886 ], [ 133.7289514, 33.8510797 ], [ 133.7350097, 33.8495539 ], [ 133.7383203, 33.8497342 ], [ 133.740184199999987, 33.8477789 ], [ 133.740817199999981, 33.8428725 ], [ 133.743778099999986, 33.8408614 ], [ 133.748235599999987, 33.8367708 ], [ 133.753366400000033, 33.8371489 ], [ 133.7562264, 33.8364303 ], [ 133.7617731, 33.8387486 ], [ 133.7668433, 33.8402825 ], [ 133.770397799999984, 33.8394975 ], [ 133.7732811, 33.8398833 ], [ 133.775772499999988, 33.8422967 ], [ 133.7809117, 33.8419769 ], [ 133.7867133, 33.840843299999989 ], [ 133.78858, 33.8362439 ], [ 133.7906767, 33.8367872 ], [ 133.7969489, 33.8363475 ], [ 133.7992658, 33.8374925 ], [ 133.807207799999986, 33.8367533 ], [ 133.809024199999982, 33.8380311 ], [ 133.8177728, 33.8373214 ], [ 133.8254428, 33.8422519 ], [ 133.828488099999987, 33.8447489 ], [ 133.832596699999982, 33.8440581 ], [ 133.838695, 33.8451669 ], [ 133.8413225, 33.8426383 ], [ 133.8439122, 33.8381325 ], [ 133.848155599999984, 33.8354172 ], [ 133.853523100000018, 33.8346019 ], [ 133.8568689, 33.8279072 ], [ 133.859685, 33.8261336 ], [ 133.8636444, 33.8215286 ], [ 133.866367199999985, 33.8192169 ], [ 133.8688511, 33.814477499999988 ], [ 133.8724956, 33.810158099999988 ], [ 133.872358599999984, 33.8061931 ], [ 133.879994399999987, 33.8050714 ], [ 133.882670599999983, 33.805354699999988 ], [ 133.8849358, 33.8034125 ], [ 133.887000299999983, 33.80299 ], [ 133.891138899999987, 33.8035603 ], [ 133.8933753, 33.8049364 ], [ 133.895975, 33.80238 ], [ 133.90106, 33.79438 ], [ 133.902876099999986, 33.7936781 ], [ 133.9079989, 33.7952253 ], [ 133.9115736, 33.7931756 ], [ 133.9127781, 33.7914047 ], [ 133.9163144, 33.7938933 ], [ 133.919296400000036, 33.7976342 ], [ 133.924305, 33.7987189 ], [ 133.924878299999989, 33.8006092 ], [ 133.928433899999987, 33.79978 ], [ 133.9313778, 33.8000033 ], [ 133.9360614, 33.7990061 ], [ 133.9381256, 33.8000911 ], [ 133.941260799999981, 33.7991581 ], [ 133.9474736, 33.8037442 ], [ 133.951162499999981, 33.8105403 ], [ 133.9507803, 33.8119758 ], [ 133.95273, 33.8154933 ], [ 133.9530742, 33.818325 ], [ 133.9521183, 33.8203669 ], [ 133.9530742, 33.8236608 ], [ 133.951105, 33.828685799999988 ], [ 133.9570881, 33.8320119 ], [ 133.9597833, 33.8346603 ], [ 133.9674297, 33.8355936 ], [ 133.969972499999983, 33.8364708 ], [ 133.974254699999989, 33.8363672 ], [ 133.979093899999981, 33.8374931 ], [ 133.9831164, 33.8407983 ], [ 133.987494699999985, 33.8394597 ], [ 133.987147199999981, 33.8366686 ], [ 133.988515299999989, 33.8330175 ], [ 133.99021639999998, 33.8310156 ], [ 133.9899486, 33.8285828 ], [ 133.9959317, 33.8219303 ], [ 133.9988544, 33.8211008 ], [ 134.001937199999986, 33.8220394 ], [ 134.005625, 33.8214139 ], [ 134.0123314, 33.8217872 ], [ 134.0203539, 33.8243836 ], [ 134.02340719999998, 33.8246931 ], [ 134.0267069, 33.8274353 ], [ 134.0328283, 33.8283997 ], [ 134.035700599999984, 33.8304025 ], [ 134.037684399999989, 33.8337942 ], [ 134.0397706, 33.835035 ], [ 134.0449825, 33.8338789 ], [ 134.0494928, 33.8342836 ], [ 134.0541778, 33.8369986 ], [ 134.0612222, 33.8380308 ], [ 134.064596699999981, 33.8397622 ], [ 134.0650425, 33.8409725 ], [ 134.0784844, 33.8459811 ], [ 134.0853664, 33.8439689 ], [ 134.0885878, 33.8487775 ], [ 134.090429199999988, 33.8497861 ], [ 134.0921792, 33.8524719 ], [ 134.095978299999985, 33.8549839 ], [ 134.0954042, 33.8580783 ], [ 134.0932206, 33.8601417 ], [ 134.0907097, 33.8654842 ], [ 134.0913842, 33.8686072 ], [ 134.0912394, 33.8729342 ], [ 134.089934699999986, 33.8742319 ], [ 134.0767764, 33.8712278 ], [ 134.0718439, 33.8722206 ], [ 134.0653431, 33.87191 ], [ 134.062604199999981, 33.8698853 ], [ 134.0580278, 33.8706533 ], [ 134.05333779999998, 33.8722092 ], [ 134.0486583, 33.8709447 ], [ 134.0482261, 33.8752878 ], [ 134.0438119, 33.8810456 ], [ 134.043286699999982, 33.8843125 ], [ 134.0415731, 33.8870956 ], [ 134.04745280000003, 33.8950639 ], [ 134.0448992, 33.8970897 ], [ 134.040404200000012, 33.8973858 ], [ 134.0375386, 33.8994075 ], [ 134.034159400000021, 33.9006811 ], [ 134.0302864, 33.9006747 ], [ 134.026880799999986, 33.8983808 ], [ 134.0245533, 33.8992928 ], [ 134.020555, 33.8995219 ], [ 134.018692800000025, 33.9008003 ], [ 134.0159775, 33.9007622 ], [ 134.010298299999988, 33.9054256 ], [ 134.0077317, 33.9064181 ], [ 134.002811899999983, 33.9064933 ], [ 134.0017322, 33.9077933 ], [ 134.0014931, 33.9142986 ], [ 134.0038236, 33.9175486 ], [ 134.0027733, 33.9194664 ], [ 133.9990517, 33.9202525 ], [ 133.9927075, 33.9232511 ], [ 133.987463599999984, 33.9237011 ], [ 133.982245799999987, 33.9235094 ], [ 133.974962799999986, 33.9251961 ], [ 133.973903299999989, 33.9285275 ], [ 133.971677199999988, 33.9291133 ], [ 133.9695203, 33.9313328 ], [ 133.9671869, 33.9358225 ], [ 133.9664378, 33.9390067 ], [ 133.9694667, 33.941645 ], [ 133.9770522, 33.9459242 ], [ 133.9768794, 33.94916 ], [ 133.9745242, 33.9520639 ], [ 133.9725953, 33.9523822 ], [ 133.97315279999998, 33.9556372 ], [ 133.972229199999987, 33.9602422 ] ] ] ] } },
{ "type": "Feature", "properties": { "hokenjo": "徳島" }, "geometry": { "type": "MultiPolygon", "coordinates": [ [ [ [ 134.4147025, 33.8600111 ], [ 134.4165878, 33.8600625 ], [ 134.421013599999981, 33.8576311 ], [ 134.4291261, 33.8588286 ], [ 134.4320917, 33.8558275 ], [ 134.4361039, 33.8577242 ], [ 134.4378853, 33.8597481 ], [ 134.4506369, 33.8623253 ], [ 134.4551078, 33.8647483 ], [ 134.4626083, 33.8661717 ], [ 134.4628947, 33.8676731 ], [ 134.4678739, 33.8698553 ], [ 134.4672558, 33.8714672 ], [ 134.468637799999982, 33.8740108 ], [ 134.472141099999988, 33.8784092 ], [ 134.473531399999985, 33.8815733 ], [ 134.4689994, 33.8858072 ], [ 134.4678069, 33.8893967 ], [ 134.468571699999984, 33.8924339 ], [ 134.47256059999998, 33.895155599999988 ], [ 134.4740572, 33.8969694 ], [ 134.4752083, 33.9012375 ], [ 134.4802253, 33.9021803 ], [ 134.484165, 33.9061875 ], [ 134.4873317, 33.9075486 ], [ 134.492554399999989, 33.9108739 ], [ 134.498546399999981, 33.9108622 ], [ 134.5039969, 33.907935 ], [ 134.505484199999984, 33.909444199999989 ], [ 134.5111033, 33.9115 ], [ 134.51473, 33.9139689 ], [ 134.51651, 33.9176161 ], [ 134.5187561, 33.9183486 ], [ 134.5213, 33.9157978 ], [ 134.5308283, 33.9179814 ], [ 134.5306425, 33.9203669 ], [ 134.531696399999987, 33.9239389 ], [ 134.5345533, 33.9241 ], [ 134.5362661, 33.9282308 ], [ 134.5386622, 33.9288136 ], [ 134.543313899999987, 33.9311517 ], [ 134.548715, 33.931375 ], [ 134.5578619, 33.9334631 ], [ 134.5577058, 33.9354683 ], [ 134.5605969, 33.9396592 ], [ 134.565841399999982, 33.9386275 ], [ 134.5678356, 33.9390117 ], [ 134.5700606, 33.9409747 ], [ 134.5726539, 33.9417047 ], [ 134.5750981, 33.9442247 ], [ 134.580717199999981, 33.9450967 ], [ 134.58486689999998, 33.9465511 ], [ 134.5880194, 33.9461744 ], [ 134.5907283, 33.94778 ], [ 134.594065299999983, 33.9479403 ], [ 134.5982439, 33.9494619 ], [ 134.608663899999982, 33.9493756 ], [ 134.611868099999981, 33.9506161 ], [ 134.6113267, 33.9568289 ], [ 134.613338299999981, 33.9574647 ], [ 134.6137186, 33.9614581 ], [ 134.6154364, 33.9635022 ], [ 134.619966399999981, 33.9651917 ], [ 134.622023899999988, 33.9684 ], [ 134.625305, 33.9686153 ], [ 134.6279647, 33.9669025 ], [ 134.6352444, 33.9636817 ], [ 134.63534439999998, 33.9673419 ], [ 134.638808899999987, 33.9693379 ], [ 134.639781699999986, 33.9739402 ], [ 134.6414302, 33.9748135 ], [ 134.6416102, 33.9778009 ], [ 134.6445411, 33.9822311 ], [ 134.6520797, 33.985816 ], [ 134.6507752, 33.9907354 ], [ 134.645425, 34.000444 ], [ 134.640888, 34.0063394 ], [ 134.637420300000031, 34.0087741 ], [ 134.632652899999982, 34.010681 ], [ 134.6279678, 34.0102347 ], [ 134.6261078, 34.0090028 ], [ 134.62487, 34.0040286 ], [ 134.6296021, 34.0033562 ], [ 134.631314299999985, 33.9997187 ], [ 134.629812499999986, 33.995915 ], [ 134.625707899999981, 33.9967713 ], [ 134.6244972, 33.9961741 ], [ 134.6275209, 33.9913889 ], [ 134.621952599999986, 33.9890323 ], [ 134.6204237, 33.9912008 ], [ 134.6235657, 33.9934715 ], [ 134.622378699999985, 33.9951451 ], [ 134.616965099999987, 33.9917497 ], [ 134.6119061, 33.9916884 ], [ 134.6093654, 33.9928813 ], [ 134.6142624, 33.9968141 ], [ 134.6126988, 33.9979981 ], [ 134.6092166, 33.9961258 ], [ 134.6054019, 33.9964322 ], [ 134.5999234, 33.998946 ], [ 134.597110200000031, 34.00165 ], [ 134.5992899, 34.0036994 ], [ 134.5917522, 34.0079463 ], [ 134.5921945, 34.0122914 ], [ 134.591805099999988, 34.0160195 ], [ 134.5958631, 34.0157354 ], [ 134.5983594, 34.0163059 ], [ 134.60053019999998, 34.0187214 ], [ 134.5979078, 34.0198049 ], [ 134.598282899999987, 34.0230814 ], [ 134.593518400000022, 34.0242428 ], [ 134.5909857, 34.027177 ], [ 134.5888161, 34.0279825 ], [ 134.588807299999985, 34.031449 ], [ 134.595360699999986, 34.0328495 ], [ 134.5951249, 34.0351983 ], [ 134.591357499999987, 34.0341844 ], [ 134.5869006, 34.035203 ], [ 134.5888056, 34.0384276 ], [ 134.5909882, 34.044553 ], [ 134.587853599999988, 34.0451506 ], [ 134.5857412, 34.0423771 ], [ 134.583976299999989, 34.0428184 ], [ 134.5852396, 34.0463883 ], [ 134.5879965, 34.0455839 ], [ 134.5897553, 34.0505444 ], [ 134.58562329999998, 34.0523158 ], [ 134.5882053, 34.0551724 ], [ 134.5910188, 34.0596692 ], [ 134.59691429999998, 34.0680037 ], [ 134.5980916, 34.0711168 ], [ 134.597374600000023, 34.072739399999989 ], [ 134.602993199999986, 34.0837074 ], [ 134.605123099999986, 34.0906875 ], [ 134.6049411, 34.0939422 ], [ 134.607425799999987, 34.1009239 ], [ 134.6014371, 34.1072939 ], [ 134.603375799999981, 34.1127739 ], [ 134.6033406, 34.116324399999989 ], [ 134.6043311, 34.1193125 ], [ 134.607596, 34.1255035 ], [ 134.6111807, 34.1238913 ], [ 134.613137699999982, 34.1266662 ], [ 134.615527, 34.1265873 ], [ 134.6162453, 34.12873 ], [ 134.62151369999998, 34.1277264 ], [ 134.6233959, 34.128164 ], [ 134.625541299999981, 34.1365408 ], [ 134.6184748, 34.137825 ], [ 134.619472799999983, 34.1408886 ], [ 134.616242500000027, 34.1444301 ], [ 134.6191993, 34.1469623 ], [ 134.6223904, 34.1517324 ], [ 134.6297588, 34.1597623 ], [ 134.6310557, 34.1624734 ], [ 134.6340816, 34.1651973 ], [ 134.6345646, 34.1668596 ], [ 134.6377583, 34.1708585 ], [ 134.640609899999987, 34.1778863 ], [ 134.641913599999981, 34.1800032 ], [ 134.6377803, 34.1815532 ], [ 134.6326426, 34.1815888 ], [ 134.629523800000015, 34.1807478 ], [ 134.624372199999982, 34.1807481 ], [ 134.6193829, 34.1850909 ], [ 134.611133699999982, 34.1908203 ], [ 134.600083499999982, 34.1933848 ], [ 134.5954548, 34.1952984 ], [ 134.586451, 34.2013304 ], [ 134.582358, 34.2103493 ], [ 134.5888936, 34.2197211 ], [ 134.5881531, 34.2212823 ], [ 134.5904946, 34.2241027 ], [ 134.5872072, 34.2280287 ], [ 134.5862119, 34.232374 ], [ 134.5889004, 34.2370655 ], [ 134.58890839999998, 34.2390205 ], [ 134.586097099999989, 34.239846299999989 ], [ 134.581989, 34.2389391 ], [ 134.577349199999986, 34.2387003 ], [ 134.570760299999989, 34.2373576 ], [ 134.568399199999988, 34.2357054 ], [ 134.5660168, 34.2326916 ], [ 134.5657856, 34.2306931 ], [ 134.5684975, 34.2278766 ], [ 134.5728789, 34.226866 ], [ 134.5737054, 34.2248156 ], [ 134.5722738, 34.222631 ], [ 134.567680199999984, 34.2246746 ], [ 134.5639784, 34.2246823 ], [ 134.559407, 34.2215875 ], [ 134.5470489, 34.2236856 ], [ 134.5414159, 34.2263612 ], [ 134.536677699999984, 34.2260232 ], [ 134.530122899999981, 34.2265493 ], [ 134.5261655, 34.2253589 ], [ 134.5203917, 34.2255341 ], [ 134.517730799999981, 34.2262606 ], [ 134.505600500000014, 34.2257216 ], [ 134.4965383, 34.224396 ], [ 134.490291, 34.2209931 ], [ 134.483808499999981, 34.2187885 ], [ 134.4786747, 34.2123327 ], [ 134.4753122, 34.2101381 ], [ 134.4717905, 34.2087707 ], [ 134.4666762, 34.2082502 ], [ 134.4639463, 34.2073228 ], [ 134.4580506, 34.207338 ], [ 134.453215299999982, 34.2055509 ], [ 134.4487522, 34.2058713 ], [ 134.4431095, 34.207391 ], [ 134.440242499999982, 34.2072817 ], [ 134.4406961, 34.1998064 ], [ 134.438865, 34.1978011 ], [ 134.439403299999981, 34.1955947 ], [ 134.437909700000034, 34.1939144 ], [ 134.4388906, 34.1908286 ], [ 134.437963599999989, 34.1894497 ], [ 134.431619399999988, 34.1862261 ], [ 134.4292639, 34.1833478 ], [ 134.430630799999989, 34.1789603 ], [ 134.43364, 34.1787806 ], [ 134.434163899999987, 34.1747844 ], [ 134.432921099999987, 34.173404399999988 ], [ 134.4338717, 34.1695142 ], [ 134.4328142, 34.1680533 ], [ 134.4284639, 34.1674419 ], [ 134.4251936, 34.165708099999989 ], [ 134.4199811, 34.1591619 ], [ 134.4195986, 34.1579406 ], [ 134.4129319, 34.1568828 ], [ 134.411486699999983, 34.1592703 ], [ 134.411442199999982, 34.1614956 ], [ 134.407419399999981, 34.1625494 ], [ 134.4041781, 34.1670461 ], [ 134.400054399999988, 34.1677642 ], [ 134.397095, 34.1647769 ], [ 134.3936517, 34.1635492 ], [ 134.388572499999981, 34.1651606 ], [ 134.3854872, 34.1650967 ], [ 134.3850669, 34.1680225 ], [ 134.383113899999984, 34.1721369 ], [ 134.379653099999985, 34.1723611 ], [ 134.375658300000026, 34.1717858 ], [ 134.372867499999984, 34.168505 ], [ 134.3705047, 34.1644539 ], [ 134.371139199999988, 34.1632956 ], [ 134.367860799999988, 34.1556208 ], [ 134.3691522, 34.1514647 ], [ 134.37135360000002, 34.1510056 ], [ 134.3752958, 34.1481714 ], [ 134.3775881, 34.1441453 ], [ 134.379525799999982, 34.1433964 ], [ 134.3831322, 34.1385342 ], [ 134.377882199999988, 34.1299461 ], [ 134.3795203, 34.1236422 ], [ 134.3826919, 34.1193322 ], [ 134.3845767, 34.1183067 ], [ 134.386340599999983, 34.1137989 ], [ 134.398924199999982, 34.1162858 ], [ 134.4016097, 34.1089669 ], [ 134.4014953, 34.1059625 ], [ 134.398128899999989, 34.1036967 ], [ 134.3970569, 34.1047517 ], [ 134.3941461, 34.1041647 ], [ 134.3944286, 34.0975186 ], [ 134.3958461, 34.0924606 ], [ 134.3973811, 34.0872317 ], [ 134.4004674, 34.0750414 ], [ 134.4018883, 34.0763014 ], [ 134.4019347, 34.0691583 ], [ 134.4027436, 34.0659578 ], [ 134.4040403, 34.0523522 ], [ 134.4032661, 34.0499992 ], [ 134.399616399999985, 34.0505794 ], [ 134.3963981, 34.0525553 ], [ 134.394348899999983, 34.0528869 ], [ 134.3916022, 34.0495547 ], [ 134.3876717, 34.0474569 ], [ 134.385130799999985, 34.0446858 ], [ 134.379807199999988, 34.0436072 ], [ 134.379364200000026, 34.0423136 ], [ 134.37249970000002, 34.0391531 ], [ 134.372307799999987, 34.0347178 ], [ 134.3704864, 34.0320131 ], [ 134.3667917, 34.0290881 ], [ 134.3608558, 34.0326094 ], [ 134.3588411, 34.0354364 ], [ 134.3557289, 34.0371056 ], [ 134.3545222, 34.0395028 ], [ 134.349783299999984, 34.0387744 ], [ 134.3485289, 34.0357172 ], [ 134.342935, 34.0313994 ], [ 134.3381961, 34.0317147 ], [ 134.3349164, 34.0300497 ], [ 134.3352997, 34.0242289 ], [ 134.3342214, 34.0205228 ], [ 134.3307183, 34.0181656 ], [ 134.33001, 34.0134008 ], [ 134.323256099999981, 34.0087044 ], [ 134.3251378, 34.0028883 ], [ 134.317248299999989, 34.0064008 ], [ 134.3108044, 34.0072853 ], [ 134.308759399999985, 34.0053839 ], [ 134.3019161, 34.0050647 ], [ 134.2989322, 34.0064811 ], [ 134.2955925, 34.0024728 ], [ 134.2912514, 34.0025358 ], [ 134.288641899999988, 34.0002919 ], [ 134.2867094, 33.9942128 ], [ 134.282678299999986, 33.9912942 ], [ 134.2748047, 33.9928431 ], [ 134.2691308, 33.9890711 ], [ 134.26278, 33.987627499999988 ], [ 134.261212799999981, 33.9863842 ], [ 134.256353599999983, 33.9861839 ], [ 134.253933099999983, 33.9846769 ], [ 134.253535, 33.982475 ], [ 134.2514214, 33.9805222 ], [ 134.2557089, 33.9770803 ], [ 134.2564358, 33.9751206 ], [ 134.250597199999987, 33.9689464 ], [ 134.247015299999987, 33.9672694 ], [ 134.245348899999982, 33.9589244 ], [ 134.2446133, 33.9578511 ], [ 134.2341461, 33.9551467 ], [ 134.231456899999984, 33.9517992 ], [ 134.2298322, 33.9518292 ], [ 134.2269675, 33.9497244 ], [ 134.227003599999989, 33.9470875 ], [ 134.229219199999989, 33.9452919 ], [ 134.2288514, 33.9418444 ], [ 134.2305878, 33.9333903 ], [ 134.224763599999989, 33.927377799999988 ], [ 134.2227739, 33.9221506 ], [ 134.220645, 33.9180786 ], [ 134.22133, 33.9147764 ], [ 134.221262199999984, 33.909325 ], [ 134.2279308, 33.9067928 ], [ 134.231442499999986, 33.9079358 ], [ 134.2355953, 33.9098189 ], [ 134.237838899999986, 33.9100014 ], [ 134.2489639, 33.9153489 ], [ 134.2499478, 33.9169639 ], [ 134.253708599999982, 33.9161564 ], [ 134.2576247, 33.9162825 ], [ 134.2621325, 33.9176592 ], [ 134.2666975, 33.9170258 ], [ 134.2725733, 33.9172267 ], [ 134.2748844, 33.9157072 ], [ 134.2779797, 33.9150394 ], [ 134.2822428, 33.9157961 ], [ 134.2862978, 33.9151589 ], [ 134.290390299999984, 33.9067947 ], [ 134.2943544, 33.9066608 ], [ 134.2962344, 33.9094453 ], [ 134.2987253, 33.9103797 ], [ 134.3010981, 33.9100022 ], [ 134.3038972, 33.9076667 ], [ 134.308026399999989, 33.9063964 ], [ 134.3107772, 33.9041744 ], [ 134.3125478, 33.8994456 ], [ 134.3164014, 33.8976161 ], [ 134.3165206, 33.8945836 ], [ 134.318337499999984, 33.8939667 ], [ 134.3222886, 33.8895672 ], [ 134.3229842, 33.8875494 ], [ 134.3252714, 33.8867444 ], [ 134.325985799999984, 33.8826508 ], [ 134.3220792, 33.8777861 ], [ 134.3262019, 33.8745289 ], [ 134.3260517, 33.8697561 ], [ 134.327423899999985, 33.8667864 ], [ 134.3270106, 33.8638114 ], [ 134.335766899999982, 33.8646925 ], [ 134.3371861, 33.8623061 ], [ 134.3418322, 33.8595325 ], [ 134.3462214, 33.8594672 ], [ 134.3505447, 33.8581969 ], [ 134.3523061, 33.8567339 ], [ 134.3508717, 33.8517517 ], [ 134.356955299999981, 33.8510364 ], [ 134.360615, 33.8485669 ], [ 134.3651994, 33.8501108 ], [ 134.373494699999981, 33.855285 ], [ 134.377970299999987, 33.8561242 ], [ 134.378483599999981, 33.8544214 ], [ 134.3807881, 33.8526936 ], [ 134.387064399999986, 33.8511981 ], [ 134.3895167, 33.8515414 ], [ 134.393074399999989, 33.8542233 ], [ 134.395364199999989, 33.8535711 ], [ 134.4017294, 33.8560311 ], [ 134.403140799999989, 33.8551631 ], [ 134.406728099999981, 33.8552083 ], [ 134.410202199999986, 33.857666099999989 ], [ 134.4147025, 33.8600111 ] ] ], [ [ [ 134.590669, 34.0452516 ], [ 134.5937674, 34.0444937 ], [ 134.596109600000034, 34.049324 ], [ 134.590235399999983, 34.0509229 ], [ 134.591923, 34.04877 ], [ 134.590669, 34.0452516 ] ] ], [ [ [ 134.603079799999989, 34.0633694 ], [ 134.6038116, 34.0647109 ], [ 134.598995, 34.0665396 ], [ 134.6, 34.0683076 ], [ 134.5971049, 34.0668722 ], [ 134.591128699999985, 34.0556854 ], [ 134.59761229999998, 34.0534259 ], [ 134.5995906, 34.0570831 ], [ 134.6032376, 34.0557803 ], [ 134.606598599999984, 34.0620308 ], [ 134.603079799999989, 34.0633694 ] ] ], [ [ [ 134.63646319999998, 34.2259131 ], [ 134.6373372, 34.2293391 ], [ 134.6414528, 34.23477 ], [ 134.64318, 34.2359112 ], [ 134.6436602, 34.2395376 ], [ 134.6392866, 34.2380196 ], [ 134.6363149, 34.2356745 ], [ 134.6364308, 34.2336467 ], [ 134.6295781, 34.231232 ], [ 134.6269682, 34.2323778 ], [ 134.6246132, 34.2309097 ], [ 134.6176798, 34.2301535 ], [ 134.6137446, 34.2246537 ], [ 134.6133193, 34.2230241 ], [ 134.614627899999988, 34.2195803 ], [ 134.6171626, 34.2182234 ], [ 134.621297699999985, 34.2175679 ], [ 134.6246309, 34.2180023 ], [ 134.6222569, 34.2115127 ], [ 134.614827599999984, 34.2110771 ], [ 134.615238, 34.2143411 ], [ 134.6107611, 34.2156357 ], [ 134.6080705, 34.215278 ], [ 134.6041184, 34.2123877 ], [ 134.600819799999982, 34.2109481 ], [ 134.5963247, 34.2117023 ], [ 134.5924823, 34.2106741 ], [ 134.588939499999981, 34.2108676 ], [ 134.5877164, 34.2073136 ], [ 134.591077500000011, 34.2014107 ], [ 134.595097899999985, 34.1994772 ], [ 134.6019277, 34.1974601 ], [ 134.602869299999981, 34.1986243 ], [ 134.6104125, 34.1945953 ], [ 134.6151427, 34.1943657 ], [ 134.6202898, 34.1903384 ], [ 134.620700699999986, 34.1881336 ], [ 134.623144800000034, 34.1854345 ], [ 134.6258134, 34.1873017 ], [ 134.6257786, 34.1924043 ], [ 134.6268374, 34.1944123 ], [ 134.6263769, 34.1985845 ], [ 134.6267255, 34.2054185 ], [ 134.6273549, 34.2078519 ], [ 134.6310038, 34.2136739 ], [ 134.6310808, 34.2173266 ], [ 134.6378608, 34.2247402 ], [ 134.63646319999998, 34.2259131 ] ] ], [ [ [ 134.6163192, 34.245542 ], [ 134.615943, 34.2481851 ], [ 134.61370549999998, 34.250518299999989 ], [ 134.6085646, 34.2506012 ], [ 134.6072361, 34.2516493 ], [ 134.6050285, 34.251529 ], [ 134.600534899999985, 34.2463031 ], [ 134.596327400000035, 34.2446066 ], [ 134.5933071, 34.2422052 ], [ 134.592028299999981, 34.2394355 ], [ 134.591714599999989, 34.2365025 ], [ 134.5895885, 34.2350871 ], [ 134.5879606, 34.2303607 ], [ 134.590266899999989, 34.2266957 ], [ 134.5932048, 34.2258591 ], [ 134.5931808, 34.2227616 ], [ 134.5904114, 34.2223603 ], [ 134.59118909999998, 34.2200297 ], [ 134.590263599999986, 34.2170307 ], [ 134.591069, 34.2140239 ], [ 134.5982071, 34.2213387 ], [ 134.600967199999985, 34.226556599999988 ], [ 134.6053191, 34.229808 ], [ 134.6092731, 34.2335835 ], [ 134.610221199999984, 34.2329453 ], [ 134.608315, 34.2293291 ], [ 134.6110477, 34.229539 ], [ 134.612565599999982, 34.2325763 ], [ 134.6146334, 34.2316047 ], [ 134.617398899999984, 34.2342207 ], [ 134.616615699999983, 34.2376321 ], [ 134.6149753, 34.2411004 ], [ 134.6179263, 34.2439845 ], [ 134.6163192, 34.245542 ] ] ] ] } },
{ "type": "Feature", "properties": { "hokenjo": "美波" }, "geometry": { "type": "MultiPolygon", "coordinates": [ [ [ [ 134.322555, 33.5440403 ], [ 134.31845629999998, 33.5481291 ], [ 134.316172099999989, 33.54505 ], [ 134.3169031, 33.5415544 ], [ 134.318712799999986, 33.5402583 ], [ 134.3238533, 33.5402244 ], [ 134.3219292, 33.5424847 ], [ 134.322555, 33.5440403 ] ] ], [ [ [ 134.426179499999989, 33.6299614 ], [ 134.4266197, 33.6354443 ], [ 134.422202199999987, 33.6372476 ], [ 134.4208271, 33.6341425 ], [ 134.4219899, 33.6302231 ], [ 134.4241345, 33.6288486 ], [ 134.426179499999989, 33.6299614 ] ] ], [ [ [ 134.490162199999986, 33.6423194 ], [ 134.4887881, 33.6446308 ], [ 134.4858683, 33.6453719 ], [ 134.4839117, 33.6400647 ], [ 134.4865653, 33.6368122 ], [ 134.4820292, 33.635665 ], [ 134.483261699999986, 33.6330578 ], [ 134.486272499999984, 33.6336608 ], [ 134.490243099999986, 33.6321136 ], [ 134.4972306, 33.6314075 ], [ 134.5011758, 33.6337331 ], [ 134.5013404, 33.6365102 ], [ 134.5036006, 33.6380789 ], [ 134.504713399999986, 33.6410251 ], [ 134.5001519, 33.640035 ], [ 134.4990336, 33.6386203 ], [ 134.4964936, 33.6384469 ], [ 134.4933681, 33.6414908 ], [ 134.490162199999986, 33.6423194 ] ] ], [ [ [ 134.386636899999985, 33.6462353 ], [ 134.3894714, 33.6480333 ], [ 134.3898762, 33.650608399999989 ], [ 134.396583599999985, 33.6504561 ], [ 134.3968813, 33.6526168 ], [ 134.395179399999989, 33.6545807 ], [ 134.3958605, 33.6560886 ], [ 134.400502599999982, 33.6576228 ], [ 134.4020021, 33.6595677 ], [ 134.404424, 33.6598469 ], [ 134.407051, 33.6574503 ], [ 134.4097078, 33.6561805 ], [ 134.4100714, 33.6543338 ], [ 134.4136828, 33.6547976 ], [ 134.4176084, 33.6570683 ], [ 134.4161546, 33.6597083 ], [ 134.418373, 33.6624846 ], [ 134.4187867, 33.665373 ], [ 134.4232441, 33.6658802 ], [ 134.424732, 33.6636602 ], [ 134.4250293, 33.6607505 ], [ 134.4279444, 33.6619897 ], [ 134.4294534, 33.6637985 ], [ 134.431961699999988, 33.6633617 ], [ 134.4359006, 33.6641644 ], [ 134.4388093, 33.6631335 ], [ 134.4397908, 33.665205 ], [ 134.4441348, 33.6664907 ], [ 134.445228899999989, 33.6691865 ], [ 134.455155099999985, 33.6732855 ], [ 134.4572248, 33.6753203 ], [ 134.4604194, 33.6756116 ], [ 134.463659899999982, 33.6775485 ], [ 134.4655366, 33.6799286 ], [ 134.4724067, 33.6817955 ], [ 134.4777325, 33.6840644 ], [ 134.47837149999998, 33.6851942 ], [ 134.4823433, 33.6865921 ], [ 134.4848656, 33.6862161 ], [ 134.486604699999987, 33.6877322 ], [ 134.4881756, 33.6913228 ], [ 134.491364399999981, 33.6909736 ], [ 134.4951194, 33.6937411 ], [ 134.5010792, 33.6941075 ], [ 134.5035464, 33.6959339 ], [ 134.5046989, 33.699265 ], [ 134.5070117, 33.6996314 ], [ 134.5101194, 33.6984253 ], [ 134.5141983, 33.7024315 ], [ 134.515684, 33.7015875 ], [ 134.518279799999988, 33.7048533 ], [ 134.5309231, 33.7113546 ], [ 134.5347389, 33.7151268 ], [ 134.5389988, 33.7164449 ], [ 134.543157399999984, 33.7201262 ], [ 134.541960499999988, 33.722546 ], [ 134.5426354, 33.7255906 ], [ 134.5406667, 33.7274199 ], [ 134.5414422, 33.7286636 ], [ 134.541728299999988, 33.7343392 ], [ 134.543541, 33.7367629 ], [ 134.546769499999982, 33.7379517 ], [ 134.5508348, 33.7363029 ], [ 134.5537754, 33.7419522 ], [ 134.555835, 33.7416628 ], [ 134.5559762, 33.7393577 ], [ 134.5577528, 33.737333899999989 ], [ 134.5555364, 33.7345708 ], [ 134.558263899999986, 33.7335434 ], [ 134.5618553, 33.7342544 ], [ 134.5657017, 33.7324311 ], [ 134.5680831, 33.737043299999989 ], [ 134.5664492, 33.7388131 ], [ 134.5685756, 33.7433725 ], [ 134.5710494, 33.7436214 ], [ 134.5723572, 33.7509097 ], [ 134.574853599999983, 33.7533506 ], [ 134.574204400000013, 33.7558797 ], [ 134.57254469999998, 33.7564228 ], [ 134.5704154, 33.7594065 ], [ 134.5699397, 33.7617269 ], [ 134.57278789999998, 33.765698 ], [ 134.5742831, 33.7633878 ], [ 134.577639399999981, 33.7614803 ], [ 134.581496099999981, 33.7633297 ], [ 134.5802981, 33.7659094 ], [ 134.580385799999988, 33.7700808 ], [ 134.5817625, 33.7715239 ], [ 134.585451399999982, 33.7717908 ], [ 134.587023099999982, 33.7690144 ], [ 134.5903419, 33.7690227 ], [ 134.5913311, 33.7728178 ], [ 134.5946611, 33.7724878 ], [ 134.593726299999986, 33.7702494 ], [ 134.5958939, 33.7647669 ], [ 134.6001072, 33.7637103 ], [ 134.6022781, 33.7643247 ], [ 134.602072199999981, 33.7679042 ], [ 134.6008797, 33.7693483 ], [ 134.601838099999981, 33.7720597 ], [ 134.6053144, 33.7728875 ], [ 134.6080106, 33.7759908 ], [ 134.6089481, 33.7796671 ], [ 134.6124136, 33.7809517 ], [ 134.613937199999981, 33.7824878 ], [ 134.61651, 33.7813069 ], [ 134.6202261, 33.7866589 ], [ 134.6268206, 33.7861836 ], [ 134.630237500000021, 33.7864892 ], [ 134.6331447, 33.7851625 ], [ 134.6357194, 33.7866025 ], [ 134.6388033, 33.7847142 ], [ 134.6396097, 33.7816875 ], [ 134.6424744, 33.7816958 ], [ 134.640766900000017, 33.7852386 ], [ 134.6422722, 33.7893772 ], [ 134.6448833, 33.7902103 ], [ 134.648089199999987, 33.7890892 ], [ 134.6519997, 33.7902192 ], [ 134.6531436, 33.7921103 ], [ 134.6584919, 33.7949628 ], [ 134.6696881, 33.8020064 ], [ 134.6758417, 33.8021222 ], [ 134.6789394, 33.8044789 ], [ 134.6799508, 33.8066989 ], [ 134.677477200000027, 33.8095519 ], [ 134.6777942, 33.8108781 ], [ 134.6747689, 33.8163964 ], [ 134.6722342, 33.8158722 ], [ 134.6697917, 33.8137911 ], [ 134.6665722, 33.8145972 ], [ 134.66461, 33.8135992 ], [ 134.6622492, 33.8094881 ], [ 134.659796400000033, 33.8096244 ], [ 134.6548089, 33.8083281 ], [ 134.6508642, 33.8053981 ], [ 134.6461631, 33.8060422 ], [ 134.6447217, 33.8049844 ], [ 134.6332239, 33.8014403 ], [ 134.63072, 33.8000839 ], [ 134.626826099999988, 33.7992014 ], [ 134.6230342, 33.7997725 ], [ 134.6196583, 33.7980908 ], [ 134.619014199999981, 33.7968292 ], [ 134.615096699999981, 33.7951425 ], [ 134.6112842, 33.7917775 ], [ 134.6101669, 33.7892514 ], [ 134.6055919, 33.7882833 ], [ 134.601720299999982, 33.7895092 ], [ 134.5986833, 33.7872875 ], [ 134.5964289, 33.7895994 ], [ 134.5892311, 33.7870381 ], [ 134.5881858, 33.7858781 ], [ 134.5822633, 33.78562 ], [ 134.577379399999984, 33.7862972 ], [ 134.5773533, 33.7884147 ], [ 134.5756308, 33.7897556 ], [ 134.5720947, 33.7894622 ], [ 134.5707667, 33.7931453 ], [ 134.5619719, 33.7935431 ], [ 134.5599011, 33.7966611 ], [ 134.5576728, 33.7983861 ], [ 134.556910599999981, 33.801098599999989 ], [ 134.553078100000022, 33.8018417 ], [ 134.548904199999981, 33.8048556 ], [ 134.54874, 33.8060489 ], [ 134.5425219, 33.8056539 ], [ 134.54048419999998, 33.8040714 ], [ 134.5379347, 33.8041583 ], [ 134.53143559999998, 33.8030122 ], [ 134.5281536, 33.8040786 ], [ 134.5266461, 33.8009194 ], [ 134.519420599999989, 33.7994158 ], [ 134.516727799999984, 33.7979919 ], [ 134.5065828, 33.7950117 ], [ 134.5052308, 33.7937864 ], [ 134.4993036, 33.79236 ], [ 134.4907733, 33.7941917 ], [ 134.485624699999988, 33.7910328 ], [ 134.4833922, 33.7884939 ], [ 134.480315, 33.7865956 ], [ 134.480586700000032, 33.78211 ], [ 134.47916859999998, 33.7800578 ], [ 134.475155799999982, 33.7778669 ], [ 134.4656258, 33.7794492 ], [ 134.463281099999989, 33.7766733 ], [ 134.4598164, 33.7752856 ], [ 134.453168299999987, 33.7750925 ], [ 134.4505644, 33.7739489 ], [ 134.4473822, 33.7738875 ], [ 134.4464008, 33.7723983 ], [ 134.447667500000023, 33.7686558 ], [ 134.449735, 33.7662864 ], [ 134.443911899999989, 33.7635997 ], [ 134.439403299999981, 33.7632647 ], [ 134.43794029999998, 33.7624094 ], [ 134.432940799999983, 33.7636275 ], [ 134.4299881, 33.7633133 ], [ 134.4272825, 33.7619383 ], [ 134.420957800000025, 33.7571397 ], [ 134.422460299999983, 33.7527533 ], [ 134.4197211, 33.7499892 ], [ 134.4195147, 33.7483267 ], [ 134.414639699999981, 33.7440844 ], [ 134.4130494, 33.7416217 ], [ 134.4091836, 33.742065 ], [ 134.4046769, 33.7414247 ], [ 134.401945, 33.73983 ], [ 134.4018936, 33.7349197 ], [ 134.3997197, 33.7311033 ], [ 134.399880599999989, 33.7290886 ], [ 134.3945789, 33.7243717 ], [ 134.389731399999988, 33.725375 ], [ 134.383853599999981, 33.7258253 ], [ 134.3818975, 33.725335799999989 ], [ 134.3776358, 33.7259361 ], [ 134.3747158, 33.7275717 ], [ 134.3684208, 33.7263972 ], [ 134.3657375, 33.7272864 ], [ 134.362400799999989, 33.7309294 ], [ 134.3583442, 33.7312944 ], [ 134.3556372, 33.7284014 ], [ 134.3519669, 33.7286939 ], [ 134.349076699999983, 33.7301794 ], [ 134.3475636, 33.7286186 ], [ 134.341356099999985, 33.7275428 ], [ 134.338936099999984, 33.7298283 ], [ 134.3365358, 33.73043 ], [ 134.3343492, 33.7275203 ], [ 134.329544, 33.7277027 ], [ 134.3274256, 33.7296414 ], [ 134.322478599999982, 33.7302825 ], [ 134.320335299999982, 33.7325094 ], [ 134.3162553, 33.7312944 ], [ 134.313015, 33.7320025 ], [ 134.3102547, 33.7307983 ], [ 134.305401100000012, 33.7322422 ], [ 134.2946039, 33.7305111 ], [ 134.2883803, 33.7274983 ], [ 134.2839133, 33.7288472 ], [ 134.2822597, 33.7310214 ], [ 134.2760128, 33.7281061 ], [ 134.271222199999983, 33.7275958 ], [ 134.2684219, 33.7246306 ], [ 134.2661186, 33.7239478 ], [ 134.2636086, 33.720695 ], [ 134.2587081, 33.7204889 ], [ 134.2567114, 33.7188194 ], [ 134.2531444, 33.7189756 ], [ 134.248887199999984, 33.7208625 ], [ 134.2470725, 33.7239992 ], [ 134.2367111, 33.7198883 ], [ 134.233494399999984, 33.7193061 ], [ 134.230164699999989, 33.7214464 ], [ 134.2248483, 33.7210689 ], [ 134.2230031, 33.7223914 ], [ 134.219865299999981, 33.7217808 ], [ 134.2110558, 33.7217028 ], [ 134.20889889999998, 33.7182272 ], [ 134.2055789, 33.7166083 ], [ 134.2016514, 33.7163081 ], [ 134.197620299999983, 33.7126278 ], [ 134.1936033, 33.71095 ], [ 134.1902761, 33.7108136 ], [ 134.186340799999982, 33.7077986 ], [ 134.1832728, 33.7074428 ], [ 134.1762325, 33.7037497 ], [ 134.17379440000002, 33.7034092 ], [ 134.170666899999986, 33.6993267 ], [ 134.162737199999981, 33.6966306 ], [ 134.1644119, 33.6909475 ], [ 134.1638453, 33.6881239 ], [ 134.1677636, 33.6862781 ], [ 134.170871399999982, 33.6859811 ], [ 134.174782199999981, 33.6839911 ], [ 134.17479609999998, 33.6796281 ], [ 134.1754647, 33.6759306 ], [ 134.1726414, 33.6750839 ], [ 134.1689647, 33.6707683 ], [ 134.171589399999988, 33.6652958 ], [ 134.1753497, 33.6615939 ], [ 134.1713344, 33.6576856 ], [ 134.1763681, 33.6534767 ], [ 134.178165799999988, 33.6536456 ], [ 134.1831244, 33.6506425 ], [ 134.1841733, 33.6490233 ], [ 134.174824699999988, 33.6432919 ], [ 134.1705475, 33.6419581 ], [ 134.1639853, 33.6354467 ], [ 134.1615061, 33.6350269 ], [ 134.1584125, 33.6326467 ], [ 134.15621, 33.6334267 ], [ 134.150225, 33.6305517 ], [ 134.1492514, 33.6271408 ], [ 134.152704699999987, 33.6258353 ], [ 134.1548917, 33.6229853 ], [ 134.1521428, 33.6181808 ], [ 134.1533714, 33.6149831 ], [ 134.1559556, 33.6117886 ], [ 134.160614399999986, 33.6128128 ], [ 134.1647944, 33.6104858 ], [ 134.1725247, 33.6096031 ], [ 134.1759553, 33.607100599999988 ], [ 134.17024, 33.602115 ], [ 134.1716706, 33.5988453 ], [ 134.1705772, 33.5969725 ], [ 134.176015299999989, 33.59406 ], [ 134.1787792, 33.5941475 ], [ 134.1813711, 33.5909878 ], [ 134.184719199999989, 33.5886858 ], [ 134.1857483, 33.5851492 ], [ 134.1885369, 33.5810628 ], [ 134.1869111, 33.5790489 ], [ 134.1877675, 33.5757683 ], [ 134.1924708, 33.5739817 ], [ 134.1953556, 33.5687308 ], [ 134.1952856, 33.5658086 ], [ 134.1940706, 33.5651203 ], [ 134.19317, 33.5616272 ], [ 134.195915, 33.5608217 ], [ 134.2022706, 33.5624767 ], [ 134.207175299999989, 33.5654942 ], [ 134.2106808, 33.5658972 ], [ 134.2117036, 33.5669589 ], [ 134.2187061, 33.5675375 ], [ 134.224721099999982, 33.5631947 ], [ 134.226574199999988, 33.5630192 ], [ 134.2287164, 33.5610125 ], [ 134.2295378, 33.557907799999988 ], [ 134.23223059999998, 33.5556522 ], [ 134.2385075, 33.5529208 ], [ 134.2403522, 33.5536383 ], [ 134.2412003, 33.5558278 ], [ 134.2433508, 33.5559161 ], [ 134.2491786, 33.5528994 ], [ 134.2582061, 33.5532731 ], [ 134.2629047, 33.5564178 ], [ 134.2672417, 33.5560106 ], [ 134.2700092, 33.5548622 ], [ 134.2710147, 33.5578253 ], [ 134.273745599999984, 33.5606239 ], [ 134.278736899999984, 33.5595225 ], [ 134.281714699999981, 33.5610219 ], [ 134.2831478, 33.5598275 ], [ 134.2872375, 33.5597964 ], [ 134.2893253, 33.5583231 ], [ 134.295675599999981, 33.5577283 ], [ 134.296923599999985, 33.5565081 ], [ 134.296997799999986, 33.5534211 ], [ 134.303694399999983, 33.5539072 ], [ 134.3055292, 33.5502103 ], [ 134.308438599999988, 33.549596099999988 ], [ 134.3075049, 33.5467343 ], [ 134.3140364, 33.5456131 ], [ 134.315485599999988, 33.5480399 ], [ 134.313625799999983, 33.5491528 ], [ 134.3161422, 33.5514469 ], [ 134.315920299999988, 33.5538708 ], [ 134.3198497, 33.5549814 ], [ 134.3169361, 33.5577264 ], [ 134.3137288, 33.5582063 ], [ 134.312939199999988, 33.561565 ], [ 134.3106114, 33.5615706 ], [ 134.3086533, 33.5637181 ], [ 134.3082564, 33.5665083 ], [ 134.3088081, 33.5718578 ], [ 134.3114119, 33.5766547 ], [ 134.315980599999989, 33.5764631 ], [ 134.3193178, 33.5774889 ], [ 134.316963099999981, 33.5798336 ], [ 134.3178356, 33.5818256 ], [ 134.322420599999987, 33.5825619 ], [ 134.3237383, 33.5806286 ], [ 134.32937, 33.5821281 ], [ 134.333662799999985, 33.5792928 ], [ 134.33883, 33.5781375 ], [ 134.3455381, 33.5786506 ], [ 134.3551867, 33.57847 ], [ 134.3628369, 33.579885 ], [ 134.3626822, 33.5807925 ], [ 134.3576828, 33.5820325 ], [ 134.354217299999988, 33.5834792 ], [ 134.3494901, 33.5837556 ], [ 134.3416894, 33.5835036 ], [ 134.3366164, 33.5827708 ], [ 134.333790599999986, 33.5813614 ], [ 134.3321731, 33.5823344 ], [ 134.332308499999982, 33.5844473 ], [ 134.3386744, 33.5857353 ], [ 134.339805600000034, 33.5851892 ], [ 134.3458573, 33.5850252 ], [ 134.3529394, 33.58617 ], [ 134.354521399999982, 33.5871547 ], [ 134.3608544, 33.5875228 ], [ 134.363290799999987, 33.5887386 ], [ 134.364249199999989, 33.5908997 ], [ 134.362469299999987, 33.59246 ], [ 134.361649199999988, 33.5960853 ], [ 134.3643028, 33.602015 ], [ 134.3668556, 33.6051267 ], [ 134.3714689, 33.6095908 ], [ 134.377651899999989, 33.6133675 ], [ 134.378816699999987, 33.6128119 ], [ 134.3829083, 33.6142692 ], [ 134.383218299999982, 33.6188211 ], [ 134.388347499999981, 33.6195539 ], [ 134.389445599999988, 33.6229447 ], [ 134.3880814, 33.6244217 ], [ 134.379600399999987, 33.6253274 ], [ 134.375948099999988, 33.6238858 ], [ 134.3714219, 33.6239703 ], [ 134.3692153, 33.6250703 ], [ 134.364571399999988, 33.6242986 ], [ 134.362625799999989, 33.6250339 ], [ 134.3624915, 33.6280597 ], [ 134.3668932, 33.6293068 ], [ 134.368485599999985, 33.6326847 ], [ 134.3705144, 33.6346675 ], [ 134.377167499999985, 33.6327998 ], [ 134.3759, 33.6348881 ], [ 134.37646, 33.6369594 ], [ 134.378635299999985, 33.6392117 ], [ 134.384825299999989, 33.6414439 ], [ 134.386636899999985, 33.6462353 ] ] ], [ [ [ 134.5903164, 33.7591892 ], [ 134.593596099999985, 33.7593244 ], [ 134.5931261, 33.7635028 ], [ 134.590400599999981, 33.761585 ], [ 134.5903164, 33.7591892 ] ] ] ] } },
{ "type": "Feature", "properties": { "hokenjo": "美馬" }, "geometry": { "type": "MultiPolygon", "coordinates": [ [ [ [ 134.089934699999986, 33.8742319 ], [ 134.0912394, 33.8729342 ], [ 134.0913842, 33.8686072 ], [ 134.0907097, 33.8654842 ], [ 134.0932206, 33.8601417 ], [ 134.0954042, 33.8580783 ], [ 134.095978299999985, 33.8549839 ], [ 134.101312799999988, 33.853904199999988 ], [ 134.1105217, 33.8527472 ], [ 134.1120089, 33.8554869 ], [ 134.118056699999983, 33.8559858 ], [ 134.1251883, 33.8574778 ], [ 134.127350799999988, 33.8600744 ], [ 134.131578599999983, 33.8619911 ], [ 134.135202199999981, 33.8655464 ], [ 134.1398614, 33.8656633 ], [ 134.1434419, 33.8687411 ], [ 134.1480903, 33.8693981 ], [ 134.1505608, 33.8676431 ], [ 134.1550425, 33.8658025 ], [ 134.1647394, 33.8656675 ], [ 134.1692914, 33.8672514 ], [ 134.1727589, 33.8700186 ], [ 134.1721872, 33.8720708 ], [ 134.177234199999987, 33.8776414 ], [ 134.1804372, 33.8782894 ], [ 134.1833167, 33.8813403 ], [ 134.1874311, 33.8824428 ], [ 134.1904561, 33.88539 ], [ 134.1937189, 33.8859706 ], [ 134.1978119, 33.8850028 ], [ 134.206225, 33.8808453 ], [ 134.2091261, 33.8811781 ], [ 134.211401699999982, 33.8852458 ], [ 134.216518899999983, 33.8864386 ], [ 134.2181042, 33.8878606 ], [ 134.221765799999986, 33.8890619 ], [ 134.224850299999986, 33.889125 ], [ 134.226484199999987, 33.8880044 ], [ 134.231461699999983, 33.8887111 ], [ 134.234837199999987, 33.8907181 ], [ 134.2390383, 33.89169 ], [ 134.2385094, 33.8978817 ], [ 134.236578899999984, 33.8996319 ], [ 134.236770299999989, 33.901785 ], [ 134.23262889999998, 33.904305 ], [ 134.231442499999986, 33.9079358 ], [ 134.2279308, 33.9067928 ], [ 134.221262199999984, 33.909325 ], [ 134.22133, 33.9147764 ], [ 134.220645, 33.9180786 ], [ 134.2227739, 33.9221506 ], [ 134.224763599999989, 33.927377799999988 ], [ 134.2305878, 33.9333903 ], [ 134.2288514, 33.9418444 ], [ 134.229219199999989, 33.9452919 ], [ 134.227003599999989, 33.9470875 ], [ 134.2269675, 33.9497244 ], [ 134.2298322, 33.9518292 ], [ 134.231456899999984, 33.9517992 ], [ 134.2341461, 33.9551467 ], [ 134.2446133, 33.9578511 ], [ 134.245348899999982, 33.9589244 ], [ 134.247015299999987, 33.9672694 ], [ 134.250597199999987, 33.9689464 ], [ 134.2564358, 33.9751206 ], [ 134.2557089, 33.9770803 ], [ 134.2514214, 33.9805222 ], [ 134.2482517, 33.9805975 ], [ 134.242546399999981, 33.9798125 ], [ 134.2404125, 33.9805889 ], [ 134.238061099999982, 33.9797111 ], [ 134.2290994, 33.9802683 ], [ 134.2248892, 33.9788228 ], [ 134.2189256, 33.9792758 ], [ 134.2171467, 33.9803161 ], [ 134.2122033, 33.9809214 ], [ 134.204163099999988, 33.9826686 ], [ 134.2019458, 33.9860531 ], [ 134.1993544, 33.9884747 ], [ 134.1957903, 33.989115 ], [ 134.1995978, 33.9935636 ], [ 134.198145, 33.9952117 ], [ 134.1977994, 33.9993297 ], [ 134.1931189, 34.002565 ], [ 134.1897136, 34.0037917 ], [ 134.1867714, 34.0066447 ], [ 134.18934059999998, 34.0111792 ], [ 134.189332799999988, 34.0127072 ], [ 134.1853386, 34.0153978 ], [ 134.182769400000012, 34.0161617 ], [ 134.1978425, 34.0297336 ], [ 134.19843419999998, 34.0355881 ], [ 134.197274199999981, 34.0364406 ], [ 134.1984186, 34.0399897 ], [ 134.1969703, 34.0438864 ], [ 134.195039399999985, 34.0443914 ], [ 134.191597799999982, 34.0488372 ], [ 134.1896358, 34.0492669 ], [ 134.189897799999983, 34.0521878 ], [ 134.1921975, 34.0549633 ], [ 134.191301899999985, 34.0584239 ], [ 134.1884053, 34.0621214 ], [ 134.1863242, 34.0635506 ], [ 134.184832199999988, 34.0696081 ], [ 134.1819281, 34.0717683 ], [ 134.1812692, 34.0749606 ], [ 134.178790300000031, 34.0821761 ], [ 134.180068899999981, 34.0872633 ], [ 134.1829597, 34.0901067 ], [ 134.184811699999983, 34.0904211 ], [ 134.188402199999985, 34.0932394 ], [ 134.1912519, 34.0937736 ], [ 134.192541399999982, 34.0968283 ], [ 134.196303100000023, 34.0993853 ], [ 134.1962483, 34.1009181 ], [ 134.1980692, 34.1060569 ], [ 134.2023733, 34.1083164 ], [ 134.2052883, 34.1122675 ], [ 134.2092017, 34.1154031 ], [ 134.2085294, 34.1172169 ], [ 134.2101925, 34.1210981 ], [ 134.2107139, 34.1280783 ], [ 134.211701399999981, 34.1309911 ], [ 134.2111217, 34.1333308 ], [ 134.2156003, 34.137615 ], [ 134.2174589, 34.1403781 ], [ 134.2182339, 34.1462758 ], [ 134.2171808, 34.1516339 ], [ 134.2213922, 34.1548811 ], [ 134.221855299999987, 34.1568758 ], [ 134.220747499999987, 34.1612544 ], [ 134.220788299999981, 34.1639586 ], [ 134.2126953, 34.1712983 ], [ 134.209973599999984, 34.1725444 ], [ 134.208726399999989, 34.1747256 ], [ 134.2042975, 34.1726911 ], [ 134.198291899999987, 34.1753519 ], [ 134.1966931, 34.1726783 ], [ 134.1950642, 34.1718742 ], [ 134.188578299999989, 34.17308 ], [ 134.186229199999985, 34.1724892 ], [ 134.185305799999981, 34.1742614 ], [ 134.1827083, 34.1739689 ], [ 134.17563, 34.1749433 ], [ 134.173100299999987, 34.1757894 ], [ 134.1685061, 34.1744739 ], [ 134.166382199999987, 34.1718306 ], [ 134.1632433, 34.1697844 ], [ 134.1593131, 34.1696683 ], [ 134.1581439, 34.1675636 ], [ 134.15257889999998, 34.1657347 ], [ 134.1506164, 34.1663106 ], [ 134.1471928, 34.1657061 ], [ 134.145743300000021, 34.16453 ], [ 134.143799199999989, 34.1586514 ], [ 134.140697499999987, 34.1551628 ], [ 134.1371786, 34.1547275 ], [ 134.1353411, 34.1519406 ], [ 134.137512499999985, 34.1472764 ], [ 134.1378167, 34.1425931 ], [ 134.1385147, 34.1414997 ], [ 134.1377094, 34.1380256 ], [ 134.1393139, 34.1340822 ], [ 134.1380197, 34.1324225 ], [ 134.1326817, 34.1295628 ], [ 134.131173099999984, 34.1253678 ], [ 134.129658299999988, 34.1236547 ], [ 134.127057799999989, 34.1231567 ], [ 134.122330799999986, 34.1187864 ], [ 134.11926219999998, 34.1202739 ], [ 134.1161217, 34.1181494 ], [ 134.1059742, 34.1171278 ], [ 134.102976899999987, 34.115009199999989 ], [ 134.0944844, 34.1145906 ], [ 134.0919764, 34.1149383 ], [ 134.090540799999985, 34.1165889 ], [ 134.0864986, 34.1189642 ], [ 134.084545, 34.1192497 ], [ 134.0815681, 34.1212864 ], [ 134.0795564, 34.1211369 ], [ 134.075424199999986, 34.1175164 ], [ 134.0719317, 34.1154794 ], [ 134.0709175, 34.1127133 ], [ 134.0668844, 34.1127911 ], [ 134.061352199999988, 34.1110308 ], [ 134.058333299999987, 34.1151986 ], [ 134.053404699999987, 34.118005 ], [ 134.0497536, 34.1173225 ], [ 134.0477436, 34.1149217 ], [ 134.0445814, 34.1137561 ], [ 134.0422317, 34.1103242 ], [ 134.0417953, 34.1055978 ], [ 134.040040299999987, 34.100865 ], [ 134.0370661, 34.0987669 ], [ 134.0312514, 34.0973942 ], [ 134.0282183, 34.0930542 ], [ 134.0256139, 34.0918911 ], [ 134.025750599999981, 34.0898739 ], [ 134.0277897, 34.0874281 ], [ 134.026257499999986, 34.0850883 ], [ 134.0217817, 34.0844717 ], [ 134.0161283, 34.0863756 ], [ 134.0104292, 34.0867683 ], [ 134.00705, 34.0848333 ], [ 134.0021936, 34.0808681 ], [ 134.0027403, 34.0785097 ], [ 134.0015042, 34.0752253 ], [ 133.9996333, 34.0747875 ], [ 134.0005258, 34.0717294 ], [ 133.9985442, 34.06846 ], [ 133.9985269, 34.0668247 ], [ 134.0006367, 34.065145 ], [ 134.001031399999988, 34.058145 ], [ 133.9989214, 34.0450078 ], [ 134.000059199999981, 34.03732 ], [ 133.999396099999984, 34.0371772 ], [ 133.9989692, 34.035155 ], [ 134.0012783, 34.0328628 ], [ 134.0029611, 34.0297903 ], [ 134.0038931, 34.0261125 ], [ 134.002625599999988, 34.0239992 ], [ 134.002034399999985, 34.0181875 ], [ 134.0006569, 34.0163747 ], [ 134.0007472, 34.0114044 ], [ 133.998698599999983, 34.0105428 ], [ 133.998102499999987, 34.0046333 ], [ 133.9990086, 34.0029264 ], [ 134.001935799999984, 34.0013325 ], [ 134.001002199999988, 33.9974314 ], [ 134.0016708, 33.9965275 ], [ 134.0016872, 33.9904872 ], [ 133.9986553, 33.9879089 ], [ 133.9979094, 33.9834675 ], [ 133.9961094, 33.9822653 ], [ 133.9956458, 33.97862 ], [ 133.9887311, 33.9735547 ], [ 133.984250799999984, 33.9731236 ], [ 133.9814892, 33.9686147 ], [ 133.9789886, 33.9673472 ], [ 133.9759914, 33.9626708 ], [ 133.972229199999987, 33.9602422 ], [ 133.97315279999998, 33.9556372 ], [ 133.9725953, 33.9523822 ], [ 133.9745242, 33.9520639 ], [ 133.9768794, 33.94916 ], [ 133.9770522, 33.9459242 ], [ 133.9694667, 33.941645 ], [ 133.9664378, 33.9390067 ], [ 133.9671869, 33.9358225 ], [ 133.9695203, 33.9313328 ], [ 133.971677199999988, 33.9291133 ], [ 133.973903299999989, 33.9285275 ], [ 133.974962799999986, 33.9251961 ], [ 133.982245799999987, 33.9235094 ], [ 133.987463599999984, 33.9237011 ], [ 133.9927075, 33.9232511 ], [ 133.9990517, 33.9202525 ], [ 134.0027733, 33.9194664 ], [ 134.0038236, 33.9175486 ], [ 134.0014931, 33.9142986 ], [ 134.0017322, 33.9077933 ], [ 134.002811899999983, 33.9064933 ], [ 134.0077317, 33.9064181 ], [ 134.010298299999988, 33.9054256 ], [ 134.0159775, 33.9007622 ], [ 134.018692800000025, 33.9008003 ], [ 134.020555, 33.8995219 ], [ 134.0245533, 33.8992928 ], [ 134.026880799999986, 33.8983808 ], [ 134.0302864, 33.9006747 ], [ 134.034159400000021, 33.9006811 ], [ 134.0375386, 33.8994075 ], [ 134.040404200000012, 33.8973858 ], [ 134.0448992, 33.8970897 ], [ 134.04745280000003, 33.8950639 ], [ 134.0415731, 33.8870956 ], [ 134.043286699999982, 33.8843125 ], [ 134.0438119, 33.8810456 ], [ 134.0482261, 33.8752878 ], [ 134.0486583, 33.8709447 ], [ 134.05333779999998, 33.8722092 ], [ 134.0580278, 33.8706533 ], [ 134.062604199999981, 33.8698853 ], [ 134.0653431, 33.87191 ], [ 134.0718439, 33.8722206 ], [ 134.0767764, 33.8712278 ], [ 134.089934699999986, 33.8742319 ] ] ] ] } }
]
}
