{
"type": "FeatureCollection",
"name": "tottori",
"crs": { "type": "name", "properties": { "name": "urn:ogc:def:crs:OGC:1.3:CRS84" } },
"features": [
{ "type": "Feature", "properties": { "hokenjo": "倉吉" }, "geometry": { "type": "Polygon", "coordinates": [ [ [ 133.9513842, 35.4281483 ], [ 133.950851699999987, 35.436817499999989 ], [ 133.947406699999988, 35.4411278 ], [ 133.953691100000015, 35.4508036 ], [ 133.946037499999989, 35.4618272 ], [ 133.9557936, 35.4859494 ], [ 133.954233599999981, 35.488365 ], [ 133.957248099999987, 35.4992128 ], [ 133.9643361, 35.503142499999989 ], [ 133.970900299999983, 35.5121689 ], [ 133.9706, 35.518255 ], [ 133.96520049999998, 35.5228374 ], [ 133.9527061, 35.5171385 ], [ 133.9459441, 35.5193627 ], [ 133.9333059, 35.5120622 ], [ 133.925454699999989, 35.5100298 ], [ 133.910375200000033, 35.5089584 ], [ 133.9021979, 35.5101799 ], [ 133.8969807, 35.5075107 ], [ 133.877208699999983, 35.5072574 ], [ 133.855594699999983, 35.5045138 ], [ 133.846053, 35.5034107 ], [ 133.7998732, 35.5009006 ], [ 133.7551846, 35.5008223 ], [ 133.7245704, 35.5028641 ], [ 133.7174329, 35.504014 ], [ 133.6892216, 35.507485 ], [ 133.6718712, 35.5063756 ], [ 133.6560618, 35.5099415 ], [ 133.65536179999998, 35.5127065 ], [ 133.6331874, 35.5194364 ], [ 133.623396, 35.519620599999989 ], [ 133.6081647, 35.5221672 ], [ 133.59979389999998, 35.5121406 ], [ 133.601770599999981, 35.5059403 ], [ 133.6010236, 35.4891297 ], [ 133.5975872, 35.4745044 ], [ 133.599862799999983, 35.4588747 ], [ 133.5968308, 35.4457525 ], [ 133.589355, 35.4400394 ], [ 133.5858256, 35.4305294 ], [ 133.57563829999998, 35.4290269 ], [ 133.5836697, 35.4086067 ], [ 133.5808422, 35.3961822 ], [ 133.5827783, 35.3890075 ], [ 133.5765725, 35.3822714 ], [ 133.560842799999989, 35.3810517 ], [ 133.5589397, 35.3636492 ], [ 133.565858599999984, 35.3616361 ], [ 133.5719506, 35.3550981 ], [ 133.576560799999982, 35.3599278 ], [ 133.5853597, 35.3519625 ], [ 133.5936778, 35.350435 ], [ 133.596414399999986, 35.3448956 ], [ 133.6058114, 35.3410625 ], [ 133.6180019, 35.3396011 ], [ 133.6221914, 35.3367094 ], [ 133.6316133, 35.3395022 ], [ 133.6406925, 35.3366611 ], [ 133.6491772, 35.3363375 ], [ 133.6657389, 35.3240103 ], [ 133.673965, 35.3233725 ], [ 133.677361900000022, 35.3192933 ], [ 133.6917561, 35.3208442 ], [ 133.6960617, 35.3269239 ], [ 133.709022799999985, 35.3250597 ], [ 133.717205800000016, 35.3199203 ], [ 133.727134399999983, 35.3170103 ], [ 133.748685, 35.3170622 ], [ 133.750692499999985, 35.3113964 ], [ 133.7569603, 35.3081978 ], [ 133.762338299999982, 35.3110867 ], [ 133.775705, 35.2995578 ], [ 133.79348, 35.2928514 ], [ 133.7998739, 35.2926933 ], [ 133.8013794, 35.2848306 ], [ 133.8092792, 35.2769169 ], [ 133.8076064, 35.2702856 ], [ 133.815221899999983, 35.2648883 ], [ 133.8181461, 35.2526342 ], [ 133.8320756, 35.2488325 ], [ 133.8437294, 35.253485 ], [ 133.8555567, 35.2681169 ], [ 133.8659433, 35.2722589 ], [ 133.8634631, 35.2770953 ], [ 133.8651286, 35.2858636 ], [ 133.8620086, 35.2923611 ], [ 133.8813778, 35.2939453 ], [ 133.9068375, 35.3066414 ], [ 133.92522169999998, 35.3068989 ], [ 133.9320194, 35.3179211 ], [ 133.9278233, 35.3220967 ], [ 133.931535300000036, 35.3332061 ], [ 133.9371261, 35.3355661 ], [ 133.945321399999983, 35.3326156 ], [ 133.9540711, 35.3406975 ], [ 133.9696328, 35.3478344 ], [ 133.97978, 35.343409699999988 ], [ 133.997667799999988, 35.3529003 ], [ 134.009655, 35.3495236 ], [ 134.0148058, 35.3503914 ], [ 134.019846699999988, 35.356082799999989 ], [ 134.017765, 35.3610864 ], [ 134.0315697, 35.3663931 ], [ 134.0415025, 35.3764764 ], [ 134.031622199999987, 35.3791994 ], [ 134.0166767, 35.38692 ], [ 134.00283779999998, 35.3908086 ], [ 133.9995481, 35.3892144 ], [ 133.9913133, 35.3936628 ], [ 133.9949742, 35.4030267 ], [ 134.0008383, 35.4063892 ], [ 133.995235, 35.4139667 ], [ 133.9937017, 35.4235 ], [ 133.98876580000001, 35.4206969 ], [ 133.98306, 35.4251256 ], [ 133.970871099999982, 35.4221081 ], [ 133.964783900000015, 35.4266106 ], [ 133.9513842, 35.4281483 ] ] ] } },
{ "type": "Feature", "properties": { "hokenjo": "鳥取市" }, "geometry": { "type": "Polygon", "coordinates": [ [ [ 134.373163299999987, 35.2458806 ], [ 134.381382799999983, 35.2488531 ], [ 134.393664699999988, 35.2517486 ], [ 134.4016933, 35.2458244 ], [ 134.4015272, 35.2423931 ], [ 134.4153011, 35.239101399999988 ], [ 134.435319199999981, 35.2291725 ], [ 134.4480217, 35.2379358 ], [ 134.4638211, 35.2374033 ], [ 134.46176939999998, 35.2431008 ], [ 134.476523900000018, 35.2490917 ], [ 134.482342499999987, 35.254649199999989 ], [ 134.4835881, 35.2602778 ], [ 134.4899081, 35.2613919 ], [ 134.4950872, 35.2668514 ], [ 134.5152406, 35.2772319 ], [ 134.5092836, 35.2937761 ], [ 134.5116286, 35.3052914 ], [ 134.51480220000002, 35.3076722 ], [ 134.5050478, 35.3163028 ], [ 134.5019206, 35.3265433 ], [ 134.504549699999984, 35.3372694 ], [ 134.509396399999986, 35.3421314 ], [ 134.510279199999985, 35.3508486 ], [ 134.513498299999981, 35.3540936 ], [ 134.5045953, 35.3594336 ], [ 134.5029753, 35.3658103 ], [ 134.486555800000019, 35.3691892 ], [ 134.482839399999989, 35.3730839 ], [ 134.4747494, 35.3747083 ], [ 134.471385, 35.3800322 ], [ 134.4744167, 35.3920264 ], [ 134.481433899999985, 35.4104983 ], [ 134.4767031, 35.4145631 ], [ 134.4798664, 35.424962799999989 ], [ 134.4627347, 35.4367994 ], [ 134.452258299999983, 35.436451399999989 ], [ 134.4459789, 35.4420206 ], [ 134.4401006, 35.4428042 ], [ 134.438181899999989, 35.4612294 ], [ 134.4345753, 35.4636344 ], [ 134.4344375, 35.4708306 ], [ 134.4379136, 35.4742764 ], [ 134.4274328, 35.496565 ], [ 134.430876399999988, 35.5024692 ], [ 134.4131025, 35.5175997 ], [ 134.4206747, 35.5285717 ], [ 134.424014199999988, 35.5420042 ], [ 134.421016899999984, 35.5448869 ], [ 134.42506, 35.5520314 ], [ 134.4214986, 35.5629111 ], [ 134.4099539, 35.5628967 ], [ 134.40507359999998, 35.5707094 ], [ 134.408258599999982, 35.5873183 ], [ 134.401636699999983, 35.5950267 ], [ 134.3931039, 35.5982739 ], [ 134.387287499999985, 35.6037208 ], [ 134.381634700000035, 35.6033394 ], [ 134.37484139999998, 35.6082511 ], [ 134.366444299999984, 35.6020948 ], [ 134.3595799, 35.6004726 ], [ 134.347722, 35.6013144 ], [ 134.3444716, 35.6061938 ], [ 134.33761579999998, 35.6002207 ], [ 134.3370558, 35.5933707 ], [ 134.3239404, 35.5905281 ], [ 134.315859, 35.5939171 ], [ 134.3021578, 35.5893589 ], [ 134.296852799999982, 35.5900628 ], [ 134.2874074, 35.5735486 ], [ 134.277791, 35.5727094 ], [ 134.272516599999989, 35.5606652 ], [ 134.257553900000033, 35.5545703 ], [ 134.2311674, 35.5464625 ], [ 134.2077851, 35.5416564 ], [ 134.1971399, 35.540856 ], [ 134.187093, 35.5428874 ], [ 134.1862925, 35.538495 ], [ 134.1694905, 35.5335901 ], [ 134.152207, 35.5309027 ], [ 134.0984392, 35.5244028 ], [ 134.0826347, 35.5253329 ], [ 134.0766721, 35.5209304 ], [ 134.056975199999982, 35.518929 ], [ 134.033909099999988, 35.5184895 ], [ 134.0217989, 35.5196895 ], [ 134.008458599999983, 35.5376747 ], [ 134.002395, 35.5317119 ], [ 134.0007425, 35.5260721 ], [ 133.9893855, 35.5229183 ], [ 133.96520049999998, 35.5228374 ], [ 133.9706, 35.518255 ], [ 133.970900299999983, 35.5121689 ], [ 133.9643361, 35.503142499999989 ], [ 133.957248099999987, 35.4992128 ], [ 133.954233599999981, 35.488365 ], [ 133.9557936, 35.4859494 ], [ 133.946037499999989, 35.4618272 ], [ 133.953691100000015, 35.4508036 ], [ 133.947406699999988, 35.4411278 ], [ 133.950851699999987, 35.436817499999989 ], [ 133.9513842, 35.4281483 ], [ 133.964783900000015, 35.4266106 ], [ 133.970871099999982, 35.4221081 ], [ 133.98306, 35.4251256 ], [ 133.98876580000001, 35.4206969 ], [ 133.9937017, 35.4235 ], [ 133.995235, 35.4139667 ], [ 134.0008383, 35.4063892 ], [ 133.9949742, 35.4030267 ], [ 133.9913133, 35.3936628 ], [ 133.9995481, 35.3892144 ], [ 134.00283779999998, 35.3908086 ], [ 134.0166767, 35.38692 ], [ 134.031622199999987, 35.3791994 ], [ 134.0415025, 35.3764764 ], [ 134.0315697, 35.3663931 ], [ 134.017765, 35.3610864 ], [ 134.019846699999988, 35.356082799999989 ], [ 134.0148058, 35.3503914 ], [ 134.0154206, 35.3452944 ], [ 134.01082169999998, 35.3403961 ], [ 134.0153647, 35.3338642 ], [ 134.0041606, 35.325283299999988 ], [ 133.9994683, 35.3146506 ], [ 134.0078356, 35.3083978 ], [ 134.021695, 35.3055689 ], [ 134.0296622, 35.307345 ], [ 134.033879399999989, 35.3039539 ], [ 134.0441361, 35.3027556 ], [ 134.04813, 35.2984797 ], [ 134.054656099999988, 35.2981892 ], [ 134.062198599999988, 35.3030428 ], [ 134.0706606, 35.2992592 ], [ 134.08168, 35.3022569 ], [ 134.0862975, 35.3073256 ], [ 134.0979144, 35.3032986 ], [ 134.1027928, 35.2963936 ], [ 134.1223028, 35.2810739 ], [ 134.13924, 35.2790472 ], [ 134.1412975, 35.2749397 ], [ 134.1376014, 35.2695642 ], [ 134.1505789, 35.2579564 ], [ 134.142762799999986, 35.2494264 ], [ 134.1454197, 35.2428369 ], [ 134.1374753, 35.2392456 ], [ 134.144461899999982, 35.2313011 ], [ 134.1582464, 35.2345631 ], [ 134.1641842, 35.2279756 ], [ 134.1621639, 35.2164533 ], [ 134.1543436, 35.2055531 ], [ 134.153976699999987, 35.1946408 ], [ 134.1649514, 35.1879806 ], [ 134.1688936, 35.1801669 ], [ 134.1673231, 35.1722517 ], [ 134.1775983, 35.1691714 ], [ 134.1899367, 35.1758653 ], [ 134.1936792, 35.1843453 ], [ 134.192850599999986, 35.1885617 ], [ 134.2126436, 35.1907233 ], [ 134.2216178, 35.1904219 ], [ 134.227628899999985, 35.197115 ], [ 134.23468219999998, 35.1992617 ], [ 134.2442369, 35.198455 ], [ 134.249758899999989, 35.2006806 ], [ 134.254099199999985, 35.2082925 ], [ 134.2609019, 35.2104567 ], [ 134.2679733, 35.2084189 ], [ 134.2685397, 35.2039269 ], [ 134.278460800000033, 35.1968708 ], [ 134.298996099999982, 35.2018603 ], [ 134.3137944, 35.2005944 ], [ 134.3226975, 35.2027542 ], [ 134.3346822, 35.212892499999988 ], [ 134.3365536, 35.2194833 ], [ 134.3503986, 35.2228183 ], [ 134.3546603, 35.2265472 ], [ 134.3689, 35.2317194 ], [ 134.374671899999981, 35.2372442 ], [ 134.373163299999987, 35.2458806 ] ] ] } },
{ "type": "Feature", "properties": { "hokenjo": "米子" }, "geometry": { "type": "Polygon", "coordinates": [ [ [ 133.398515299999985, 35.1635806 ], [ 133.3933619, 35.1691447 ], [ 133.3946392, 35.1773297 ], [ 133.4074392, 35.1858822 ], [ 133.4155733, 35.1847242 ], [ 133.42084939999998, 35.1809836 ], [ 133.438052199999987, 35.1730747 ], [ 133.4475564, 35.1712961 ], [ 133.4565153, 35.1731086 ], [ 133.459826099999987, 35.1777872 ], [ 133.466971699999988, 35.1751567 ], [ 133.4748453, 35.1820186 ], [ 133.4825622, 35.1824125 ], [ 133.485438099999982, 35.1864006 ], [ 133.49846, 35.1882289 ], [ 133.5004122, 35.192366899999989 ], [ 133.5080514, 35.1930917 ], [ 133.5163406, 35.1905172 ], [ 133.5191819, 35.1829106 ], [ 133.5262511, 35.1830458 ], [ 133.5290756, 35.1869369 ], [ 133.5206825, 35.2060161 ], [ 133.5215136, 35.2105731 ], [ 133.515410299999985, 35.2205342 ], [ 133.505541099999988, 35.2281725 ], [ 133.5080869, 35.2330306 ], [ 133.514492499999989, 35.2354886 ], [ 133.5172272, 35.2407372 ], [ 133.53483079999998, 35.2367169 ], [ 133.5459469, 35.2436814 ], [ 133.55491, 35.24181 ], [ 133.561805599999985, 35.248877799999988 ], [ 133.5622228, 35.2541164 ], [ 133.568181100000032, 35.2570556 ], [ 133.5667697, 35.2658097 ], [ 133.571915599999983, 35.2725694 ], [ 133.5688494, 35.2774947 ], [ 133.5723178, 35.2816575 ], [ 133.5705439, 35.2870861 ], [ 133.5775528, 35.2972611 ], [ 133.5757644, 35.300815 ], [ 133.5767864, 35.3144136 ], [ 133.592446099999989, 35.3308144 ], [ 133.589341099999984, 35.3378586 ], [ 133.596414399999986, 35.3448956 ], [ 133.5936778, 35.350435 ], [ 133.5853597, 35.3519625 ], [ 133.576560799999982, 35.3599278 ], [ 133.5719506, 35.3550981 ], [ 133.565858599999984, 35.3616361 ], [ 133.5589397, 35.3636492 ], [ 133.560842799999989, 35.3810517 ], [ 133.5765725, 35.3822714 ], [ 133.5827783, 35.3890075 ], [ 133.5808422, 35.3961822 ], [ 133.5836697, 35.4086067 ], [ 133.57563829999998, 35.4290269 ], [ 133.5858256, 35.4305294 ], [ 133.589355, 35.4400394 ], [ 133.5968308, 35.4457525 ], [ 133.599862799999983, 35.4588747 ], [ 133.5975872, 35.4745044 ], [ 133.6010236, 35.4891297 ], [ 133.601770599999981, 35.5059403 ], [ 133.59979389999998, 35.5121406 ], [ 133.6081647, 35.5221672 ], [ 133.595455, 35.5264067 ], [ 133.590136699999988, 35.5320172 ], [ 133.5791031, 35.5301503 ], [ 133.5680219, 35.5304031 ], [ 133.5572756, 35.5243917 ], [ 133.545680799999985, 35.5214608 ], [ 133.5348414, 35.5235872 ], [ 133.5311039, 35.5195267 ], [ 133.5191418, 35.5207165 ], [ 133.5147662, 35.5174893 ], [ 133.5020975, 35.5153857 ], [ 133.484894699999984, 35.5050506 ], [ 133.4727647, 35.4990176 ], [ 133.460322, 35.4987466 ], [ 133.446390799999989, 35.4941933 ], [ 133.4427569, 35.4873756 ], [ 133.4331492, 35.4820847 ], [ 133.4344872, 35.4791469 ], [ 133.4293154, 35.4698947 ], [ 133.427699099999984, 35.4629329 ], [ 133.422635899999989, 35.4583639 ], [ 133.4024723, 35.4532795 ], [ 133.391608, 35.4538224 ], [ 133.374054299999983, 35.4562923 ], [ 133.354345, 35.4605914 ], [ 133.3483683, 35.4606985 ], [ 133.3231858, 35.466276199999989 ], [ 133.2934396, 35.4778214 ], [ 133.2798721, 35.4864717 ], [ 133.262828399999989, 35.5009833 ], [ 133.253403200000037, 35.5129484 ], [ 133.2530812, 35.5169583 ], [ 133.260585, 35.5197326 ], [ 133.2557769, 35.5282841 ], [ 133.246289099999984, 35.5276922 ], [ 133.2503691, 35.5372075 ], [ 133.258535599999988, 35.5416426 ], [ 133.2652186, 35.5489242 ], [ 133.258504099999982, 35.5502347 ], [ 133.2498205, 35.5464529 ], [ 133.244621199999983, 35.549112 ], [ 133.2277239, 35.5488703 ], [ 133.218514199999987, 35.546309199999989 ], [ 133.2010211, 35.535242499999988 ], [ 133.198631899999981, 35.5260156 ], [ 133.2160547, 35.4955553 ], [ 133.222499699999986, 35.4802236 ], [ 133.226852799999989, 35.4771633 ], [ 133.2597369, 35.453882199999988 ], [ 133.272021699999982, 35.4460125 ], [ 133.3007206, 35.4363006 ], [ 133.30869, 35.4308767 ], [ 133.3205725, 35.4102775 ], [ 133.321056699999986, 35.3955061 ], [ 133.3135667, 35.3873456 ], [ 133.31902359999998, 35.3834919 ], [ 133.3244339, 35.3742786 ], [ 133.3182306, 35.3724031 ], [ 133.3159736, 35.36549 ], [ 133.308656899999988, 35.3664861 ], [ 133.296046400000023, 35.3493703 ], [ 133.2968903, 35.339066099999989 ], [ 133.2955744, 35.3288681 ], [ 133.2985592, 35.3251036 ], [ 133.292635599999983, 35.3207469 ], [ 133.3069064, 35.3034825 ], [ 133.2995119, 35.292268899999989 ], [ 133.307257199999981, 35.2819028 ], [ 133.3104667, 35.2683772 ], [ 133.302537199999989, 35.2631206 ], [ 133.2917953, 35.2607672 ], [ 133.282242199999985, 35.2624025 ], [ 133.2752111, 35.2578056 ], [ 133.2640642, 35.2584192 ], [ 133.2586681, 35.2613917 ], [ 133.25194, 35.2592908 ], [ 133.243421899999987, 35.2504764 ], [ 133.228185, 35.2467969 ], [ 133.225606699999986, 35.24956 ], [ 133.212022500000018, 35.2416969 ], [ 133.20632329999998, 35.2420575 ], [ 133.1935239, 35.2372817 ], [ 133.1816239, 35.23444 ], [ 133.1772647, 35.2303736 ], [ 133.1632908, 35.2225839 ], [ 133.152472499999988, 35.2188 ], [ 133.1528806, 35.2037981 ], [ 133.1576336, 35.2039047 ], [ 133.1718206, 35.2087225 ], [ 133.1808125, 35.2026703 ], [ 133.1846583, 35.1953717 ], [ 133.1821325, 35.1880342 ], [ 133.1886567, 35.1851297 ], [ 133.1936469, 35.1775017 ], [ 133.194905299999988, 35.1698903 ], [ 133.191862499999985, 35.1627297 ], [ 133.1841642, 35.1569031 ], [ 133.1709136, 35.1535475 ], [ 133.1661303, 35.1492097 ], [ 133.157455299999981, 35.1489058 ], [ 133.1484039, 35.1397731 ], [ 133.145312499999989, 35.131725 ], [ 133.1466489, 35.1236936 ], [ 133.1403042, 35.1172836 ], [ 133.1455858, 35.1053375 ], [ 133.1398189, 35.1000053 ], [ 133.1366822, 35.0886967 ], [ 133.14129029999998, 35.0828411 ], [ 133.1408136, 35.0756383 ], [ 133.136283099999986, 35.0695722 ], [ 133.14201, 35.0647478 ], [ 133.161259199999989, 35.0741358 ], [ 133.16846, 35.0674378 ], [ 133.179533599999985, 35.0672967 ], [ 133.1993872, 35.0725369 ], [ 133.2149042, 35.0738717 ], [ 133.2272289, 35.0681925 ], [ 133.2331931, 35.0751247 ], [ 133.2399347, 35.0790381 ], [ 133.2487822, 35.0786911 ], [ 133.2537853, 35.0752181 ], [ 133.2608136, 35.0634394 ], [ 133.269139199999984, 35.0576783 ], [ 133.276911899999988, 35.0661092 ], [ 133.2834206, 35.0659503 ], [ 133.290823900000021, 35.0709439 ], [ 133.2888586, 35.0744458 ], [ 133.290660299999985, 35.0844239 ], [ 133.28826250000003, 35.095914199999989 ], [ 133.2909397, 35.1003589 ], [ 133.299032200000028, 35.1038044 ], [ 133.3194278, 35.0938561 ], [ 133.3281403, 35.0949981 ], [ 133.3382225, 35.1065628 ], [ 133.347271399999983, 35.105595 ], [ 133.3548739, 35.1007711 ], [ 133.366680799999983, 35.1101547 ], [ 133.3787878, 35.1146661 ], [ 133.3869939, 35.1131153 ], [ 133.4033628, 35.1143208 ], [ 133.4118258, 35.1211461 ], [ 133.4126178, 35.1334931 ], [ 133.4112242, 35.1387525 ], [ 133.405138099999988, 35.1429278 ], [ 133.400359399999985, 35.1532714 ], [ 133.398515299999985, 35.1635806 ] ] ] } }
]
}
