{
"type": "FeatureCollection",
"name": "toyama",
"crs": { "type": "name", "properties": { "name": "urn:ogc:def:crs:OGC:1.3:CRS84" } },
"features": [
{ "type": "Feature", "properties": { "hokenjo": "高岡" }, "geometry": { "type": "Polygon", "coordinates": [ [ [ 137.1183191, 36.7665062 ], [ 137.103898499999985, 36.769716599999988 ], [ 137.0924622, 36.7719637 ], [ 137.0935667, 36.7727352 ], [ 137.0941726, 36.7750231 ], [ 137.1093693, 36.7728897 ], [ 137.1079942, 36.7790856 ], [ 137.0862859, 36.7834618 ], [ 137.068149, 36.7939106 ], [ 137.068094, 36.8007646 ], [ 137.0568202, 36.8016042 ], [ 137.044395899999984, 36.8140638 ], [ 137.0167702, 36.8293851 ], [ 137.00664279999998, 36.8369206 ], [ 136.9909893, 36.8539614 ], [ 136.9852208, 36.8691617 ], [ 136.985076099999986, 36.877282 ], [ 136.9927267, 36.8789959 ], [ 137.0029538, 36.8895768 ], [ 137.017896899999982, 36.9107585 ], [ 137.0252475, 36.9139197 ], [ 137.0326096, 36.9238521 ], [ 137.0270069, 36.9391337 ], [ 137.0476229, 36.9561221 ], [ 137.045449400000024, 36.9636453 ], [ 137.0376708, 36.9671192 ], [ 137.0042671, 36.9614449 ], [ 136.996996599999989, 36.9665543 ], [ 136.9866477, 36.9671993 ], [ 136.9814896, 36.9514241 ], [ 136.973746899999981, 36.9443118 ], [ 136.9539914, 36.9559593 ], [ 136.9276233, 36.9476173 ], [ 136.914987199999985, 36.9304761 ], [ 136.8955815, 36.9247197 ], [ 136.8789763, 36.906271 ], [ 136.8778738, 36.8994993 ], [ 136.8856094, 36.8851926 ], [ 136.8830317, 36.8768243 ], [ 136.8712434, 36.8626778 ], [ 136.8623887, 36.8603267 ], [ 136.8632845, 36.8428428 ], [ 136.856441700000033, 36.8397915 ], [ 136.8600181, 36.8290768 ], [ 136.8487465, 36.8128841 ], [ 136.8539954, 36.795177 ], [ 136.8508334, 36.7869273 ], [ 136.843251399999986, 36.7813129 ], [ 136.851064799999989, 36.7684823 ], [ 136.849029800000011, 36.7590073 ], [ 136.8390914, 36.7450962 ], [ 136.8334581, 36.7430804 ], [ 136.841660099999984, 36.7360203 ], [ 136.8575281, 36.7328059 ], [ 136.877014799999984, 36.7170431 ], [ 136.885571699999986, 36.7161808 ], [ 136.8907208, 36.698924 ], [ 136.9038558, 36.7027126 ], [ 136.9138376, 36.6870188 ], [ 136.9237851, 36.6850975 ], [ 136.9334767, 36.6857017 ], [ 136.9500855, 36.6799029 ], [ 136.956721099999982, 36.6700563 ], [ 136.9562216, 36.6605946 ], [ 136.965445700000032, 36.6597149 ], [ 136.9780144, 36.6707483 ], [ 136.9896732, 36.6693264 ], [ 136.9866623, 36.6570561 ], [ 137.0075101, 36.6592053 ], [ 137.0116123, 36.6722008 ], [ 137.0415937, 36.6582226 ], [ 137.047110299999986, 36.6597578 ], [ 137.0530384, 36.6519042 ], [ 137.051658900000035, 36.6460531 ], [ 137.06389919999998, 36.6568231 ], [ 137.073120099999983, 36.6492023 ], [ 137.0801979, 36.6636642 ], [ 137.087362899999988, 36.6591 ], [ 137.099828799999983, 36.6835747 ], [ 137.1077357, 36.680749399999989 ], [ 137.121648, 36.6860314 ], [ 137.1250571, 36.6952066 ], [ 137.119078799999983, 36.7111552 ], [ 137.132085599999982, 36.7251585 ], [ 137.1458839, 36.7244799 ], [ 137.151199200000036, 36.7406157 ], [ 137.166717799999986, 36.7432277 ], [ 137.1789981, 36.7482196 ], [ 137.1801302, 36.7579587 ], [ 137.1558441, 36.763177 ], [ 137.1360296, 36.7707086 ], [ 137.1370169, 36.7754169 ], [ 137.1219188, 36.7794667 ], [ 137.1183191, 36.7665062 ] ] ] } },
{ "type": "Feature", "properties": { "hokenjo": "新川" }, "geometry": { "type": "Polygon", "coordinates": [ [ [ 137.579919599999982, 36.6732206 ], [ 137.590421, 36.6811921 ], [ 137.614332099999984, 36.6552385 ], [ 137.6195241, 36.654591 ], [ 137.627366199999983, 36.6396519 ], [ 137.6444946, 36.6393133 ], [ 137.6469166, 36.6352042 ], [ 137.6746384, 36.6355706 ], [ 137.6850796, 36.64494 ], [ 137.6920452, 36.6434664 ], [ 137.7166024, 36.6265576 ], [ 137.727666299999981, 36.6228192 ], [ 137.7467785, 36.6245559 ], [ 137.7513299, 36.6267456 ], [ 137.756255399999986, 36.6468884 ], [ 137.753502699999984, 36.6578292 ], [ 137.7617405, 36.6669703 ], [ 137.758466699999985, 36.6761548 ], [ 137.7597384, 36.6859323 ], [ 137.7500643, 36.7049798 ], [ 137.7526982, 36.7193321 ], [ 137.7509704, 36.7268876 ], [ 137.7592856, 36.7406107 ], [ 137.7541306, 36.7540304 ], [ 137.763386699999984, 36.7682335 ], [ 137.749672, 36.7797127 ], [ 137.754293700000034, 36.7965891 ], [ 137.7448719, 36.815218 ], [ 137.7319908, 36.8236398 ], [ 137.7344386, 36.8313995 ], [ 137.732870599999984, 36.8450358 ], [ 137.7351611, 36.8551907 ], [ 137.732065899999981, 36.8736873 ], [ 137.7249109, 36.8779026 ], [ 137.7129835, 36.8937581 ], [ 137.7125719, 36.9040806 ], [ 137.7178405, 36.9078039 ], [ 137.7204567, 36.9266896 ], [ 137.713373599999983, 36.935052399999989 ], [ 137.711155099999985, 36.9442348 ], [ 137.6874642, 36.9432007 ], [ 137.6662064, 36.9536932 ], [ 137.6515364, 36.9690204 ], [ 137.6349847, 36.9797979 ], [ 137.611573, 36.9763902 ], [ 137.5895688, 36.9751771 ], [ 137.5745829, 36.964133 ], [ 137.5428105, 36.9610609 ], [ 137.510347599999989, 36.9585836 ], [ 137.490643799999987, 36.9541818 ], [ 137.460022899999984, 36.9384649 ], [ 137.4359892, 36.9310012 ], [ 137.4261455, 36.9222107 ], [ 137.4098104, 36.8988118 ], [ 137.4189796, 36.8806353 ], [ 137.416710699999982, 36.8678011 ], [ 137.4096403, 36.8609836 ], [ 137.4114208, 36.848229599999989 ], [ 137.400458, 36.8371039 ], [ 137.3927926, 36.8192106 ], [ 137.3928119, 36.8071304 ], [ 137.3822648, 36.8003617 ], [ 137.395764899999989, 36.7861006 ], [ 137.4018771, 36.7744561 ], [ 137.415028, 36.7573155 ], [ 137.426390699999985, 36.7474727 ], [ 137.43461929999998, 36.7315373 ], [ 137.4480581, 36.7135412 ], [ 137.4565906, 36.7017486 ], [ 137.4701886, 36.7036558 ], [ 137.482244, 36.724066 ], [ 137.4993754, 36.7206079 ], [ 137.5111798, 36.7060182 ], [ 137.5079256, 36.6990135 ], [ 137.5092631, 36.6858294 ], [ 137.5174125, 36.6787302 ], [ 137.526135, 36.6806403 ], [ 137.552771399999983, 36.6737759 ], [ 137.5623962, 36.6757812 ], [ 137.579919599999982, 36.6732206 ] ] ] } },
{ "type": "Feature", "properties": { "hokenjo": "中部" }, "geometry": { "type": "Polygon", "coordinates": [ [ [ 137.6444946, 36.6393133 ], [ 137.627366199999983, 36.6396519 ], [ 137.6195241, 36.654591 ], [ 137.614332099999984, 36.6552385 ], [ 137.590421, 36.6811921 ], [ 137.579919599999982, 36.6732206 ], [ 137.5623962, 36.6757812 ], [ 137.552771399999983, 36.6737759 ], [ 137.526135, 36.6806403 ], [ 137.5174125, 36.6787302 ], [ 137.5092631, 36.6858294 ], [ 137.5079256, 36.6990135 ], [ 137.5111798, 36.7060182 ], [ 137.4993754, 36.7206079 ], [ 137.482244, 36.724066 ], [ 137.4701886, 36.7036558 ], [ 137.4565906, 36.7017486 ], [ 137.4480581, 36.7135412 ], [ 137.43461929999998, 36.7315373 ], [ 137.426390699999985, 36.7474727 ], [ 137.415028, 36.7573155 ], [ 137.4018771, 36.7744561 ], [ 137.395764899999989, 36.7861006 ], [ 137.3822648, 36.8003617 ], [ 137.368800099999987, 36.7941892 ], [ 137.3497334, 36.7824054 ], [ 137.333628299999987, 36.7627147 ], [ 137.3160112, 36.7585964 ], [ 137.3387653, 36.7386129 ], [ 137.3351159, 36.734203699999988 ], [ 137.33707339999998, 36.7239751 ], [ 137.321338199999985, 36.7268832 ], [ 137.316778, 36.7121685 ], [ 137.305630799999989, 36.7131801 ], [ 137.293179899999984, 36.7039168 ], [ 137.2910138, 36.6982632 ], [ 137.277527599999985, 36.6949882 ], [ 137.2832904, 36.672891 ], [ 137.2826289, 36.6516129 ], [ 137.2884014, 36.6347296 ], [ 137.317697399999986, 36.5988487 ], [ 137.318949799999984, 36.5921079 ], [ 137.333773399999984, 36.5793121 ], [ 137.3599212, 36.5712845 ], [ 137.373324, 36.5722231 ], [ 137.4054118, 36.5793986 ], [ 137.418905699999982, 36.583977499999989 ], [ 137.437246099999982, 36.5850692 ], [ 137.4569352, 36.5726441 ], [ 137.47437739999998, 36.5658383 ], [ 137.487889, 36.5652538 ], [ 137.5093765, 36.5529299 ], [ 137.5109754, 36.5471288 ], [ 137.522067, 36.5446483 ], [ 137.5374712, 36.5489113 ], [ 137.5431367, 36.5459885 ], [ 137.570855599999987, 36.555713 ], [ 137.5907273, 36.5541539 ], [ 137.599681799999985, 36.5477597 ], [ 137.647101599999985, 36.5248598 ], [ 137.6556172, 36.5196476 ], [ 137.6722876, 36.5265768 ], [ 137.691509, 36.5196743 ], [ 137.703657099999987, 36.526684 ], [ 137.7041116, 36.5367648 ], [ 137.684597599999989, 36.5378073 ], [ 137.6894988, 36.5535734 ], [ 137.6877378, 36.5620745 ], [ 137.713206, 36.5770801 ], [ 137.725106900000014, 36.5866962 ], [ 137.7478633, 36.5868539 ], [ 137.753097199999985, 36.5937223 ], [ 137.7439407, 36.6127451 ], [ 137.7467785, 36.6245559 ], [ 137.727666299999981, 36.6228192 ], [ 137.7166024, 36.6265576 ], [ 137.6920452, 36.6434664 ], [ 137.6850796, 36.64494 ], [ 137.6746384, 36.6355706 ], [ 137.6469166, 36.6352042 ], [ 137.6444946, 36.6393133 ] ] ] } },
{ "type": "Feature", "properties": { "hokenjo": "砺波" }, "geometry": { "type": "Polygon", "coordinates": [ [ [ 137.0361302, 36.5409884 ], [ 137.0407798, 36.5704182 ], [ 137.0395912, 36.5799707 ], [ 137.0537668, 36.6002982 ], [ 137.0537469, 36.621494 ], [ 137.0564855, 36.6300895 ], [ 137.0653419, 36.638327 ], [ 137.051658900000035, 36.6460531 ], [ 137.0530384, 36.6519042 ], [ 137.047110299999986, 36.6597578 ], [ 137.0415937, 36.6582226 ], [ 137.0116123, 36.6722008 ], [ 137.0075101, 36.6592053 ], [ 136.9866623, 36.6570561 ], [ 136.9896732, 36.6693264 ], [ 136.9780144, 36.6707483 ], [ 136.965445700000032, 36.6597149 ], [ 136.9562216, 36.6605946 ], [ 136.956721099999982, 36.6700563 ], [ 136.9500855, 36.6799029 ], [ 136.9334767, 36.6857017 ], [ 136.9237851, 36.6850975 ], [ 136.9138376, 36.6870188 ], [ 136.9038558, 36.7027126 ], [ 136.8907208, 36.698924 ], [ 136.885571699999986, 36.7161808 ], [ 136.877014799999984, 36.7170431 ], [ 136.8575281, 36.7328059 ], [ 136.841660099999984, 36.7360203 ], [ 136.8334581, 36.7430804 ], [ 136.821722199999982, 36.7399843 ], [ 136.8198614, 36.7306498 ], [ 136.7995415, 36.7300462 ], [ 136.78985430000003, 36.7174564 ], [ 136.7988781, 36.709792 ], [ 136.8131716, 36.7030023 ], [ 136.811096, 36.6849632 ], [ 136.8225496, 36.6806129 ], [ 136.814039399999984, 36.659243 ], [ 136.799762, 36.6445751 ], [ 136.7999034, 36.6364045 ], [ 136.7842297, 36.6270534 ], [ 136.7834646, 36.6151318 ], [ 136.7895009, 36.6054158 ], [ 136.788312499999989, 36.5930236 ], [ 136.7952908, 36.5833839 ], [ 136.7909338, 36.5698089 ], [ 136.8024441, 36.5687717 ], [ 136.8171146, 36.5527904 ], [ 136.812855399999989, 36.5380993 ], [ 136.7951062, 36.5108078 ], [ 136.794930599999986, 36.4963342 ], [ 136.802634399999988, 36.4847317 ], [ 136.7955505, 36.4748856 ], [ 136.7982819, 36.4618189 ], [ 136.789145400000024, 36.4545206 ], [ 136.7952057, 36.4433992 ], [ 136.7781765, 36.4308825 ], [ 136.7694598, 36.4307117 ], [ 136.7712417, 36.4140339 ], [ 136.7788567, 36.4143714 ], [ 136.795143, 36.4012639 ], [ 136.8005937, 36.3693889 ], [ 136.80665639999998, 36.3632814 ], [ 136.805971699999986, 36.3553999 ], [ 136.7871869, 36.348263 ], [ 136.7846586, 36.3437871 ], [ 136.7891224, 36.3248671 ], [ 136.788357599999983, 36.3123335 ], [ 136.795401199999986, 36.3026633 ], [ 136.8265682, 36.3025831 ], [ 136.8424871, 36.3332575 ], [ 136.837345299999981, 36.34731 ], [ 136.843965, 36.3510911 ], [ 136.851652699999988, 36.3475703 ], [ 136.8651003, 36.3496604 ], [ 136.868838399999987, 36.3638801 ], [ 136.876047199999988, 36.3607282 ], [ 136.8765402, 36.3468579 ], [ 136.890090499999985, 36.3455585 ], [ 136.9074742, 36.3608416 ], [ 136.922807799999987, 36.3549635 ], [ 136.932351399999988, 36.3484813 ], [ 136.9396439, 36.3492082 ], [ 136.9548969, 36.3393504 ], [ 136.963794899999982, 36.3192415 ], [ 136.971117099999987, 36.3155432 ], [ 136.9654947, 36.292181 ], [ 136.958241099999981, 36.2776793 ], [ 136.9761814, 36.2758824 ], [ 136.990147799999988, 36.2871173 ], [ 137.0025575, 36.2868959 ], [ 137.0212512, 36.3091765 ], [ 137.0184112, 36.3158804 ], [ 137.037571, 36.3174387 ], [ 137.052278199999989, 36.3295056 ], [ 137.048982500000022, 36.3456856 ], [ 137.0619984, 36.3657501 ], [ 137.058447299999983, 36.3719751 ], [ 137.0470293, 36.3721562 ], [ 137.054548200000028, 36.3929217 ], [ 137.0583519, 36.3976581 ], [ 137.056123899999989, 36.4118834 ], [ 137.0621356, 36.4269806 ], [ 137.054702, 36.4373209 ], [ 137.064276, 36.4521314 ], [ 137.059952399999986, 36.4706664 ], [ 137.05499660000001, 36.4783484 ], [ 137.0502237, 36.5030728 ], [ 137.028284500000012, 36.5060656 ], [ 137.0345948, 36.5139509 ], [ 137.032619399999987, 36.5331034 ], [ 137.0361302, 36.5409884 ] ] ] } },
{ "type": "Feature", "properties": { "hokenjo": "富山市" }, "geometry": { "type": "Polygon", "coordinates": [ [ [ 137.3160112, 36.7585964 ], [ 137.2950865, 36.7570316 ], [ 137.2428348, 36.7656472 ], [ 137.228305, 36.7615623 ], [ 137.204643299999987, 36.7593675 ], [ 137.1949415, 36.761077 ], [ 137.1801302, 36.7579587 ], [ 137.1789981, 36.7482196 ], [ 137.166717799999986, 36.7432277 ], [ 137.151199200000036, 36.7406157 ], [ 137.1458839, 36.7244799 ], [ 137.132085599999982, 36.7251585 ], [ 137.119078799999983, 36.7111552 ], [ 137.1250571, 36.6952066 ], [ 137.121648, 36.6860314 ], [ 137.1077357, 36.680749399999989 ], [ 137.099828799999983, 36.6835747 ], [ 137.087362899999988, 36.6591 ], [ 137.0801979, 36.6636642 ], [ 137.073120099999983, 36.6492023 ], [ 137.06389919999998, 36.6568231 ], [ 137.051658900000035, 36.6460531 ], [ 137.0653419, 36.638327 ], [ 137.0564855, 36.6300895 ], [ 137.0537469, 36.621494 ], [ 137.0537668, 36.6002982 ], [ 137.0395912, 36.5799707 ], [ 137.0407798, 36.5704182 ], [ 137.0361302, 36.5409884 ], [ 137.032619399999987, 36.5331034 ], [ 137.0345948, 36.5139509 ], [ 137.028284500000012, 36.5060656 ], [ 137.0502237, 36.5030728 ], [ 137.05499660000001, 36.4783484 ], [ 137.059952399999986, 36.4706664 ], [ 137.064276, 36.4521314 ], [ 137.054702, 36.4373209 ], [ 137.0621356, 36.4269806 ], [ 137.056123899999989, 36.4118834 ], [ 137.0583519, 36.3976581 ], [ 137.054548200000028, 36.3929217 ], [ 137.0470293, 36.3721562 ], [ 137.058447299999983, 36.3719751 ], [ 137.078726, 36.3843114 ], [ 137.0948827, 36.3839667 ], [ 137.0961766, 36.3993976 ], [ 137.1019258, 36.3991931 ], [ 137.1115103, 36.4153828 ], [ 137.124225599999988, 36.422092 ], [ 137.142266299999989, 36.4431473 ], [ 137.1548635, 36.449127 ], [ 137.1596966, 36.4564442 ], [ 137.1759361, 36.4510325 ], [ 137.190894400000019, 36.4550289 ], [ 137.194743, 36.4466442 ], [ 137.212554899999986, 36.4302286 ], [ 137.213190699999984, 36.4379714 ], [ 137.2221769, 36.4436308 ], [ 137.2313608, 36.4442619 ], [ 137.247612, 36.4619639 ], [ 137.2563786, 36.4511413 ], [ 137.2639422, 36.4584105 ], [ 137.2777734, 36.464816 ], [ 137.298325, 36.4582582 ], [ 137.30661, 36.4638768 ], [ 137.316782499999988, 36.460989 ], [ 137.317788299999989, 36.451182 ], [ 137.3138746, 36.4416679 ], [ 137.3051457, 36.4362123 ], [ 137.3128959, 36.4253415 ], [ 137.3195298, 36.4244579 ], [ 137.338619099999988, 36.4338934 ], [ 137.3501068, 36.4329667 ], [ 137.357999899999982, 36.4363089 ], [ 137.3614978, 36.4500514 ], [ 137.389069, 36.4572577 ], [ 137.394874499999986, 36.4555744 ], [ 137.395221599999985, 36.4363975 ], [ 137.4101603, 36.4246308 ], [ 137.436010399999986, 36.4203933 ], [ 137.442200900000017, 36.4142531 ], [ 137.4525832, 36.4160247 ], [ 137.460829099999984, 36.4122361 ], [ 137.4739861, 36.4253547 ], [ 137.491448599999984, 36.42357 ], [ 137.4969576, 36.4260927 ], [ 137.511721199999982, 36.4234492 ], [ 137.5127228, 36.4163831 ], [ 137.5202639, 36.4060673 ], [ 137.5300081, 36.4032851 ], [ 137.540902499999987, 36.391441799999988 ], [ 137.559505299999984, 36.3874516 ], [ 137.5776553, 36.3929521 ], [ 137.5924075, 36.389675 ], [ 137.6053612, 36.4025383 ], [ 137.6038043, 36.4087056 ], [ 137.609199599999982, 36.4179058 ], [ 137.6226202, 36.4235612 ], [ 137.6333043, 36.425022299999988 ], [ 137.6377857, 36.4313668 ], [ 137.6399122, 36.4458298 ], [ 137.645293399999986, 36.4545303 ], [ 137.655067799999983, 36.4587259 ], [ 137.6566373, 36.4704137 ], [ 137.650779799999981, 36.4801203 ], [ 137.6520007, 36.488200299999988 ], [ 137.6662369, 36.4932177 ], [ 137.6687456, 36.5094613 ], [ 137.705469599999986, 36.5178877 ], [ 137.703657099999987, 36.526684 ], [ 137.691509, 36.5196743 ], [ 137.6722876, 36.5265768 ], [ 137.6556172, 36.5196476 ], [ 137.647101599999985, 36.5248598 ], [ 137.599681799999985, 36.5477597 ], [ 137.5907273, 36.5541539 ], [ 137.570855599999987, 36.555713 ], [ 137.5431367, 36.5459885 ], [ 137.5374712, 36.5489113 ], [ 137.522067, 36.5446483 ], [ 137.5109754, 36.5471288 ], [ 137.5093765, 36.5529299 ], [ 137.487889, 36.5652538 ], [ 137.47437739999998, 36.5658383 ], [ 137.4569352, 36.5726441 ], [ 137.437246099999982, 36.5850692 ], [ 137.418905699999982, 36.583977499999989 ], [ 137.4054118, 36.5793986 ], [ 137.373324, 36.5722231 ], [ 137.3599212, 36.5712845 ], [ 137.333773399999984, 36.5793121 ], [ 137.318949799999984, 36.5921079 ], [ 137.317697399999986, 36.5988487 ], [ 137.2884014, 36.6347296 ], [ 137.2826289, 36.6516129 ], [ 137.2832904, 36.672891 ], [ 137.277527599999985, 36.6949882 ], [ 137.2910138, 36.6982632 ], [ 137.293179899999984, 36.7039168 ], [ 137.305630799999989, 36.7131801 ], [ 137.316778, 36.7121685 ], [ 137.321338199999985, 36.7268832 ], [ 137.33707339999998, 36.7239751 ], [ 137.3351159, 36.734203699999988 ], [ 137.3387653, 36.7386129 ], [ 137.3160112, 36.7585964 ] ] ] } }
]
}
