{
"type": "FeatureCollection",
"name": "wakayama",
"crs": { "type": "name", "properties": { "name": "urn:ogc:def:crs:OGC:1.3:CRS84" } },
"features": [
{ "type": "Feature", "properties": { "hokenjo": "海南" }, "geometry": { "type": "MultiPolygon", "coordinates": [ [ [ [ 135.2970986, 34.1360308 ], [ 135.301431399999984, 34.1320258 ], [ 135.301893899999982, 34.1294 ], [ 135.304355, 34.1282783 ], [ 135.308679399999988, 34.1215286 ], [ 135.3061219, 34.1168083 ], [ 135.3076064, 34.1154128 ], [ 135.311463299999986, 34.1147981 ], [ 135.3120925, 34.1100217 ], [ 135.3152222, 34.1075622 ], [ 135.317477199999985, 34.1044514 ], [ 135.3251189, 34.1043119 ], [ 135.3290308, 34.1058911 ], [ 135.3324606, 34.1049639 ], [ 135.3351994, 34.105345 ], [ 135.3381106, 34.1135278 ], [ 135.346216699999985, 34.1163886 ], [ 135.3561497, 34.1134431 ], [ 135.3588308, 34.1151186 ], [ 135.36547, 34.1134342 ], [ 135.370341699999983, 34.11359 ], [ 135.3718461, 34.1122261 ], [ 135.3746511, 34.1131689 ], [ 135.3743542, 34.1207344 ], [ 135.380851899999982, 34.12138 ], [ 135.3853292, 34.1206386 ], [ 135.3916619, 34.121575 ], [ 135.397798099999989, 34.1205936 ], [ 135.4037083, 34.1216836 ], [ 135.4050483, 34.1206628 ], [ 135.412583899999987, 34.1195017 ], [ 135.417041899999987, 34.1198731 ], [ 135.42055, 34.1172603 ], [ 135.425421699999987, 34.1181467 ], [ 135.428291699999988, 34.1155036 ], [ 135.431060799999983, 34.1154511 ], [ 135.4346581, 34.1171297 ], [ 135.4385469, 34.1217081 ], [ 135.442522500000024, 34.1239828 ], [ 135.445476899999989, 34.123465 ], [ 135.44912309999998, 34.1255825 ], [ 135.452010799999982, 34.1295992 ], [ 135.4581231, 34.1325528 ], [ 135.4591867, 34.1364717 ], [ 135.4616158, 34.13847 ], [ 135.4678481, 34.1416753 ], [ 135.470401899999985, 34.1441906 ], [ 135.473636699999986, 34.145735 ], [ 135.484873599999986, 34.1533322 ], [ 135.48893529999998, 34.154916899999989 ], [ 135.4926547, 34.1588747 ], [ 135.49140749999998, 34.1601694 ], [ 135.491862199999986, 34.1647128 ], [ 135.4993742, 34.1668408 ], [ 135.5030175, 34.1712892 ], [ 135.505252499999983, 34.1700572 ], [ 135.5083003, 34.1733836 ], [ 135.5023814, 34.1797044 ], [ 135.4995103, 34.1808392 ], [ 135.4947431, 34.1846819 ], [ 135.494801099999989, 34.1860083 ], [ 135.4871422, 34.1912819 ], [ 135.4852128, 34.1916467 ], [ 135.481765, 34.1980522 ], [ 135.48027639999998, 34.2019769 ], [ 135.478049699999985, 34.2018408 ], [ 135.4734786, 34.1989078 ], [ 135.4715936, 34.1992481 ], [ 135.4659292, 34.1963958 ], [ 135.4665786, 34.1921944 ], [ 135.462331899999981, 34.18811 ], [ 135.4553603, 34.1830264 ], [ 135.454172199999988, 34.1804994 ], [ 135.4510927, 34.1803648 ], [ 135.44252419999998, 34.1776917 ], [ 135.4379633, 34.1766975 ], [ 135.4322247, 34.1764347 ], [ 135.4295722, 34.1790555 ], [ 135.4267701, 34.1799981 ], [ 135.424684, 34.1792023 ], [ 135.4213792, 34.1825094 ], [ 135.4169685, 34.1830214 ], [ 135.4126239, 34.1853627 ], [ 135.4072294, 34.1854803 ], [ 135.4059581, 34.189509199999989 ], [ 135.399472799999984, 34.1891375 ], [ 135.3977822, 34.1863506 ], [ 135.394087499999983, 34.1849992 ], [ 135.3871256, 34.1857636 ], [ 135.3764822, 34.1864078 ], [ 135.36291079999998, 34.1831892 ], [ 135.355926399999987, 34.1844033 ], [ 135.354154699999981, 34.1871817 ], [ 135.3506928, 34.1894092 ], [ 135.3482022, 34.1932661 ], [ 135.3499075, 34.1952244 ], [ 135.3451411, 34.1963033 ], [ 135.342748299999982, 34.1937419 ], [ 135.339056900000031, 34.1946342 ], [ 135.3349936, 34.1939889 ], [ 135.327379399999984, 34.1883461 ], [ 135.3198236, 34.1906572 ], [ 135.3181583, 34.1935272 ], [ 135.31512, 34.1948617 ], [ 135.313546699999989, 34.2013936 ], [ 135.3089106, 34.2025208 ], [ 135.3081139, 34.1967989 ], [ 135.3060453, 34.1949797 ], [ 135.3042561, 34.1969564 ], [ 135.300462499999981, 34.1972328 ], [ 135.297312799999986, 34.1985528 ], [ 135.29665559999998, 34.2004161 ], [ 135.2909228, 34.2027097 ], [ 135.2845653, 34.2029553 ], [ 135.284279699999985, 34.1970761 ], [ 135.2809594, 34.1924242 ], [ 135.2784847, 34.1906625 ], [ 135.277869399999986, 34.1870006 ], [ 135.27921809999998, 34.1851186 ], [ 135.2826789, 34.1849289 ], [ 135.2849531, 34.1827256 ], [ 135.283234199999981, 34.178552499999988 ], [ 135.278561699999983, 34.1771236 ], [ 135.2766047, 34.1756986 ], [ 135.2694203, 34.1763042 ], [ 135.2674467, 34.1757108 ], [ 135.261663299999981, 34.1778756 ], [ 135.255007799999987, 34.1777328 ], [ 135.2534331, 34.1806467 ], [ 135.247222199999982, 34.1807489 ], [ 135.2449872, 34.1821697 ], [ 135.2405142, 34.1820539 ], [ 135.2338331, 34.1803278 ], [ 135.2334294, 34.1789403 ], [ 135.2280839, 34.1788222 ], [ 135.226915, 34.1744906 ], [ 135.2169125, 34.1752878 ], [ 135.2138989, 34.1736664 ], [ 135.2033336, 34.1734492 ], [ 135.2038422, 34.1673006 ], [ 135.2003842, 34.1656044 ], [ 135.1958731, 34.1649689 ], [ 135.192381399999988, 34.1627056 ], [ 135.1925731, 34.1594158 ], [ 135.192674399999987, 34.1569719 ], [ 135.186653799999988, 34.1557575 ], [ 135.1841437, 34.1483247 ], [ 135.1970433, 34.1487136 ], [ 135.2011781, 34.1515472 ], [ 135.2082197, 34.1517214 ], [ 135.2094861, 34.1494171 ], [ 135.202322399999986, 34.1499297 ], [ 135.1995077, 34.1470719 ], [ 135.1999777, 34.1436189 ], [ 135.1878757, 34.1431966 ], [ 135.183122600000019, 34.1426014 ], [ 135.179590099999984, 34.1404488 ], [ 135.178084, 34.1408248 ], [ 135.174851, 34.1380456 ], [ 135.170848399999983, 34.1359533 ], [ 135.170814799999988, 34.1337748 ], [ 135.1667794, 34.1343271 ], [ 135.167118, 34.136327 ], [ 135.164402199999984, 34.1369034 ], [ 135.1624361, 34.1355813 ], [ 135.1581028, 34.1360888 ], [ 135.1555094, 34.1389756 ], [ 135.142627799999985, 34.1380997 ], [ 135.1401486, 34.1387584 ], [ 135.132284700000014, 34.1382796 ], [ 135.126072599999986, 34.1367658 ], [ 135.124467, 34.1355964 ], [ 135.124750799999987, 34.1326816 ], [ 135.1218403, 34.1304987 ], [ 135.1230012, 34.129062 ], [ 135.1271492, 34.1279787 ], [ 135.1312452, 34.1313176 ], [ 135.134313599999984, 34.1285405 ], [ 135.1344684, 34.1260648 ], [ 135.130979599999989, 34.1221319 ], [ 135.133498300000014, 34.1188784 ], [ 135.139731499999982, 34.1184694 ], [ 135.144016099999988, 34.1159054 ], [ 135.144726599999984, 34.1115868 ], [ 135.1370982, 34.1099369 ], [ 135.1363192, 34.112787 ], [ 135.130100299999981, 34.1142002 ], [ 135.122874900000028, 34.1149072 ], [ 135.121897599999983, 34.1175788 ], [ 135.1187076, 34.119716 ], [ 135.114254499999987, 34.1191329 ], [ 135.1120709, 34.1152049 ], [ 135.1120335, 34.112948 ], [ 135.1182614, 34.1137114 ], [ 135.1222344, 34.1111556 ], [ 135.125720299999983, 34.1103917 ], [ 135.1320269, 34.1068906 ], [ 135.132475, 34.1045156 ], [ 135.135386399999987, 34.1040347 ], [ 135.1350972, 34.1018931 ], [ 135.1384742, 34.1009539 ], [ 135.1399394, 34.0943358 ], [ 135.1489206, 34.0954211 ], [ 135.1526428, 34.0933953 ], [ 135.15587, 34.0945742 ], [ 135.1665461, 34.0940086 ], [ 135.1785633, 34.1010475 ], [ 135.184311399999984, 34.099782499999989 ], [ 135.1875258, 34.0980628 ], [ 135.196543099999985, 34.0988231 ], [ 135.20267579999998, 34.1005914 ], [ 135.2050219, 34.1001039 ], [ 135.2118367, 34.1040483 ], [ 135.2129636, 34.1062367 ], [ 135.216404399999988, 34.1071994 ], [ 135.217233599999986, 34.1099528 ], [ 135.221876399999985, 34.1101703 ], [ 135.224308899999983, 34.1075744 ], [ 135.2283167, 34.1065564 ], [ 135.2312761, 34.1072883 ], [ 135.232290299999988, 34.1104144 ], [ 135.2353319, 34.1120667 ], [ 135.2355253, 34.1177908 ], [ 135.239172199999985, 34.1221603 ], [ 135.2430756, 34.1212544 ], [ 135.2490728, 34.1225711 ], [ 135.2530644, 34.1213786 ], [ 135.2577511, 34.1177486 ], [ 135.2628153, 34.1156167 ], [ 135.2659156, 34.1176183 ], [ 135.267773299999988, 34.1162592 ], [ 135.2736558, 34.1171725 ], [ 135.278382199999982, 34.1197411 ], [ 135.279662799999983, 34.1187394 ], [ 135.2844872, 34.1204042 ], [ 135.2867819, 34.1243544 ], [ 135.292065799999989, 34.1260242 ], [ 135.2950983, 34.1318692 ], [ 135.2941811, 34.1333983 ], [ 135.2970986, 34.1360308 ] ] ] ] } },
{ "type": "Feature", "properties": { "hokenjo": "岩出" }, "geometry": { "type": "MultiPolygon", "coordinates": [ [ [ [ 135.3304089, 34.3167019 ], [ 135.3289275, 34.3181628 ], [ 135.324198599999988, 34.3191319 ], [ 135.3221714, 34.3177525 ], [ 135.3131603, 34.3140936 ], [ 135.309642199999985, 34.3132575 ], [ 135.307600799999989, 34.3144483 ], [ 135.3039675, 34.3137147 ], [ 135.3044947, 34.3099292 ], [ 135.302643599999982, 34.3048781 ], [ 135.2975519, 34.3007825 ], [ 135.291635600000035, 34.2995481 ], [ 135.286982199999983, 34.3067522 ], [ 135.2859278, 34.3103981 ], [ 135.2866028, 34.3125764 ], [ 135.2828122, 34.31791 ], [ 135.2774278, 34.3156225 ], [ 135.2727367, 34.3122075 ], [ 135.2710414, 34.3124658 ], [ 135.2708519, 34.3073208 ], [ 135.26962469999998, 34.3051161 ], [ 135.2725441, 34.3014885 ], [ 135.273219399999988, 34.2968733 ], [ 135.271325, 34.2919619 ], [ 135.2760706, 34.2777414 ], [ 135.2738172, 34.271346699999988 ], [ 135.2769228, 34.2711825 ], [ 135.2739439, 34.2623936 ], [ 135.2740661, 34.2604369 ], [ 135.2721378, 34.2571142 ], [ 135.272777499999989, 34.2535475 ], [ 135.2816875, 34.2544642 ], [ 135.2873706, 34.2537447 ], [ 135.2976603, 34.2552786 ], [ 135.3076428, 34.2522864 ], [ 135.3074428, 34.2489567 ], [ 135.311496399999982, 34.2473125 ], [ 135.3134417, 34.2436239 ], [ 135.314713899999987, 34.238900799999989 ], [ 135.314025, 34.2372244 ], [ 135.3071267, 34.23778 ], [ 135.305092799999983, 34.2363186 ], [ 135.301685, 34.2361161 ], [ 135.301041400000031, 34.2344133 ], [ 135.2961761, 34.2310142 ], [ 135.2927125, 34.231524199999988 ], [ 135.2911933, 34.2300714 ], [ 135.2847208, 34.22793 ], [ 135.2820228, 34.2255661 ], [ 135.2745061, 34.2218939 ], [ 135.2745639, 34.2168303 ], [ 135.2809886, 34.2133292 ], [ 135.2799594, 34.2075603 ], [ 135.2821903, 34.2070617 ], [ 135.2827778, 34.2034922 ], [ 135.2845653, 34.2029553 ], [ 135.2909228, 34.2027097 ], [ 135.29665559999998, 34.2004161 ], [ 135.297312799999986, 34.1985528 ], [ 135.300462499999981, 34.1972328 ], [ 135.3042561, 34.1969564 ], [ 135.3060453, 34.1949797 ], [ 135.3081139, 34.1967989 ], [ 135.3089106, 34.2025208 ], [ 135.313546699999989, 34.2013936 ], [ 135.31512, 34.1948617 ], [ 135.3181583, 34.1935272 ], [ 135.3198236, 34.1906572 ], [ 135.327379399999984, 34.1883461 ], [ 135.3349936, 34.1939889 ], [ 135.339056900000031, 34.1946342 ], [ 135.342748299999982, 34.1937419 ], [ 135.3451411, 34.1963033 ], [ 135.3499075, 34.1952244 ], [ 135.3482022, 34.1932661 ], [ 135.3506928, 34.1894092 ], [ 135.354154699999981, 34.1871817 ], [ 135.355926399999987, 34.1844033 ], [ 135.36291079999998, 34.1831892 ], [ 135.3764822, 34.1864078 ], [ 135.3871256, 34.1857636 ], [ 135.394087499999983, 34.1849992 ], [ 135.3977822, 34.1863506 ], [ 135.399472799999984, 34.1891375 ], [ 135.4059581, 34.189509199999989 ], [ 135.4072294, 34.1854803 ], [ 135.4126239, 34.1853627 ], [ 135.4169685, 34.1830214 ], [ 135.4213792, 34.1825094 ], [ 135.424684, 34.1792023 ], [ 135.4267701, 34.1799981 ], [ 135.4295722, 34.1790555 ], [ 135.4322247, 34.1764347 ], [ 135.4379633, 34.1766975 ], [ 135.44252419999998, 34.1776917 ], [ 135.4510927, 34.1803648 ], [ 135.454172199999988, 34.1804994 ], [ 135.4553603, 34.1830264 ], [ 135.462331899999981, 34.18811 ], [ 135.4665786, 34.1921944 ], [ 135.4659292, 34.1963958 ], [ 135.4715936, 34.1992481 ], [ 135.4734786, 34.1989078 ], [ 135.478049699999985, 34.2018408 ], [ 135.48027639999998, 34.2019769 ], [ 135.4804775, 34.2078053 ], [ 135.4818553, 34.2108053 ], [ 135.481106399999987, 34.2140725 ], [ 135.4817208, 34.2188047 ], [ 135.48512359999998, 34.2201522 ], [ 135.4847006, 34.2270761 ], [ 135.487011099999989, 34.2290411 ], [ 135.4879344, 34.2323731 ], [ 135.4843903, 34.2416772 ], [ 135.474563599999982, 34.2481311 ], [ 135.4741036, 34.2501403 ], [ 135.47047139999998, 34.2529956 ], [ 135.4673458, 34.2529439 ], [ 135.4650728, 34.2583006 ], [ 135.464654199999984, 34.2611014 ], [ 135.4665431, 34.2645325 ], [ 135.4655328, 34.2669328 ], [ 135.460475299999985, 34.2710778 ], [ 135.454873599999985, 34.2721717 ], [ 135.4514419, 34.2767289 ], [ 135.4481644, 34.2792547 ], [ 135.4487867, 34.2819817 ], [ 135.4475986, 34.2851383 ], [ 135.4499267, 34.2874483 ], [ 135.4510306, 34.2910267 ], [ 135.4534639, 34.2953369 ], [ 135.4582106, 34.2996183 ], [ 135.4609558, 34.3047067 ], [ 135.4641019, 34.3077236 ], [ 135.4641164, 34.3107847 ], [ 135.469139399999989, 34.3131297 ], [ 135.4661992, 34.3157253 ], [ 135.463983899999988, 34.319125 ], [ 135.4608706, 34.3217486 ], [ 135.4604175, 34.3252397 ], [ 135.4572267, 34.3278897 ], [ 135.4548797, 34.3348544 ], [ 135.4470494, 34.3352719 ], [ 135.447226699999987, 34.3397361 ], [ 135.4457008, 34.3421367 ], [ 135.4441592, 34.3477119 ], [ 135.44148, 34.3473686 ], [ 135.436221400000022, 34.348588299999989 ], [ 135.4316225, 34.3473497 ], [ 135.4286969, 34.3455625 ], [ 135.42694419999998, 34.34112 ], [ 135.4247867, 34.3399703 ], [ 135.4156403, 34.3399028 ], [ 135.4124294, 34.3419478 ], [ 135.4092214, 34.3419381 ], [ 135.40707279999998, 34.339 ], [ 135.4067672, 34.335475 ], [ 135.4054275, 34.3338544 ], [ 135.398655, 34.3322506 ], [ 135.3974106, 34.3305272 ], [ 135.394448600000032, 34.3308111 ], [ 135.39113, 34.3330056 ], [ 135.388243100000011, 34.3324161 ], [ 135.3867797, 34.3291247 ], [ 135.3827217, 34.3294189 ], [ 135.3803447, 34.3284442 ], [ 135.3779083, 34.3300417 ], [ 135.374138099999982, 34.3309631 ], [ 135.371359399999989, 34.3301472 ], [ 135.368218899999988, 34.331165 ], [ 135.3663094, 34.3297075 ], [ 135.3617056, 34.3293461 ], [ 135.3589772, 34.3330397 ], [ 135.3555389, 34.3334247 ], [ 135.3537025, 34.33194 ], [ 135.3493636, 34.3317525 ], [ 135.3461939, 34.3305031 ], [ 135.342199400000027, 34.3351106 ], [ 135.3387175, 34.3340406 ], [ 135.3391356, 34.3294297 ], [ 135.334442800000033, 34.3256094 ], [ 135.3302478, 34.3252544 ], [ 135.328028099999983, 34.3240286 ], [ 135.328537499999982, 34.3214353 ], [ 135.330498299999988, 34.3195381 ], [ 135.3304089, 34.3167019 ] ] ] ] } },
{ "type": "Feature", "properties": { "hokenjo": "橋本" }, "geometry": { "type": "MultiPolygon", "coordinates": [ [ [ [ 135.6811825, 34.2716619 ], [ 135.680365599999988, 34.2734033 ], [ 135.6771253, 34.2746261 ], [ 135.676832200000035, 34.2776617 ], [ 135.67276, 34.2814819 ], [ 135.673751399999986, 34.2863847 ], [ 135.675164699999982, 34.2880986 ], [ 135.672162499999985, 34.2956853 ], [ 135.669249399999984, 34.2969456 ], [ 135.667865799999987, 34.3050125 ], [ 135.6689769, 34.3067019 ], [ 135.6663881, 34.3086872 ], [ 135.6690858, 34.3153722 ], [ 135.667575299999982, 34.3192383 ], [ 135.6683175, 34.3212733 ], [ 135.668125299999986, 34.3257481 ], [ 135.6619014, 34.32742 ], [ 135.660326699999985, 34.3269308 ], [ 135.659001099999983, 34.3339997 ], [ 135.6614989, 34.3379964 ], [ 135.6603853, 34.3406186 ], [ 135.6623186, 34.3434403 ], [ 135.660800599999988, 34.3446189 ], [ 135.6629067, 34.3469303 ], [ 135.6621581, 34.3508789 ], [ 135.6635253, 34.3554439 ], [ 135.6558383, 34.366225 ], [ 135.6542581, 34.3730575 ], [ 135.651400599999988, 34.3795108 ], [ 135.6511286, 34.3832064 ], [ 135.6437881, 34.3838853 ], [ 135.6389831, 34.3834678 ], [ 135.636357799999985, 34.3814853 ], [ 135.631947199999985, 34.3830439 ], [ 135.6199111, 34.3844825 ], [ 135.6177878, 34.3832717 ], [ 135.615449399999989, 34.3780664 ], [ 135.6132656, 34.3765811 ], [ 135.6077836, 34.3776419 ], [ 135.604115299999989, 34.3773914 ], [ 135.601366899999988, 34.3800817 ], [ 135.5976775, 34.3803972 ], [ 135.5959497, 34.3792136 ], [ 135.594986899999981, 34.3753808 ], [ 135.5867197, 34.3752997 ], [ 135.5834336, 34.3768875 ], [ 135.577120799999989, 34.3760494 ], [ 135.575608099999982, 34.3738814 ], [ 135.572446899999989, 34.3719125 ], [ 135.563403099999988, 34.3693292 ], [ 135.560789699999987, 34.3653692 ], [ 135.5544394, 34.3594347 ], [ 135.5515944, 34.3596658 ], [ 135.547874400000012, 34.3566878 ], [ 135.543450299999989, 34.3565531 ], [ 135.541458299999988, 34.3576306 ], [ 135.538288099999988, 34.3564564 ], [ 135.534859399999988, 34.3523619 ], [ 135.5315172, 34.3510761 ], [ 135.52915059999998, 34.3514306 ], [ 135.5270697, 34.3511819 ], [ 135.5236492, 34.3484517 ], [ 135.5214656, 34.345501399999989 ], [ 135.5166539, 34.3423781 ], [ 135.51204, 34.3383289 ], [ 135.509038299999986, 34.3368422 ], [ 135.5034958, 34.3365414 ], [ 135.504895299999987, 34.3412172 ], [ 135.502350799999988, 34.3454275 ], [ 135.5035594, 34.346545 ], [ 135.501745, 34.3502022 ], [ 135.4988008, 34.3503306 ], [ 135.4978214, 34.3523131 ], [ 135.4886986, 34.3563667 ], [ 135.4853761, 34.3628325 ], [ 135.4792881, 34.3581161 ], [ 135.4772586, 34.3554283 ], [ 135.4777397, 34.3535539 ], [ 135.471635, 34.352305 ], [ 135.4700942, 34.3504728 ], [ 135.4671142, 34.3495342 ], [ 135.465705, 34.3473347 ], [ 135.463489399999986, 34.3482511 ], [ 135.457585, 34.347335 ], [ 135.453419199999985, 34.3498611 ], [ 135.450358099999988, 34.3495422 ], [ 135.4441592, 34.3477119 ], [ 135.4457008, 34.3421367 ], [ 135.447226699999987, 34.3397361 ], [ 135.4470494, 34.3352719 ], [ 135.4548797, 34.3348544 ], [ 135.4572267, 34.3278897 ], [ 135.4604175, 34.3252397 ], [ 135.4608706, 34.3217486 ], [ 135.463983899999988, 34.319125 ], [ 135.4661992, 34.3157253 ], [ 135.469139399999989, 34.3131297 ], [ 135.4641164, 34.3107847 ], [ 135.4641019, 34.3077236 ], [ 135.4609558, 34.3047067 ], [ 135.4582106, 34.2996183 ], [ 135.4534639, 34.2953369 ], [ 135.4510306, 34.2910267 ], [ 135.4499267, 34.2874483 ], [ 135.4475986, 34.2851383 ], [ 135.4487867, 34.2819817 ], [ 135.4481644, 34.2792547 ], [ 135.4514419, 34.2767289 ], [ 135.454873599999985, 34.2721717 ], [ 135.460475299999985, 34.2710778 ], [ 135.4655328, 34.2669328 ], [ 135.4665431, 34.2645325 ], [ 135.464654199999984, 34.2611014 ], [ 135.4650728, 34.2583006 ], [ 135.4673458, 34.2529439 ], [ 135.47047139999998, 34.2529956 ], [ 135.4741036, 34.2501403 ], [ 135.474563599999982, 34.2481311 ], [ 135.4843903, 34.2416772 ], [ 135.4879344, 34.2323731 ], [ 135.487011099999989, 34.2290411 ], [ 135.4847006, 34.2270761 ], [ 135.48512359999998, 34.2201522 ], [ 135.4817208, 34.2188047 ], [ 135.481106399999987, 34.2140725 ], [ 135.4818553, 34.2108053 ], [ 135.4804775, 34.2078053 ], [ 135.48027639999998, 34.2019769 ], [ 135.481765, 34.1980522 ], [ 135.4852128, 34.1916467 ], [ 135.4871422, 34.1912819 ], [ 135.494801099999989, 34.1860083 ], [ 135.4947431, 34.1846819 ], [ 135.4995103, 34.1808392 ], [ 135.5023814, 34.1797044 ], [ 135.5083003, 34.1733836 ], [ 135.505252499999983, 34.1700572 ], [ 135.5030175, 34.1712892 ], [ 135.4993742, 34.1668408 ], [ 135.491862199999986, 34.1647128 ], [ 135.49140749999998, 34.1601694 ], [ 135.4926547, 34.1588747 ], [ 135.48893529999998, 34.154916899999989 ], [ 135.49791639999998, 34.1517242 ], [ 135.5035489, 34.1443356 ], [ 135.50643, 34.1435172 ], [ 135.506588099999988, 34.1380739 ], [ 135.509398299999987, 34.1378431 ], [ 135.5154269, 34.129915 ], [ 135.513845799999984, 34.1280936 ], [ 135.51648609999998, 34.1248614 ], [ 135.5221061, 34.1207711 ], [ 135.5223875, 34.1193992 ], [ 135.5292514, 34.1155986 ], [ 135.532855, 34.1147458 ], [ 135.532866399999989, 34.1102239 ], [ 135.5342397, 34.1088892 ], [ 135.5343025, 34.1038297 ], [ 135.5334067, 34.1012622 ], [ 135.5377147, 34.0989331 ], [ 135.5438028, 34.0970917 ], [ 135.5462522, 34.0980108 ], [ 135.547286900000017, 34.1003292 ], [ 135.5497197, 34.1005878 ], [ 135.558407499999987, 34.1033894 ], [ 135.5573008, 34.1080525 ], [ 135.5619039, 34.1098297 ], [ 135.5658378, 34.112835 ], [ 135.57082280000003, 34.1135022 ], [ 135.578788299999985, 34.1163708 ], [ 135.579432199999985, 34.1199925 ], [ 135.5819967, 34.1261089 ], [ 135.5820817, 34.1282528 ], [ 135.5846242, 34.1322369 ], [ 135.5856511, 34.1390497 ], [ 135.5851889, 34.1406644 ], [ 135.588113599999986, 34.1439978 ], [ 135.5881742, 34.1465169 ], [ 135.5908561, 34.1490011 ], [ 135.593603299999984, 34.1487089 ], [ 135.596066399999984, 34.1506706 ], [ 135.6046283, 34.1543078 ], [ 135.607698299999981, 34.1552994 ], [ 135.6115472, 34.1550675 ], [ 135.6167978, 34.1558817 ], [ 135.6219183, 34.1584217 ], [ 135.622951699999987, 34.1627269 ], [ 135.6205728, 34.1660875 ], [ 135.620603099999983, 34.1685208 ], [ 135.623258599999986, 34.1696697 ], [ 135.627913299999989, 34.1747744 ], [ 135.6285689, 34.176887799999989 ], [ 135.6324156, 34.1773739 ], [ 135.6376181, 34.1792686 ], [ 135.63825749999998, 34.1813631 ], [ 135.6419625, 34.1831911 ], [ 135.6451064, 34.1906744 ], [ 135.6413244, 34.1914922 ], [ 135.6360736, 34.1962978 ], [ 135.6341233, 34.1990769 ], [ 135.635417499999988, 34.2024808 ], [ 135.6344825, 34.204595 ], [ 135.641166699999985, 34.2094981 ], [ 135.64090969999998, 34.2130278 ], [ 135.6435153, 34.2156228 ], [ 135.6458611, 34.2161969 ], [ 135.6480781, 34.2189864 ], [ 135.6524192, 34.2167494 ], [ 135.655289399999987, 34.2162761 ], [ 135.6590728, 34.2181875 ], [ 135.6619658, 34.2183108 ], [ 135.6678172, 34.2241936 ], [ 135.672614399999986, 34.22422 ], [ 135.674731899999983, 34.2230906 ], [ 135.6776936, 34.2234361 ], [ 135.6854708, 34.2204003 ], [ 135.6879069, 34.2172942 ], [ 135.693875, 34.2170667 ], [ 135.6978072, 34.2118264 ], [ 135.701753600000018, 34.2122744 ], [ 135.707791899999989, 34.2082361 ], [ 135.70982, 34.2089156 ], [ 135.7136414, 34.2144553 ], [ 135.7176533, 34.2149033 ], [ 135.7233306, 34.2197856 ], [ 135.7274756, 34.2207267 ], [ 135.7274828, 34.22369 ], [ 135.730016899999981, 34.2316011 ], [ 135.728526099999982, 34.2353694 ], [ 135.7263906, 34.2359972 ], [ 135.723448599999983, 34.2400767 ], [ 135.7237917, 34.2423719 ], [ 135.7201489, 34.2498997 ], [ 135.720740299999989, 34.2516392 ], [ 135.7194331, 34.2546025 ], [ 135.719534399999986, 34.2593375 ], [ 135.718446699999987, 34.2633197 ], [ 135.7082522, 34.2685814 ], [ 135.7084222, 34.2718967 ], [ 135.703845799999982, 34.271565 ], [ 135.700851699999987, 34.2754025 ], [ 135.6924694, 34.2782719 ], [ 135.6908933, 34.2766061 ], [ 135.689391699999987, 34.2717225 ], [ 135.682771699999989, 34.2701831 ], [ 135.6811825, 34.2716619 ] ] ] ] } },
{ "type": "Feature", "properties": { "hokenjo": "御坊" }, "geometry": { "type": "MultiPolygon", "coordinates": [ [ [ [ 135.3932356, 33.9168247 ], [ 135.3943703, 33.9225192 ], [ 135.3982533, 33.9251411 ], [ 135.397705799999983, 33.9294064 ], [ 135.402262799999988, 33.9306103 ], [ 135.4080708, 33.9296439 ], [ 135.413060799999982, 33.9299967 ], [ 135.418006100000014, 33.9334067 ], [ 135.4177247, 33.9374133 ], [ 135.4227031, 33.9447839 ], [ 135.4246894, 33.946124399999988 ], [ 135.4294319, 33.9441889 ], [ 135.4325756, 33.9440297 ], [ 135.4306675, 33.9412 ], [ 135.4323244, 33.93992 ], [ 135.4385369, 33.9437444 ], [ 135.440470299999987, 33.9469333 ], [ 135.4435303, 33.9462017 ], [ 135.45194189999998, 33.9460275 ], [ 135.4545042, 33.9464719 ], [ 135.4578972, 33.9451108 ], [ 135.4590258, 33.9418997 ], [ 135.4610808, 33.9414756 ], [ 135.4631592, 33.9374392 ], [ 135.4675264, 33.9360972 ], [ 135.4724558, 33.9375994 ], [ 135.47622, 33.9422494 ], [ 135.48202329999998, 33.9424572 ], [ 135.485330799999986, 33.9402972 ], [ 135.4887139, 33.9413225 ], [ 135.4904133, 33.9431308 ], [ 135.4962981, 33.9457536 ], [ 135.5015214, 33.9460642 ], [ 135.5075367, 33.9498967 ], [ 135.5137225, 33.9510931 ], [ 135.5160683, 33.9528889 ], [ 135.5219258, 33.9517444 ], [ 135.5266894, 33.954895 ], [ 135.530408599999987, 33.9558153 ], [ 135.5325967, 33.9582542 ], [ 135.54118889999998, 33.9620583 ], [ 135.544108099999988, 33.9655439 ], [ 135.544525, 33.9683886 ], [ 135.546692200000024, 33.9709267 ], [ 135.547432499999985, 33.9738206 ], [ 135.5427003, 33.9763231 ], [ 135.5435589, 33.9798483 ], [ 135.540724399999988, 33.98451 ], [ 135.5412658, 33.9860917 ], [ 135.5371886, 33.9917872 ], [ 135.5369633, 33.9940644 ], [ 135.5295897, 33.9989989 ], [ 135.5333123, 34.0033344 ], [ 135.5349847, 34.0039394 ], [ 135.5373075, 34.0077311 ], [ 135.537925, 34.0120864 ], [ 135.535695, 34.012985 ], [ 135.5336361, 34.0168989 ], [ 135.5285619, 34.0223397 ], [ 135.5209075, 34.0235203 ], [ 135.5131819, 34.022430299999989 ], [ 135.508327799999989, 34.0239947 ], [ 135.507956399999983, 34.03151 ], [ 135.5082572, 34.0363497 ], [ 135.50491, 34.0379744 ], [ 135.505048599999981, 34.0420311 ], [ 135.4988253, 34.0431569 ], [ 135.4957044, 34.0369272 ], [ 135.4865086, 34.0338403 ], [ 135.4838325, 34.0340811 ], [ 135.4816514, 34.0326203 ], [ 135.4674675, 34.0316214 ], [ 135.4589278, 34.0383819 ], [ 135.453391899999986, 34.0397228 ], [ 135.4517564, 34.0408914 ], [ 135.445882499999982, 34.0381175 ], [ 135.4406122, 34.0344253 ], [ 135.43722, 34.0308131 ], [ 135.433646899999985, 34.0309244 ], [ 135.428110299999986, 34.0291775 ], [ 135.4265719, 34.0272128 ], [ 135.4172814, 34.0269186 ], [ 135.4169417, 34.0248208 ], [ 135.411333899999988, 34.0225311 ], [ 135.4072156, 34.0201506 ], [ 135.402285299999988, 34.0189694 ], [ 135.4010122, 34.0149347 ], [ 135.397681399999982, 34.0128047 ], [ 135.3916975, 34.0101236 ], [ 135.389068899999984, 34.0112431 ], [ 135.378555799999987, 34.0125125 ], [ 135.3758439, 34.0119486 ], [ 135.371503099999984, 34.0136769 ], [ 135.367033599999985, 34.0129219 ], [ 135.3641994, 34.0078575 ], [ 135.357362199999983, 34.0049208 ], [ 135.3474936, 34.0058953 ], [ 135.34570309999998, 34.0045461 ], [ 135.3356719, 34.0057322 ], [ 135.3333342, 34.0072711 ], [ 135.329364199999986, 34.0064367 ], [ 135.324851099999989, 34.0087092 ], [ 135.3194647, 34.0067281 ], [ 135.313017799999983, 34.0077083 ], [ 135.3104544, 34.0051567 ], [ 135.3061758, 34.0049903 ], [ 135.3021306, 34.0035383 ], [ 135.2983767, 34.0043967 ], [ 135.2944264, 34.0071142 ], [ 135.290407499999986, 34.0013942 ], [ 135.2879781, 34.0036389 ], [ 135.284045599999985, 34.0043725 ], [ 135.27927889999998, 34.0042244 ], [ 135.2763931, 34.0027244 ], [ 135.273322799999988, 33.9977586 ], [ 135.2676758, 33.9952361 ], [ 135.2590706, 33.9896903 ], [ 135.2578028, 33.9855489 ], [ 135.2578719, 33.9811033 ], [ 135.2564117, 33.9789842 ], [ 135.2567594, 33.9763956 ], [ 135.2592819, 33.973265 ], [ 135.25473359999998, 33.9671181 ], [ 135.2546544, 33.9647506 ], [ 135.248905799999989, 33.9627022 ], [ 135.244000799999981, 33.9601825 ], [ 135.238705, 33.9602244 ], [ 135.235925, 33.9585633 ], [ 135.235950299999985, 33.9544878 ], [ 135.232829399999986, 33.9512511 ], [ 135.2329714, 33.9475892 ], [ 135.2275866, 33.9476108 ], [ 135.223398299999985, 33.9486375 ], [ 135.2221214, 33.9527844 ], [ 135.209098899999987, 33.9523342 ], [ 135.206452499999983, 33.9542797 ], [ 135.197564699999987, 33.9536803 ], [ 135.19436, 33.9558967 ], [ 135.1901317, 33.9559364 ], [ 135.184527799999984, 33.9576694 ], [ 135.1779781, 33.9560728 ], [ 135.177426700000012, 33.9576361 ], [ 135.1776097, 33.9642575 ], [ 135.174631399999981, 33.9650456 ], [ 135.173880800000035, 33.9684228 ], [ 135.174045, 33.9748319 ], [ 135.176389199999988, 33.9753153 ], [ 135.177920799999981, 33.9793083 ], [ 135.1753831, 33.9839906 ], [ 135.176020599999987, 33.9874181 ], [ 135.17474390000001, 33.9903558 ], [ 135.174856399999982, 33.9946406 ], [ 135.167335, 33.9947308 ], [ 135.1641678, 33.9959633 ], [ 135.15508, 33.9922217 ], [ 135.153605299999981, 33.9927231 ], [ 135.1436272, 33.9894864 ], [ 135.1417122, 33.9914314 ], [ 135.1384644, 33.9972083 ], [ 135.1345547, 34.0000247 ], [ 135.1292216, 34.0005861 ], [ 135.1261107, 33.9975497 ], [ 135.1201929, 33.9992273 ], [ 135.1150168, 33.9971311 ], [ 135.112178, 33.9952561 ], [ 135.1127716, 33.9909063 ], [ 135.107681499999984, 33.9889217 ], [ 135.10490630000001, 33.9930267 ], [ 135.09778129999998, 33.9925518 ], [ 135.0935096, 33.9932134 ], [ 135.0915733, 33.987358 ], [ 135.089726700000028, 33.9868258 ], [ 135.091089499999981, 33.9834754 ], [ 135.0880733, 33.9792072 ], [ 135.084318599999989, 33.98002 ], [ 135.0821215, 33.9784793 ], [ 135.078108499999985, 33.9792755 ], [ 135.0748192, 33.9789545 ], [ 135.0722333, 33.9774789 ], [ 135.07813059999998, 33.9731617 ], [ 135.0794862, 33.9696317 ], [ 135.084591599999982, 33.9697624 ], [ 135.086040699999984, 33.9673694 ], [ 135.083755699999983, 33.9614409 ], [ 135.080241199999989, 33.9613973 ], [ 135.0740405, 33.95912 ], [ 135.0799831, 33.9558396 ], [ 135.0875419, 33.9561632 ], [ 135.090526, 33.9573441 ], [ 135.095211899999981, 33.957741 ], [ 135.0988126, 33.9596304 ], [ 135.101850399999989, 33.9643387 ], [ 135.1066954, 33.9639155 ], [ 135.1083375, 33.9617516 ], [ 135.1107906, 33.9628786 ], [ 135.11322, 33.9602652 ], [ 135.1144186, 33.9567658 ], [ 135.105476399999986, 33.9562452 ], [ 135.1027604, 33.9543782 ], [ 135.100569899999982, 33.9495775 ], [ 135.09802449999998, 33.9499911 ], [ 135.096022799999986, 33.9479136 ], [ 135.0929533, 33.9492103 ], [ 135.088974399999984, 33.9491381 ], [ 135.0880819, 33.9459022 ], [ 135.0909969, 33.9442894 ], [ 135.0894831, 33.9422719 ], [ 135.0859247, 33.9435797 ], [ 135.083402799999988, 33.9416186 ], [ 135.0865985, 33.938161799999989 ], [ 135.0839053, 33.9348814 ], [ 135.0799811, 33.9356989 ], [ 135.078490800000026, 33.9343389 ], [ 135.0757008, 33.9348533 ], [ 135.073313899999988, 33.9313297 ], [ 135.06830309999998, 33.9316625 ], [ 135.0663286, 33.9280319 ], [ 135.0698789, 33.9247344 ], [ 135.0727522, 33.9245097 ], [ 135.0741281, 33.9277775 ], [ 135.0761741, 33.9279608 ], [ 135.0792844, 33.9255892 ], [ 135.0795056, 33.9235819 ], [ 135.0761142, 33.9197208 ], [ 135.075807199999986, 33.9169831 ], [ 135.0822444, 33.9192943 ], [ 135.0829794, 33.9175183 ], [ 135.0785094, 33.91324 ], [ 135.0826183, 33.9125325 ], [ 135.08352, 33.9103242 ], [ 135.0817839, 33.9066033 ], [ 135.0761603, 33.9030361 ], [ 135.072555599999987, 33.9033839 ], [ 135.0727106, 33.9058197 ], [ 135.069535799999983, 33.905224 ], [ 135.06695, 33.9062064 ], [ 135.0630228, 33.9062197 ], [ 135.058979699999981, 33.9048914 ], [ 135.058344399999982, 33.9019711 ], [ 135.0604792, 33.8986736 ], [ 135.0649056, 33.8961578 ], [ 135.0643064, 33.8917475 ], [ 135.0570003, 33.8887353 ], [ 135.0582264, 33.88333 ], [ 135.057651099999987, 33.8798764 ], [ 135.0608239, 33.879806099999989 ], [ 135.066086399999989, 33.88139 ], [ 135.0699775, 33.8834983 ], [ 135.072661899999986, 33.8868086 ], [ 135.0763839, 33.8880439 ], [ 135.080067499999984, 33.8909556 ], [ 135.084170799999981, 33.8871681 ], [ 135.0911156, 33.8872414 ], [ 135.0922081, 33.8886969 ], [ 135.0955606, 33.8882053 ], [ 135.100465, 33.8889831 ], [ 135.1119071, 33.8933827 ], [ 135.119675300000011, 33.8922675 ], [ 135.131615, 33.8889372 ], [ 135.1419224, 33.8848176 ], [ 135.1496699, 33.8793748 ], [ 135.152470199999982, 33.8755373 ], [ 135.155900699999989, 33.8728202 ], [ 135.1589634, 33.8673049 ], [ 135.1534766, 33.8654064 ], [ 135.1543767, 33.8633794 ], [ 135.158925300000021, 33.8638789 ], [ 135.160088299999984, 33.8600079 ], [ 135.1593776, 33.8583437 ], [ 135.1631358, 33.8540171 ], [ 135.1654869, 33.8525331 ], [ 135.1650141, 33.8499153 ], [ 135.1669571, 33.8469306 ], [ 135.1631433, 33.8453592 ], [ 135.1684402, 33.8431953 ], [ 135.1703895, 33.8411261 ], [ 135.1747282, 33.839739 ], [ 135.1744668, 33.8326127 ], [ 135.1782967, 33.8292536 ], [ 135.1848166, 33.8270966 ], [ 135.1845159, 33.8228972 ], [ 135.1860915, 33.8195054 ], [ 135.1889555, 33.8180305 ], [ 135.194976199999985, 33.816424 ], [ 135.1964176, 33.8136862 ], [ 135.199267099999986, 33.8131425 ], [ 135.2052286, 33.8124697 ], [ 135.2070147, 33.8092056 ], [ 135.20989609999998, 33.8090475 ], [ 135.2158344, 33.8140775 ], [ 135.2184363, 33.8128506 ], [ 135.216252699999984, 33.8096786 ], [ 135.22076, 33.8079725 ], [ 135.2206875, 33.8046844 ], [ 135.2253508, 33.8032864 ], [ 135.2272606, 33.8018544 ], [ 135.2313222, 33.8011397 ], [ 135.2358625, 33.7978675 ], [ 135.2371942, 33.7947125 ], [ 135.2370392, 33.7911156 ], [ 135.2336383, 33.7895881 ], [ 135.234239699999989, 33.7872964 ], [ 135.233280799999989, 33.7841258 ], [ 135.234671099999986, 33.7818881 ], [ 135.23816, 33.7804958 ], [ 135.2457522, 33.7801917 ], [ 135.24723, 33.7813028 ], [ 135.2534662, 33.7825269 ], [ 135.262623099999985, 33.7822606 ], [ 135.2660536, 33.7829228 ], [ 135.2617483, 33.7921525 ], [ 135.2600483, 33.7936464 ], [ 135.2595489, 33.7990686 ], [ 135.2635783, 33.8025833 ], [ 135.2639108, 33.8061036 ], [ 135.269445, 33.8123519 ], [ 135.270498299999986, 33.8148617 ], [ 135.2782336, 33.8181833 ], [ 135.2860919, 33.8180419 ], [ 135.287783599999983, 33.8171522 ], [ 135.2911169, 33.8186003 ], [ 135.29651579999998, 33.8194722 ], [ 135.2973825, 33.8222861 ], [ 135.3014178, 33.8269778 ], [ 135.300204399999984, 33.8302583 ], [ 135.3019525, 33.8326378 ], [ 135.3039236, 33.8325017 ], [ 135.3091814, 33.8357583 ], [ 135.308958099999984, 33.8401133 ], [ 135.307313099999988, 33.8435869 ], [ 135.3081272, 33.8458706 ], [ 135.3122372, 33.848435 ], [ 135.3124392, 33.8519353 ], [ 135.3139019, 33.8532514 ], [ 135.3129744, 33.856595 ], [ 135.309736099999981, 33.8572286 ], [ 135.3098831, 33.8613008 ], [ 135.314584699999983, 33.8623172 ], [ 135.3179092, 33.8660097 ], [ 135.3217192, 33.868730299999989 ], [ 135.3217436, 33.8739039 ], [ 135.3271653, 33.8773164 ], [ 135.3326442, 33.8782164 ], [ 135.335185, 33.8796775 ], [ 135.3395711, 33.8786433 ], [ 135.345893599999982, 33.8784883 ], [ 135.350919399999981, 33.8803492 ], [ 135.3521442, 33.8834447 ], [ 135.3561975, 33.8877978 ], [ 135.369235, 33.8856594 ], [ 135.3712903, 33.8860333 ], [ 135.379333299999985, 33.8849719 ], [ 135.3835506, 33.8863747 ], [ 135.3874497, 33.8845269 ], [ 135.393967799999984, 33.8845639 ], [ 135.399664699999988, 33.8880225 ], [ 135.400883900000025, 33.8878933 ], [ 135.4029825, 33.8908014 ], [ 135.40155919999998, 33.8945372 ], [ 135.3965714, 33.8947103 ], [ 135.393122799999986, 33.8956856 ], [ 135.3933061, 33.8982536 ], [ 135.391981099999981, 33.9020369 ], [ 135.3946958, 33.9023822 ], [ 135.3968044, 33.9040683 ], [ 135.3978903, 33.9067547 ], [ 135.395266099999986, 33.90764 ], [ 135.3959911, 33.9146722 ], [ 135.3932356, 33.9168247 ] ] ], [ [ [ 135.155374199999983, 33.8622789 ], [ 135.146302599999984, 33.8605226 ], [ 135.1432686, 33.8633212 ], [ 135.146040200000016, 33.8604769 ], [ 135.147686599999986, 33.8567944 ], [ 135.1550222, 33.8581794 ], [ 135.155374199999983, 33.8622789 ] ] ], [ [ [ 135.087124, 33.9916989 ], [ 135.081957599999981, 33.9898975 ], [ 135.0869007, 33.9886444 ], [ 135.087124, 33.9916989 ] ] ], [ [ [ 135.099860899999982, 34.0028243 ], [ 135.1018183, 34.0049742 ], [ 135.095013599999987, 34.0058939 ], [ 135.0937169, 34.0078519 ], [ 135.0913663, 34.0051563 ], [ 135.0930981, 34.0029522 ], [ 135.099860899999982, 34.0028243 ] ] ] ] } },
{ "type": "Feature", "properties": { "hokenjo": "新宮" }, "geometry": { "type": "MultiPolygon", "coordinates": [ [ [ [ 135.81700859999998, 33.4476704 ], [ 135.8206166, 33.4509078 ], [ 135.8186881, 33.4526316 ], [ 135.8123373, 33.4496602 ], [ 135.8135585, 33.4476821 ], [ 135.81700859999998, 33.4476704 ] ] ], [ [ [ 135.8141391, 33.4762473 ], [ 135.814232900000036, 33.4794375 ], [ 135.8117432, 33.4813616 ], [ 135.808045199999981, 33.4792812 ], [ 135.805469, 33.4760785 ], [ 135.805986, 33.4746459 ], [ 135.7998328, 33.4695547 ], [ 135.8000266, 33.466416 ], [ 135.7975854, 33.4636156 ], [ 135.8008601, 33.4615086 ], [ 135.8025911, 33.4638131 ], [ 135.8051686, 33.4637106 ], [ 135.8082024, 33.4652023 ], [ 135.815111699999989, 33.4641043 ], [ 135.815466500000014, 33.4622356 ], [ 135.819332799999984, 33.4614597 ], [ 135.820883899999984, 33.4622494 ], [ 135.8249228, 33.4594964 ], [ 135.8216201, 33.452372 ], [ 135.8247327, 33.4524017 ], [ 135.826093, 33.4509476 ], [ 135.8314215, 33.4489669 ], [ 135.8308993, 33.4529726 ], [ 135.829165599999982, 33.4561644 ], [ 135.8352449, 33.4546743 ], [ 135.838739799999985, 33.4556201 ], [ 135.83972559999998, 33.4597531 ], [ 135.846147, 33.4594125 ], [ 135.8499005, 33.461794399999988 ], [ 135.854028299999982, 33.461697099999988 ], [ 135.8534022, 33.4661698 ], [ 135.8572146, 33.4668825 ], [ 135.861044199999981, 33.4706532 ], [ 135.856099299999983, 33.4707126 ], [ 135.8522509, 33.4721053 ], [ 135.8481373, 33.4716438 ], [ 135.8456243, 33.4746571 ], [ 135.840690099999989, 33.4750647 ], [ 135.837530499999986, 33.4739152 ], [ 135.8363039, 33.4767476 ], [ 135.83174, 33.4766107 ], [ 135.828470600000031, 33.4775006 ], [ 135.823041099999983, 33.4756874 ], [ 135.81939269999998, 33.4766366 ], [ 135.8141391, 33.4762473 ] ] ], [ [ [ 135.636636899999985, 33.516060599999989 ], [ 135.6368603, 33.5108847 ], [ 135.635520899999989, 33.5065914 ], [ 135.639856, 33.5050446 ], [ 135.6434339, 33.501786 ], [ 135.6463788, 33.5018569 ], [ 135.6511959, 33.5002707 ], [ 135.65395239999998, 33.5005711 ], [ 135.6599292, 33.4960005 ], [ 135.6609729, 33.4935621 ], [ 135.6641692, 33.4927062 ], [ 135.6631677, 33.4907259 ], [ 135.6699688, 33.4917127 ], [ 135.675261899999981, 33.4877836 ], [ 135.6768947, 33.4894935 ], [ 135.6822376, 33.4901222 ], [ 135.6864051, 33.4894684 ], [ 135.6907651, 33.4879019 ], [ 135.696464400000025, 33.4879213 ], [ 135.698973599999988, 33.4903705 ], [ 135.6994676, 33.4933127 ], [ 135.7041793, 33.4877256 ], [ 135.7098115, 33.4880751 ], [ 135.7096024, 33.4845434 ], [ 135.7078641, 33.4831989 ], [ 135.7086718, 33.4779839 ], [ 135.711069899999984, 33.4792826 ], [ 135.7106535, 33.48421 ], [ 135.712947499999984, 33.485721 ], [ 135.7160407, 33.4820173 ], [ 135.719795, 33.4797412 ], [ 135.727077799999989, 33.4774146 ], [ 135.733408199999985, 33.4829425 ], [ 135.736766599999982, 33.483291199999989 ], [ 135.738270199999988, 33.4767899 ], [ 135.7406602, 33.4772254 ], [ 135.7472937, 33.4823748 ], [ 135.7522396, 33.4804183 ], [ 135.753431, 33.4820001 ], [ 135.759306899999984, 33.4843704 ], [ 135.7616098, 33.4814601 ], [ 135.767435899999981, 33.4811584 ], [ 135.767687, 33.4799153 ], [ 135.765196, 33.4728778 ], [ 135.768025699999981, 33.4734332 ], [ 135.7695905, 33.478647 ], [ 135.774747499999989, 33.4784548 ], [ 135.775029599999982, 33.4758072 ], [ 135.771602699999988, 33.4758837 ], [ 135.7725778, 33.4722314 ], [ 135.7742815, 33.4712002 ], [ 135.774647099999981, 33.4668552 ], [ 135.7765172, 33.4634124 ], [ 135.7754316, 33.4606637 ], [ 135.7683726, 33.4581042 ], [ 135.7647905, 33.4561106 ], [ 135.761734099999984, 33.4562333 ], [ 135.7538231, 33.4513356 ], [ 135.7513074, 33.4511722 ], [ 135.7500267, 33.4493557 ], [ 135.751362199999988, 33.4469811 ], [ 135.755877199999986, 33.4442975 ], [ 135.7552231, 33.4396961 ], [ 135.752839099999989, 33.4383282 ], [ 135.7537556, 33.4364423 ], [ 135.7589007, 33.4360709 ], [ 135.7616859, 33.4345989 ], [ 135.7646537, 33.4353865 ], [ 135.7653254, 33.4387454 ], [ 135.768003599999986, 33.4426456 ], [ 135.767941399999984, 33.4449708 ], [ 135.7695828, 33.4469317 ], [ 135.7785356, 33.4460238 ], [ 135.781793, 33.4429356 ], [ 135.7834541, 33.4397475 ], [ 135.786843399999981, 33.439412 ], [ 135.788781199999988, 33.4404459 ], [ 135.7884694, 33.4449669 ], [ 135.79334129999998, 33.4478436 ], [ 135.796289799999983, 33.4448332 ], [ 135.7979638, 33.4454813 ], [ 135.793597399999982, 33.4493383 ], [ 135.792754799999983, 33.4525293 ], [ 135.789289599999989, 33.4579081 ], [ 135.7859267, 33.4604266 ], [ 135.7860358, 33.462364 ], [ 135.781218599999988, 33.4633373 ], [ 135.782289099999986, 33.4700849 ], [ 135.7842544, 33.4715001 ], [ 135.785900199999986, 33.4761868 ], [ 135.789768899999984, 33.4806195 ], [ 135.789622400000013, 33.4835062 ], [ 135.791412300000019, 33.4853502 ], [ 135.7941703, 33.4860335 ], [ 135.7954533, 33.4890383 ], [ 135.795352799999989, 33.4927264 ], [ 135.79706, 33.4968475 ], [ 135.800063699999981, 33.500203 ], [ 135.8018457, 33.4993184 ], [ 135.805907, 33.5028937 ], [ 135.81108279999998, 33.501744 ], [ 135.8139769, 33.5048045 ], [ 135.818326899999988, 33.5074265 ], [ 135.819696599999986, 33.5109641 ], [ 135.8252429, 33.5145881 ], [ 135.8357877, 33.5125029 ], [ 135.8424099, 33.5127929 ], [ 135.8433527, 33.5137871 ], [ 135.8419716, 33.517197 ], [ 135.8458853, 33.5186373 ], [ 135.848114399999986, 33.5210547 ], [ 135.851031899999981, 33.5183521 ], [ 135.852399099999985, 33.521267099999989 ], [ 135.8565927, 33.5228851 ], [ 135.8588307, 33.5262813 ], [ 135.86166369999998, 33.5274702 ], [ 135.864684399999987, 33.5273576 ], [ 135.8664546, 33.5303876 ], [ 135.8708853, 33.531617499999989 ], [ 135.874208399999986, 33.5337721 ], [ 135.8769551, 33.5318487 ], [ 135.875708799999984, 33.530091 ], [ 135.878356900000028, 33.5288555 ], [ 135.8817085, 33.5338884 ], [ 135.882065200000028, 33.5357011 ], [ 135.8863512, 33.5356599 ], [ 135.8873576, 33.5395483 ], [ 135.893662299999988, 33.5394664 ], [ 135.893542599999989, 33.5419386 ], [ 135.8992136, 33.5460612 ], [ 135.9015963, 33.5455774 ], [ 135.9057953, 33.5473196 ], [ 135.908450499999987, 33.5497314 ], [ 135.912468, 33.55 ], [ 135.912708399999985, 33.552445 ], [ 135.915860899999984, 33.5528254 ], [ 135.9149649, 33.5568125 ], [ 135.918427, 33.5593784 ], [ 135.9239523, 33.5603616 ], [ 135.922606699999989, 33.5622734 ], [ 135.9156289, 33.5617521 ], [ 135.9087198, 33.5618853 ], [ 135.9045118, 33.560456 ], [ 135.9019347, 33.5580981 ], [ 135.8918148, 33.555848 ], [ 135.8932134, 33.5587961 ], [ 135.9009021, 33.5632436 ], [ 135.9056457, 33.5632115 ], [ 135.9055506, 33.565202 ], [ 135.9085596, 33.5662381 ], [ 135.911576699999983, 33.5692793 ], [ 135.9157966, 33.5711431 ], [ 135.9193558, 33.5694571 ], [ 135.921122699999984, 33.5703699 ], [ 135.9213531, 33.5745938 ], [ 135.922855699999985, 33.5760438 ], [ 135.9275898, 33.5772464 ], [ 135.9306939, 33.5763554 ], [ 135.934384099999988, 33.5734149 ], [ 135.939400899999981, 33.574454 ], [ 135.9397985, 33.5781516 ], [ 135.942438, 33.5792712 ], [ 135.9488122, 33.5794121 ], [ 135.954058, 33.5780197 ], [ 135.959544099999988, 33.5821209 ], [ 135.9577855, 33.584278399999988 ], [ 135.960687299999989, 33.5934961 ], [ 135.958355399999988, 33.593623 ], [ 135.9559219, 33.5916865 ], [ 135.9503828, 33.5896482 ], [ 135.9454634, 33.59078 ], [ 135.9478384, 33.5923961 ], [ 135.9479752, 33.5949333 ], [ 135.9462375, 33.5964578 ], [ 135.9463232, 33.5990444 ], [ 135.9488959, 33.6023781 ], [ 135.947816, 33.6040278 ], [ 135.943957, 33.6037271 ], [ 135.9360404, 33.5985636 ], [ 135.9367149, 33.5956557 ], [ 135.9347857, 33.5936764 ], [ 135.9307962, 33.5953861 ], [ 135.9318423, 33.5991506 ], [ 135.9292547, 33.5997643 ], [ 135.9304819, 33.6014991 ], [ 135.9260855, 33.605134 ], [ 135.9250863, 33.6087638 ], [ 135.92785, 33.6093941 ], [ 135.9278497, 33.6093773 ], [ 135.927852, 33.6093459 ], [ 135.9306719, 33.6107844 ], [ 135.935635599999983, 33.6151874 ], [ 135.936552399999982, 33.6172437 ], [ 135.943972, 33.6171889 ], [ 135.945069, 33.6192012 ], [ 135.941687699999989, 33.6198782 ], [ 135.942948699999988, 33.6218176 ], [ 135.9421173, 33.624062 ], [ 135.94491069999998, 33.6279291 ], [ 135.949248399999988, 33.6271457 ], [ 135.9505921, 33.6254476 ], [ 135.950435299999981, 33.6215978 ], [ 135.9526677, 33.6210012 ], [ 135.9530986, 33.6262795 ], [ 135.9515994, 33.6275814 ], [ 135.953252, 33.6311712 ], [ 135.9516334, 33.6334383 ], [ 135.948207, 33.632844 ], [ 135.9456222, 33.6337748 ], [ 135.9410192, 33.6339785 ], [ 135.9377424, 33.6365504 ], [ 135.9365223, 33.6402476 ], [ 135.9390215, 33.6453777 ], [ 135.944690399999985, 33.647017399999989 ], [ 135.9487011, 33.6495122 ], [ 135.958093599999984, 33.6501236 ], [ 135.95755459999998, 33.6522419 ], [ 135.9610112, 33.6544562 ], [ 135.9699582, 33.6526642 ], [ 135.972301099999981, 33.6562783 ], [ 135.9749855, 33.6567209 ], [ 135.9788556, 33.6554527 ], [ 135.9798796, 33.6512616 ], [ 135.986164799999983, 33.6552016 ], [ 135.9858462, 33.6586002 ], [ 135.9890283, 33.6612419 ], [ 135.988320499999986, 33.663179 ], [ 135.9848039, 33.6605354 ], [ 135.9824644, 33.66068 ], [ 135.9810234, 33.6587974 ], [ 135.9764018, 33.6595113 ], [ 135.9763257, 33.6628629 ], [ 135.9737362, 33.663844 ], [ 135.974107799999985, 33.6671578 ], [ 135.973127, 33.6700454 ], [ 135.9718034, 33.6726132 ], [ 135.9761982, 33.6732771 ], [ 135.9789562, 33.6799363 ], [ 135.983104, 33.6812651 ], [ 135.982540200000017, 33.682608 ], [ 135.9883706, 33.6845051 ], [ 135.986756899999989, 33.689362 ], [ 135.991037799999987, 33.6930342 ], [ 135.9931417, 33.6978986 ], [ 135.9921613, 33.6998374 ], [ 135.9945151, 33.7042241 ], [ 135.998124200000035, 33.7087628 ], [ 136.0107042, 33.7223945 ], [ 136.01189, 33.7233007 ], [ 136.0080839, 33.7270217 ], [ 135.997159399999987, 33.7305108 ], [ 135.983275, 33.7363675 ], [ 135.9786703, 33.7368564 ], [ 135.972958899999981, 33.7354417 ], [ 135.971699199999989, 33.7317258 ], [ 135.9755811, 33.7287753 ], [ 135.977071099999989, 33.7247714 ], [ 135.9760919, 33.7230919 ], [ 135.9731917, 33.7229858 ], [ 135.9635233, 33.7243139 ], [ 135.955139699999989, 33.7284028 ], [ 135.945934199999982, 33.732031899999988 ], [ 135.942227799999984, 33.7345558 ], [ 135.9399333, 33.7385869 ], [ 135.9385328, 33.7510567 ], [ 135.9388839, 33.7562586 ], [ 135.9348125, 33.7572253 ], [ 135.930475299999983, 33.7539522 ], [ 135.9283711, 33.7540203 ], [ 135.9205025, 33.7587617 ], [ 135.919281899999987, 33.764090599999989 ], [ 135.91586, 33.7670247 ], [ 135.9091489, 33.7665742 ], [ 135.905675, 33.7684803 ], [ 135.9017153, 33.7804006 ], [ 135.8967778, 33.7869372 ], [ 135.8982292, 33.7901003 ], [ 135.8947058, 33.7976733 ], [ 135.8909133, 33.8016783 ], [ 135.886206099999981, 33.8023894 ], [ 135.8838164, 33.8013386 ], [ 135.8804069, 33.8029628 ], [ 135.8772008, 33.8057703 ], [ 135.8721689, 33.8090008 ], [ 135.8643956, 33.8104678 ], [ 135.8580264, 33.8162036 ], [ 135.855856099999983, 33.8203364 ], [ 135.858371399999982, 33.82713 ], [ 135.8589297, 33.8301883 ], [ 135.8564481, 33.8335642 ], [ 135.8557314, 33.8366894 ], [ 135.8570331, 33.8425742 ], [ 135.8589311, 33.8449031 ], [ 135.86058749999998, 33.8489583 ], [ 135.859583099999981, 33.8515542 ], [ 135.8555953, 33.8545781 ], [ 135.8534381, 33.8578386 ], [ 135.8532511, 33.8622992 ], [ 135.8569422, 33.8649578 ], [ 135.8588933, 33.8684808 ], [ 135.8575506, 33.8733267 ], [ 135.85309, 33.877325 ], [ 135.852145799999988, 33.8820217 ], [ 135.8552894, 33.8878167 ], [ 135.8523994, 33.8899097 ], [ 135.852163099999984, 33.8926072 ], [ 135.8463261, 33.8967372 ], [ 135.8391825, 33.8966914 ], [ 135.8368567, 33.8954003 ], [ 135.830587799999989, 33.8976292 ], [ 135.828176400000018, 33.8994658 ], [ 135.8204864, 33.9031472 ], [ 135.8163194, 33.9056139 ], [ 135.808602799999989, 33.9064681 ], [ 135.803361699999982, 33.9029811 ], [ 135.801823600000034, 33.8958231 ], [ 135.8028364, 33.8945961 ], [ 135.8011333, 33.89179 ], [ 135.8030183, 33.8885911 ], [ 135.8067067, 33.8851881 ], [ 135.806117199999989, 33.8798069 ], [ 135.8031772, 33.8776064 ], [ 135.8058414, 33.8700947 ], [ 135.8051553, 33.8664772 ], [ 135.803736099999981, 33.8657183 ], [ 135.8007156, 33.8706478 ], [ 135.7977956, 33.8731392 ], [ 135.7952736, 33.8712514 ], [ 135.7951525, 33.8650147 ], [ 135.792945799999984, 33.8603208 ], [ 135.791300600000028, 33.8538475 ], [ 135.792566099999988, 33.8503208 ], [ 135.7915069, 33.8461422 ], [ 135.7935172, 33.8453689 ], [ 135.802033599999987, 33.8348906 ], [ 135.8063856, 33.8334453 ], [ 135.809948599999984, 33.8311769 ], [ 135.811984199999984, 33.8323408 ], [ 135.812275799999981, 33.8260264 ], [ 135.813618099999985, 33.8240967 ], [ 135.8198242, 33.81994 ], [ 135.8239911, 33.8177722 ], [ 135.826161399999989, 33.8145183 ], [ 135.8301361, 33.8117064 ], [ 135.829738599999985, 33.8052703 ], [ 135.8272428, 33.8015147 ], [ 135.8235536, 33.8006106 ], [ 135.821903599999985, 33.7927842 ], [ 135.8180147, 33.7875994 ], [ 135.817827199999982, 33.7849675 ], [ 135.8144097, 33.7856383 ], [ 135.8093025, 33.7799233 ], [ 135.807194399999986, 33.7806875 ], [ 135.801996699999989, 33.7794378 ], [ 135.7989144, 33.7766872 ], [ 135.799908599999981, 33.7736489 ], [ 135.7984339, 33.7697311 ], [ 135.7936992, 33.7692122 ], [ 135.7918914, 33.7661989 ], [ 135.7875281, 33.7680097 ], [ 135.7819169, 33.7670636 ], [ 135.780064399999986, 33.7700919 ], [ 135.7779658, 33.7714153 ], [ 135.7732503, 33.7722044 ], [ 135.7712608, 33.7687156 ], [ 135.767373099999986, 33.7648072 ], [ 135.76507669999998, 33.7649419 ], [ 135.7608483, 33.7620344 ], [ 135.757665799999984, 33.7621469 ], [ 135.753907199999986, 33.7570992 ], [ 135.7551561, 33.7530367 ], [ 135.755176899999981, 33.7494239 ], [ 135.7534906, 33.7461686 ], [ 135.7506228, 33.7470172 ], [ 135.7464075, 33.7449161 ], [ 135.74707, 33.7373772 ], [ 135.743144699999988, 33.7352339 ], [ 135.736475, 33.7365419 ], [ 135.7341011, 33.7377631 ], [ 135.728471399999989, 33.7354617 ], [ 135.72718279999998, 33.7315831 ], [ 135.722956399999987, 33.7295758 ], [ 135.722403899999989, 33.7277536 ], [ 135.7196175, 33.727075 ], [ 135.716226899999981, 33.7283083 ], [ 135.7138632, 33.72689 ], [ 135.714401899999984, 33.7237547 ], [ 135.716773099999983, 33.7197733 ], [ 135.71445079999998, 33.7154008 ], [ 135.7107461, 33.7114203 ], [ 135.7087831, 33.7112847 ], [ 135.706505599999986, 33.7146647 ], [ 135.7037439, 33.7158889 ], [ 135.70077390000003, 33.7139614 ], [ 135.6971033, 33.7143258 ], [ 135.6912058, 33.7111486 ], [ 135.6890439, 33.7033764 ], [ 135.686991899999981, 33.7019233 ], [ 135.683440300000029, 33.6970956 ], [ 135.679995599999984, 33.6953297 ], [ 135.6776064, 33.6920636 ], [ 135.6727367, 33.6901119 ], [ 135.6655917, 33.6895394 ], [ 135.6640142, 33.6902047 ], [ 135.655093099999988, 33.6889208 ], [ 135.65325439999998, 33.685825 ], [ 135.652751400000028, 33.6814636 ], [ 135.6514325, 33.6771414 ], [ 135.6547606, 33.6740953 ], [ 135.651706099999984, 33.670825 ], [ 135.6501347, 33.6634292 ], [ 135.6539594, 33.6623919 ], [ 135.6576253, 33.6596603 ], [ 135.657634699999988, 33.656645 ], [ 135.666717500000033, 33.6532844 ], [ 135.6680575, 33.6502189 ], [ 135.6657322, 33.6478783 ], [ 135.6623394, 33.6463019 ], [ 135.6585308, 33.6422464 ], [ 135.656263600000017, 33.6388825 ], [ 135.6530147, 33.6377881 ], [ 135.648106399999989, 33.637307199999988 ], [ 135.6449244, 33.6353961 ], [ 135.6418683, 33.6353767 ], [ 135.6400011, 33.6308075 ], [ 135.6438775, 33.624755 ], [ 135.6436658, 33.6230756 ], [ 135.647265299999987, 33.6210453 ], [ 135.649590599999982, 33.6155753 ], [ 135.6548369, 33.6092042 ], [ 135.655786899999981, 33.6060344 ], [ 135.659772799999985, 33.6004133 ], [ 135.660323299999988, 33.5978286 ], [ 135.663495, 33.5971172 ], [ 135.6666453, 33.5949089 ], [ 135.6681956, 33.5915375 ], [ 135.667696399999983, 33.5897186 ], [ 135.6622236, 33.5899106 ], [ 135.6615267, 33.5856158 ], [ 135.6626119, 33.5798078 ], [ 135.6607047, 33.5760153 ], [ 135.6562894, 33.576824699999989 ], [ 135.652415599999983, 33.5756681 ], [ 135.6463542, 33.5762906 ], [ 135.6450044, 33.5780228 ], [ 135.6373633, 33.5802447 ], [ 135.6317247, 33.5796533 ], [ 135.6300042, 33.5763044 ], [ 135.6319703, 33.5726064 ], [ 135.627696899999989, 33.5681781 ], [ 135.6290325, 33.5623642 ], [ 135.628029199999986, 33.5605744 ], [ 135.6292039, 33.5576069 ], [ 135.629213599999986, 33.5539322 ], [ 135.635511399999984, 33.5536764 ], [ 135.6385056, 33.5550797 ], [ 135.6410139, 33.5534842 ], [ 135.6406383, 33.5503575 ], [ 135.638140599999986, 33.5499981 ], [ 135.6363172, 33.5459339 ], [ 135.6366722, 33.5423683 ], [ 135.6313744, 33.5384558 ], [ 135.6264258, 33.5326836 ], [ 135.622812499999981, 33.5327211 ], [ 135.6218169, 33.5304094 ], [ 135.6308128, 33.5269197 ], [ 135.6385756, 33.5221181 ], [ 135.6384314, 33.5176975 ], [ 135.636636899999985, 33.516060599999989 ] ] ], [ [ [ 135.8818914, 33.9146678 ], [ 135.8802153, 33.9179275 ], [ 135.87717139999998, 33.917111399999989 ], [ 135.875, 33.9181703 ], [ 135.8674667, 33.9205458 ], [ 135.8655733, 33.9200133 ], [ 135.86893809999998, 33.9144631 ], [ 135.8632011, 33.9077597 ], [ 135.862972499999984, 33.9052186 ], [ 135.8597342, 33.9030547 ], [ 135.8587172, 33.9011922 ], [ 135.860105, 33.8988547 ], [ 135.8584028, 33.8970981 ], [ 135.8614653, 33.88715 ], [ 135.8648053, 33.8891111 ], [ 135.8716219, 33.8886511 ], [ 135.874653599999988, 33.8839322 ], [ 135.87832, 33.8841083 ], [ 135.8816597, 33.8809525 ], [ 135.8826881, 33.8788708 ], [ 135.8808783, 33.875845 ], [ 135.874817799999988, 33.8728842 ], [ 135.872882799999985, 33.8679003 ], [ 135.874832199999986, 33.8615964 ], [ 135.8781506, 33.8646153 ], [ 135.877789400000012, 33.8713375 ], [ 135.8810647, 33.8725047 ], [ 135.886412799999988, 33.8720203 ], [ 135.890883299999985, 33.8683925 ], [ 135.894006099999984, 33.8683711 ], [ 135.897633100000036, 33.8697458 ], [ 135.898773299999988, 33.8777164 ], [ 135.901638099999985, 33.881988899999989 ], [ 135.901313099999982, 33.8854064 ], [ 135.89310279999998, 33.8934872 ], [ 135.8916178, 33.89342 ], [ 135.89026579999998, 33.8900375 ], [ 135.893056700000017, 33.8890739 ], [ 135.8921939, 33.8844808 ], [ 135.8927344, 33.8817722 ], [ 135.891047499999985, 33.8809736 ], [ 135.886513899999983, 33.8826983 ], [ 135.8842189, 33.8865367 ], [ 135.88539609999998, 33.8913817 ], [ 135.8879733, 33.8937725 ], [ 135.887919400000015, 33.8963025 ], [ 135.8847817, 33.8981747 ], [ 135.8808564, 33.9023178 ], [ 135.8789564, 33.9083628 ], [ 135.8812606, 33.910915 ], [ 135.8800578, 33.9123772 ], [ 135.8818914, 33.9146678 ] ] ], [ [ [ 135.996241699999985, 34.0022742 ], [ 136.0019108, 34.0013908 ], [ 136.005283099999986, 34.0033383 ], [ 136.0068081, 34.0069917 ], [ 136.0059128, 34.0091411 ], [ 136.0036069, 34.0098814 ], [ 136.0007764, 34.0059722 ], [ 135.9938344, 34.0051008 ], [ 135.989483899999982, 34.0022475 ], [ 135.9889742, 33.9988892 ], [ 135.9848361, 33.994765 ], [ 135.98461469999998, 33.9916411 ], [ 135.9773319, 33.9897211 ], [ 135.9746031, 33.9859667 ], [ 135.9684761, 33.9860161 ], [ 135.960931700000032, 33.9845286 ], [ 135.9581308, 33.9815156 ], [ 135.9539825, 33.9803294 ], [ 135.9516567, 33.9810356 ], [ 135.9472614, 33.9806661 ], [ 135.945162499999981, 33.9793361 ], [ 135.943586399999987, 33.9765214 ], [ 135.94125, 33.9757589 ], [ 135.9398203, 33.9777928 ], [ 135.94054, 33.9800158 ], [ 135.937895, 33.9809925 ], [ 135.9355592, 33.9802556 ], [ 135.9288689, 33.9803411 ], [ 135.9265633, 33.9814475 ], [ 135.925008599999984, 33.9795161 ], [ 135.9221072, 33.978513299999989 ], [ 135.9156744, 33.9725919 ], [ 135.9159881, 33.9678589 ], [ 135.91197889999998, 33.9640942 ], [ 135.9066675, 33.963079199999989 ], [ 135.9070611, 33.9594922 ], [ 135.9046817, 33.9555325 ], [ 135.90229309999998, 33.9539072 ], [ 135.8981772, 33.9537364 ], [ 135.8938494, 33.9500742 ], [ 135.8945769, 33.9484386 ], [ 135.8924969, 33.9459731 ], [ 135.8930669, 33.9391833 ], [ 135.8948231, 33.9365206 ], [ 135.8980881, 33.9337817 ], [ 135.8984347, 33.9266856 ], [ 135.9002011, 33.9246186 ], [ 135.902791399999984, 33.9240669 ], [ 135.9048747, 33.9255203 ], [ 135.9097314, 33.9226969 ], [ 135.9090836, 33.9184744 ], [ 135.915788099999986, 33.9198761 ], [ 135.9178631, 33.91956 ], [ 135.921203599999984, 33.9168086 ], [ 135.922255299999989, 33.9141136 ], [ 135.9324875, 33.9168522 ], [ 135.934557499999983, 33.9200139 ], [ 135.932673599999987, 33.9226644 ], [ 135.9278611, 33.9224886 ], [ 135.923685799999987, 33.9198172 ], [ 135.919609700000024, 33.9209447 ], [ 135.9172872, 33.9250561 ], [ 135.9190017, 33.9317528 ], [ 135.9218325, 33.9343275 ], [ 135.9279517, 33.9348011 ], [ 135.9313283, 33.9338622 ], [ 135.927890599999984, 33.9398422 ], [ 135.929544199999981, 33.9414306 ], [ 135.9331425, 33.9398092 ], [ 135.93683, 33.9391864 ], [ 135.944193899999988, 33.9395525 ], [ 135.9472644, 33.9376572 ], [ 135.9516681, 33.9367278 ], [ 135.9575864, 33.9344683 ], [ 135.9645525, 33.928362199999988 ], [ 135.9665458, 33.9277236 ], [ 135.969764199999986, 33.9300244 ], [ 135.9755394, 33.9414631 ], [ 135.9757672, 33.9443858 ], [ 135.9774606, 33.9473914 ], [ 135.9779608, 33.9514597 ], [ 135.977342199999981, 33.9572214 ], [ 135.975156699999985, 33.9606369 ], [ 135.975411899999983, 33.9639089 ], [ 135.9776067, 33.9669758 ], [ 135.985448599999984, 33.9685556 ], [ 135.9881514, 33.9676975 ], [ 135.991457199999985, 33.9650489 ], [ 135.993406400000026, 33.9609567 ], [ 135.9971569, 33.9568817 ], [ 135.999157199999985, 33.9557797 ], [ 136.0014411, 33.9572064 ], [ 136.0025975, 33.9610333 ], [ 136.0042597, 33.9630253 ], [ 136.0103514, 33.9656039 ], [ 136.0133303, 33.9692272 ], [ 136.0133639, 33.9742314 ], [ 136.0122978, 33.9760258 ], [ 136.0081664, 33.9791419 ], [ 136.0041531, 33.9857114 ], [ 136.004042199999986, 33.9917703 ], [ 135.9971567, 33.9977622 ], [ 135.995565299999981, 34.0000503 ], [ 135.996241699999985, 34.0022742 ] ] ] ] } },
{ "type": "Feature", "properties": { "hokenjo": "田辺" }, "geometry": { "type": "MultiPolygon", "coordinates": [ [ [ [ 135.5934656, 33.5005364 ], [ 135.5910905, 33.5023996 ], [ 135.58924159999998, 33.5 ], [ 135.592655399999984, 33.4978256 ], [ 135.5934656, 33.5005364 ] ] ], [ [ [ 135.649590599999982, 33.6155753 ], [ 135.647265299999987, 33.6210453 ], [ 135.6436658, 33.6230756 ], [ 135.6438775, 33.624755 ], [ 135.6400011, 33.6308075 ], [ 135.6418683, 33.6353767 ], [ 135.6449244, 33.6353961 ], [ 135.648106399999989, 33.637307199999988 ], [ 135.6530147, 33.6377881 ], [ 135.656263600000017, 33.6388825 ], [ 135.6585308, 33.6422464 ], [ 135.6623394, 33.6463019 ], [ 135.6657322, 33.6478783 ], [ 135.6680575, 33.6502189 ], [ 135.666717500000033, 33.6532844 ], [ 135.657634699999988, 33.656645 ], [ 135.6576253, 33.6596603 ], [ 135.6539594, 33.6623919 ], [ 135.6501347, 33.6634292 ], [ 135.651706099999984, 33.670825 ], [ 135.6547606, 33.6740953 ], [ 135.6514325, 33.6771414 ], [ 135.652751400000028, 33.6814636 ], [ 135.65325439999998, 33.685825 ], [ 135.655093099999988, 33.6889208 ], [ 135.6640142, 33.6902047 ], [ 135.6655917, 33.6895394 ], [ 135.6727367, 33.6901119 ], [ 135.6776064, 33.6920636 ], [ 135.679995599999984, 33.6953297 ], [ 135.683440300000029, 33.6970956 ], [ 135.686991899999981, 33.7019233 ], [ 135.6890439, 33.7033764 ], [ 135.6912058, 33.7111486 ], [ 135.6971033, 33.7143258 ], [ 135.70077390000003, 33.7139614 ], [ 135.7037439, 33.7158889 ], [ 135.706505599999986, 33.7146647 ], [ 135.7087831, 33.7112847 ], [ 135.7107461, 33.7114203 ], [ 135.71445079999998, 33.7154008 ], [ 135.716773099999983, 33.7197733 ], [ 135.714401899999984, 33.7237547 ], [ 135.7138632, 33.72689 ], [ 135.716226899999981, 33.7283083 ], [ 135.7196175, 33.727075 ], [ 135.722403899999989, 33.7277536 ], [ 135.722956399999987, 33.7295758 ], [ 135.72718279999998, 33.7315831 ], [ 135.728471399999989, 33.7354617 ], [ 135.7341011, 33.7377631 ], [ 135.736475, 33.7365419 ], [ 135.743144699999988, 33.7352339 ], [ 135.74707, 33.7373772 ], [ 135.7464075, 33.7449161 ], [ 135.7506228, 33.7470172 ], [ 135.7534906, 33.7461686 ], [ 135.755176899999981, 33.7494239 ], [ 135.7551561, 33.7530367 ], [ 135.753907199999986, 33.7570992 ], [ 135.757665799999984, 33.7621469 ], [ 135.7608483, 33.7620344 ], [ 135.76507669999998, 33.7649419 ], [ 135.767373099999986, 33.7648072 ], [ 135.7712608, 33.7687156 ], [ 135.7732503, 33.7722044 ], [ 135.7779658, 33.7714153 ], [ 135.780064399999986, 33.7700919 ], [ 135.7819169, 33.7670636 ], [ 135.7875281, 33.7680097 ], [ 135.7918914, 33.7661989 ], [ 135.7936992, 33.7692122 ], [ 135.7984339, 33.7697311 ], [ 135.799908599999981, 33.7736489 ], [ 135.7989144, 33.7766872 ], [ 135.801996699999989, 33.7794378 ], [ 135.807194399999986, 33.7806875 ], [ 135.8093025, 33.7799233 ], [ 135.8144097, 33.7856383 ], [ 135.817827199999982, 33.7849675 ], [ 135.8180147, 33.7875994 ], [ 135.821903599999985, 33.7927842 ], [ 135.8235536, 33.8006106 ], [ 135.8272428, 33.8015147 ], [ 135.829738599999985, 33.8052703 ], [ 135.8301361, 33.8117064 ], [ 135.826161399999989, 33.8145183 ], [ 135.8239911, 33.8177722 ], [ 135.8198242, 33.81994 ], [ 135.813618099999985, 33.8240967 ], [ 135.812275799999981, 33.8260264 ], [ 135.811984199999984, 33.8323408 ], [ 135.809948599999984, 33.8311769 ], [ 135.8063856, 33.8334453 ], [ 135.802033599999987, 33.8348906 ], [ 135.7935172, 33.8453689 ], [ 135.7915069, 33.8461422 ], [ 135.792566099999988, 33.8503208 ], [ 135.791300600000028, 33.8538475 ], [ 135.792945799999984, 33.8603208 ], [ 135.7951525, 33.8650147 ], [ 135.7952736, 33.8712514 ], [ 135.7977956, 33.8731392 ], [ 135.8007156, 33.8706478 ], [ 135.803736099999981, 33.8657183 ], [ 135.8051553, 33.8664772 ], [ 135.8058414, 33.8700947 ], [ 135.8031772, 33.8776064 ], [ 135.806117199999989, 33.8798069 ], [ 135.8067067, 33.8851881 ], [ 135.8030183, 33.8885911 ], [ 135.8011333, 33.89179 ], [ 135.8028364, 33.8945961 ], [ 135.801823600000034, 33.8958231 ], [ 135.7925744, 33.8946164 ], [ 135.7891075, 33.8928892 ], [ 135.78372109999998, 33.8915244 ], [ 135.7807656, 33.8890433 ], [ 135.7776533, 33.8881844 ], [ 135.7731614, 33.8903039 ], [ 135.7660583, 33.8907922 ], [ 135.763877200000024, 33.8873667 ], [ 135.7610928, 33.8877442 ], [ 135.7559381, 33.8851869 ], [ 135.7518086, 33.8895575 ], [ 135.7485072, 33.8877878 ], [ 135.7407706, 33.8912556 ], [ 135.740877499999982, 33.8925808 ], [ 135.734946899999983, 33.8959972 ], [ 135.732533599999982, 33.8962064 ], [ 135.7302269, 33.9001858 ], [ 135.72411, 33.9032878 ], [ 135.7223689, 33.9022664 ], [ 135.7183819, 33.9030917 ], [ 135.714237199999985, 33.9025953 ], [ 135.7096558, 33.9042956 ], [ 135.704586899999981, 33.9036414 ], [ 135.6911194, 33.9033536 ], [ 135.6853778, 33.903719699999989 ], [ 135.682346699999982, 33.8995678 ], [ 135.678710599999988, 33.8981692 ], [ 135.6733447, 33.8988886 ], [ 135.6709569, 33.9004075 ], [ 135.6633497, 33.8993744 ], [ 135.660604400000011, 33.8975656 ], [ 135.6626431, 33.8935178 ], [ 135.6622044, 33.8890831 ], [ 135.660395, 33.8867742 ], [ 135.6571978, 33.8856108 ], [ 135.6559114, 33.8815708 ], [ 135.651392499999986, 33.8806542 ], [ 135.6479881, 33.8768978 ], [ 135.644956899999983, 33.8774339 ], [ 135.6425592, 33.8763097 ], [ 135.640233599999988, 33.8776042 ], [ 135.6355475, 33.8769506 ], [ 135.6338192, 33.8749725 ], [ 135.6303211, 33.8744589 ], [ 135.6290467, 33.8730992 ], [ 135.6258025, 33.873465 ], [ 135.6179637, 33.8720639 ], [ 135.618085799999989, 33.8746053 ], [ 135.6227525, 33.8785717 ], [ 135.624227499999989, 33.8828406 ], [ 135.6267753, 33.8847403 ], [ 135.6254561, 33.8888658 ], [ 135.623426699999982, 33.8915303 ], [ 135.62254249999998, 33.8950044 ], [ 135.622872199999989, 33.897958599999988 ], [ 135.61948, 33.8994294 ], [ 135.6124533, 33.8988233 ], [ 135.6108042, 33.8995244 ], [ 135.606203099999988, 33.8991189 ], [ 135.60111329999998, 33.9025658 ], [ 135.6018817, 33.9052089 ], [ 135.599993899999987, 33.9082603 ], [ 135.6102342, 33.9128683 ], [ 135.6107744, 33.9187072 ], [ 135.614054399999986, 33.9251411 ], [ 135.6127969, 33.9298456 ], [ 135.6094594, 33.9320758 ], [ 135.6114144, 33.9369544 ], [ 135.6168444, 33.9368847 ], [ 135.618488899999988, 33.9414411 ], [ 135.6186114, 33.9442125 ], [ 135.615387199999986, 33.9484458 ], [ 135.615837199999987, 33.9513561 ], [ 135.618096399999985, 33.9546053 ], [ 135.6221933, 33.9531469 ], [ 135.6253831, 33.9502119 ], [ 135.631022799999982, 33.9490947 ], [ 135.636948099999984, 33.9505464 ], [ 135.6356731, 33.9590781 ], [ 135.6386297, 33.9613228 ], [ 135.640320299999985, 33.9674197 ], [ 135.639914399999981, 33.9729472 ], [ 135.63759, 33.9765167 ], [ 135.6392428, 33.9827328 ], [ 135.636729699999989, 33.9898692 ], [ 135.6348964, 33.9914372 ], [ 135.63088, 33.9910125 ], [ 135.6290267, 33.9977494 ], [ 135.6235503, 34.0021425 ], [ 135.6252311, 34.0073603 ], [ 135.621757799999983, 34.0097783 ], [ 135.618205599999982, 34.0092311 ], [ 135.611811099999983, 34.0102803 ], [ 135.6083817, 34.0136189 ], [ 135.6049333, 34.0124425 ], [ 135.598149399999983, 34.0122672 ], [ 135.5957339, 34.0115911 ], [ 135.5936125, 34.0132803 ], [ 135.591487799999982, 34.0193703 ], [ 135.5953781, 34.0235858 ], [ 135.5948333, 34.0278386 ], [ 135.599660299999982, 34.0320194 ], [ 135.5975719, 34.0358767 ], [ 135.595834699999983, 34.0367922 ], [ 135.5947033, 34.0397225 ], [ 135.5946136, 34.0439892 ], [ 135.5916528, 34.0466439 ], [ 135.5879956, 34.0467747 ], [ 135.5849283, 34.0496419 ], [ 135.580606099999983, 34.0561903 ], [ 135.580489699999987, 34.0579103 ], [ 135.575161399999985, 34.0588433 ], [ 135.5699878, 34.0584239 ], [ 135.567062199999981, 34.0573461 ], [ 135.564673299999981, 34.0599694 ], [ 135.563531399999988, 34.0632772 ], [ 135.5577542, 34.0638075 ], [ 135.5521075, 34.0656567 ], [ 135.5513167, 34.0684206 ], [ 135.548224399999981, 34.0681439 ], [ 135.5434564, 34.0640847 ], [ 135.5427072, 34.0619783 ], [ 135.5378342, 34.0595894 ], [ 135.53849, 34.0577703 ], [ 135.5355961, 34.0510181 ], [ 135.5324081, 34.0486989 ], [ 135.52821609999998, 34.0477633 ], [ 135.519176099999981, 34.0481292 ], [ 135.516733599999981, 34.0467331 ], [ 135.5111389, 34.0458003 ], [ 135.509168099999982, 34.0466178 ], [ 135.5058108, 34.0445119 ], [ 135.505048599999981, 34.0420311 ], [ 135.50491, 34.0379744 ], [ 135.5082572, 34.0363497 ], [ 135.507956399999983, 34.03151 ], [ 135.508327799999989, 34.0239947 ], [ 135.5131819, 34.022430299999989 ], [ 135.5209075, 34.0235203 ], [ 135.5285619, 34.0223397 ], [ 135.5336361, 34.0168989 ], [ 135.535695, 34.012985 ], [ 135.537925, 34.0120864 ], [ 135.5373075, 34.0077311 ], [ 135.5349847, 34.0039394 ], [ 135.5333123, 34.0033344 ], [ 135.5295897, 33.9989989 ], [ 135.5369633, 33.9940644 ], [ 135.5371886, 33.9917872 ], [ 135.5412658, 33.9860917 ], [ 135.540724399999988, 33.98451 ], [ 135.5435589, 33.9798483 ], [ 135.5427003, 33.9763231 ], [ 135.547432499999985, 33.9738206 ], [ 135.546692200000024, 33.9709267 ], [ 135.544525, 33.9683886 ], [ 135.544108099999988, 33.9655439 ], [ 135.54118889999998, 33.9620583 ], [ 135.5325967, 33.9582542 ], [ 135.530408599999987, 33.9558153 ], [ 135.5266894, 33.954895 ], [ 135.5219258, 33.9517444 ], [ 135.5160683, 33.9528889 ], [ 135.5137225, 33.9510931 ], [ 135.5075367, 33.9498967 ], [ 135.5015214, 33.9460642 ], [ 135.4962981, 33.9457536 ], [ 135.4904133, 33.9431308 ], [ 135.4887139, 33.9413225 ], [ 135.485330799999986, 33.9402972 ], [ 135.48202329999998, 33.9424572 ], [ 135.47622, 33.9422494 ], [ 135.4724558, 33.9375994 ], [ 135.4675264, 33.9360972 ], [ 135.4631592, 33.9374392 ], [ 135.4610808, 33.9414756 ], [ 135.4590258, 33.9418997 ], [ 135.4578972, 33.9451108 ], [ 135.4545042, 33.9464719 ], [ 135.45194189999998, 33.9460275 ], [ 135.4435303, 33.9462017 ], [ 135.440470299999987, 33.9469333 ], [ 135.4385369, 33.9437444 ], [ 135.4323244, 33.93992 ], [ 135.4306675, 33.9412 ], [ 135.4325756, 33.9440297 ], [ 135.4294319, 33.9441889 ], [ 135.4246894, 33.946124399999988 ], [ 135.4227031, 33.9447839 ], [ 135.4177247, 33.9374133 ], [ 135.418006100000014, 33.9334067 ], [ 135.413060799999982, 33.9299967 ], [ 135.4080708, 33.9296439 ], [ 135.402262799999988, 33.9306103 ], [ 135.397705799999983, 33.9294064 ], [ 135.3982533, 33.9251411 ], [ 135.3943703, 33.9225192 ], [ 135.3932356, 33.9168247 ], [ 135.3959911, 33.9146722 ], [ 135.395266099999986, 33.90764 ], [ 135.3978903, 33.9067547 ], [ 135.3968044, 33.9040683 ], [ 135.3946958, 33.9023822 ], [ 135.391981099999981, 33.9020369 ], [ 135.3933061, 33.8982536 ], [ 135.393122799999986, 33.8956856 ], [ 135.3965714, 33.8947103 ], [ 135.40155919999998, 33.8945372 ], [ 135.4029825, 33.8908014 ], [ 135.400883900000025, 33.8878933 ], [ 135.399664699999988, 33.8880225 ], [ 135.393967799999984, 33.8845639 ], [ 135.3874497, 33.8845269 ], [ 135.3835506, 33.8863747 ], [ 135.379333299999985, 33.8849719 ], [ 135.3712903, 33.8860333 ], [ 135.369235, 33.8856594 ], [ 135.3561975, 33.8877978 ], [ 135.3521442, 33.8834447 ], [ 135.350919399999981, 33.8803492 ], [ 135.345893599999982, 33.8784883 ], [ 135.3395711, 33.8786433 ], [ 135.335185, 33.8796775 ], [ 135.3326442, 33.8782164 ], [ 135.3271653, 33.8773164 ], [ 135.3217436, 33.8739039 ], [ 135.3217192, 33.868730299999989 ], [ 135.3179092, 33.8660097 ], [ 135.314584699999983, 33.8623172 ], [ 135.3098831, 33.8613008 ], [ 135.309736099999981, 33.8572286 ], [ 135.3129744, 33.856595 ], [ 135.3139019, 33.8532514 ], [ 135.3124392, 33.8519353 ], [ 135.3122372, 33.848435 ], [ 135.3081272, 33.8458706 ], [ 135.307313099999988, 33.8435869 ], [ 135.308958099999984, 33.8401133 ], [ 135.3091814, 33.8357583 ], [ 135.3039236, 33.8325017 ], [ 135.3019525, 33.8326378 ], [ 135.300204399999984, 33.8302583 ], [ 135.3014178, 33.8269778 ], [ 135.2973825, 33.8222861 ], [ 135.29651579999998, 33.8194722 ], [ 135.2911169, 33.8186003 ], [ 135.287783599999983, 33.8171522 ], [ 135.2860919, 33.8180419 ], [ 135.2782336, 33.8181833 ], [ 135.270498299999986, 33.8148617 ], [ 135.269445, 33.8123519 ], [ 135.2639108, 33.8061036 ], [ 135.2635783, 33.8025833 ], [ 135.2595489, 33.7990686 ], [ 135.2600483, 33.7936464 ], [ 135.2617483, 33.7921525 ], [ 135.2660536, 33.7829228 ], [ 135.2706856, 33.7826253 ], [ 135.2743649, 33.7804941 ], [ 135.2769898, 33.7804268 ], [ 135.281490099999985, 33.7780463 ], [ 135.2824865, 33.7761217 ], [ 135.2871475, 33.773081399999988 ], [ 135.2927618, 33.772443 ], [ 135.2955388, 33.7709069 ], [ 135.2979205, 33.767403699999988 ], [ 135.3010344, 33.7667131 ], [ 135.307033099999984, 33.7688397 ], [ 135.311941599999983, 33.7695468 ], [ 135.3170896, 33.7676732 ], [ 135.321947099999988, 33.763436299999988 ], [ 135.3246705, 33.7597339 ], [ 135.324828199999985, 33.7538974 ], [ 135.3234147, 33.7515003 ], [ 135.3261441, 33.7506019 ], [ 135.33049410000001, 33.7442039 ], [ 135.3362656, 33.7455383 ], [ 135.343825899999985, 33.7456573 ], [ 135.3484099, 33.747308 ], [ 135.3510731, 33.7466804 ], [ 135.3531705, 33.7430264 ], [ 135.357369799999987, 33.7399708 ], [ 135.3574695, 33.7374584 ], [ 135.351905599999981, 33.7348229 ], [ 135.3525741, 33.7320007 ], [ 135.351058, 33.73039 ], [ 135.35202, 33.7275894 ], [ 135.354191899999989, 33.7263194 ], [ 135.3566164, 33.72685 ], [ 135.358769199999983, 33.7295817 ], [ 135.3622437, 33.7315003 ], [ 135.3659328, 33.7319159 ], [ 135.37309639999998, 33.7295313 ], [ 135.3775015, 33.7254214 ], [ 135.3797686, 33.7208041 ], [ 135.3892392, 33.7155654 ], [ 135.3934212, 33.7151926 ], [ 135.392466, 33.7201711 ], [ 135.396228, 33.7222807 ], [ 135.3991633, 33.7204045 ], [ 135.396552, 33.7182919 ], [ 135.3955566, 33.7144717 ], [ 135.3971594, 33.7114214 ], [ 135.39253309999998, 33.7097203 ], [ 135.393772399999989, 33.7072 ], [ 135.392996, 33.705534 ], [ 135.395958, 33.703486 ], [ 135.387076900000011, 33.7007945 ], [ 135.3870622, 33.6956301 ], [ 135.3824631, 33.6973736 ], [ 135.383650499999987, 33.7032239 ], [ 135.3770581, 33.6949727 ], [ 135.3825066, 33.6911156 ], [ 135.3797189, 33.6900584 ], [ 135.3756914, 33.690513 ], [ 135.3728764, 33.6892171 ], [ 135.3760025, 33.6840393 ], [ 135.369639299999989, 33.6861439 ], [ 135.3648904, 33.6830755 ], [ 135.363644800000031, 33.6794153 ], [ 135.358983099999989, 33.6800679 ], [ 135.3602622, 33.6837515 ], [ 135.3551618, 33.6858273 ], [ 135.3594349, 33.68816 ], [ 135.355869700000028, 33.6894405 ], [ 135.355748300000016, 33.6921224 ], [ 135.3493571, 33.6944429 ], [ 135.3463721, 33.6934483 ], [ 135.3434872, 33.6942682 ], [ 135.3381929, 33.6937586 ], [ 135.335895599999986, 33.6951458 ], [ 135.3340636, 33.6924792 ], [ 135.3390652, 33.6920692 ], [ 135.3392778, 33.6907221 ], [ 135.344477499999982, 33.6888473 ], [ 135.3420136, 33.6862365 ], [ 135.34438609999998, 33.6818353 ], [ 135.342806699999983, 33.6779557 ], [ 135.33815869999998, 33.6766387 ], [ 135.3324326, 33.6738721 ], [ 135.3296688, 33.6702924 ], [ 135.3319736, 33.666215 ], [ 135.3353256, 33.6658892 ], [ 135.336545, 33.6634697 ], [ 135.3410519, 33.6608272 ], [ 135.3426264, 33.6587853 ], [ 135.346710799999983, 33.658227 ], [ 135.3530269, 33.6548344 ], [ 135.361657200000025, 33.6533397 ], [ 135.3638992, 33.6558774 ], [ 135.3669572, 33.6523144 ], [ 135.371093299999984, 33.6519197 ], [ 135.3750757, 33.6524397 ], [ 135.378005299999984, 33.6502703 ], [ 135.381889199999989, 33.6511371 ], [ 135.3833007, 33.6476619 ], [ 135.3866511, 33.6465452 ], [ 135.391384599999981, 33.6430097 ], [ 135.3934051, 33.6399813 ], [ 135.3929786, 33.6341138 ], [ 135.3912158, 33.6317121 ], [ 135.394198099999983, 33.630109 ], [ 135.39586989999998, 33.6264959 ], [ 135.3938885, 33.6226156 ], [ 135.3920507, 33.6211751 ], [ 135.390223, 33.6172827 ], [ 135.3921466, 33.6169745 ], [ 135.3963891, 33.6182596 ], [ 135.3978037, 33.6160912 ], [ 135.393348799999984, 33.614255 ], [ 135.3918716, 33.6117587 ], [ 135.393638899999985, 33.6101254 ], [ 135.39211419999998, 33.6078155 ], [ 135.3897012, 33.609313 ], [ 135.3887733, 33.6051129 ], [ 135.3860446, 33.5999766 ], [ 135.391221, 33.5977383 ], [ 135.388991, 33.5955425 ], [ 135.3900631, 33.5931177 ], [ 135.3921911, 33.5930204 ], [ 135.392599099999984, 33.5885623 ], [ 135.395456699999983, 33.5877929 ], [ 135.3960683, 33.585684 ], [ 135.4002322, 33.5836483 ], [ 135.4023053, 33.5872804 ], [ 135.4043901, 33.5852277 ], [ 135.4029329, 33.5828922 ], [ 135.4056301, 33.5777621 ], [ 135.4100271, 33.5756092 ], [ 135.416671399999984, 33.5806097 ], [ 135.4189207, 33.5752293 ], [ 135.4192875, 33.5696463 ], [ 135.4241767, 33.571427 ], [ 135.4269022, 33.5696442 ], [ 135.4283553, 33.5707013 ], [ 135.431634299999985, 33.5683094 ], [ 135.437294, 33.5668557 ], [ 135.44386, 33.5632154 ], [ 135.446530199999984, 33.5589587 ], [ 135.4491347, 33.5564704 ], [ 135.447083, 33.5534092 ], [ 135.4463759, 33.5489293 ], [ 135.4504207, 33.550178 ], [ 135.4515658, 33.5485329 ], [ 135.457700499999987, 33.5531561 ], [ 135.460240699999986, 33.5520367 ], [ 135.4588221, 33.5460142 ], [ 135.4597949, 33.5469828 ], [ 135.4599555, 33.5471234 ], [ 135.460447499999987, 33.5475746 ], [ 135.460599299999984, 33.5477149 ], [ 135.4609783, 33.5479101 ], [ 135.4609902, 33.547916 ], [ 135.461052199999983, 33.5479465 ], [ 135.4611136, 33.5479759 ], [ 135.4633198, 33.5484424 ], [ 135.4677208, 33.5462795 ], [ 135.471544599999987, 33.5479024 ], [ 135.474524699999989, 33.5509797 ], [ 135.4796911, 33.5505883 ], [ 135.4788828, 33.546 ], [ 135.4813786, 33.5450725 ], [ 135.4837475, 33.5479367 ], [ 135.4879053, 33.5496364 ], [ 135.4916929, 33.5487896 ], [ 135.4932192, 33.5471902 ], [ 135.4931245, 33.5441744 ], [ 135.489990899999981, 33.5426248 ], [ 135.4912864, 33.5401167 ], [ 135.495666699999987, 33.54164 ], [ 135.499368, 33.5409915 ], [ 135.4999767, 33.5364725 ], [ 135.501163099999985, 33.5352394 ], [ 135.508904699999988, 33.5353633 ], [ 135.5139136, 33.5319212 ], [ 135.513580599999983, 33.528368 ], [ 135.512266100000033, 33.5255417 ], [ 135.5180365, 33.5218721 ], [ 135.5228333, 33.5220363 ], [ 135.5242453, 33.5232852 ], [ 135.5295413, 33.5215953 ], [ 135.53069, 33.5194336 ], [ 135.5371015, 33.5206892 ], [ 135.5404953, 33.5193144 ], [ 135.544809099999981, 33.5202741 ], [ 135.54715969999998, 33.5181355 ], [ 135.547130899999985, 33.5161075 ], [ 135.5512333, 33.51654 ], [ 135.554952499999985, 33.5154543 ], [ 135.5579606, 33.5161707 ], [ 135.5596763, 33.5141786 ], [ 135.5653437, 33.5153051 ], [ 135.5694969, 33.5173665 ], [ 135.575, 33.5156739 ], [ 135.5781412, 33.5101957 ], [ 135.5788514, 33.5071484 ], [ 135.5833333, 33.5083026 ], [ 135.5873312, 33.5063976 ], [ 135.587811099999982, 33.5040443 ], [ 135.591809399999988, 33.5073651 ], [ 135.5942474, 33.5061574 ], [ 135.5968604, 33.5070468 ], [ 135.5981375, 33.5044538 ], [ 135.6016043, 33.5043039 ], [ 135.6040717, 33.5090664 ], [ 135.6064544, 33.5096933 ], [ 135.6109454, 33.5061626 ], [ 135.6171799, 33.5060946 ], [ 135.619477499999988, 33.5032163 ], [ 135.626105599999988, 33.5030839 ], [ 135.62823659999998, 33.5081894 ], [ 135.635520899999989, 33.5065914 ], [ 135.6368603, 33.5108847 ], [ 135.636636899999985, 33.516060599999989 ], [ 135.6384314, 33.5176975 ], [ 135.6385756, 33.5221181 ], [ 135.6308128, 33.5269197 ], [ 135.6218169, 33.5304094 ], [ 135.622812499999981, 33.5327211 ], [ 135.6264258, 33.5326836 ], [ 135.6313744, 33.5384558 ], [ 135.6366722, 33.5423683 ], [ 135.6363172, 33.5459339 ], [ 135.638140599999986, 33.5499981 ], [ 135.6406383, 33.5503575 ], [ 135.6410139, 33.5534842 ], [ 135.6385056, 33.5550797 ], [ 135.635511399999984, 33.5536764 ], [ 135.629213599999986, 33.5539322 ], [ 135.6292039, 33.5576069 ], [ 135.628029199999986, 33.5605744 ], [ 135.6290325, 33.5623642 ], [ 135.627696899999989, 33.5681781 ], [ 135.6319703, 33.5726064 ], [ 135.6300042, 33.5763044 ], [ 135.6317247, 33.5796533 ], [ 135.6373633, 33.5802447 ], [ 135.6450044, 33.5780228 ], [ 135.6463542, 33.5762906 ], [ 135.652415599999983, 33.5756681 ], [ 135.6562894, 33.576824699999989 ], [ 135.6607047, 33.5760153 ], [ 135.6626119, 33.5798078 ], [ 135.6615267, 33.5856158 ], [ 135.6622236, 33.5899106 ], [ 135.667696399999983, 33.5897186 ], [ 135.6681956, 33.5915375 ], [ 135.6666453, 33.5949089 ], [ 135.663495, 33.5971172 ], [ 135.660323299999988, 33.5978286 ], [ 135.659772799999985, 33.6004133 ], [ 135.655786899999981, 33.6060344 ], [ 135.6548369, 33.6092042 ], [ 135.649590599999982, 33.6155753 ] ] ] ] } },
{ "type": "Feature", "properties": { "hokenjo": "湯浅" }, "geometry": { "type": "MultiPolygon", "coordinates": [ [ [ [ 135.27927889999998, 34.0042244 ], [ 135.284045599999985, 34.0043725 ], [ 135.2879781, 34.0036389 ], [ 135.290407499999986, 34.0013942 ], [ 135.2944264, 34.0071142 ], [ 135.2983767, 34.0043967 ], [ 135.3021306, 34.0035383 ], [ 135.3061758, 34.0049903 ], [ 135.3104544, 34.0051567 ], [ 135.313017799999983, 34.0077083 ], [ 135.3194647, 34.0067281 ], [ 135.324851099999989, 34.0087092 ], [ 135.329364199999986, 34.0064367 ], [ 135.3333342, 34.0072711 ], [ 135.3356719, 34.0057322 ], [ 135.34570309999998, 34.0045461 ], [ 135.3474936, 34.0058953 ], [ 135.357362199999983, 34.0049208 ], [ 135.3641994, 34.0078575 ], [ 135.367033599999985, 34.0129219 ], [ 135.371503099999984, 34.0136769 ], [ 135.3758439, 34.0119486 ], [ 135.378555799999987, 34.0125125 ], [ 135.389068899999984, 34.0112431 ], [ 135.3916975, 34.0101236 ], [ 135.397681399999982, 34.0128047 ], [ 135.4010122, 34.0149347 ], [ 135.402285299999988, 34.0189694 ], [ 135.4072156, 34.0201506 ], [ 135.411333899999988, 34.0225311 ], [ 135.4169417, 34.0248208 ], [ 135.4172814, 34.0269186 ], [ 135.4265719, 34.0272128 ], [ 135.428110299999986, 34.0291775 ], [ 135.433646899999985, 34.0309244 ], [ 135.43722, 34.0308131 ], [ 135.4406122, 34.0344253 ], [ 135.445882499999982, 34.0381175 ], [ 135.4517564, 34.0408914 ], [ 135.453391899999986, 34.0397228 ], [ 135.4589278, 34.0383819 ], [ 135.4674675, 34.0316214 ], [ 135.4816514, 34.0326203 ], [ 135.4838325, 34.0340811 ], [ 135.4865086, 34.0338403 ], [ 135.4957044, 34.0369272 ], [ 135.4988253, 34.0431569 ], [ 135.505048599999981, 34.0420311 ], [ 135.5058108, 34.0445119 ], [ 135.509168099999982, 34.0466178 ], [ 135.5111389, 34.0458003 ], [ 135.516733599999981, 34.0467331 ], [ 135.519176099999981, 34.0481292 ], [ 135.52821609999998, 34.0477633 ], [ 135.5324081, 34.0486989 ], [ 135.5355961, 34.0510181 ], [ 135.53849, 34.0577703 ], [ 135.5378342, 34.0595894 ], [ 135.5427072, 34.0619783 ], [ 135.5434564, 34.0640847 ], [ 135.548224399999981, 34.0681439 ], [ 135.544365, 34.0718411 ], [ 135.5424983, 34.0721628 ], [ 135.539698099999981, 34.0753797 ], [ 135.5398406, 34.0772042 ], [ 135.5431328, 34.0818025 ], [ 135.548976399999987, 34.0839425 ], [ 135.549793099999988, 34.0849847 ], [ 135.549876399999988, 34.0906836 ], [ 135.5487281, 34.0968106 ], [ 135.5462522, 34.0980108 ], [ 135.5438028, 34.0970917 ], [ 135.5377147, 34.0989331 ], [ 135.5334067, 34.1012622 ], [ 135.5343025, 34.1038297 ], [ 135.5342397, 34.1088892 ], [ 135.532866399999989, 34.1102239 ], [ 135.532855, 34.1147458 ], [ 135.5292514, 34.1155986 ], [ 135.5223875, 34.1193992 ], [ 135.5221061, 34.1207711 ], [ 135.51648609999998, 34.1248614 ], [ 135.513845799999984, 34.1280936 ], [ 135.5154269, 34.129915 ], [ 135.509398299999987, 34.1378431 ], [ 135.506588099999988, 34.1380739 ], [ 135.50643, 34.1435172 ], [ 135.5035489, 34.1443356 ], [ 135.49791639999998, 34.1517242 ], [ 135.48893529999998, 34.154916899999989 ], [ 135.484873599999986, 34.1533322 ], [ 135.473636699999986, 34.145735 ], [ 135.470401899999985, 34.1441906 ], [ 135.4678481, 34.1416753 ], [ 135.4616158, 34.13847 ], [ 135.4591867, 34.1364717 ], [ 135.4581231, 34.1325528 ], [ 135.452010799999982, 34.1295992 ], [ 135.44912309999998, 34.1255825 ], [ 135.445476899999989, 34.123465 ], [ 135.442522500000024, 34.1239828 ], [ 135.4385469, 34.1217081 ], [ 135.4346581, 34.1171297 ], [ 135.431060799999983, 34.1154511 ], [ 135.428291699999988, 34.1155036 ], [ 135.425421699999987, 34.1181467 ], [ 135.42055, 34.1172603 ], [ 135.417041899999987, 34.1198731 ], [ 135.412583899999987, 34.1195017 ], [ 135.4050483, 34.1206628 ], [ 135.4037083, 34.1216836 ], [ 135.397798099999989, 34.1205936 ], [ 135.3916619, 34.121575 ], [ 135.3853292, 34.1206386 ], [ 135.380851899999982, 34.12138 ], [ 135.3743542, 34.1207344 ], [ 135.3746511, 34.1131689 ], [ 135.3718461, 34.1122261 ], [ 135.370341699999983, 34.11359 ], [ 135.36547, 34.1134342 ], [ 135.3588308, 34.1151186 ], [ 135.3561497, 34.1134431 ], [ 135.346216699999985, 34.1163886 ], [ 135.3381106, 34.1135278 ], [ 135.3351994, 34.105345 ], [ 135.3324606, 34.1049639 ], [ 135.3290308, 34.1058911 ], [ 135.3251189, 34.1043119 ], [ 135.317477199999985, 34.1044514 ], [ 135.3152222, 34.1075622 ], [ 135.3120925, 34.1100217 ], [ 135.311463299999986, 34.1147981 ], [ 135.3076064, 34.1154128 ], [ 135.3061219, 34.1168083 ], [ 135.308679399999988, 34.1215286 ], [ 135.304355, 34.1282783 ], [ 135.301893899999982, 34.1294 ], [ 135.301431399999984, 34.1320258 ], [ 135.2970986, 34.1360308 ], [ 135.2941811, 34.1333983 ], [ 135.2950983, 34.1318692 ], [ 135.292065799999989, 34.1260242 ], [ 135.2867819, 34.1243544 ], [ 135.2844872, 34.1204042 ], [ 135.279662799999983, 34.1187394 ], [ 135.278382199999982, 34.1197411 ], [ 135.2736558, 34.1171725 ], [ 135.267773299999988, 34.1162592 ], [ 135.2659156, 34.1176183 ], [ 135.2628153, 34.1156167 ], [ 135.2577511, 34.1177486 ], [ 135.2530644, 34.1213786 ], [ 135.2490728, 34.1225711 ], [ 135.2430756, 34.1212544 ], [ 135.239172199999985, 34.1221603 ], [ 135.2355253, 34.1177908 ], [ 135.2353319, 34.1120667 ], [ 135.232290299999988, 34.1104144 ], [ 135.2312761, 34.1072883 ], [ 135.2283167, 34.1065564 ], [ 135.224308899999983, 34.1075744 ], [ 135.221876399999985, 34.1101703 ], [ 135.217233599999986, 34.1099528 ], [ 135.216404399999988, 34.1071994 ], [ 135.2129636, 34.1062367 ], [ 135.2118367, 34.1040483 ], [ 135.2050219, 34.1001039 ], [ 135.20267579999998, 34.1005914 ], [ 135.196543099999985, 34.0988231 ], [ 135.1875258, 34.0980628 ], [ 135.184311399999984, 34.099782499999989 ], [ 135.1785633, 34.1010475 ], [ 135.1665461, 34.0940086 ], [ 135.15587, 34.0945742 ], [ 135.1526428, 34.0933953 ], [ 135.1489206, 34.0954211 ], [ 135.1399394, 34.0943358 ], [ 135.1384742, 34.1009539 ], [ 135.1350972, 34.1018931 ], [ 135.135386399999987, 34.1040347 ], [ 135.132475, 34.1045156 ], [ 135.1320269, 34.1068906 ], [ 135.125720299999983, 34.1103917 ], [ 135.1222344, 34.1111556 ], [ 135.1182614, 34.1137114 ], [ 135.1120335, 34.112948 ], [ 135.1132446, 34.1094748 ], [ 135.1121841, 34.1059486 ], [ 135.1078784, 34.0982654 ], [ 135.102766799999984, 34.0959136 ], [ 135.1011269, 34.0907008 ], [ 135.0967219, 34.0911964 ], [ 135.0946246, 34.0854494 ], [ 135.096352199999984, 34.0808733 ], [ 135.095699699999983, 34.0794388 ], [ 135.0897252, 34.0756161 ], [ 135.0904909, 34.074465599999989 ], [ 135.084576299999981, 34.0702656 ], [ 135.087023, 34.0698368 ], [ 135.088386899999989, 34.0669659 ], [ 135.091086, 34.0687251 ], [ 135.0998612, 34.0701761 ], [ 135.1011624, 34.0690117 ], [ 135.104404499999987, 34.0712605 ], [ 135.1082595, 34.069722 ], [ 135.1106743, 34.0704867 ], [ 135.1143547, 34.068104 ], [ 135.1222483, 34.0673337 ], [ 135.125671399999987, 34.064632599999989 ], [ 135.133167899999989, 34.0653623 ], [ 135.13585089999998, 34.0645783 ], [ 135.1378947, 34.0607836 ], [ 135.1389802, 34.056958 ], [ 135.1463675, 34.0561098 ], [ 135.147518599999984, 34.0490149 ], [ 135.146161799999987, 34.045321099999988 ], [ 135.1518394, 34.044755 ], [ 135.157720899999987, 34.0472759 ], [ 135.1610795, 34.0460031 ], [ 135.1624955, 34.043749 ], [ 135.1624402, 34.036818 ], [ 135.1676776, 34.0372957 ], [ 135.1712858, 34.0318544 ], [ 135.1699564, 34.0263494 ], [ 135.165701399999989, 34.0285144 ], [ 135.1583986, 34.0258536 ], [ 135.1548253, 34.0260847 ], [ 135.150791699999985, 34.0246472 ], [ 135.150121399999989, 34.0220711 ], [ 135.1520811, 34.0197861 ], [ 135.14801, 34.0182381 ], [ 135.141431399999988, 34.0195625 ], [ 135.1369239, 34.0168739 ], [ 135.142965799999985, 34.0155528 ], [ 135.145752499999986, 34.0137708 ], [ 135.1470625, 34.0108031 ], [ 135.1514056, 34.0094417 ], [ 135.1515847, 34.0072469 ], [ 135.14766419999998, 34.0051656 ], [ 135.1445502, 34.0049841 ], [ 135.1406503, 34.0060692 ], [ 135.1403158, 34.0033289 ], [ 135.137019399999986, 34.0004169 ], [ 135.1345547, 34.0000247 ], [ 135.1384644, 33.9972083 ], [ 135.1417122, 33.9914314 ], [ 135.1436272, 33.9894864 ], [ 135.153605299999981, 33.9927231 ], [ 135.15508, 33.9922217 ], [ 135.1641678, 33.9959633 ], [ 135.167335, 33.9947308 ], [ 135.174856399999982, 33.9946406 ], [ 135.17474390000001, 33.9903558 ], [ 135.176020599999987, 33.9874181 ], [ 135.1753831, 33.9839906 ], [ 135.177920799999981, 33.9793083 ], [ 135.176389199999988, 33.9753153 ], [ 135.174045, 33.9748319 ], [ 135.173880800000035, 33.9684228 ], [ 135.174631399999981, 33.9650456 ], [ 135.1776097, 33.9642575 ], [ 135.177426700000012, 33.9576361 ], [ 135.1779781, 33.9560728 ], [ 135.184527799999984, 33.9576694 ], [ 135.1901317, 33.9559364 ], [ 135.19436, 33.9558967 ], [ 135.197564699999987, 33.9536803 ], [ 135.206452499999983, 33.9542797 ], [ 135.209098899999987, 33.9523342 ], [ 135.2221214, 33.9527844 ], [ 135.223398299999985, 33.9486375 ], [ 135.2275866, 33.9476108 ], [ 135.2329714, 33.9475892 ], [ 135.232829399999986, 33.9512511 ], [ 135.235950299999985, 33.9544878 ], [ 135.235925, 33.9585633 ], [ 135.238705, 33.9602244 ], [ 135.244000799999981, 33.9601825 ], [ 135.248905799999989, 33.9627022 ], [ 135.2546544, 33.9647506 ], [ 135.25473359999998, 33.9671181 ], [ 135.2592819, 33.973265 ], [ 135.2567594, 33.9763956 ], [ 135.2564117, 33.9789842 ], [ 135.2578719, 33.9811033 ], [ 135.2578028, 33.9855489 ], [ 135.2590706, 33.9896903 ], [ 135.2676758, 33.9952361 ], [ 135.273322799999988, 33.9977586 ], [ 135.2763931, 34.0027244 ], [ 135.27927889999998, 34.0042244 ] ] ], [ [ [ 135.1241258, 34.0154197 ], [ 135.1252356, 34.0183789 ], [ 135.1213439, 34.0196428 ], [ 135.1187314, 34.0183967 ], [ 135.1241258, 34.0154197 ] ] ], [ [ [ 135.0788872, 34.1099613 ], [ 135.0838182, 34.1141608 ], [ 135.0771302, 34.1152494 ], [ 135.0749791, 34.1129666 ], [ 135.0788872, 34.1099613 ] ] ], [ [ [ 135.1052235, 34.1101852 ], [ 135.1020773, 34.1139461 ], [ 135.1026904, 34.1180845 ], [ 135.098982, 34.1166417 ], [ 135.0972625, 34.1122012 ], [ 135.0981425, 34.109383 ], [ 135.1002753, 34.108161 ], [ 135.1052235, 34.1101852 ] ] ] ] } },
{ "type": "Feature", "properties": { "hokenjo": "和歌山市" }, "geometry": { "type": "MultiPolygon", "coordinates": [ [ [ [ 135.181380599999983, 34.1507967 ], [ 135.1838119, 34.1526166 ], [ 135.182573099999985, 34.1557632 ], [ 135.1776242, 34.1550962 ], [ 135.1768993, 34.1521241 ], [ 135.181380599999983, 34.1507967 ] ] ], [ [ [ 135.2708519, 34.3073208 ], [ 135.2710414, 34.3124658 ], [ 135.263115, 34.3131528 ], [ 135.2616658, 34.3125408 ], [ 135.2579244, 34.3156786 ], [ 135.2542364, 34.3157533 ], [ 135.2465958, 34.3132861 ], [ 135.245925, 34.3118125 ], [ 135.2414086, 34.3083964 ], [ 135.2362258, 34.3054167 ], [ 135.235523299999983, 34.3036356 ], [ 135.225005600000031, 34.3008614 ], [ 135.2218119, 34.3038481 ], [ 135.2186758, 34.3051622 ], [ 135.215609699999987, 34.3051022 ], [ 135.211434199999985, 34.3064453 ], [ 135.208225, 34.3060214 ], [ 135.208466099999981, 34.3028217 ], [ 135.205349399999989, 34.3005344 ], [ 135.2043583, 34.2905494 ], [ 135.2052381, 34.2886272 ], [ 135.202652799999981, 34.2876219 ], [ 135.1985058, 34.2879969 ], [ 135.1957983, 34.2860267 ], [ 135.1916114, 34.286465 ], [ 135.1895786, 34.2827758 ], [ 135.187808599999983, 34.2832242 ], [ 135.1848161, 34.28094 ], [ 135.184539699999988, 34.2789053 ], [ 135.1806617, 34.2798878 ], [ 135.176932199999982, 34.2797169 ], [ 135.171524399999981, 34.2805942 ], [ 135.166853299999985, 34.2799278 ], [ 135.165495, 34.2787508 ], [ 135.1574067, 34.2770842 ], [ 135.1537892, 34.2742783 ], [ 135.1533531, 34.2786739 ], [ 135.154823599999986, 34.2808811 ], [ 135.14648219999998, 34.2836483 ], [ 135.142939399999989, 34.2804231 ], [ 135.1396436, 34.2818928 ], [ 135.139404399999989, 34.2793831 ], [ 135.1366156, 34.2735064 ], [ 135.1320878, 34.2723517 ], [ 135.130318099999982, 34.2730411 ], [ 135.128190600000011, 34.2763819 ], [ 135.1259719, 34.2773931 ], [ 135.1209869, 34.2739136 ], [ 135.1170128, 34.273066899999989 ], [ 135.1141322, 34.2743864 ], [ 135.1102956, 34.2737864 ], [ 135.107356899999985, 34.2784639 ], [ 135.1090725, 34.2826658 ], [ 135.0986969, 34.2890364 ], [ 135.099779399999989, 34.2926836 ], [ 135.0969342, 34.2971036 ], [ 135.100305, 34.3004406 ], [ 135.1031353, 34.3018544 ], [ 135.106412799999987, 34.3058008 ], [ 135.105917799999986, 34.3088556 ], [ 135.1027311, 34.3109344 ], [ 135.0970825, 34.3079447 ], [ 135.0929184, 34.311256 ], [ 135.0874986, 34.3074965 ], [ 135.0833604, 34.3064421 ], [ 135.079669199999984, 34.3082365 ], [ 135.0767228, 34.3074386 ], [ 135.0742736, 34.3053734 ], [ 135.074092899999982, 34.3030639 ], [ 135.0699921, 34.2981487 ], [ 135.0681011, 34.2907605 ], [ 135.0718403, 34.2882105 ], [ 135.070069500000017, 34.2855256 ], [ 135.0735324, 34.2835818 ], [ 135.074287199999986, 34.2809681 ], [ 135.072085099999981, 34.2753261 ], [ 135.068915299999986, 34.2755926 ], [ 135.065215699999982, 34.2731502 ], [ 135.0644342, 34.2683929 ], [ 135.0610634, 34.2648063 ], [ 135.06270379999998, 34.2623666 ], [ 135.065627899999981, 34.2613664 ], [ 135.072338799999983, 34.2605646 ], [ 135.0768139, 34.2612796 ], [ 135.0891121, 34.2609075 ], [ 135.0969476, 34.257704 ], [ 135.095840399999986, 34.2529189 ], [ 135.101993599999986, 34.2500985 ], [ 135.1110876, 34.2451188 ], [ 135.1143126, 34.2445052 ], [ 135.116286799999983, 34.2464144 ], [ 135.123083799999989, 34.2415927 ], [ 135.1327355, 34.2298825 ], [ 135.1282479, 34.2273273 ], [ 135.126035299999984, 34.2296769 ], [ 135.123193, 34.2296151 ], [ 135.1183936, 34.2347344 ], [ 135.1173254, 34.2345602 ], [ 135.1037732, 34.2370657 ], [ 135.1003907, 34.2356127 ], [ 135.1071026, 34.2284679 ], [ 135.1103898, 34.2269754 ], [ 135.1215173, 34.2249001 ], [ 135.1290851, 34.2246336 ], [ 135.1395287, 34.225409 ], [ 135.141566899999987, 34.2228352 ], [ 135.1404302, 34.2214014 ], [ 135.1335195, 34.2191066 ], [ 135.1345203, 34.217635 ], [ 135.1393766, 34.2191463 ], [ 135.1434802, 34.219285 ], [ 135.14484969999998, 34.2147909 ], [ 135.1403602, 34.2143001 ], [ 135.139907199999982, 34.2120694 ], [ 135.144464199999987, 34.2121247 ], [ 135.1445, 34.2102129 ], [ 135.1413466, 34.2090208 ], [ 135.143518699999987, 34.2027965 ], [ 135.1455164, 34.20061 ], [ 135.150119499999988, 34.2002669 ], [ 135.1497661, 34.1945981 ], [ 135.1454426, 34.1957842 ], [ 135.14474389999998, 34.1985312 ], [ 135.1412824, 34.2021174 ], [ 135.1372541, 34.2010523 ], [ 135.1395106, 34.1943139 ], [ 135.1407302, 34.192506 ], [ 135.140443, 34.1892176 ], [ 135.142555, 34.1867454 ], [ 135.145401, 34.1896115 ], [ 135.1486047, 34.1877831 ], [ 135.14746839999998, 34.1839321 ], [ 135.1568347, 34.1846964 ], [ 135.1586898, 34.1866676 ], [ 135.1628634, 34.1879499 ], [ 135.1668841, 34.1865142 ], [ 135.174837599999989, 34.1776413 ], [ 135.1739464, 34.1814603 ], [ 135.1721753, 34.1836826 ], [ 135.173640799999987, 34.1882592 ], [ 135.1799748, 34.186913 ], [ 135.1777102, 34.1814775 ], [ 135.1777418, 34.1790595 ], [ 135.1819858, 34.1719287 ], [ 135.1819323, 34.1666544 ], [ 135.184431099999983, 34.1570957 ], [ 135.186870299999981, 34.1564923 ], [ 135.1925731, 34.1594158 ], [ 135.192381399999988, 34.1627056 ], [ 135.1958731, 34.1649689 ], [ 135.2003842, 34.1656044 ], [ 135.2038422, 34.1673006 ], [ 135.2033336, 34.1734492 ], [ 135.2138989, 34.1736664 ], [ 135.2169125, 34.1752878 ], [ 135.226915, 34.1744906 ], [ 135.2280839, 34.1788222 ], [ 135.2334294, 34.1789403 ], [ 135.2338331, 34.1803278 ], [ 135.2405142, 34.1820539 ], [ 135.2449872, 34.1821697 ], [ 135.247222199999982, 34.1807489 ], [ 135.2534331, 34.1806467 ], [ 135.255007799999987, 34.1777328 ], [ 135.261663299999981, 34.1778756 ], [ 135.2674467, 34.1757108 ], [ 135.2694203, 34.1763042 ], [ 135.2766047, 34.1756986 ], [ 135.278561699999983, 34.1771236 ], [ 135.283234199999981, 34.178552499999988 ], [ 135.2849531, 34.1827256 ], [ 135.2826789, 34.1849289 ], [ 135.27921809999998, 34.1851186 ], [ 135.277869399999986, 34.1870006 ], [ 135.2784847, 34.1906625 ], [ 135.2809594, 34.1924242 ], [ 135.284279699999985, 34.1970761 ], [ 135.2845653, 34.2029553 ], [ 135.2827778, 34.2034922 ], [ 135.2821903, 34.2070617 ], [ 135.2799594, 34.2075603 ], [ 135.2809886, 34.2133292 ], [ 135.2745639, 34.2168303 ], [ 135.2745061, 34.2218939 ], [ 135.2820228, 34.2255661 ], [ 135.2847208, 34.22793 ], [ 135.2911933, 34.2300714 ], [ 135.2927125, 34.231524199999988 ], [ 135.2961761, 34.2310142 ], [ 135.301041400000031, 34.2344133 ], [ 135.301685, 34.2361161 ], [ 135.305092799999983, 34.2363186 ], [ 135.3071267, 34.23778 ], [ 135.314025, 34.2372244 ], [ 135.314713899999987, 34.238900799999989 ], [ 135.3134417, 34.2436239 ], [ 135.311496399999982, 34.2473125 ], [ 135.3074428, 34.2489567 ], [ 135.3076428, 34.2522864 ], [ 135.2976603, 34.2552786 ], [ 135.2873706, 34.2537447 ], [ 135.2816875, 34.2544642 ], [ 135.272777499999989, 34.2535475 ], [ 135.2721378, 34.2571142 ], [ 135.2740661, 34.2604369 ], [ 135.2739439, 34.2623936 ], [ 135.2769228, 34.2711825 ], [ 135.2738172, 34.271346699999988 ], [ 135.2760706, 34.2777414 ], [ 135.271325, 34.2919619 ], [ 135.273219399999988, 34.2968733 ], [ 135.2725441, 34.3014885 ], [ 135.26962469999998, 34.3051161 ], [ 135.2708519, 34.3073208 ] ] ], [ [ [ 135.020386, 34.2865889 ], [ 135.0207581, 34.293089 ], [ 135.0183949, 34.291474099999988 ], [ 135.0170718, 34.2886818 ], [ 135.0122787, 34.2837188 ], [ 135.0079337, 34.2834977 ], [ 135.0050319, 34.2847361 ], [ 134.999345799999986, 34.2813658 ], [ 135.0046867, 34.2772314 ], [ 135.011625399999986, 34.2765186 ], [ 135.0120143, 34.2796142 ], [ 135.016750799999983, 34.2806797 ], [ 135.0182872, 34.2850951 ], [ 135.020386, 34.2865889 ] ] ], [ [ [ 135.0567347, 34.2973297 ], [ 135.0552772, 34.2991924 ], [ 135.048986499999984, 34.2991657 ], [ 135.042221899999987, 34.2980012 ], [ 135.0373725, 34.2985845 ], [ 135.0356434, 34.2968113 ], [ 135.038677299999989, 34.2934225 ], [ 135.043755, 34.2919911 ], [ 135.0487157, 34.292873299999989 ], [ 135.0529014, 34.2957688 ], [ 135.0567347, 34.2973297 ] ] ] ] } }
]
}
