{
"type": "FeatureCollection",
"name": "yamagata",
"crs": { "type": "name", "properties": { "name": "urn:ogc:def:crs:OGC:1.3:CRS84" } },
"features": [
{ "type": "Feature", "properties": { "hokenjo": "最上" }, "geometry": { "type": "MultiPolygon", "coordinates": [ [ [ [ 140.217265, 38.5454624 ], [ 140.235211099999987, 38.5509148 ], [ 140.241055599999981, 38.5684959 ], [ 140.2463454, 38.569921699999988 ], [ 140.26542569999998, 38.5846399 ], [ 140.2758619, 38.6032365 ], [ 140.2884996, 38.6063028 ], [ 140.3025362, 38.6149796 ], [ 140.2997354, 38.6411554 ], [ 140.315569, 38.6475523 ], [ 140.3201492, 38.6638144 ], [ 140.3127376, 38.67783 ], [ 140.3253145, 38.6786666 ], [ 140.356748, 38.6886067 ], [ 140.3743414, 38.6851324 ], [ 140.383023399999985, 38.6941721 ], [ 140.4009819, 38.7032428 ], [ 140.4250769, 38.7042766 ], [ 140.4597206, 38.7213651 ], [ 140.4611348, 38.7132182 ], [ 140.4717646, 38.7034115 ], [ 140.4714124, 38.697207 ], [ 140.4912258, 38.6917483 ], [ 140.505111199999988, 38.6971716 ], [ 140.5115083, 38.6905293 ], [ 140.525322099999983, 38.6938048 ], [ 140.539398799999987, 38.6854403 ], [ 140.5491247, 38.6612189 ], [ 140.5465331, 38.6496808 ], [ 140.5627522, 38.6480624 ], [ 140.5694038, 38.6382127 ], [ 140.589941, 38.6338181 ], [ 140.6020198, 38.6406039 ], [ 140.6060564, 38.6554886 ], [ 140.6188917, 38.672956 ], [ 140.6244428, 38.6876743 ], [ 140.61636009999998, 38.700482 ], [ 140.607002099999988, 38.7033001 ], [ 140.6070389, 38.7213131 ], [ 140.62088989999998, 38.7315486 ], [ 140.6230362, 38.7416871 ], [ 140.6313393, 38.747114 ], [ 140.6363595, 38.7621567 ], [ 140.6464624, 38.7695163 ], [ 140.636846099999985, 38.7774303 ], [ 140.6274349, 38.7738759 ], [ 140.6035262, 38.7837052 ], [ 140.59574, 38.8021944 ], [ 140.5985484, 38.8259647 ], [ 140.5907282, 38.8360442 ], [ 140.569293099999982, 38.8468025 ], [ 140.5591313, 38.8472509 ], [ 140.5530172, 38.8591302 ], [ 140.5413223, 38.8613094 ], [ 140.538781799999981, 38.8713869 ], [ 140.5476952, 38.8811893 ], [ 140.5476828, 38.8899042 ], [ 140.5355, 38.9007186 ], [ 140.525996, 38.897452 ], [ 140.5158219, 38.9003556 ], [ 140.505212900000032, 38.8949373 ], [ 140.494322399999987, 38.8989962 ], [ 140.4922937, 38.9022126 ], [ 140.479852199999982, 38.9146767 ], [ 140.461712399999982, 38.9203562 ], [ 140.4583083, 38.9338845 ], [ 140.4495825, 38.945595 ], [ 140.4536927, 38.9585947 ], [ 140.451228, 38.9717678 ], [ 140.4455322, 38.980412 ], [ 140.437736, 38.9820948 ], [ 140.4318586, 38.991902 ], [ 140.4138728, 38.9900446 ], [ 140.3940895, 38.991278 ], [ 140.374578899999989, 38.9957119 ], [ 140.3640337, 39.0094953 ], [ 140.3614301, 39.0243826 ], [ 140.344252399999988, 39.0258249 ], [ 140.32785389999998, 39.0346311 ], [ 140.3107225, 39.0135892 ], [ 140.2943918, 39.018112099999989 ], [ 140.284515699999986, 39.0280868 ], [ 140.262108499999982, 39.0347336 ], [ 140.252876499999985, 39.028225 ], [ 140.2458586, 39.0307689 ], [ 140.2275018, 39.0270596 ], [ 140.221926700000012, 39.0310546 ], [ 140.200601799999987, 39.0357044 ], [ 140.2047658, 39.0534963 ], [ 140.201148599999982, 39.0596771 ], [ 140.1749203, 39.05731 ], [ 140.150803, 39.0491793 ], [ 140.1349634, 39.0427516 ], [ 140.1312624, 39.0337944 ], [ 140.114527899999985, 39.0246717 ], [ 140.1216217, 39.0097139 ], [ 140.1115534, 38.9850051 ], [ 140.1245061, 38.9807175 ], [ 140.130843900000031, 38.9832508 ], [ 140.143991299999982, 38.9763522 ], [ 140.147109699999987, 38.9698191 ], [ 140.1376147, 38.9606336 ], [ 140.143834, 38.9508686 ], [ 140.137581499999982, 38.9436578 ], [ 140.1213852, 38.9413476 ], [ 140.1220486, 38.9247426 ], [ 140.1388519, 38.9111415 ], [ 140.119427299999984, 38.8971071 ], [ 140.120668199999983, 38.8734405 ], [ 140.1140632, 38.8690105 ], [ 140.0925878, 38.8633701 ], [ 140.0877131, 38.8423946 ], [ 140.1128697, 38.835402 ], [ 140.1172067, 38.8208684 ], [ 140.1115867, 38.8174284 ], [ 140.0895304, 38.8190763 ], [ 140.076918399999983, 38.8142663 ], [ 140.0832091, 38.7993727 ], [ 140.0734727, 38.7977324 ], [ 140.0656127, 38.7886772 ], [ 140.0553395, 38.7890427 ], [ 140.038204200000024, 38.7758767 ], [ 140.0321711, 38.777122 ], [ 140.0286725, 38.7702307 ], [ 140.035232, 38.7612723 ], [ 140.0464079, 38.7306917 ], [ 140.0562205, 38.7260616 ], [ 140.0496736, 38.7073262 ], [ 140.042724099999987, 38.6964752 ], [ 140.04108, 38.6824813 ], [ 140.0320419, 38.6791056 ], [ 140.0464833, 38.6577006 ], [ 140.059419, 38.6537436 ], [ 140.0642369, 38.6401256 ], [ 140.081244, 38.6295729 ], [ 140.0916456, 38.6281084 ], [ 140.0976935, 38.6217173 ], [ 140.1110578, 38.6158979 ], [ 140.10641, 38.6075629 ], [ 140.1123704, 38.5831066 ], [ 140.107636499999984, 38.5727222 ], [ 140.097657199999986, 38.5665197 ], [ 140.096509400000031, 38.5568189 ], [ 140.0830379, 38.5558643 ], [ 140.078406199999989, 38.5460921 ], [ 140.067326899999983, 38.5363683 ], [ 140.0432219, 38.5275678 ], [ 140.0357554, 38.532735 ], [ 140.035004, 38.5056834 ], [ 140.0501942, 38.4963507 ], [ 140.074677799999989, 38.5050709 ], [ 140.080304, 38.511245 ], [ 140.0965845, 38.5086566 ], [ 140.1150122, 38.4936469 ], [ 140.1225799, 38.4938207 ], [ 140.1250393, 38.5042263 ], [ 140.151176599999985, 38.51405 ], [ 140.160494, 38.526438 ], [ 140.179214799999983, 38.5353084 ], [ 140.2080669, 38.5330322 ], [ 140.217265, 38.5454624 ] ] ] ] } },
{ "type": "Feature", "properties": { "hokenjo": "山形市" }, "geometry": { "type": "MultiPolygon", "coordinates": [ [ [ [ 140.5216681, 38.3496672 ], [ 140.514936799999987, 38.3519877 ], [ 140.505237199999982, 38.3467687 ], [ 140.4825888, 38.3428466 ], [ 140.4704322, 38.3368827 ], [ 140.4469913, 38.3386759 ], [ 140.440242399999988, 38.3257268 ], [ 140.4181663, 38.3124729 ], [ 140.39351929999998, 38.3127949 ], [ 140.3609492, 38.319260899999989 ], [ 140.349526699999984, 38.3234057 ], [ 140.331778899999989, 38.3251716 ], [ 140.3246671, 38.3375807 ], [ 140.31218149999998, 38.3415227 ], [ 140.3057806, 38.3377569 ], [ 140.3049141, 38.3240239 ], [ 140.2971556, 38.3163837 ], [ 140.2841884, 38.3124157 ], [ 140.288344599999988, 38.3058049 ], [ 140.2851843, 38.2970119 ], [ 140.2760582, 38.2885698 ], [ 140.2765096, 38.2775176 ], [ 140.2517871, 38.2686716 ], [ 140.2364877, 38.2722564 ], [ 140.209239699999983, 38.274139 ], [ 140.213483599999989, 38.2635682 ], [ 140.20706770000001, 38.2524703 ], [ 140.2146228, 38.2483933 ], [ 140.2086836, 38.2337614 ], [ 140.197965, 38.2371364 ], [ 140.180112, 38.2232977 ], [ 140.1855426, 38.222591 ], [ 140.1966361, 38.2242998 ], [ 140.2107813, 38.2106379 ], [ 140.2404951, 38.2105017 ], [ 140.2493955, 38.1944837 ], [ 140.2456374, 38.1887782 ], [ 140.249941, 38.1787138 ], [ 140.260964799999982, 38.1736391 ], [ 140.2817413, 38.1874017 ], [ 140.2857558, 38.1787876 ], [ 140.3048531, 38.1891888 ], [ 140.314463, 38.1844154 ], [ 140.3119749, 38.1740222 ], [ 140.3226431, 38.170378 ], [ 140.346585299999987, 38.1667984 ], [ 140.367099199999984, 38.1583974 ], [ 140.3856921, 38.1636463 ], [ 140.3969959, 38.1528139 ], [ 140.4200617, 38.148007299999989 ], [ 140.435896899999989, 38.150207 ], [ 140.445911699999982, 38.1436049 ], [ 140.452009299999986, 38.1510601 ], [ 140.467658199999988, 38.1569758 ], [ 140.469648299999989, 38.1706415 ], [ 140.4801507, 38.182135 ], [ 140.4773037, 38.2007868 ], [ 140.4709478, 38.2145681 ], [ 140.4742884, 38.2244794 ], [ 140.4693323, 38.2283275 ], [ 140.469207, 38.2429249 ], [ 140.472533200000015, 38.2522304 ], [ 140.47300629999998, 38.2718192 ], [ 140.487879, 38.2745047 ], [ 140.496948300000014, 38.2831435 ], [ 140.4925936, 38.3026876 ], [ 140.500694, 38.3038136 ], [ 140.5043124, 38.314145 ], [ 140.5202835, 38.3095152 ], [ 140.530660899999987, 38.3252042 ], [ 140.5251089, 38.3326847 ], [ 140.5216681, 38.3496672 ] ] ] ] } },
{ "type": "Feature", "properties": { "hokenjo": "庄内" }, "geometry": { "type": "MultiPolygon", "coordinates": [ [ [ [ 140.003068400000018, 38.5413593 ], [ 140.0261992, 38.5468097 ], [ 140.0357554, 38.532735 ], [ 140.0432219, 38.5275678 ], [ 140.067326899999983, 38.5363683 ], [ 140.078406199999989, 38.5460921 ], [ 140.0830379, 38.5558643 ], [ 140.096509400000031, 38.5568189 ], [ 140.097657199999986, 38.5665197 ], [ 140.107636499999984, 38.5727222 ], [ 140.1123704, 38.5831066 ], [ 140.10641, 38.6075629 ], [ 140.1110578, 38.6158979 ], [ 140.0976935, 38.6217173 ], [ 140.0916456, 38.6281084 ], [ 140.081244, 38.6295729 ], [ 140.0642369, 38.6401256 ], [ 140.059419, 38.6537436 ], [ 140.0464833, 38.6577006 ], [ 140.0320419, 38.6791056 ], [ 140.04108, 38.6824813 ], [ 140.042724099999987, 38.6964752 ], [ 140.0496736, 38.7073262 ], [ 140.0562205, 38.7260616 ], [ 140.0464079, 38.7306917 ], [ 140.035232, 38.7612723 ], [ 140.0286725, 38.7702307 ], [ 140.0321711, 38.777122 ], [ 140.038204200000024, 38.7758767 ], [ 140.0553395, 38.7890427 ], [ 140.0656127, 38.7886772 ], [ 140.0734727, 38.7977324 ], [ 140.0832091, 38.7993727 ], [ 140.076918399999983, 38.8142663 ], [ 140.0895304, 38.8190763 ], [ 140.1115867, 38.8174284 ], [ 140.1172067, 38.8208684 ], [ 140.1128697, 38.835402 ], [ 140.0877131, 38.8423946 ], [ 140.0925878, 38.8633701 ], [ 140.1140632, 38.8690105 ], [ 140.120668199999983, 38.8734405 ], [ 140.119427299999984, 38.8971071 ], [ 140.1388519, 38.9111415 ], [ 140.1220486, 38.9247426 ], [ 140.1213852, 38.9413476 ], [ 140.137581499999982, 38.9436578 ], [ 140.143834, 38.9508686 ], [ 140.1376147, 38.9606336 ], [ 140.147109699999987, 38.9698191 ], [ 140.143991299999982, 38.9763522 ], [ 140.130843900000031, 38.9832508 ], [ 140.1245061, 38.9807175 ], [ 140.1115534, 38.9850051 ], [ 140.1216217, 39.0097139 ], [ 140.114527899999985, 39.0246717 ], [ 140.1312624, 39.0337944 ], [ 140.1349634, 39.0427516 ], [ 140.150803, 39.0491793 ], [ 140.143889799999982, 39.061344299999988 ], [ 140.1298391, 39.0629985 ], [ 140.1168628, 39.068231 ], [ 140.11490329999998, 39.0777843 ], [ 140.102723699999984, 39.083101 ], [ 140.0735143, 39.0868725 ], [ 140.0624569, 39.092885 ], [ 140.067144899999988, 39.0997914 ], [ 140.0614554, 39.1133884 ], [ 140.0621275, 39.1333506 ], [ 140.00776639999998, 39.1230403 ], [ 139.9976408, 39.1158392 ], [ 139.9944467, 39.1055156 ], [ 139.9480522, 39.1171667 ], [ 139.9456539, 39.1128309 ], [ 139.9060395, 39.1188283 ], [ 139.8695899, 39.1182582 ], [ 139.8793645, 39.0967115 ], [ 139.8734517, 39.0879182 ], [ 139.867068499999988, 39.0521347 ], [ 139.8402312, 38.9851144 ], [ 139.8327635, 38.973547 ], [ 139.8260104, 38.9748612 ], [ 139.818887, 38.9605247 ], [ 139.8294496, 38.9579736 ], [ 139.810259799999983, 38.9292033 ], [ 139.803615399999984, 38.9023906 ], [ 139.7928722, 38.8708754 ], [ 139.7774018, 38.8323456 ], [ 139.76176719999998, 38.8002404 ], [ 139.7464301, 38.7751856 ], [ 139.7334889, 38.7683175 ], [ 139.707679499999983, 38.7501795 ], [ 139.6966669, 38.7341749 ], [ 139.698775499999982, 38.7311902 ], [ 139.6811822, 38.7175958 ], [ 139.6709127, 38.7187997 ], [ 139.6606165, 38.7043006 ], [ 139.6352488, 38.6846616 ], [ 139.627105, 38.6874597 ], [ 139.6098164, 38.6685712 ], [ 139.5886539, 38.6284269 ], [ 139.570103599999982, 38.5995746 ], [ 139.5639641, 38.5951894 ], [ 139.557549699999981, 38.5754662 ], [ 139.543845299999987, 38.5562265 ], [ 139.5565963, 38.5452437 ], [ 139.595473699999985, 38.526821 ], [ 139.599446, 38.522219 ], [ 139.6138928, 38.5262518 ], [ 139.6313921, 38.5217804 ], [ 139.64052049999998, 38.5108321 ], [ 139.6530636, 38.5069679 ], [ 139.662027, 38.5084562 ], [ 139.6828822, 38.5049589 ], [ 139.692911399999986, 38.5068297 ], [ 139.7016226, 38.5016 ], [ 139.720722, 38.4963455 ], [ 139.72575759999998, 38.4865639 ], [ 139.71203749999998, 38.4717287 ], [ 139.720132899999982, 38.4506921 ], [ 139.7165087, 38.4321319 ], [ 139.7170409, 38.4209886 ], [ 139.7058853, 38.4075785 ], [ 139.70480139999998, 38.3935613 ], [ 139.7123267, 38.3869374 ], [ 139.72206319999998, 38.3940246 ], [ 139.731118899999984, 38.3814473 ], [ 139.732878299999982, 38.3714171 ], [ 139.7522832, 38.3589695 ], [ 139.7616286, 38.3610614 ], [ 139.7707217, 38.3529056 ], [ 139.7839396, 38.3529694 ], [ 139.7896433, 38.3487105 ], [ 139.803572299999985, 38.3550668 ], [ 139.8164913, 38.3560123 ], [ 139.8272356, 38.3450026 ], [ 139.8483783, 38.3427987 ], [ 139.84773, 38.3365798 ], [ 139.865320199999985, 38.3257726 ], [ 139.8748147, 38.3167743 ], [ 139.882922600000029, 38.3262464 ], [ 139.8951333, 38.3309144 ], [ 139.902955599999984, 38.3399202 ], [ 139.9023317, 38.3483296 ], [ 139.917381299999988, 38.3668131 ], [ 139.9099967, 38.379063 ], [ 139.9212738, 38.3934446 ], [ 139.914499, 38.4107879 ], [ 139.9184249, 38.418775 ], [ 139.927039399999984, 38.4202292 ], [ 139.934478399999989, 38.4334944 ], [ 139.9334503, 38.4480643 ], [ 139.9251636, 38.4498546 ], [ 139.931238399999984, 38.4688932 ], [ 139.926201599999985, 38.4795567 ], [ 139.9420221, 38.4897853 ], [ 139.9347737, 38.4943539 ], [ 139.9344251, 38.504375 ], [ 139.947371299999986, 38.5063869 ], [ 139.954311099999984, 38.5153536 ], [ 139.980082, 38.5267196 ], [ 139.9888451, 38.5346101 ], [ 140.003068400000018, 38.5413593 ] ] ], [ [ [ 139.5540599, 39.1934249 ], [ 139.5647725, 39.1986668 ], [ 139.5503918, 39.2085505 ], [ 139.541516299999984, 39.1950133 ], [ 139.5540599, 39.1934249 ] ] ] ] } },
{ "type": "Feature", "properties": { "hokenjo": "村山" }, "geometry": { "type": "MultiPolygon", "coordinates": [ [ [ [ 140.1253008, 38.256913 ], [ 140.1446761, 38.2533816 ], [ 140.153424299999983, 38.2426466 ], [ 140.1697351, 38.2396591 ], [ 140.173156899999981, 38.2226955 ], [ 140.180112, 38.2232977 ], [ 140.197965, 38.2371364 ], [ 140.2086836, 38.2337614 ], [ 140.2146228, 38.2483933 ], [ 140.20706770000001, 38.2524703 ], [ 140.213483599999989, 38.2635682 ], [ 140.209239699999983, 38.274139 ], [ 140.2364877, 38.2722564 ], [ 140.2517871, 38.2686716 ], [ 140.2765096, 38.2775176 ], [ 140.2760582, 38.2885698 ], [ 140.2851843, 38.2970119 ], [ 140.288344599999988, 38.3058049 ], [ 140.2841884, 38.3124157 ], [ 140.2971556, 38.3163837 ], [ 140.3049141, 38.3240239 ], [ 140.3057806, 38.3377569 ], [ 140.31218149999998, 38.3415227 ], [ 140.3246671, 38.3375807 ], [ 140.331778899999989, 38.3251716 ], [ 140.349526699999984, 38.3234057 ], [ 140.3609492, 38.319260899999989 ], [ 140.39351929999998, 38.3127949 ], [ 140.4181663, 38.3124729 ], [ 140.440242399999988, 38.3257268 ], [ 140.4469913, 38.3386759 ], [ 140.4704322, 38.3368827 ], [ 140.4825888, 38.3428466 ], [ 140.505237199999982, 38.3467687 ], [ 140.514936799999987, 38.3519877 ], [ 140.5216681, 38.3496672 ], [ 140.5337422, 38.3620851 ], [ 140.5454035, 38.3640745 ], [ 140.5525778, 38.3765296 ], [ 140.5636844, 38.3774418 ], [ 140.574531, 38.3966811 ], [ 140.5720389, 38.4151596 ], [ 140.5783065, 38.4203504 ], [ 140.5861519, 38.4405289 ], [ 140.5977646, 38.4365288 ], [ 140.6125801, 38.4527017 ], [ 140.606291299999981, 38.4632903 ], [ 140.608156799999989, 38.4688245 ], [ 140.5976513, 38.4873692 ], [ 140.5736886, 38.4949112 ], [ 140.5634612, 38.5106407 ], [ 140.5719557, 38.5256381 ], [ 140.5625244, 38.5266956 ], [ 140.554084499999988, 38.540759 ], [ 140.5647371, 38.5458586 ], [ 140.566631799999982, 38.5595625 ], [ 140.578643299999982, 38.5680713 ], [ 140.5710042, 38.5802569 ], [ 140.569549900000027, 38.5942177 ], [ 140.558445899999981, 38.5976367 ], [ 140.5622831, 38.6049075 ], [ 140.552217899999988, 38.6133439 ], [ 140.53764, 38.6338395 ], [ 140.5465331, 38.6496808 ], [ 140.5491247, 38.6612189 ], [ 140.539398799999987, 38.6854403 ], [ 140.525322099999983, 38.6938048 ], [ 140.5115083, 38.6905293 ], [ 140.505111199999988, 38.6971716 ], [ 140.4912258, 38.6917483 ], [ 140.4714124, 38.697207 ], [ 140.4717646, 38.7034115 ], [ 140.4611348, 38.7132182 ], [ 140.4597206, 38.7213651 ], [ 140.4250769, 38.7042766 ], [ 140.4009819, 38.7032428 ], [ 140.383023399999985, 38.6941721 ], [ 140.3743414, 38.6851324 ], [ 140.356748, 38.6886067 ], [ 140.3253145, 38.6786666 ], [ 140.3127376, 38.67783 ], [ 140.3201492, 38.6638144 ], [ 140.315569, 38.6475523 ], [ 140.2997354, 38.6411554 ], [ 140.3025362, 38.6149796 ], [ 140.2884996, 38.6063028 ], [ 140.2758619, 38.6032365 ], [ 140.26542569999998, 38.5846399 ], [ 140.2463454, 38.569921699999988 ], [ 140.241055599999981, 38.5684959 ], [ 140.235211099999987, 38.5509148 ], [ 140.217265, 38.5454624 ], [ 140.2080669, 38.5330322 ], [ 140.179214799999983, 38.5353084 ], [ 140.160494, 38.526438 ], [ 140.151176599999985, 38.51405 ], [ 140.1250393, 38.5042263 ], [ 140.1225799, 38.4938207 ], [ 140.1150122, 38.4936469 ], [ 140.0965845, 38.5086566 ], [ 140.080304, 38.511245 ], [ 140.074677799999989, 38.5050709 ], [ 140.0501942, 38.4963507 ], [ 140.035004, 38.5056834 ], [ 140.0357554, 38.532735 ], [ 140.0261992, 38.5468097 ], [ 140.003068400000018, 38.5413593 ], [ 139.9888451, 38.5346101 ], [ 139.980082, 38.5267196 ], [ 139.954311099999984, 38.5153536 ], [ 139.947371299999986, 38.5063869 ], [ 139.9344251, 38.504375 ], [ 139.9347737, 38.4943539 ], [ 139.9420221, 38.4897853 ], [ 139.926201599999985, 38.4795567 ], [ 139.931238399999984, 38.4688932 ], [ 139.9251636, 38.4498546 ], [ 139.9334503, 38.4480643 ], [ 139.934478399999989, 38.4334944 ], [ 139.927039399999984, 38.4202292 ], [ 139.9184249, 38.418775 ], [ 139.914499, 38.4107879 ], [ 139.9212738, 38.3934446 ], [ 139.9099967, 38.379063 ], [ 139.917381299999988, 38.3668131 ], [ 139.9023317, 38.3483296 ], [ 139.902955599999984, 38.3399202 ], [ 139.8951333, 38.3309144 ], [ 139.882922600000029, 38.3262464 ], [ 139.8748147, 38.3167743 ], [ 139.879325599999987, 38.3034293 ], [ 139.898888, 38.2931523 ], [ 139.8999047, 38.2758057 ], [ 139.9113495, 38.2725901 ], [ 139.921446, 38.2628804 ], [ 139.9165729, 38.246423 ], [ 139.9319606, 38.2341227 ], [ 139.9441574, 38.2304857 ], [ 139.9452265, 38.220842399999988 ], [ 139.940734, 38.2087752 ], [ 139.9605128, 38.203738 ], [ 139.9578981, 38.1985638 ], [ 139.9775491, 38.1796833 ], [ 139.992761299999984, 38.1878238 ], [ 139.9887215, 38.1982454 ], [ 140.0003725, 38.2249234 ], [ 140.0070131, 38.2283011 ], [ 140.0125348, 38.2429677 ], [ 140.031273699999986, 38.2477222 ], [ 140.0424802, 38.2445511 ], [ 140.0492261, 38.2557293 ], [ 140.0628396, 38.2657598 ], [ 140.071413899999982, 38.2669517 ], [ 140.0864216, 38.2500743 ], [ 140.094931799999983, 38.2458198 ], [ 140.1059047, 38.2513114 ], [ 140.1131773, 38.2476256 ], [ 140.1253008, 38.256913 ] ] ], [ [ [ 140.2404951, 38.2105017 ], [ 140.2107813, 38.2106379 ], [ 140.1966361, 38.2242998 ], [ 140.1855426, 38.222591 ], [ 140.1929149, 38.210366 ], [ 140.1927244, 38.1957211 ], [ 140.2019326, 38.1826916 ], [ 140.1985273, 38.1683156 ], [ 140.206272399999989, 38.1643789 ], [ 140.202238699999981, 38.1514112 ], [ 140.2099666, 38.1427609 ], [ 140.2063408, 38.1372204 ], [ 140.182922700000034, 38.133324 ], [ 140.185326299999986, 38.1246146 ], [ 140.1995346, 38.1136327 ], [ 140.2104812, 38.1105947 ], [ 140.2131301, 38.09868 ], [ 140.2380602, 38.0938653 ], [ 140.2335232, 38.0825012 ], [ 140.247932, 38.0815271 ], [ 140.2614271, 38.0723436 ], [ 140.269178899999986, 38.0592609 ], [ 140.2770904, 38.0561607 ], [ 140.289084699999989, 38.0593387 ], [ 140.3044769, 38.0540169 ], [ 140.314999600000021, 38.0583916 ], [ 140.3445975, 38.0533736 ], [ 140.3556441, 38.0584755 ], [ 140.3749808, 38.0574392 ], [ 140.3823993, 38.0643565 ], [ 140.396552499999984, 38.0693581 ], [ 140.4176742, 38.0803353 ], [ 140.4206648, 38.0852585 ], [ 140.4174059, 38.1029194 ], [ 140.431040599999989, 38.1268571 ], [ 140.4410957, 38.1298037 ], [ 140.445911699999982, 38.1436049 ], [ 140.435896899999989, 38.150207 ], [ 140.4200617, 38.148007299999989 ], [ 140.3969959, 38.1528139 ], [ 140.3856921, 38.1636463 ], [ 140.367099199999984, 38.1583974 ], [ 140.346585299999987, 38.1667984 ], [ 140.3226431, 38.170378 ], [ 140.3119749, 38.1740222 ], [ 140.314463, 38.1844154 ], [ 140.3048531, 38.1891888 ], [ 140.2857558, 38.1787876 ], [ 140.2817413, 38.1874017 ], [ 140.260964799999982, 38.1736391 ], [ 140.249941, 38.1787138 ], [ 140.2456374, 38.1887782 ], [ 140.2493955, 38.1944837 ], [ 140.2404951, 38.2105017 ] ] ] ] } },
{ "type": "Feature", "properties": { "hokenjo": "置賜" }, "geometry": { "type": "MultiPolygon", "coordinates": [ [ [ [ 140.2645676, 37.9120869 ], [ 140.267131299999988, 37.9175833 ], [ 140.272198, 37.9200483 ], [ 140.2793412, 37.9337197 ], [ 140.2713177, 37.9666402 ], [ 140.279676199999983, 37.9782039 ], [ 140.275001400000036, 37.9838683 ], [ 140.27687880000002, 37.9941794 ], [ 140.2895445, 38.0070955 ], [ 140.2765881, 38.0285722 ], [ 140.281876, 38.0441227 ], [ 140.2770904, 38.0561607 ], [ 140.269178899999986, 38.0592609 ], [ 140.2614271, 38.0723436 ], [ 140.247932, 38.0815271 ], [ 140.2335232, 38.0825012 ], [ 140.2380602, 38.0938653 ], [ 140.2131301, 38.09868 ], [ 140.2104812, 38.1105947 ], [ 140.1995346, 38.1136327 ], [ 140.185326299999986, 38.1246146 ], [ 140.182922700000034, 38.133324 ], [ 140.2063408, 38.1372204 ], [ 140.2099666, 38.1427609 ], [ 140.202238699999981, 38.1514112 ], [ 140.206272399999989, 38.1643789 ], [ 140.1985273, 38.1683156 ], [ 140.2019326, 38.1826916 ], [ 140.1927244, 38.1957211 ], [ 140.1929149, 38.210366 ], [ 140.1855426, 38.222591 ], [ 140.180112, 38.2232977 ], [ 140.173156899999981, 38.2226955 ], [ 140.1697351, 38.2396591 ], [ 140.153424299999983, 38.2426466 ], [ 140.1446761, 38.2533816 ], [ 140.1253008, 38.256913 ], [ 140.1131773, 38.2476256 ], [ 140.1059047, 38.2513114 ], [ 140.094931799999983, 38.2458198 ], [ 140.0864216, 38.2500743 ], [ 140.071413899999982, 38.2669517 ], [ 140.0628396, 38.2657598 ], [ 140.0492261, 38.2557293 ], [ 140.0424802, 38.2445511 ], [ 140.031273699999986, 38.2477222 ], [ 140.0125348, 38.2429677 ], [ 140.0070131, 38.2283011 ], [ 140.0003725, 38.2249234 ], [ 139.9887215, 38.1982454 ], [ 139.992761299999984, 38.1878238 ], [ 139.9775491, 38.1796833 ], [ 139.9578981, 38.1985638 ], [ 139.9605128, 38.203738 ], [ 139.940734, 38.2087752 ], [ 139.9452265, 38.220842399999988 ], [ 139.9441574, 38.2304857 ], [ 139.9319606, 38.2341227 ], [ 139.9165729, 38.246423 ], [ 139.921446, 38.2628804 ], [ 139.9113495, 38.2725901 ], [ 139.8999047, 38.2758057 ], [ 139.876598299999984, 38.2617894 ], [ 139.875694899999985, 38.2521278 ], [ 139.868576499999989, 38.2479856 ], [ 139.860185299999983, 38.2310662 ], [ 139.8386248, 38.2235483 ], [ 139.819281, 38.2127928 ], [ 139.8109537, 38.2115158 ], [ 139.8001942, 38.2023809 ], [ 139.781171199999989, 38.1942409 ], [ 139.7637413, 38.1989579 ], [ 139.7582449, 38.193036 ], [ 139.7386519, 38.2021002 ], [ 139.731376600000033, 38.2008332 ], [ 139.7132239, 38.2066444 ], [ 139.698367400000024, 38.1950591 ], [ 139.6963721, 38.1865861 ], [ 139.6824556, 38.1696095 ], [ 139.6905212, 38.1552842 ], [ 139.6883686, 38.1346551 ], [ 139.6921467, 38.113001 ], [ 139.6826705, 38.108074099999989 ], [ 139.6747871, 38.0915769 ], [ 139.672344, 38.0769328 ], [ 139.6864658, 38.0768861 ], [ 139.686550499999981, 38.0659803 ], [ 139.6927255, 38.0570286 ], [ 139.6748323, 38.0405845 ], [ 139.6575594, 38.0373987 ], [ 139.652390699999984, 38.0205646 ], [ 139.6542939, 37.9965074 ], [ 139.6393402, 37.9843669 ], [ 139.6442558, 37.9797758 ], [ 139.63860649999998, 37.9686542 ], [ 139.645246899999989, 37.962627 ], [ 139.640101, 37.952339 ], [ 139.6429963, 37.9468343 ], [ 139.6393856, 37.9347165 ], [ 139.6317861, 37.9303049 ], [ 139.625109899999984, 37.9175377 ], [ 139.6319741, 37.8989672 ], [ 139.62931709999998, 37.8936575 ], [ 139.638457599999981, 37.8800228 ], [ 139.656702199999984, 37.8717403 ], [ 139.657131, 37.8635378 ], [ 139.6790034, 37.8515297 ], [ 139.6959766, 37.8485306 ], [ 139.706168099999985, 37.855928299999988 ], [ 139.7317907, 37.8307966 ], [ 139.7413068, 37.8202928 ], [ 139.7824147, 37.8320405 ], [ 139.804129, 37.806273 ], [ 139.8132963, 37.8039996 ], [ 139.821613899999988, 37.8119938 ], [ 139.8383336, 37.8146982 ], [ 139.8559855, 37.8258829 ], [ 139.863683399999985, 37.8247937 ], [ 139.880071800000024, 37.8101059 ], [ 139.8980795, 37.8101754 ], [ 139.902514600000018, 37.8137012 ], [ 139.925464799999986, 37.8141565 ], [ 139.9325986, 37.8293939 ], [ 139.937264199999987, 37.8281953 ], [ 139.94087810000002, 37.8217389 ], [ 139.957919, 37.8148614 ], [ 139.9621304, 37.8058025 ], [ 139.960145899999986, 37.7956475 ], [ 139.9672598, 37.7838076 ], [ 139.9787579, 37.773752 ], [ 139.9780398, 37.7662409 ], [ 139.9864987, 37.7604081 ], [ 140.0019944, 37.7594001 ], [ 140.010234699999984, 37.7639903 ], [ 140.0374981, 37.76798 ], [ 140.0484821, 37.7790493 ], [ 140.0646041, 37.7677972 ], [ 140.069042699999983, 37.7579025 ], [ 140.086783699999984, 37.7579953 ], [ 140.102283299999982, 37.7376126 ], [ 140.1273711, 37.7339179 ], [ 140.140084, 37.7394273 ], [ 140.1460098, 37.7527202 ], [ 140.1615608, 37.7567163 ], [ 140.178261599999985, 37.7565026 ], [ 140.1995986, 37.7528111 ], [ 140.2043878, 37.7476984 ], [ 140.2355073, 37.745886 ], [ 140.244371199999989, 37.758414 ], [ 140.2549501, 37.7646178 ], [ 140.266175299999986, 37.7791769 ], [ 140.276288, 37.781768 ], [ 140.2822113, 37.7982291 ], [ 140.2988018, 37.8078082 ], [ 140.290584, 37.815104 ], [ 140.268781, 37.824091 ], [ 140.262116, 37.8344163 ], [ 140.2673034, 37.8476799 ], [ 140.2656287, 37.862548 ], [ 140.269932499999982, 37.8742949 ], [ 140.2649394, 37.8862308 ], [ 140.267056699999983, 37.8967233 ], [ 140.2645676, 37.9120869 ] ] ] ] } }
]
}
