{
"type": "FeatureCollection",
"name": "yamanashi",
"crs": { "type": "name", "properties": { "name": "urn:ogc:def:crs:OGC:1.3:CRS84" } },
"features": [
{ "type": "Feature", "properties": { "hokenjo": "峡東" }, "geometry": { "type": "Polygon", "coordinates": [ [ [ 138.7669888, 35.6053429 ], [ 138.779253499999982, 35.6097038 ], [ 138.781495799999988, 35.6156685 ], [ 138.7935319, 35.6174143 ], [ 138.803536899999983, 35.6232988 ], [ 138.814785299999983, 35.6221216 ], [ 138.8199539, 35.6295721 ], [ 138.8298648, 35.629146 ], [ 138.834652299999988, 35.6356963 ], [ 138.850510499999984, 35.6491435 ], [ 138.8504922, 35.6608973 ], [ 138.847, 35.6727123 ], [ 138.852568099999985, 35.6820006 ], [ 138.859924299999989, 35.6887417 ], [ 138.855224599999985, 35.7020098 ], [ 138.8550894, 35.7146478 ], [ 138.8599595, 35.7302959 ], [ 138.8541142, 35.7334226 ], [ 138.8523912, 35.740895 ], [ 138.845462, 35.748902 ], [ 138.828075, 35.7550664 ], [ 138.8195178, 35.765112 ], [ 138.8172303, 35.7766286 ], [ 138.862855699999983, 35.7794297 ], [ 138.8679669, 35.7829144 ], [ 138.86293, 35.804186699999988 ], [ 138.856853299999983, 35.8065978 ], [ 138.860005799999982, 35.8161264 ], [ 138.851245799999987, 35.8237264 ], [ 138.8520455, 35.8281447 ], [ 138.861140299999988, 35.832085 ], [ 138.8653612, 35.8412169 ], [ 138.8624931, 35.8471036 ], [ 138.86266150000003, 35.8587611 ], [ 138.8566284, 35.8646164 ], [ 138.8454487, 35.8673909 ], [ 138.832426699999985, 35.8622504 ], [ 138.8285024, 35.8657378 ], [ 138.8136049, 35.8623678 ], [ 138.8084049, 35.8700195 ], [ 138.7969703, 35.87213 ], [ 138.7891151, 35.8932417 ], [ 138.7771553, 35.9004192 ], [ 138.7656671, 35.8991084 ], [ 138.758290099999982, 35.9024084 ], [ 138.749107, 35.9016075 ], [ 138.7290113, 35.9092206 ], [ 138.7079702, 35.9096364 ], [ 138.6919322, 35.8958498 ], [ 138.6858456, 35.8938656 ], [ 138.6826776, 35.8814611 ], [ 138.675987599999985, 35.8698381 ], [ 138.6609463, 35.87389 ], [ 138.6358402, 35.8524975 ], [ 138.6389749, 35.8455873 ], [ 138.6311038, 35.8151706 ], [ 138.636838499999982, 35.8127928 ], [ 138.6299857, 35.8041189 ], [ 138.613034299999981, 35.7895392 ], [ 138.6166993, 35.7806472 ], [ 138.6056226, 35.7595295 ], [ 138.5945922, 35.7505539 ], [ 138.5936302, 35.7277598 ], [ 138.6123507, 35.7178081 ], [ 138.616880399999985, 35.7115387 ], [ 138.6243244, 35.6988034 ], [ 138.6195988, 35.6924246 ], [ 138.6104188, 35.6906071 ], [ 138.6224239, 35.6703607 ], [ 138.6263456, 35.6686024 ], [ 138.627625599999988, 35.6586505 ], [ 138.632071599999989, 35.6504721 ], [ 138.610320600000023, 35.6410002 ], [ 138.598384399999986, 35.6341272 ], [ 138.5985556, 35.6179294 ], [ 138.6078148, 35.6172144 ], [ 138.6086153, 35.6035139 ], [ 138.589243899999985, 35.5943876 ], [ 138.5891564, 35.5887931 ], [ 138.605017299999986, 35.5776017 ], [ 138.6174207, 35.575105 ], [ 138.6242768, 35.5565361 ], [ 138.616912899999988, 35.548325 ], [ 138.6256391, 35.5443197 ], [ 138.6317716, 35.5348881 ], [ 138.6400366, 35.5335281 ], [ 138.641996, 35.5263347 ], [ 138.6502291, 35.5207456 ], [ 138.6503955, 35.5162061 ], [ 138.676533899999981, 35.5196858 ], [ 138.684292299999981, 35.5278772 ], [ 138.6941118, 35.5336603 ], [ 138.7266856, 35.5430358 ], [ 138.7323117, 35.5467847 ], [ 138.7542432, 35.5537502 ], [ 138.7652521, 35.5591424 ], [ 138.7826555, 35.5585908 ], [ 138.7916319, 35.5607677 ], [ 138.7932539, 35.5699005 ], [ 138.7867489, 35.5748741 ], [ 138.7848865, 35.5855321 ], [ 138.7727612, 35.5865949 ], [ 138.7740351, 35.5932796 ], [ 138.7669888, 35.6053429 ] ] ] } },
{ "type": "Feature", "properties": { "hokenjo": "峡南" }, "geometry": { "type": "Polygon", "coordinates": [ [ [ 138.530701599999986, 35.3761308 ], [ 138.52817109999998, 35.3790469 ], [ 138.5358477, 35.3898803 ], [ 138.5312473, 35.4021219 ], [ 138.531827, 35.4094089 ], [ 138.5457462, 35.416785 ], [ 138.555607, 35.4261295 ], [ 138.5590573, 35.4342128 ], [ 138.57742159999998, 35.4408933 ], [ 138.58188819999998, 35.4457283 ], [ 138.583968199999987, 35.4475089 ], [ 138.582664699999981, 35.4743906 ], [ 138.5958456, 35.4833606 ], [ 138.5945462, 35.4955517 ], [ 138.6024108, 35.5048909 ], [ 138.595817, 35.5121961 ], [ 138.594681399999985, 35.5188075 ], [ 138.588858099999982, 35.5285159 ], [ 138.5901064, 35.5371228 ], [ 138.5966139, 35.545626399999989 ], [ 138.5840464, 35.5515731 ], [ 138.5736895, 35.5502264 ], [ 138.57338249999998, 35.5458486 ], [ 138.5592551, 35.5465478 ], [ 138.5375765, 35.5549861 ], [ 138.5428059, 35.5771125 ], [ 138.5343938, 35.5824533 ], [ 138.5245913, 35.5769497 ], [ 138.49587470000003, 35.5731514 ], [ 138.479031099999986, 35.5637975 ], [ 138.474848899999984, 35.5725264 ], [ 138.4658057, 35.5781311 ], [ 138.450856499999986, 35.5810352 ], [ 138.438181, 35.5780783 ], [ 138.421669700000024, 35.5817896 ], [ 138.4210736, 35.5876616 ], [ 138.408437, 35.5941993 ], [ 138.4016595, 35.5899563 ], [ 138.383146499999981, 35.591169 ], [ 138.3778743, 35.595034 ], [ 138.3692062, 35.5864265 ], [ 138.3486263, 35.5902104 ], [ 138.3388357, 35.5912682 ], [ 138.3357574, 35.6041826 ], [ 138.328158, 35.609769 ], [ 138.3139975, 35.6020037 ], [ 138.308631599999984, 35.6072995 ], [ 138.312915799999985, 35.6139743 ], [ 138.314894399999986, 35.6253673 ], [ 138.3114931, 35.6319309 ], [ 138.3157642, 35.6364593 ], [ 138.3110428, 35.6436093 ], [ 138.2850876, 35.6463201 ], [ 138.277549199999982, 35.6435973 ], [ 138.254682299999985, 35.6455729 ], [ 138.2414446, 35.6503001 ], [ 138.228367599999984, 35.6459565 ], [ 138.2323154, 35.6400973 ], [ 138.228324499999985, 35.6272104 ], [ 138.2360801, 35.6222715 ], [ 138.2356756, 35.6061865 ], [ 138.2406356, 35.6051079 ], [ 138.2435781, 35.5915243 ], [ 138.2394334, 35.5866059 ], [ 138.240460899999988, 35.5763167 ], [ 138.2451539, 35.5693156 ], [ 138.244448899999981, 35.5634617 ], [ 138.252047500000032, 35.5556937 ], [ 138.2594822, 35.5529787 ], [ 138.260075299999983, 35.5428956 ], [ 138.2573483, 35.5308487 ], [ 138.2625916, 35.5271339 ], [ 138.2689763, 35.5141253 ], [ 138.2602488, 35.5058998 ], [ 138.257880799999981, 35.4760175 ], [ 138.2534827, 35.4659617 ], [ 138.2462854, 35.4634781 ], [ 138.2443393, 35.4541234 ], [ 138.248305400000021, 35.4471847 ], [ 138.255334299999987, 35.444577 ], [ 138.2594437, 35.4310834 ], [ 138.2580977, 35.4073942 ], [ 138.246445699999981, 35.3997987 ], [ 138.245937, 35.3910698 ], [ 138.2401175, 35.3881359 ], [ 138.2320171, 35.3712248 ], [ 138.2512557, 35.363529 ], [ 138.2510024, 35.3583526 ], [ 138.2569795, 35.338591 ], [ 138.248737399999982, 35.3316024 ], [ 138.257916599999987, 35.3164713 ], [ 138.269790199999989, 35.3143974 ], [ 138.276407399999982, 35.3074187 ], [ 138.2852672, 35.304274899999989 ], [ 138.2964523, 35.3165081 ], [ 138.3029315, 35.3166334 ], [ 138.324462, 35.3272081 ], [ 138.3356378, 35.3264956 ], [ 138.3433733, 35.3179945 ], [ 138.3499947, 35.3152503 ], [ 138.357615, 35.317757 ], [ 138.370594899999986, 35.3047651 ], [ 138.372478699999988, 35.2994109 ], [ 138.366764499999988, 35.2903204 ], [ 138.367031900000029, 35.2701882 ], [ 138.378214, 35.2539371 ], [ 138.3861523, 35.2462435 ], [ 138.3917969, 35.2248249 ], [ 138.3906733, 35.2199011 ], [ 138.394293299999987, 35.2078133 ], [ 138.399583799999988, 35.2002255 ], [ 138.4075743, 35.2029302 ], [ 138.4190346, 35.1976358 ], [ 138.4309418, 35.1803869 ], [ 138.4568334, 35.1782119 ], [ 138.4611301, 35.1794914 ], [ 138.4842573, 35.174193 ], [ 138.491492199999982, 35.1683844 ], [ 138.5011336, 35.1765233 ], [ 138.5062309, 35.1860689 ], [ 138.512309499999986, 35.1889747 ], [ 138.5173328, 35.1986086 ], [ 138.5284828, 35.1975394 ], [ 138.533192500000013, 35.2008617 ], [ 138.52738, 35.2168036 ], [ 138.532275, 35.2233908 ], [ 138.5269025, 35.2325722 ], [ 138.520665899999983, 35.2554347 ], [ 138.5142428, 35.2622308 ], [ 138.5203214, 35.2708841 ], [ 138.5216556, 35.2834761 ], [ 138.516102, 35.2960839 ], [ 138.512093199999981, 35.3135553 ], [ 138.525399800000031, 35.3218661 ], [ 138.5350862, 35.3305647 ], [ 138.534845599999983, 35.341056099999989 ], [ 138.530628399999983, 35.3455794 ], [ 138.530701599999986, 35.3761308 ] ] ] } },
{ "type": "Feature", "properties": { "hokenjo": "甲府市" }, "geometry": { "type": "Polygon", "coordinates": [ [ [ 138.6609463, 35.87389 ], [ 138.6425233, 35.8747723 ], [ 138.634234099999986, 35.8700531 ], [ 138.6283397, 35.8733267 ], [ 138.6215942, 35.8704475 ], [ 138.620526399999989, 35.8618459 ], [ 138.6091944, 35.8598411 ], [ 138.603812799999986, 35.84845 ], [ 138.594463099999984, 35.8478725 ], [ 138.5902798, 35.8438919 ], [ 138.584740899999986, 35.8309247 ], [ 138.5801956, 35.8277822 ], [ 138.5563343, 35.8279989 ], [ 138.5559965, 35.8120464 ], [ 138.5494109, 35.8070391 ], [ 138.5481701, 35.8004544 ], [ 138.5504092, 35.7919119 ], [ 138.5466965, 35.7883553 ], [ 138.540226099999984, 35.773125 ], [ 138.542665699999986, 35.7603583 ], [ 138.55488459999998, 35.75909 ], [ 138.5537659, 35.7489592 ], [ 138.561378700000034, 35.7469878 ], [ 138.5654739, 35.7402173 ], [ 138.5607177, 35.7329739 ], [ 138.5488704, 35.7260353 ], [ 138.5426276, 35.7132279 ], [ 138.5353331, 35.714044 ], [ 138.5251117, 35.7074198 ], [ 138.5264824, 35.6955296 ], [ 138.5363078, 35.6800429 ], [ 138.5366597, 35.6739193 ], [ 138.530824599999988, 35.6643504 ], [ 138.538758299999984, 35.6469033 ], [ 138.543281399999984, 35.6513183 ], [ 138.5531608, 35.6440761 ], [ 138.5472799, 35.6389158 ], [ 138.5509888, 35.6305294 ], [ 138.547987, 35.6221811 ], [ 138.553678599999984, 35.6169947 ], [ 138.5541397, 35.6087389 ], [ 138.559405699999985, 35.604915 ], [ 138.5626284, 35.5911473 ], [ 138.5599484, 35.5827886 ], [ 138.568806699999982, 35.5789187 ], [ 138.5761272, 35.5719937 ], [ 138.575588399999987, 35.5677667 ], [ 138.584218599999986, 35.5578461 ], [ 138.5840464, 35.5515731 ], [ 138.5966139, 35.545626399999989 ], [ 138.5901064, 35.5371228 ], [ 138.588858099999982, 35.5285159 ], [ 138.594681399999985, 35.5188075 ], [ 138.595817, 35.5121961 ], [ 138.6024108, 35.5048909 ], [ 138.621002, 35.502289 ], [ 138.6366008, 35.5133037 ], [ 138.6503955, 35.5162061 ], [ 138.6502291, 35.5207456 ], [ 138.641996, 35.5263347 ], [ 138.6400366, 35.5335281 ], [ 138.6317716, 35.5348881 ], [ 138.6256391, 35.5443197 ], [ 138.616912899999988, 35.548325 ], [ 138.6242768, 35.5565361 ], [ 138.6174207, 35.575105 ], [ 138.605017299999986, 35.5776017 ], [ 138.5891564, 35.5887931 ], [ 138.589243899999985, 35.5943876 ], [ 138.6086153, 35.6035139 ], [ 138.6078148, 35.6172144 ], [ 138.5985556, 35.6179294 ], [ 138.598384399999986, 35.6341272 ], [ 138.610320600000023, 35.6410002 ], [ 138.632071599999989, 35.6504721 ], [ 138.627625599999988, 35.6586505 ], [ 138.6263456, 35.6686024 ], [ 138.6224239, 35.6703607 ], [ 138.6104188, 35.6906071 ], [ 138.6195988, 35.6924246 ], [ 138.6243244, 35.6988034 ], [ 138.616880399999985, 35.7115387 ], [ 138.6123507, 35.7178081 ], [ 138.5936302, 35.7277598 ], [ 138.5945922, 35.7505539 ], [ 138.6056226, 35.7595295 ], [ 138.6166993, 35.7806472 ], [ 138.613034299999981, 35.7895392 ], [ 138.6299857, 35.8041189 ], [ 138.636838499999982, 35.8127928 ], [ 138.6311038, 35.8151706 ], [ 138.6389749, 35.8455873 ], [ 138.6358402, 35.8524975 ], [ 138.6609463, 35.87389 ] ] ] } },
{ "type": "Feature", "properties": { "hokenjo": "中北" }, "geometry": { "type": "Polygon", "coordinates": [ [ [ 138.5541397, 35.6087389 ], [ 138.553678599999984, 35.6169947 ], [ 138.547987, 35.6221811 ], [ 138.5509888, 35.6305294 ], [ 138.5472799, 35.6389158 ], [ 138.5531608, 35.6440761 ], [ 138.543281399999984, 35.6513183 ], [ 138.538758299999984, 35.6469033 ], [ 138.530824599999988, 35.6643504 ], [ 138.5366597, 35.6739193 ], [ 138.5363078, 35.6800429 ], [ 138.5264824, 35.6955296 ], [ 138.5251117, 35.7074198 ], [ 138.5353331, 35.714044 ], [ 138.5426276, 35.7132279 ], [ 138.5488704, 35.7260353 ], [ 138.5607177, 35.7329739 ], [ 138.5654739, 35.7402173 ], [ 138.561378700000034, 35.7469878 ], [ 138.5537659, 35.7489592 ], [ 138.55488459999998, 35.75909 ], [ 138.542665699999986, 35.7603583 ], [ 138.540226099999984, 35.773125 ], [ 138.5466965, 35.7883553 ], [ 138.5504092, 35.7919119 ], [ 138.5481701, 35.8004544 ], [ 138.5494109, 35.8070391 ], [ 138.5559965, 35.8120464 ], [ 138.5563343, 35.8279989 ], [ 138.5801956, 35.8277822 ], [ 138.584740899999986, 35.8309247 ], [ 138.5902798, 35.8438919 ], [ 138.594463099999984, 35.8478725 ], [ 138.603812799999986, 35.84845 ], [ 138.6091944, 35.8598411 ], [ 138.620526399999989, 35.8618459 ], [ 138.6215942, 35.8704475 ], [ 138.6107561, 35.8736895 ], [ 138.6067606, 35.8784559 ], [ 138.6072298, 35.8996831 ], [ 138.612317099999984, 35.9086689 ], [ 138.60253849999998, 35.9098439 ], [ 138.5924296, 35.9182767 ], [ 138.580981900000012, 35.9170501 ], [ 138.576666599999982, 35.9114439 ], [ 138.564415199999985, 35.9173339 ], [ 138.5538441, 35.9189934 ], [ 138.545358, 35.9147773 ], [ 138.5293719, 35.9145487 ], [ 138.521371, 35.9186942 ], [ 138.505671299999989, 35.9188673 ], [ 138.5027579, 35.9121951 ], [ 138.4946493, 35.9111517 ], [ 138.494712, 35.9020831 ], [ 138.489782599999984, 35.8964512 ], [ 138.4821428, 35.8987734 ], [ 138.4716545, 35.8961904 ], [ 138.4604875, 35.9035243 ], [ 138.4542219, 35.9032062 ], [ 138.444418899999988, 35.9177329 ], [ 138.4475056, 35.9292487 ], [ 138.4543334, 35.9383062 ], [ 138.4505629, 35.9454115 ], [ 138.4431612, 35.9511376 ], [ 138.4241932, 35.9589748 ], [ 138.390686499999987, 35.9663384 ], [ 138.3817721, 35.9712498 ], [ 138.370460399999985, 35.9713806 ], [ 138.3619029, 35.9625956 ], [ 138.360079499999983, 35.9510137 ], [ 138.352164499999986, 35.9479731 ], [ 138.345046699999983, 35.9413331 ], [ 138.3420324, 35.9256693 ], [ 138.331527699999981, 35.9143771 ], [ 138.3243182, 35.9023299 ], [ 138.307678700000025, 35.8874493 ], [ 138.2930558, 35.8670624 ], [ 138.2836408, 35.8593157 ], [ 138.2728411, 35.8649293 ], [ 138.2644405, 35.8759113 ], [ 138.2486036, 35.8859246 ], [ 138.238235, 35.882379 ], [ 138.232598599999989, 35.8761318 ], [ 138.22678879999998, 35.8574037 ], [ 138.2126576, 35.8370151 ], [ 138.2067796, 35.8315354 ], [ 138.2034931, 35.8226321 ], [ 138.2056929, 35.8157343 ], [ 138.187785, 35.7999529 ], [ 138.1851742, 35.7910799 ], [ 138.1914917, 35.7842888 ], [ 138.2053273, 35.7825854 ], [ 138.2246786, 35.7656888 ], [ 138.2321614, 35.7635516 ], [ 138.236701899999986, 35.7577149 ], [ 138.2295581, 35.7530452 ], [ 138.1974744, 35.7270324 ], [ 138.181848299999984, 35.718338 ], [ 138.1808561, 35.7112377 ], [ 138.1911594, 35.7018985 ], [ 138.193983, 35.6954935 ], [ 138.193302099999983, 35.6722646 ], [ 138.2054891, 35.6642643 ], [ 138.2080846, 35.6557888 ], [ 138.219374599999981, 35.6443518 ], [ 138.228367599999984, 35.6459565 ], [ 138.2414446, 35.6503001 ], [ 138.254682299999985, 35.6455729 ], [ 138.277549199999982, 35.6435973 ], [ 138.2850876, 35.6463201 ], [ 138.3110428, 35.6436093 ], [ 138.3157642, 35.6364593 ], [ 138.3114931, 35.6319309 ], [ 138.314894399999986, 35.6253673 ], [ 138.312915799999985, 35.6139743 ], [ 138.308631599999984, 35.6072995 ], [ 138.3139975, 35.6020037 ], [ 138.328158, 35.609769 ], [ 138.3357574, 35.6041826 ], [ 138.3388357, 35.5912682 ], [ 138.3486263, 35.5902104 ], [ 138.3692062, 35.5864265 ], [ 138.3778743, 35.595034 ], [ 138.383146499999981, 35.591169 ], [ 138.4016595, 35.5899563 ], [ 138.408437, 35.5941993 ], [ 138.4210736, 35.5876616 ], [ 138.421669700000024, 35.5817896 ], [ 138.438181, 35.5780783 ], [ 138.450856499999986, 35.5810352 ], [ 138.4658057, 35.5781311 ], [ 138.474848899999984, 35.5725264 ], [ 138.479031099999986, 35.5637975 ], [ 138.49587470000003, 35.5731514 ], [ 138.5245913, 35.5769497 ], [ 138.5343938, 35.5824533 ], [ 138.5428059, 35.5771125 ], [ 138.5375765, 35.5549861 ], [ 138.5592551, 35.5465478 ], [ 138.57338249999998, 35.5458486 ], [ 138.5736895, 35.5502264 ], [ 138.5840464, 35.5515731 ], [ 138.584218599999986, 35.5578461 ], [ 138.575588399999987, 35.5677667 ], [ 138.5761272, 35.5719937 ], [ 138.568806699999982, 35.5789187 ], [ 138.5599484, 35.5827886 ], [ 138.5626284, 35.5911473 ], [ 138.559405699999985, 35.604915 ], [ 138.5541397, 35.6087389 ] ] ] } },
{ "type": "Feature", "properties": { "hokenjo": "富士･東部" }, "geometry": { "type": "Polygon", "coordinates": [ [ [ 138.9373152, 35.4488069 ], [ 138.9592523, 35.4622292 ], [ 138.978769299999982, 35.4637417 ], [ 138.9888216, 35.4736406 ], [ 139.0081414, 35.4745589 ], [ 139.014858299999986, 35.4799109 ], [ 139.0275494, 35.4809678 ], [ 139.030620299999981, 35.488702 ], [ 139.036935, 35.4909486 ], [ 139.043933399999986, 35.4994397 ], [ 139.046019199999989, 35.5096631 ], [ 139.060081199999985, 35.5074994 ], [ 139.0685541, 35.5108907 ], [ 139.08579, 35.5120863 ], [ 139.0943045, 35.5218713 ], [ 139.1041146, 35.526891 ], [ 139.11392189999998, 35.5384874 ], [ 139.1119608, 35.5497936 ], [ 139.1284109, 35.5626477 ], [ 139.127771, 35.5810002 ], [ 139.12143770000003, 35.5869183 ], [ 139.129333300000013, 35.5945963 ], [ 139.1330161, 35.6064816 ], [ 139.1277853, 35.6126449 ], [ 139.1337148, 35.6158107 ], [ 139.1234651, 35.6240596 ], [ 139.1236209, 35.6340799 ], [ 139.126968800000014, 35.6419004 ], [ 139.117263799999989, 35.6548965 ], [ 139.1313414, 35.6719946 ], [ 139.126851099999982, 35.6768629 ], [ 139.1056247, 35.6910159 ], [ 139.092245, 35.6905706 ], [ 139.081660299999982, 35.6955167 ], [ 139.072109399999988, 35.6954084 ], [ 139.038715, 35.7112869 ], [ 139.0225284, 35.7219913 ], [ 139.011881500000015, 35.7388632 ], [ 139.0051554, 35.7504515 ], [ 138.9924316, 35.7555176 ], [ 138.983773, 35.7694754 ], [ 138.986425199999985, 35.7822529 ], [ 138.976875799999988, 35.789029 ], [ 138.970321700000028, 35.8045843 ], [ 138.9692967, 35.8313829 ], [ 138.9621953, 35.8296076 ], [ 138.9473389, 35.8432971 ], [ 138.945184, 35.8544521 ], [ 138.9263761, 35.8489183 ], [ 138.9109461, 35.8527275 ], [ 138.8991613, 35.8467205 ], [ 138.892038499999984, 35.8398453 ], [ 138.885648, 35.8471333 ], [ 138.8797026, 35.8469225 ], [ 138.8694315, 35.8572492 ], [ 138.86266150000003, 35.8587611 ], [ 138.8624931, 35.8471036 ], [ 138.8653612, 35.8412169 ], [ 138.861140299999988, 35.832085 ], [ 138.8520455, 35.8281447 ], [ 138.851245799999987, 35.8237264 ], [ 138.860005799999982, 35.8161264 ], [ 138.856853299999983, 35.8065978 ], [ 138.86293, 35.804186699999988 ], [ 138.8679669, 35.7829144 ], [ 138.862855699999983, 35.7794297 ], [ 138.8172303, 35.7766286 ], [ 138.8195178, 35.765112 ], [ 138.828075, 35.7550664 ], [ 138.845462, 35.748902 ], [ 138.8523912, 35.740895 ], [ 138.8541142, 35.7334226 ], [ 138.8599595, 35.7302959 ], [ 138.8550894, 35.7146478 ], [ 138.855224599999985, 35.7020098 ], [ 138.859924299999989, 35.6887417 ], [ 138.852568099999985, 35.6820006 ], [ 138.847, 35.6727123 ], [ 138.8504922, 35.6608973 ], [ 138.850510499999984, 35.6491435 ], [ 138.834652299999988, 35.6356963 ], [ 138.8298648, 35.629146 ], [ 138.8199539, 35.6295721 ], [ 138.814785299999983, 35.6221216 ], [ 138.803536899999983, 35.6232988 ], [ 138.7935319, 35.6174143 ], [ 138.781495799999988, 35.6156685 ], [ 138.779253499999982, 35.6097038 ], [ 138.7669888, 35.6053429 ], [ 138.7740351, 35.5932796 ], [ 138.7727612, 35.5865949 ], [ 138.7848865, 35.5855321 ], [ 138.7867489, 35.5748741 ], [ 138.7932539, 35.5699005 ], [ 138.7916319, 35.5607677 ], [ 138.7826555, 35.5585908 ], [ 138.7652521, 35.5591424 ], [ 138.7542432, 35.5537502 ], [ 138.7323117, 35.5467847 ], [ 138.7266856, 35.5430358 ], [ 138.6941118, 35.5336603 ], [ 138.684292299999981, 35.5278772 ], [ 138.676533899999981, 35.5196858 ], [ 138.6503955, 35.5162061 ], [ 138.6366008, 35.5133037 ], [ 138.621002, 35.502289 ], [ 138.6024108, 35.5048909 ], [ 138.5945462, 35.4955517 ], [ 138.5958456, 35.4833606 ], [ 138.582664699999981, 35.4743906 ], [ 138.583968199999987, 35.4475089 ], [ 138.58188819999998, 35.4457283 ], [ 138.5885065, 35.4367958 ], [ 138.597718499999985, 35.4318019 ], [ 138.609136, 35.3931764 ], [ 138.638954899999987, 35.3982828 ], [ 138.663385799999986, 35.3982822 ], [ 138.671183, 35.39283 ], [ 138.680535599999985, 35.3576783 ], [ 138.698653399999984, 35.3596533 ], [ 138.7004445, 35.3626739 ], [ 138.724805299999986, 35.365245 ], [ 138.730781399999984, 35.3627986 ], [ 138.79945189999998, 35.376668599999988 ], [ 138.8155724, 35.376435 ], [ 138.821940499999982, 35.3741817 ], [ 138.8339814, 35.3838547 ], [ 138.8508262, 35.39046 ], [ 138.862401799999986, 35.3900797 ], [ 138.87346359999998, 35.3817093 ], [ 138.8792915, 35.3859542 ], [ 138.8879416, 35.3863531 ], [ 138.902867, 35.3963319 ], [ 138.91640289999998, 35.4006136 ], [ 138.9180663, 35.4113392 ], [ 138.9256636, 35.4153108 ], [ 138.9306445, 35.4263292 ], [ 138.927403699999985, 35.4376447 ], [ 138.9373152, 35.4488069 ] ] ] } }
]
}
